<?xml version="1.0" encoding="utf-8" ?>
<kml xmlns="http://www.opengis.net/kml/2.2">
<Document id="root_doc">
<Schema name="task_grid_v6_45.88_60.98" id="task_grid_v6_45.88_60.98">
	<SimpleField name="area_ha" type="float"></SimpleField>
	<SimpleField name="low_risk_ha" type="float"></SimpleField>
	<SimpleField name="moderate_risk_ha" type="float"></SimpleField>
	<SimpleField name="grid_cell_deg" type="string"></SimpleField>
</Schema>
<Folder><name>task_grid_v6_45.88_60.98</name>
  <Placemark id="task_grid_v6_45.88_60.98.1">
	<name>task_grid_v6_45.88_60.98</name>
	<name>448.1</name>
	<description>513.9</description>
	<Style><LineStyle><color>ff0000ff</color></LineStyle><PolyStyle><fill>0</fill></PolyStyle></Style>
	<ExtendedData><SchemaData schemaUrl="#task_grid_v6_45.88_60.98">
		<SimpleData name="area_ha">65.8</SimpleData>
		<SimpleData name="low_risk_ha">0.1</SimpleData>
	</SchemaData></ExtendedData>
      <MultiGeometry><Polygon><outerBoundaryIs><LinearRing><coordinates>60.996280068092,45.8343547580755 60.9898585738972,45.8356390569145 60.9992908843804,45.8369865298406 61.0019226561456,45.8343547580755 60.996280068092,45.8343547580755</coordinates></LinearRing></outerBoundaryIs></Polygon><Polygon><outerBoundaryIs><LinearRing><coordinates>60.9790787904877,45.8383340027668 60.9858161551186,45.8450713673977 60.9878373645079,45.8403552121561 60.9871636280448,45.8437238944715 60.9841692437644,45.8482154708921 60.9831212092663,45.8450713673977 60.9790787904877,45.8464188403239 60.982851714681,45.8501917645172 60.9817737363401,45.8518087320286 60.9831212092663,45.8531562049548 60.9898585738972,45.8491137861763 60.9898585738972,45.8437238944715 60.9925535197495,45.8410289486192 60.9890500901414,45.8375255190111 60.9898585738972,45.8356390569145 60.9885742750582,45.8343547580755 60.9883847527965,45.8343547580755 60.9831212092663,45.8369865298406 60.9804894375011,45.8343547580755 60.9803630893267,45.8343547580755 60.9790787904877,45.8356390569145 60.9790787904877,45.8383340027668</coordinates></LinearRing></outerBoundaryIs></Polygon><Polygon><outerBoundaryIs><LinearRing><coordinates>61.0154605594946,45.839681475693 61.0141130865684,45.8410289486192 61.0208504511993,45.8423764215454 61.0208504511993,45.839681475693 61.0154605594946,45.839681475693</coordinates></LinearRing></outerBoundaryIs></Polygon><Polygon><outerBoundaryIs><LinearRing><coordinates>60.9898585738972,45.854503677881 60.9912060468233,45.8558511508072 60.9979434114542,45.8518087320286 60.9939009926757,45.8477663132501 60.9898585738972,45.854503677881</coordinates></LinearRing></outerBoundaryIs></Polygon><Polygon><outerBoundaryIs><LinearRing><coordinates>61.0073757219375,45.8585460966595 61.0141130865684,45.8518087320286 61.0019858302328,45.8531562049548 60.9952484656019,45.8598935695857 60.9992908843804,45.8639359883642 61.0019858302328,45.8585460966595 61.0073757219375,45.8585460966595</coordinates></LinearRing></outerBoundaryIs></Polygon><Polygon><outerBoundaryIs><LinearRing><coordinates>60.9871636280448,45.8733682988475 60.9871636280448,45.8679784071428 60.9898585738972,45.8652834612904 60.9858161551186,45.8612410425119 60.9817737363401,45.8652834612904 60.9844686821924,45.8706733529951 60.9817737363401,45.8733682988475 60.9831212092663,45.8747157717737 60.9871636280448,45.8733682988475</coordinates></LinearRing></outerBoundaryIs></Polygon><Polygon><outerBoundaryIs><LinearRing><coordinates>61.0060282490113,45.8760632446998 61.0127656136422,45.877410717626 61.0127656136422,45.8747157717737 61.0073757219375,45.8747157717737 61.0060282490113,45.8760632446998</coordinates></LinearRing></outerBoundaryIs></Polygon><Polygon><outerBoundaryIs><LinearRing><coordinates>61.0127656136422,45.8962753385925 61.0263910613787,45.8962753385925 61.0263910613787,45.8935803927402 61.026240342904,45.8935803927402 61.0046807760851,45.8828006093307 60.9992908843804,45.8828006093307 60.996595938528,45.8854955551831 60.9939009926757,45.8801056634784 60.9871636280448,45.8814531364046 60.9939009926757,45.8881905010355 61.0019858302328,45.8881905010355 61.0046807760851,45.8935803927402 61.0100706677898,45.8935803927402 61.0127656136422,45.8962753385925</coordinates></LinearRing></outerBoundaryIs></Polygon></MultiGeometry>
  </Placemark>
</Folder>
</Document></kml>
