<?xml version="1.0" encoding="utf-8" ?>
<kml xmlns="http://www.opengis.net/kml/2.2">
<Document id="root_doc">
<Schema name="task_grid_v6_45.68_59.98" id="task_grid_v6_45.68_59.98">
	<SimpleField name="area_ha" type="float"></SimpleField>
	<SimpleField name="low_risk_ha" type="float"></SimpleField>
	<SimpleField name="moderate_risk_ha" type="float"></SimpleField>
	<SimpleField name="grid_cell_deg" type="string"></SimpleField>
</Schema>
<Folder><name>task_grid_v6_45.68_59.98</name>
  <Placemark id="task_grid_v6_45.68_59.98.1">
	<name>task_grid_v6_45.68_59.98</name>
	<name>4310.7</name>
	<description>5010.8</description>
	<Style><LineStyle><color>ff0000ff</color></LineStyle><PolyStyle><fill>0</fill></PolyStyle></Style>
	<ExtendedData><SchemaData schemaUrl="#task_grid_v6_45.68_59.98">
		<SimpleData name="area_ha">700.1</SimpleData>
		<SimpleData name="low_risk_ha">0.1</SimpleData>
	</SchemaData></ExtendedData>
      <MultiGeometry><Polygon><outerBoundaryIs><LinearRing><coordinates>59.9666157900888,45.6343547580755 59.9644316770747,45.6343547580755 59.9644316770747,45.6367905522369 59.9630842041485,45.6362130638399 59.9634558653014,45.6343547580755 59.9541627265035,45.6343547580755 59.9536518936653,45.6348655909138 59.9536518936653,45.6343547580755 59.9263910613787,45.6343547580755 59.9263910613787,45.6456453743232 59.9267024351417,45.6456453743232 59.9293973809941,45.6483403201755 59.9280499080679,45.6523827389541 59.9307448539202,45.6532810542382 59.9293973809941,45.6537302118803 59.9263910613787,45.6517259988034 59.9263910613787,45.6746477236264 59.9307448539202,45.6685524140682 59.9310817221518,45.6685524140682 59.9263910613787,45.6748066284324 59.9263910613787,45.6792946200561 59.9349945762259,45.676948206916 59.9347872726988,45.6779847245515 59.9263910613787,45.6796639668155 59.9263910613787,45.6916297089625 59.9617367312224,45.6941543996656 59.9644316770747,45.6914594538133 59.9671266229271,45.6941543996656 59.9725165146318,45.6941543996656 59.9779064063365,45.6860695621086 59.9806013521889,45.6914594538133 59.9886861897459,45.6941543996656 59.9994659731554,45.7022392372227 60.0263910613787,45.7046869725157 60.0263910613787,45.67143289311 60.0210255399742,45.6698998869944 60.0075508107125,45.659120103585 60.0048558648601,45.6618150494373 60.0021609190077,45.6564251577326 59.9994659731554,45.659120103585 59.996771027303,45.6510352660279 59.9913811355983,45.6510352660279 59.9886861897459,45.6537302118803 59.9792538792627,45.6389080096923 59.9792538792627,45.6343547580755 59.9699623504405,45.6343547580755 59.9725165146318,45.6348655909138 59.9671266229271,45.6348655909138 59.9666157900888,45.6343547580755</coordinates></LinearRing></outerBoundaryIs><innerBoundaryIs><LinearRing><coordinates>59.9725165146318,45.6393571673344 59.9725165146318,45.6402554826185 59.9713374758214,45.6397501802712 59.9725165146318,45.6393571673344</coordinates></LinearRing></innerBoundaryIs><innerBoundaryIs><LinearRing><coordinates>59.9671266229271,45.6645099952897 59.9617367312224,45.6645099952897 59.9615121524013,45.6633871011846 59.9671266229271,45.6645099952897</coordinates></LinearRing></innerBoundaryIs><innerBoundaryIs><LinearRing><coordinates>59.9671266229271,45.6618150494373 59.9617367312224,45.6618150494373 59.9612875735803,45.6622642070794 59.9603892582962,45.6577726306588 59.9617367312224,45.6564251577326 59.9752114604841,45.6645099952897 59.9792538792627,45.6685524140682 59.9779064063365,45.6698998869944 59.9671266229271,45.6645099952897 59.9671266229271,45.6618150494373</coordinates></LinearRing></innerBoundaryIs><innerBoundaryIs><LinearRing><coordinates>59.940514032635,45.662825654132 59.9415246373297,45.6631625223635 59.9409257604736,45.6640608376476 59.940514032635,45.662825654132</coordinates></LinearRing></innerBoundaryIs><innerBoundaryIs><LinearRing><coordinates>59.9372897224188,45.6627775300989 59.9374822185511,45.6618150494373 59.9388296914773,45.6622642070794 59.9372897224188,45.6627775300989</coordinates></LinearRing></innerBoundaryIs><innerBoundaryIs><LinearRing><coordinates>59.9373785667876,45.6693816281766 59.9361347456249,45.6712473599206 59.9334397997726,45.6685524140682 59.9361347456249,45.6685524140682 59.9366737347954,45.6658574682159 59.9373785667876,45.6693816281766</coordinates></LinearRing></innerBoundaryIs><innerBoundaryIs><LinearRing><coordinates>59.9711690417056,45.6766372516253 59.9711690417056,45.6793321974777 59.9671266229271,45.6833746162562 59.9711690417056,45.6766372516253</coordinates></LinearRing></innerBoundaryIs><innerBoundaryIs><LinearRing><coordinates>59.9630842041485,45.6766372516253 59.9671266229271,45.6833746162562 59.9644316770747,45.6860695621086 59.9617367312224,45.6860695621086 59.9549993665915,45.68202714333 59.9576943124438,45.6793321974777 59.9549993665915,45.6766372516253 59.95904178537,45.6752897786991 59.9617367312224,45.6806796704038 59.9644316770747,45.6698998869944 59.9630842041485,45.6766372516253</coordinates></LinearRing></innerBoundaryIs><innerBoundaryIs><LinearRing><coordinates>60.0150367714134,45.6875667542488 60.0183305941219,45.6882255187905 60.0156356482695,45.6887645079609 60.0150367714134,45.6875667542488</coordinates></LinearRing></innerBoundaryIs><innerBoundaryIs><LinearRing><coordinates>60.0102457565648,45.6887645079609 60.0102457565648,45.6941543996656 60.0075508107125,45.6887645079609 60.0088982836386,45.68202714333 60.0048558648601,45.6779847245515 60.0075508107125,45.6806796704038 60.0129407024172,45.6806796704038 60.0156356482695,45.6833746162562 60.0145576699286,45.686608551279 60.0129407024172,45.6833746162562 60.0088982836386,45.6847220891824 60.0129407024172,45.6914594538133 60.0102457565648,45.6887645079609</coordinates></LinearRing></innerBoundaryIs><innerBoundaryIs><LinearRing><coordinates>60.0169831211957,45.6928069267395 60.0156356482695,45.6941543996656 60.0102457565648,45.6941543996656 60.0169831211957,45.6928069267395</coordinates></LinearRing></innerBoundaryIs><innerBoundaryIs><LinearRing><coordinates>60.0035083919339,45.6901119808871 60.0062033377863,45.6928069267395 60.0048558648601,45.6941543996656 60.0008134460816,45.6901119808871 60.0008134460816,45.6847220891824 60.0048558648601,45.6887645079609 60.0075508107125,45.6887645079609 60.0035083919339,45.6901119808871</coordinates></LinearRing></innerBoundaryIs><innerBoundaryIs><LinearRing><coordinates>59.9994659731554,45.6779847245515 59.9981185002292,45.68202714333 59.9981185002292,45.673942305773 60.0008134460816,45.673942305773 60.0021609190077,45.6806796704038 59.9994659731554,45.6779847245515</coordinates></LinearRing></innerBoundaryIs><innerBoundaryIs><LinearRing><coordinates>60.0223730129004,45.6874170350347 60.0210255399742,45.68768652962 60.0210255399742,45.6833746162562 60.0223730129004,45.6874170350347</coordinates></LinearRing></innerBoundaryIs><innerBoundaryIs><LinearRing><coordinates>59.9428721102558,45.6806796704038 59.944219583182,45.6847220891824 59.9374822185511,45.6860695621086 59.9334397997726,45.68202714333 59.9428721102558,45.6806796704038</coordinates></LinearRing></innerBoundaryIs><innerBoundaryIs><LinearRing><coordinates>59.9832962980412,45.6725948328468 59.9832962980412,45.6698998869944 59.9954235543768,45.6712473599206 59.9886861897459,45.6752897786991 59.9832962980412,45.6725948328468</coordinates></LinearRing></innerBoundaryIs><innerBoundaryIs><LinearRing><coordinates>59.9832962980412,45.6779847245515 59.9846437709674,45.68202714333 59.9792538792627,45.68202714333 59.9832962980412,45.6779847245515</coordinates></LinearRing></innerBoundaryIs><innerBoundaryIs><LinearRing><coordinates>59.9563468395176,45.6645099952897 59.9603892582962,45.6685524140682 59.95904178537,45.6698998869944 59.9523044207391,45.6658574682159 59.9563468395176,45.6645099952897</coordinates></LinearRing></innerBoundaryIs><innerBoundaryIs><LinearRing><coordinates>59.9684740958533,45.6874170350347 59.9698215687794,45.6860695621086 59.9711690417056,45.6901119808871 59.9698215687794,45.6914594538133 59.9684740958533,45.6874170350347</coordinates></LinearRing></innerBoundaryIs><innerBoundaryIs><LinearRing><coordinates>60.0129407024172,45.6725948328468 60.0129407024172,45.6752897786991 60.0102457565648,45.6752897786991 60.0088982836386,45.673942305773 60.0129407024172,45.6725948328468</coordinates></LinearRing></innerBoundaryIs><innerBoundaryIs><LinearRing><coordinates>59.9374822185511,45.659120103585 59.9361347456249,45.6577726306588 59.9401771644035,45.6564251577326 59.9415246373297,45.6577726306588 59.9374822185511,45.659120103585</coordinates></LinearRing></innerBoundaryIs><innerBoundaryIs><LinearRing><coordinates>59.9509569478129,45.6510352660279 59.9549993665915,45.6550776848064 59.9496094748867,45.6523827389541 59.9509569478129,45.6510352660279</coordinates></LinearRing></innerBoundaryIs><innerBoundaryIs><LinearRing><coordinates>60.0129407024172,45.6995442913704 60.011593229491,45.6981968184442 60.0142881753433,45.6981968184442 60.0129407024172,45.6995442913704</coordinates></LinearRing></innerBoundaryIs><innerBoundaryIs><LinearRing><coordinates>59.9509569478129,45.6806796704038 59.9523044207391,45.68202714333 59.9496094748867,45.68202714333 59.9509569478129,45.6806796704038</coordinates></LinearRing></innerBoundaryIs><innerBoundaryIs><LinearRing><coordinates>59.9307448539202,45.6631625223635 59.9293973809941,45.6645099952897 59.9293973809941,45.6618150494373 59.9307448539202,45.6631625223635</coordinates></LinearRing></innerBoundaryIs><innerBoundaryIs><LinearRing><coordinates>59.9455670561082,45.6618150494373 59.944219583182,45.6604675765112 59.9469145290344,45.6604675765112 59.9455670561082,45.6618150494373</coordinates></LinearRing></innerBoundaryIs><innerBoundaryIs><LinearRing><coordinates>59.9428721102558,45.6483403201755 59.944219583182,45.6496877931017 59.9415246373297,45.6496877931017 59.9428721102558,45.6483403201755</coordinates></LinearRing></innerBoundaryIs><innerBoundaryIs><LinearRing><coordinates>59.9792538792627,45.6496877931017 59.9779064063365,45.6510352660279 59.9779064063365,45.6483403201755 59.9792538792627,45.6496877931017</coordinates></LinearRing></innerBoundaryIs><innerBoundaryIs><LinearRing><coordinates>59.9388296914773,45.644297901397 59.9401771644035,45.6429504284708 59.9401771644035,45.6456453743232 59.9388296914773,45.644297901397</coordinates></LinearRing></innerBoundaryIs></Polygon><Polygon><outerBoundaryIs><LinearRing><coordinates>59.9263910613787,45.7022392372227 59.9263910613787,45.7049341830751 59.9263910613787,45.7055354469981 59.9263910613787,45.7097228108567 59.9293973809941,45.7103240747798 59.9293973809941,45.7049341830751 59.9293973809941,45.7022392372227 59.9263910613787,45.7022392372227</coordinates></LinearRing></outerBoundaryIs></Polygon><Polygon><outerBoundaryIs><LinearRing><coordinates>59.9455670561082,45.7130190206322 59.9509569478129,45.7130190206322 59.9536518936653,45.7103240747798 59.9563468395176,45.7157139664845 59.95904178537,45.7130190206322 59.9679192540601,45.7117508108193 59.9698215687794,45.7130190206322 59.9725165146318,45.7103240747798 59.9806013521889,45.7157139664845 59.9859912438936,45.7157139664845 59.9846437709674,45.7170614394107 59.9913811355983,45.7184089123369 59.9913811355983,45.7157139664845 59.9985676578712,45.719307227621 59.9940760814507,45.7184089123369 59.9927286085245,45.719756385263 59.996771027303,45.7237988040416 60.0003642884395,45.7202055429051 60.0021609190077,45.7211038581892 60.0048558648601,45.7184089123369 60.0142881753433,45.7170614394107 60.0075508107125,45.7130190206322 59.9994659731554,45.7130190206322 59.996771027303,45.7103240747798 59.9886861897459,45.7103240747798 59.9859912438936,45.7076291289274 59.9698215687794,45.7076291289274 59.9644316770747,45.6995442913704 59.9536518936653,45.6995442913704 59.9509569478129,45.696849345518 59.9388296914773,45.6981968184442 59.9428721102558,45.7022392372227 59.9482620019606,45.7022392372227 59.9509569478129,45.7049341830751 59.9563468395176,45.7022392372227 59.9576943124438,45.7035867101489 59.9549993665915,45.7062816560013 59.95904178537,45.7103240747798 59.9563468395176,45.7076291289274 59.9428721102558,45.7076291289274 59.9401771644035,45.7049341830751 59.9388296914773,45.7062816560013 59.9320923268464,45.7049341830751 59.9307448539202,45.7089766018536 59.9347872726988,45.7103240747798 59.9361347456249,45.7089766018536 59.9374822185511,45.7103240747798 59.9428721102558,45.7103240747798 59.9455670561082,45.7130190206322</coordinates></LinearRing></outerBoundaryIs></Polygon><Polygon><outerBoundaryIs><LinearRing><coordinates>59.9267024351417,45.7157139664845 59.9263910613787,45.7158177577388 59.9263910613787,45.7203093341594 59.9280499080679,45.719756385263 59.9267024351417,45.7157139664845</coordinates></LinearRing></outerBoundaryIs></Polygon><Polygon><outerBoundaryIs><LinearRing><coordinates>59.9347872726988,45.7211038581892 59.9334397997726,45.7251462769678 59.9374822185511,45.7264937498939 59.9401771644035,45.7237988040416 59.9455670561082,45.7264937498939 59.9455670561082,45.7211038581892 59.9347872726988,45.7211038581892</coordinates></LinearRing></outerBoundaryIs></Polygon><Polygon><outerBoundaryIs><LinearRing><coordinates>59.9388296914773,45.7305361686725 59.9401771644035,45.7318836415987 59.9455670561082,45.7291886957463 59.9455670561082,45.7264937498939 59.9401771644035,45.7264937498939 59.9388296914773,45.7305361686725</coordinates></LinearRing></outerBoundaryIs></Polygon><Polygon><outerBoundaryIs><LinearRing><coordinates>59.9309641866227,45.7343547580755 59.9388296914773,45.7332311145248 59.9347872726988,45.7318836415987 59.9320923268464,45.7264937498939 59.9263910613787,45.7299145091746 59.9263910613787,45.7343547580755 59.9309641866227,45.7343547580755</coordinates></LinearRing></outerBoundaryIs></Polygon><Polygon><outerBoundaryIs><LinearRing><coordinates>59.9549993665915,45.7332311145248 59.957621201543,45.7343547580755 59.9644316770747,45.7343547580755 59.9644316770747,45.7318836415987 59.9563468395176,45.7318836415987 59.9549993665915,45.7332311145248</coordinates></LinearRing></outerBoundaryIs></Polygon><Polygon><outerBoundaryIs><LinearRing><coordinates>59.9886861897459,45.6375605367661 59.9900336626721,45.6362130638399 59.9881753569077,45.6343547580755 59.9833432252616,45.6343547580755 59.9886861897459,45.6375605367661</coordinates></LinearRing></outerBoundaryIs></Polygon><Polygon><outerBoundaryIs><LinearRing><coordinates>60.0048558648601,45.6375605367661 60.0099088883333,45.6358761956084 60.0088982836386,45.6389080096923 60.0129407024172,45.6429504284708 60.0183305941219,45.6429504284708 60.0210255399742,45.6483403201755 60.0263910613787,45.6510230808778 60.0263910613787,45.6375361664658 60.0263910613787,45.6343547580755 60.0032529755148,45.6343547580755 60.0048558648601,45.6375605367661</coordinates></LinearRing></outerBoundaryIs><innerBoundaryIs><LinearRing><coordinates>60.0113237349058,45.6354045800842 60.0129407024172,45.6348655909138 60.0156356482695,45.6375605367661 60.0113237349058,45.6354045800842</coordinates></LinearRing></innerBoundaryIs></Polygon><Polygon><outerBoundaryIs><LinearRing><coordinates>59.9846437709674,45.6362130638399 59.982785465203,45.6343547580755 59.9794212072803,45.6343547580755 59.9806013521889,45.6402554826185 59.9846437709674,45.6362130638399</coordinates></LinearRing></outerBoundaryIs></Polygon><Polygon><outerBoundaryIs><LinearRing><coordinates>60.0102457565648,45.7076291289274 60.0102457565648,45.7049341830751 60.0048558648601,45.7049341830751 60.0035083919339,45.7062816560013 60.0102457565648,45.7076291289274</coordinates></LinearRing></outerBoundaryIs></Polygon><Polygon><outerBoundaryIs><LinearRing><coordinates>60.0263910613787,45.7086924850882 60.0263910613787,45.7049341830751 60.0237204858266,45.7049341830751 60.0223730129004,45.7062816560013 60.0263910613787,45.7086924850882</coordinates></LinearRing></outerBoundaryIs></Polygon><Polygon><outerBoundaryIs><LinearRing><coordinates>60.0250679587528,45.7224513311154 60.0223730129004,45.7251462769678 60.0263910613787,45.7257202838932 60.0263910613787,45.7184137863969 60.0196780670481,45.719756385263 60.0250679587528,45.7224513311154</coordinates></LinearRing></outerBoundaryIs></Polygon><Polygon><outerBoundaryIs><LinearRing><coordinates>60.011593229491,45.7251462769678 60.0048558648601,45.7211038581892 60.0008134460816,45.7224513311154 60.0048558648601,45.7264937498939 60.011593229491,45.7251462769678</coordinates></LinearRing></outerBoundaryIs></Polygon></MultiGeometry>
  </Placemark>
</Folder>
</Document></kml>
