<?xml version="1.0" encoding="utf-8" ?>
<kml xmlns="http://www.opengis.net/kml/2.2">
<Document id="root_doc">
<Schema name="task_grid_v6_46.38_61.78" id="task_grid_v6_46.38_61.78">
	<SimpleField name="area_ha" type="float"></SimpleField>
	<SimpleField name="low_risk_ha" type="float"></SimpleField>
	<SimpleField name="moderate_risk_ha" type="float"></SimpleField>
	<SimpleField name="grid_cell_deg" type="string"></SimpleField>
</Schema>
<Folder><name>task_grid_v6_46.38_61.78</name>
  <Placemark id="task_grid_v6_46.38_61.78.1">
	<name>task_grid_v6_46.38_61.78</name>
	<name>12.4</name>
	<description>24.4</description>
	<Style><LineStyle><color>ff0000ff</color></LineStyle><PolyStyle><fill>0</fill></PolyStyle></Style>
	<ExtendedData><SchemaData schemaUrl="#task_grid_v6_46.38_61.78">
		<SimpleData name="area_ha">12</SimpleData>
		<SimpleData name="low_risk_ha">0.1</SimpleData>
	</SchemaData></ExtendedData>
      <MultiGeometry><Polygon><outerBoundaryIs><LinearRing><coordinates>61.8225968422759,46.350373714715 61.8185544234974,46.3463312959364 61.8172069505712,46.350373714715 61.8212493693498,46.3517211876411 61.8225968422759,46.350373714715</coordinates></LinearRing></outerBoundaryIs></Polygon><Polygon><outerBoundaryIs><LinearRing><coordinates>61.765565257439,46.4343547580755 61.7660029793764,46.4339170361381 61.7646555064502,46.4244847256548 61.7633080335241,46.425832198581 61.7645255420233,46.4343547580755 61.765565257439,46.4343547580755</coordinates></LinearRing></outerBoundaryIs></Polygon></MultiGeometry>
  </Placemark>
</Folder>
</Document></kml>
