<?xml version="1.0" encoding="utf-8" ?>
<kml xmlns="http://www.opengis.net/kml/2.2">
<Document id="root_doc">
<Schema name="task_grid_v6_45.88_60.48" id="task_grid_v6_45.88_60.48">
	<SimpleField name="area_ha" type="float"></SimpleField>
	<SimpleField name="low_risk_ha" type="float"></SimpleField>
	<SimpleField name="moderate_risk_ha" type="float"></SimpleField>
	<SimpleField name="grid_cell_deg" type="string"></SimpleField>
</Schema>
<Folder><name>task_grid_v6_45.88_60.48</name>
  <Placemark id="task_grid_v6_45.88_60.48.1">
	<name>task_grid_v6_45.88_60.48</name>
	<name>0</name>
	<description>111.5</description>
	<Style><LineStyle><color>ff0000ff</color></LineStyle><PolyStyle><fill>0</fill></PolyStyle></Style>
	<ExtendedData><SchemaData schemaUrl="#task_grid_v6_45.88_60.48">
		<SimpleData name="area_ha">111.5</SimpleData>
		<SimpleData name="low_risk_ha">0.1</SimpleData>
	</SchemaData></ExtendedData>
      <MultiGeometry><Polygon><outerBoundaryIs><LinearRing><coordinates>60.4279623636804,45.8477663132501 60.4263910613787,45.8477663132501 60.4263910613787,45.8501469986421 60.4279623636804,45.8504612591024 60.4279623636804,45.8477663132501</coordinates></LinearRing></outerBoundaryIs></Polygon><Polygon><outerBoundaryIs><LinearRing><coordinates>60.4791663348752,45.877410717626 60.4751239160967,45.8787581905522 60.4818612807276,45.8854955551831 60.4832087536537,45.8814531364046 60.4791663348752,45.877410717626</coordinates></LinearRing></outerBoundaryIs></Polygon><Polygon><outerBoundaryIs><LinearRing><coordinates>60.4360472012375,45.8962753385925 60.4387421470898,45.8989702844449 60.4427845658684,45.8949278656664 60.4333522553851,45.8881905010355 60.4279623636804,45.8908854468878 60.4263910613787,45.88983791202 60.4263910613787,45.8939732183156 60.4279623636804,45.8935803927402 60.4333522553851,45.8989702844449 60.4360472012375,45.8962753385925</coordinates></LinearRing></outerBoundaryIs></Polygon></MultiGeometry>
  </Placemark>
</Folder>
</Document></kml>
