<?xml version="1.0" encoding="utf-8" ?>
<kml xmlns="http://www.opengis.net/kml/2.2">
<Document id="root_doc">
<Schema name="task_grid_v6_45.01_60.36" id="task_grid_v6_45.01_60.36">
	<SimpleField name="area_ha" type="float"></SimpleField>
	<SimpleField name="low_risk_ha" type="float"></SimpleField>
	<SimpleField name="moderate_risk_ha" type="float"></SimpleField>
	<SimpleField name="grid_cell_deg" type="string"></SimpleField>
</Schema>
<Folder><name>task_grid_v6_45.01_60.36</name>
  <Placemark id="task_grid_v6_45.01_60.36.1">
	<name>task_grid_v6_45.01_60.36</name>
	<name>993</name>
	<description>2374.2</description>
	<Style><LineStyle><color>ff0000ff</color></LineStyle><PolyStyle><fill>0</fill></PolyStyle></Style>
	<ExtendedData><SchemaData schemaUrl="#task_grid_v6_45.01_60.36">
		<SimpleData name="area_ha">1381.2</SimpleData>
		<SimpleData name="low_risk_ha">0.1</SimpleData>
	</SchemaData></ExtendedData>
      <MultiGeometry><Polygon><outerBoundaryIs><LinearRing><coordinates>60.3559163343235,44.9625641451378 60.353763808353,44.9625641451378 60.3511564068882,44.9651715466026 60.3551988256667,44.9719089112335 60.3525038798143,44.9692139653812 60.3484614610358,44.9759513300121 60.3632836632238,44.9772988029383 60.3673260820023,44.9894260592739 60.3632836632238,44.9961634239048 60.3632836632238,44.9880785863477 60.3605887173714,44.9853836404953 60.3525038798143,44.9853836404953 60.3511564068882,44.9894260592739 60.3538513527405,44.9921210051262 60.3538513527405,44.997510896831 60.3403766234787,45.0082906802404 60.3417240964049,45.0096381531666 60.3471139881096,45.0069432073142 60.349808933962,45.0096381531666 60.3551988256667,45.0096381531666 60.3605887173714,45.0069432073142 60.3659786090761,45.0096381531666 60.3686735549285,45.0042482614619 60.3740634466332,45.0015533156095 60.3749617619173,45.0021521924656 60.372715973707,45.0029007885357 60.3767583924856,45.0123330990189 60.3821482841903,45.0150280448713 60.387538175895,45.0123330990189 60.3902331217474,45.0150280448713 60.3942755405259,45.0109856260927 60.3848432300426,45.0096381531666 60.3821482841903,45.0069432073142 60.3821482841903,45.0069432073142 60.3929280675997,45.0069432073142 60.3956230134521,45.0042482614619 60.4037078510092,45.0042482614619 60.4102213862645,45.0003401403086 60.4102213862645,44.9995343545568 60.4090977427139,44.9961634239048 60.4037078510092,44.9988583697571 60.4010129051568,44.9961634239048 60.3983179593044,44.9988583697571 60.3956230134521,44.9934684780524 60.3929280675997,44.9961634239048 60.3942755405259,44.9867311134215 60.3861907029688,44.9786462758644 60.3969704863783,44.9759513300121 60.3929280675997,44.9665190195288 60.3848432300426,44.9719089112335 60.3794533383379,44.9719089112335 60.3754109195594,44.9759513300121 60.3740634466332,44.9746038570859 60.3686735549285,44.9746038570859 60.3659786090761,44.9719089112335 60.3632836632238,44.9746038570859 60.3578937715191,44.9746038570859 60.3551988256667,44.9719089112335 60.3619361902976,44.967866492455 60.3578937715191,44.9665190195288 60.3559163343235,44.9625641451378</coordinates></LinearRing></outerBoundaryIs><innerBoundaryIs><LinearRing><coordinates>60.387538175895,44.9934684780524 60.3848432300426,44.9961634239048 60.3834957571165,44.9921210051262 60.3888856488212,44.9894260592739 60.3781058654118,44.9867311134215 60.3781058654118,44.9822395370009 60.3794533383379,44.9853836404953 60.3915805946735,44.9894260592739 60.3861907029688,44.9921210051262 60.3929280675997,44.9961634239048 60.387538175895,44.9934684780524</coordinates></LinearRing></innerBoundaryIs><innerBoundaryIs><LinearRing><coordinates>60.3686735549285,44.9799937487906 60.3754109195594,44.9813412217168 60.3673260820023,44.9813412217168 60.3686735549285,44.9799937487906</coordinates></LinearRing></innerBoundaryIs><innerBoundaryIs><LinearRing><coordinates>60.3834957571165,45.0002058426833 60.3861907029688,45.0002058426833 60.3848432300426,45.0015533156095 60.3834957571165,45.0002058426833</coordinates></LinearRing></innerBoundaryIs></Polygon><Polygon><outerBoundaryIs><LinearRing><coordinates>60.3188170566599,44.9921210051262 60.320164529586,44.9934684780524 60.3228594754384,44.9907735322001 60.3282493671431,44.9934684780524 60.3363342047002,44.982688694643 60.3444190422573,44.9880785863477 60.3471139881096,44.9853836404953 60.349808933962,44.9880785863477 60.3565462985929,44.9786462758644 60.3417240964049,44.9772988029383 60.3390291505526,44.9746038570859 60.3336392588478,44.9746038570859 60.3282493671431,44.9799937487906 60.3174695837337,44.9746038570859 60.3161221108075,44.9867311134215 60.3188170566599,44.9921210051262</coordinates></LinearRing></outerBoundaryIs></Polygon><Polygon><outerBoundaryIs><LinearRing><coordinates>60.3161221108075,44.997510896831 60.320164529586,45.0015533156095 60.3215120025122,45.0002058426833 60.320164529586,44.9961634239048 60.3161221108075,44.997510896831</coordinates></LinearRing></outerBoundaryIs></Polygon><Polygon><outerBoundaryIs><LinearRing><coordinates>60.3605887173714,45.0285027741331 60.3619361902976,45.0244603553545 60.3578937715191,45.020417936576 60.3538513527405,45.0217654095022 60.3605887173714,45.0285027741331</coordinates></LinearRing></outerBoundaryIs></Polygon><Polygon><outerBoundaryIs><LinearRing><coordinates>60.3242069483646,45.0217654095022 60.3269018942169,45.0244603553545 60.3174695837337,45.0311977199854 60.3102213862645,45.0287816541624 60.3102213862645,45.0388642374986 60.3147746378813,45.0365876116902 60.3228594754384,45.0473673950996 60.3295968400693,45.0433249763211 60.3242069483646,45.0406300304687 60.3269018942169,45.0379350846163 60.3215120025122,45.0325451929116 60.3228594754384,45.0311977199854 60.3471139881096,45.0338926658378 60.3538513527405,45.0271553012069 60.3525038798143,45.0231128824284 60.3484614610358,45.0217654095022 60.3592412444452,45.0136805719451 60.349808933962,45.0123330990189 60.349808933962,45.0177229907236 60.3363342047002,45.0177229907236 60.3309443129955,45.0231128824284 60.3255544212908,45.020417936576 60.3242069483646,45.0217654095022</coordinates></LinearRing></outerBoundaryIs><innerBoundaryIs><LinearRing><coordinates>60.334986731774,45.0271553012069 60.3363342047002,45.0258078282807 60.3417240964049,45.0258078282807 60.3417240964049,45.0311977199854 60.334986731774,45.0271553012069</coordinates></LinearRing></innerBoundaryIs></Polygon><Polygon><outerBoundaryIs><LinearRing><coordinates>60.3161221108075,45.0487148680258 60.3161221108075,45.0433249763211 60.3102213862645,45.0421448314125 60.3102213862645,45.058147178509 60.312079692029,45.058147178509 60.3161221108075,45.0541047597305 60.3134271649552,45.0514098138781 60.3161221108075,45.0487148680258</coordinates></LinearRing></outerBoundaryIs></Polygon><Polygon><outerBoundaryIs><LinearRing><coordinates>60.3942755405259,44.9840361675692 60.4010129051568,44.9853836404953 60.4050553239353,44.9813412217168 60.3983179593044,44.9799937487906 60.3942755405259,44.9840361675692</coordinates></LinearRing></outerBoundaryIs></Polygon><Polygon><outerBoundaryIs><LinearRing><coordinates>60.3686735549285,45.0150280448713 60.3754109195594,45.0109856260927 60.3740634466332,45.0069432073142 60.3673260820023,45.0109856260927 60.3686735549285,45.0150280448713</coordinates></LinearRing></outerBoundaryIs></Polygon></MultiGeometry>
  </Placemark>
</Folder>
</Document></kml>
