<?xml version="1.0" encoding="utf-8" ?>
<kml xmlns="http://www.opengis.net/kml/2.2">
<Document id="root_doc">
<Schema name="task_grid_v6_45.58_60.28" id="task_grid_v6_45.58_60.28">
	<SimpleField name="area_ha" type="float"></SimpleField>
	<SimpleField name="low_risk_ha" type="float"></SimpleField>
	<SimpleField name="moderate_risk_ha" type="float"></SimpleField>
	<SimpleField name="grid_cell_deg" type="string"></SimpleField>
</Schema>
<Folder><name>task_grid_v6_45.58_60.28</name>
  <Placemark id="task_grid_v6_45.58_60.28.1">
	<name>task_grid_v6_45.58_60.28</name>
	<name>678</name>
	<description>3330</description>
	<Style><LineStyle><color>ff0000ff</color></LineStyle><PolyStyle><fill>0</fill></PolyStyle></Style>
	<ExtendedData><SchemaData schemaUrl="#task_grid_v6_45.58_60.28">
		<SimpleData name="area_ha">2652</SimpleData>
		<SimpleData name="low_risk_ha">0.1</SimpleData>
	</SchemaData></ExtendedData>
      <MultiGeometry><Polygon><outerBoundaryIs><LinearRing><coordinates>60.229883843532,45.5823141467928 60.2263910613787,45.5805677557161 60.2263910613787,45.5858069289461 60.229883843532,45.5823141467928</coordinates></LinearRing></outerBoundaryIs></Polygon><Polygon><outerBoundaryIs><LinearRing><coordinates>60.2541383562033,45.5850090926451 60.2608757208342,45.5890515114237 60.2649181396127,45.5850090926451 60.2554858291294,45.5836616197189 60.2541383562033,45.5850090926451</coordinates></LinearRing></outerBoundaryIs></Polygon><Polygon><outerBoundaryIs><LinearRing><coordinates>60.2500959374247,45.6321706450614 60.2581807749818,45.6321706450614 60.2603648879959,45.6343547580755 60.2810878147268,45.6343547580755 60.3105766894659,45.6343547580755 60.3188170566599,45.6308231721352 60.3188170566599,45.6254332804305 60.3243294459033,45.6177159354896 60.3255544212908,45.621390861652 60.3263910613787,45.620972541608 60.3263910613787,45.6169116202706 60.3246561060066,45.617258611345 60.3255544212908,45.6160009699472 60.3263910613787,45.6158336419297 60.3263910613787,45.6138105363721 60.3228594754384,45.6133060240949 60.3263910613787,45.6133060240949 60.3263910613787,45.5968266313533 60.312079692029,45.5944414031284 60.3093847461766,45.591746457276 60.3066898003242,45.5998312948331 60.2999524356934,45.6011787677593 60.3053423273981,45.606568659464 60.3039948544719,45.6079161323902 60.297257489841,45.6038737136116 60.3012999086195,45.6052211865378 60.3026473815457,45.6038737136116 60.2990541204092,45.6002804524752 60.2999524356934,45.5984838219069 60.2959100169148,45.5944414031284 60.2905201252101,45.5944414031284 60.2810878147268,45.5877040384975 60.2837827605792,45.5850090926451 60.282435287653,45.5809666738666 60.2730029771698,45.5930939302022 60.2756979230221,45.5957888760546 60.2662656125389,45.5998312948331 60.2608757208342,45.5971363489807 60.2581807749818,45.591746457276 60.2487484644985,45.5930939302022 60.2541383562033,45.5984838219069 60.2527908832771,45.5998312948331 60.24470604572,45.5998312948331 60.2393161540153,45.5971363489807 60.2379686810891,45.5930939302022 60.2433585727938,45.5903989843498 60.2420110998676,45.5863565655713 60.2339262623106,45.5890515114237 60.2312313164582,45.5863565655713 60.2263910613787,45.5911968206508 60.2263910613787,45.5982178764732 60.2271888976797,45.5984838219069 60.2312313164582,45.6052211865378 60.2366212081629,45.6025262406854 60.2285363706059,45.6079161323902 60.2263910613787,45.605770823163 60.2263910613787,45.6132984187701 60.2263910613787,45.6135675330891 60.2263910613787,45.6325004270365 60.2263910613787,45.6343547580755 60.2294816131103,45.6343547580755 60.2441482856614,45.6343547580755 60.2474009915724,45.629475699209 60.2500959374247,45.6321706450614</coordinates></LinearRing></outerBoundaryIs><innerBoundaryIs><LinearRing><coordinates>60.3134271649552,45.6200433887258 60.3161221108075,45.6227383345781 60.312079692029,45.6267807533567 60.3053423273981,45.6227383345781 60.3107322191028,45.6200433887258 60.3080372732504,45.6173484428734 60.3107322191028,45.6146534970211 60.3147746378813,45.6186959157996 60.3228594754384,45.6133060240949 60.3134271649552,45.6200433887258</coordinates></LinearRing></innerBoundaryIs><innerBoundaryIs><LinearRing><coordinates>60.3093847461766,45.6052211865378 60.3134271649552,45.606568659464 60.3107322191028,45.6092636053163 60.3093847461766,45.6079161323902 60.3026473815457,45.6146534970211 60.3093847461766,45.6052211865378</coordinates></LinearRing></innerBoundaryIs><innerBoundaryIs><LinearRing><coordinates>60.2622231937603,45.6038737136116 60.2608757208342,45.6079161323902 60.2608757208342,45.6034245559696 60.2622231937603,45.6038737136116</coordinates></LinearRing></innerBoundaryIs><innerBoundaryIs><LinearRing><coordinates>60.2986049627672,45.6079161323902 60.2986049627672,45.6106110782425 60.2932150710625,45.6133060240949 60.2918675981363,45.6119585511687 60.2932150710625,45.6079161323902 60.2986049627672,45.6079161323902</coordinates></LinearRing></innerBoundaryIs><innerBoundaryIs><LinearRing><coordinates>60.2352737352368,45.6173484428734 60.2379686810891,45.6173484428734 60.2366212081629,45.6186959157996 60.2352737352368,45.6173484428734</coordinates></LinearRing></innerBoundaryIs><innerBoundaryIs><LinearRing><coordinates>60.2676130854651,45.6092636053164 60.2649181396127,45.6092636053164 60.2662656125389,45.6079161323902 60.2676130854651,45.6092636053164</coordinates></LinearRing></innerBoundaryIs><innerBoundaryIs><LinearRing><coordinates>60.2689605583912,45.6052211865378 60.2689605583912,45.6025262406854 60.2703080313174,45.6038737136116 60.2689605583912,45.6052211865378</coordinates></LinearRing></innerBoundaryIs></Polygon><Polygon><outerBoundaryIs><LinearRing><coordinates>60.2905201252101,45.5782717280142 60.2891726522839,45.5823141467928 60.2986049627672,45.5863565655713 60.2986049627672,45.5782717280142 60.2905201252101,45.5782717280142</coordinates></LinearRing></outerBoundaryIs></Polygon><Polygon><outerBoundaryIs><LinearRing><coordinates>60.3147746378813,45.5863565655713 60.3161221108075,45.5850090926451 60.3147746378813,45.5782717280142 60.3107322191028,45.5823141467928 60.3147746378813,45.5863565655713</coordinates></LinearRing></outerBoundaryIs></Polygon><Polygon><outerBoundaryIs><LinearRing><coordinates>60.3255544212908,45.5836616197189 60.3215120025122,45.5877040384975 60.3263910613787,45.5901435679307 60.3263910613787,45.5844982598069 60.3255544212908,45.5836616197189</coordinates></LinearRing></outerBoundaryIs></Polygon></MultiGeometry>
  </Placemark>
</Folder>
</Document></kml>
