<?xml version="1.0" encoding="utf-8" ?>
<kml xmlns="http://www.opengis.net/kml/2.2">
<Document id="root_doc">
<Schema name="task_grid_v6_46.51_61.36" id="task_grid_v6_46.51_61.36">
	<SimpleField name="area_ha" type="float"></SimpleField>
	<SimpleField name="low_risk_ha" type="float"></SimpleField>
	<SimpleField name="moderate_risk_ha" type="float"></SimpleField>
	<SimpleField name="grid_cell_deg" type="string"></SimpleField>
</Schema>
<Folder><name>task_grid_v6_46.51_61.36</name>
  <Placemark id="task_grid_v6_46.51_61.36.1">
	<name>task_grid_v6_46.51_61.36</name>
	<name>0</name>
	<description>44.9</description>
	<Style><LineStyle><color>ff0000ff</color></LineStyle><PolyStyle><fill>0</fill></PolyStyle></Style>
	<ExtendedData><SchemaData schemaUrl="#task_grid_v6_46.51_61.36">
		<SimpleData name="area_ha">44.9</SimpleData>
		<SimpleData name="low_risk_ha">0.1</SimpleData>
	</SchemaData></ExtendedData>
      <MultiGeometry><Polygon><outerBoundaryIs><LinearRing><coordinates>61.3846681412677,46.5080280470779 61.3900580329724,46.5080280470779 61.3914055058986,46.5066805741518 61.38736308712,46.5026381553732 61.3819731954153,46.5026381553732 61.3806257224891,46.5039856282994 61.3846681412677,46.5080280470779</coordinates></LinearRing></outerBoundaryIs></Polygon><Polygon><outerBoundaryIs><LinearRing><coordinates>61.4008378163818,46.5080280470779 61.4008378163818,46.5053331012256 61.3954479246771,46.5053331012256 61.3941004517509,46.5066805741518 61.4008378163818,46.5080280470779</coordinates></LinearRing></outerBoundaryIs></Polygon></MultiGeometry>
  </Placemark>
</Folder>
</Document></kml>
