<?xml version="1.0" encoding="utf-8" ?>
<kml xmlns="http://www.opengis.net/kml/2.2">
<Document id="root_doc">
<Schema name="task_grid_v6_45.31_59.26" id="task_grid_v6_45.31_59.26">
	<SimpleField name="area_ha" type="float"></SimpleField>
	<SimpleField name="low_risk_ha" type="float"></SimpleField>
	<SimpleField name="moderate_risk_ha" type="float"></SimpleField>
	<SimpleField name="grid_cell_deg" type="string"></SimpleField>
</Schema>
<Folder><name>task_grid_v6_45.31_59.26</name>
  <Placemark id="task_grid_v6_45.31_59.26.1">
	<name>task_grid_v6_45.31_59.26</name>
	<name>233.7</name>
	<description>1652.4</description>
	<Style><LineStyle><color>ff0000ff</color></LineStyle><PolyStyle><fill>0</fill></PolyStyle></Style>
	<ExtendedData><SchemaData schemaUrl="#task_grid_v6_45.31_59.26">
		<SimpleData name="area_ha">1418.7</SimpleData>
		<SimpleData name="low_risk_ha">0.1</SimpleData>
	</SchemaData></ExtendedData>
      <MultiGeometry><Polygon><outerBoundaryIs><LinearRing><coordinates>59.2327538781594,45.2777852654762 59.2367962969379,45.2845226301071 59.2394912427903,45.2845226301071 59.2408387157164,45.283175157181 59.2367962969379,45.2737428466977 59.2327538781594,45.2777852654762</coordinates></LinearRing></outerBoundaryIs></Polygon><Polygon><outerBoundaryIs><LinearRing><coordinates>59.2516184991259,45.291259994738 59.2475760803473,45.2872175759595 59.2435336615688,45.291259994738 59.2502710261997,45.2979973593689 59.2516184991259,45.291259994738</coordinates></LinearRing></outerBoundaryIs></Polygon><Polygon><outerBoundaryIs><LinearRing><coordinates>59.2206266218238,45.2926074676642 59.2260165135285,45.3006923052213 59.2287114593808,45.2979973593689 59.230058932307,45.2993448322951 59.2273639864546,45.3020397781475 59.2287114593808,45.306082196926 59.2394912427903,45.3087771427784 59.2421861886426,45.3141670344831 59.2462286074212,45.3101246157045 59.2260165135285,45.2872175759595 59.2102213862645,45.2766874911169 59.2102213862645,45.282202232105 59.2111943113405,45.283175157181 59.2102213862645,45.2841480822569 59.2102213862645,45.2867311134215 59.2138892571929,45.2885650488857 59.215236730119,45.2926074676642 59.2206266218238,45.2926074676642</coordinates></LinearRing></outerBoundaryIs></Polygon><Polygon><outerBoundaryIs><LinearRing><coordinates>59.2102213862645,45.3057076490758 59.2111943113405,45.3047347239998 59.2102213862645,45.3042482614619 59.2102213862645,45.3057076490758</coordinates></LinearRing></outerBoundaryIs></Polygon><Polygon><outerBoundaryIs><LinearRing><coordinates>59.2102213862645,45.3189585489621 59.2138892571929,45.3262942908187 59.2206266218238,45.3330316554496 59.2233215676761,45.3276417637449 59.2287114593808,45.3303367095972 59.2341013510855,45.3222518720402 59.2381437698641,45.320904399114 59.2367962969379,45.3141670344831 59.2314064052332,45.3141670344831 59.2287114593808,45.3168619803354 59.2260165135285,45.3141670344831 59.2206266218238,45.3195569261878 59.2125417842667,45.3141670344831 59.2102213862645,45.3149405004838 59.2102213862645,45.3189585489621</coordinates></LinearRing></outerBoundaryIs><innerBoundaryIs><LinearRing><coordinates>59.2192791488976,45.3235993449663 59.2179316759714,45.3249468178925 59.2179316759714,45.3222518720402 59.2192791488976,45.3235993449663</coordinates></LinearRing></innerBoundaryIs><innerBoundaryIs><LinearRing><coordinates>59.2341013510855,45.3195569261878 59.2327538781594,45.3182094532616 59.2354488240117,45.3182094532616 59.2341013510855,45.3195569261878</coordinates></LinearRing></innerBoundaryIs></Polygon><Polygon><outerBoundaryIs><LinearRing><coordinates>59.2192791488976,45.3316841825234 59.215236730119,45.3276417637449 59.2138892571929,45.3316841825234 59.2179316759714,45.3330316554496 59.2192791488976,45.3316841825234</coordinates></LinearRing></outerBoundaryIs></Polygon><Polygon><outerBoundaryIs><LinearRing><coordinates>59.2421861886426,45.3276417637449 59.2341013510855,45.3249468178925 59.2327538781594,45.3289892366711 59.2529659720521,45.335726601302 59.2543134449782,45.3316841825234 59.244881134495,45.3249468178925 59.2421861886426,45.3276417637449</coordinates></LinearRing></outerBoundaryIs></Polygon><Polygon><outerBoundaryIs><LinearRing><coordinates>59.2111943113405,45.3424639659329 59.2121742916504,45.3419739757779 59.2102213862645,45.3465307550117 59.2102213862645,45.3515217285659 59.2125417842667,45.3492013305637 59.215236730119,45.3572861681208 59.2165842030452,45.3451589117852 59.2129909419087,45.3415656506487 59.2165842030452,45.3397690200805 59.2125417842667,45.3330316554496 59.2102213862645,45.3353520534517 59.2102213862645,45.3453827411607 59.2111943113405,45.3424639659329</coordinates></LinearRing></outerBoundaryIs></Polygon><Polygon><outerBoundaryIs><LinearRing><coordinates>59.2543134449782,45.3424639659329 59.2475760803473,45.335726601302 59.2408387157164,45.3370740742281 59.2462286074212,45.3397690200805 59.2462286074212,45.3478538576376 59.2529659720521,45.3492013305637 59.2543134449782,45.3478538576376 59.2516184991259,45.3451589117852 59.2543134449782,45.3424639659329</coordinates></LinearRing></outerBoundaryIs></Polygon><Polygon><outerBoundaryIs><LinearRing><coordinates>59.2408387157164,45.3478538576376 59.2327538781594,45.3451589117852 59.2408387157164,45.3424639659329 59.2287114593808,45.335726601302 59.2246690406023,45.3370740742281 59.2273639864546,45.3424639659329 59.2246690406023,45.3478538576376 59.2314064052332,45.3518962764161 59.2341013510855,45.3492013305637 59.2367962969379,45.3518962764161 59.2408387157164,45.3478538576376</coordinates></LinearRing></outerBoundaryIs></Polygon><Polygon><outerBoundaryIs><LinearRing><coordinates>59.2219740947499,45.3532437493423 59.2206266218238,45.3492013305637 59.2165842030452,45.3532437493423 59.2179316759714,45.3545912222685 59.2219740947499,45.3532437493423</coordinates></LinearRing></outerBoundaryIs></Polygon><Polygon><outerBoundaryIs><LinearRing><coordinates>59.2502230627621,45.3625641451378 59.2503829408875,45.3625641451378 59.2543134449782,45.358633641047 59.2502710261997,45.3518962764161 59.2462286074212,45.3532437493423 59.2502230627621,45.3625641451378</coordinates></LinearRing></outerBoundaryIs></Polygon><Polygon><outerBoundaryIs><LinearRing><coordinates>59.2367962969379,45.3599811139732 59.2367962969379,45.3572861681208 59.2314064052332,45.3572861681208 59.230058932307,45.358633641047 59.2367962969379,45.3599811139732</coordinates></LinearRing></outerBoundaryIs></Polygon><Polygon><outerBoundaryIs><LinearRing><coordinates>59.2259792086326,45.3625641451378 59.2263522575918,45.3625641451378 59.230058932307,45.3613285868994 59.2287114593808,45.3572861681208 59.2246690406023,45.358633641047 59.2259792086326,45.3625641451378</coordinates></LinearRing></outerBoundaryIs></Polygon><Polygon><outerBoundaryIs><LinearRing><coordinates>59.2447692198072,45.3625641451378 59.2421861886426,45.3599811139732 59.2383116418957,45.3625641451378 59.2447692198072,45.3625641451378</coordinates></LinearRing></outerBoundaryIs></Polygon><Polygon><outerBoundaryIs><LinearRing><coordinates>59.2876013499822,45.2625641451378 59.2906952139851,45.2656580091406 59.2958516539898,45.2625641451378 59.2876013499822,45.2625641451378</coordinates></LinearRing></outerBoundaryIs></Polygon><Polygon><outerBoundaryIs><LinearRing><coordinates>59.2893477410589,45.2670054820668 59.2853053222804,45.2629630632883 59.2839578493542,45.2670054820668 59.2880002681327,45.268352954993 59.2893477410589,45.2670054820668</coordinates></LinearRing></outerBoundaryIs></Polygon><Polygon><outerBoundaryIs><LinearRing><coordinates>59.259703336683,45.2939549405904 59.2556609179044,45.2899125218119 59.2516184991259,45.291259994738 59.2529659720521,45.2979973593689 59.259703336683,45.2939549405904</coordinates></LinearRing></outerBoundaryIs></Polygon><Polygon><outerBoundaryIs><LinearRing><coordinates>59.2516184991259,45.3020397781475 59.2529659720521,45.3114720886307 59.2556609179044,45.306082196926 59.2610508096091,45.306082196926 59.2650932283877,45.3020397781475 59.2556609179044,45.2979973593689 59.2516184991259,45.3020397781475</coordinates></LinearRing></outerBoundaryIs></Polygon><Polygon><outerBoundaryIs><LinearRing><coordinates>59.2893477410589,45.3155145074093 59.2853053222804,45.3087771427784 59.2839578493542,45.3155145074093 59.2880002681327,45.3168619803354 59.2893477410589,45.3155145074093</coordinates></LinearRing></outerBoundaryIs></Polygon><Polygon><outerBoundaryIs><LinearRing><coordinates>59.2987800515422,45.3276417637449 59.3001275244683,45.3262942908187 59.3028224703207,45.320904399114 59.3001275244683,45.3182094532616 59.2987800515422,45.3114720886307 59.2960851056898,45.3168619803354 59.2920426869113,45.3182094532616 59.2920426869113,45.3235993449663 59.2893477410589,45.3262942908187 59.2906952139851,45.3276417637449 59.2960851056898,45.3249468178925 59.2987800515422,45.3276417637449</coordinates></LinearRing></outerBoundaryIs><innerBoundaryIs><LinearRing><coordinates>59.2960851056898,45.3222518720402 59.2947376327636,45.320904399114 59.297432578616,45.320904399114 59.2960851056898,45.3222518720402</coordinates></LinearRing></innerBoundaryIs></Polygon><Polygon><outerBoundaryIs><LinearRing><coordinates>59.2947376327636,45.3316841825234 59.2933901598374,45.3276417637449 59.2893477410589,45.3289892366711 59.2933901598374,45.3330316554496 59.2947376327636,45.3316841825234</coordinates></LinearRing></outerBoundaryIs></Polygon><Polygon><outerBoundaryIs><LinearRing><coordinates>59.2664407013138,45.3384215471543 59.2664407013138,45.3249468178925 59.2543134449782,45.3289892366711 59.2637457554615,45.3303367095972 59.2664407013138,45.3384215471543</coordinates></LinearRing></outerBoundaryIs></Polygon><Polygon><outerBoundaryIs><LinearRing><coordinates>59.2610508096091,45.335726601302 59.2610508096091,45.3303367095972 59.2556609179044,45.3303367095972 59.2543134449782,45.3316841825234 59.2610508096091,45.335726601302</coordinates></LinearRing></outerBoundaryIs></Polygon><Polygon><outerBoundaryIs><LinearRing><coordinates>59.2839578493542,45.3370740742281 59.2880002681327,45.3384215471543 59.2933901598374,45.335726601302 59.2933901598374,45.3330316554496 59.2880002681327,45.3330316554496 59.2839578493542,45.3370740742281</coordinates></LinearRing></outerBoundaryIs></Polygon><Polygon><outerBoundaryIs><LinearRing><coordinates>59.2785679576495,45.3397690200805 59.2772204847233,45.3330316554496 59.2731780659447,45.3343791283758 59.2772204847233,45.3411164930067 59.2785679576495,45.3397690200805</coordinates></LinearRing></outerBoundaryIs></Polygon><Polygon><outerBoundaryIs><LinearRing><coordinates>59.2654782206523,45.3517037802838 59.2623982825353,45.3532437493423 59.2745255388709,45.3599811139732 59.2758730117971,45.358633641047 59.2704831200924,45.3532437493423 59.2731780659447,45.3505488034899 59.2691356471662,45.3465063847114 59.2650932283877,45.3478538576376 59.26778817424,45.3505488034899 59.2637457554615,45.3465063847114 59.2613203041944,45.3473148684671 59.2650932283877,45.3424639659329 59.2637457554615,45.3384215471543 59.2570083908306,45.3397690200805 59.259703336683,45.3424639659329 59.2543134449782,45.3505488034899 59.2556609179044,45.3545912222685 59.259703336683,45.3493938266961 59.259703336683,45.3505488034899 59.2654782206523,45.3517037802838</coordinates></LinearRing></outerBoundaryIs></Polygon><Polygon><outerBoundaryIs><LinearRing><coordinates>59.2866527952065,45.3625641451378 59.2932782451497,45.3625641451378 59.2920426869113,45.3613285868994 59.2947376327636,45.358633641047 59.2866527952065,45.358633641047 59.2866527952065,45.3625641451378</coordinates></LinearRing></outerBoundaryIs></Polygon></MultiGeometry>
  </Placemark>
</Folder>
</Document></kml>
