<?xml version="1.0" encoding="utf-8" ?>
<kml xmlns="http://www.opengis.net/kml/2.2">
<Document id="root_doc">
<Schema name="task_grid_v6_45.48_60.98" id="task_grid_v6_45.48_60.98">
	<SimpleField name="area_ha" type="float"></SimpleField>
	<SimpleField name="low_risk_ha" type="float"></SimpleField>
	<SimpleField name="moderate_risk_ha" type="float"></SimpleField>
	<SimpleField name="grid_cell_deg" type="string"></SimpleField>
</Schema>
<Folder><name>task_grid_v6_45.48_60.98</name>
  <Placemark id="task_grid_v6_45.48_60.98.1">
	<name>task_grid_v6_45.48_60.98</name>
	<name>3103.7</name>
	<description>5334.8</description>
	<Style><LineStyle><color>ff0000ff</color></LineStyle><PolyStyle><fill>0</fill></PolyStyle></Style>
	<ExtendedData><SchemaData schemaUrl="#task_grid_v6_45.48_60.98">
		<SimpleData name="area_ha">2231.1</SimpleData>
		<SimpleData name="low_risk_ha">0.1</SimpleData>
	</SchemaData></ExtendedData>
      <MultiGeometry><Polygon><outerBoundaryIs><LinearRing><coordinates>60.9763838446354,45.4367870707654 60.9723299901522,45.4343547580755 60.9680363739158,45.4343547580755 60.9602141695212,45.4421769624701 60.9642565882997,45.4435244353963 60.9750363717092,45.4381345436916 60.9763838446354,45.4367870707654</coordinates></LinearRing></outerBoundaryIs></Polygon><Polygon><outerBoundaryIs><LinearRing><coordinates>60.9844686821924,45.4745163126984 60.9912060468233,45.4758637856246 60.9912060468233,45.4731688397722 60.9858161551186,45.4731688397722 60.9844686821924,45.4745163126984</coordinates></LinearRing></outerBoundaryIs></Polygon><Polygon><outerBoundaryIs><LinearRing><coordinates>60.9669515341521,45.4731688397722 60.9629091153736,45.4772112585508 60.9602141695212,45.4826011502555 60.9640438294167,45.4889839167479 60.9615616424474,45.4893385148864 60.9575192236688,45.4987708253696 60.95667705309,45.4989392594854 60.9602141695212,45.4906859878126 60.9561717507427,45.4893385148864 60.9507818590379,45.4947284065911 60.9426970214809,45.4947284065911 60.9400020756285,45.5001182982958 60.9332647109976,45.501465771222 60.9305697651453,45.5068556629267 60.9319172380714,45.5108980817053 60.9373071297762,45.5028132441482 60.9413495485547,45.5068556629267 60.9346121839238,45.5135930275576 60.9292222922191,45.5108980817053 60.9265273463667,45.51628797341 60.9263910613787,45.516424258398 60.9263910613787,45.5324576485241 60.9265273463667,45.5324576485241 60.9305697651453,45.5284152297456 60.9311087543157,45.5273372514046 60.9319172380714,45.5297627026718 60.9373071297762,45.5243728109671 60.9386546027023,45.5257202838932 60.93595965685,45.531110175598 60.9327150743724,45.5343547580755 60.9627583968989,45.5343547580755 60.963263713512,45.5340178803334 60.9638251764156,45.5343547580755 60.9713928710811,45.5343547580755 60.9723414258568,45.5324576485241 60.9742385354082,45.5343547580755 60.9756062547813,45.5343547580755 60.9817737363401,45.5257202838932 60.9777313175615,45.5216778651147 60.9696464800045,45.5297627026718 60.9790787904877,45.5203303921885 60.9831212092663,45.5216778651147 60.9871636280448,45.5176354463362 60.9939009926757,45.5189829192623 60.9979434114542,45.5149405004838 60.9931310081464,45.5139780198222 60.9939009926757,45.5135930275576 61.0100706677898,45.5028132441482 61.011418140716,45.501465771222 61.0087231948637,45.4987708253696 61.0154605594946,45.4947284065911 61.0221979241255,45.501465771222 61.0208504511993,45.5055081900005 61.0154605594946,45.5082031358529 61.0046807760851,45.5082031358529 60.9979434114542,45.5122455546314 61.0033333031589,45.5149405004838 61.0006383573066,45.5176354463362 61.011418140716,45.5257202838932 61.0019858302328,45.5270677568194 61.0019858302328,45.5243728109671 61.0060282490113,45.5230253380409 60.9992908843804,45.5216778651147 60.9979434114542,45.5284152297456 61.0038829397841,45.5343547580755 61.0092728314889,45.5343547580755 61.0087231948637,45.5338051214503 61.011418140716,45.5338051214503 61.0108685040908,45.5343547580755 61.0263910613787,45.5343547580755 61.0263910613787,45.5107473632306 61.0248928699778,45.5122455546314 61.0235453970516,45.51628797341 61.0221979241255,45.5095506087791 61.0263910613787,45.5095506087791 61.0263910613787,45.5026625256735 61.026240342904,45.5028132441482 61.0248928699778,45.501465771222 61.0263910613787,45.501465771222 61.0263910613787,45.4853545848285 61.0263910613787,45.4850700183958 61.0263910613787,45.4764399892578 61.0195029782731,45.4852960961079 61.0235453970516,45.4893385148864 61.0181555053469,45.486643569034 61.0181555053469,45.4920334607388 61.011418140716,45.4879910419602 61.0154605594946,45.4812536773293 61.0263910613787,45.4744221136517 61.0263910613787,45.4686270238601 61.0208504511993,45.4704738939199 61.0263910613787,45.4677035888302 61.0263910613787,45.4343547580755 61.0224605572879,45.4343547580755 61.0224605572879,45.4343547580755 61.0201970233197,45.4343547580755 61.0197003754217,45.4343547580755 61.0112605608185,45.4343547580755 61.0104322810444,45.4343547580755 61.0003757241441,45.4343547580755 60.9952484656019,45.4394820166178 60.996595938528,45.4435244353963 61.0046807760851,45.441503226007 61.0033333031589,45.4421769624701 60.9973445345981,45.4496629231711 60.988511100971,45.4408294895439 60.9858161551186,45.4435244353963 60.9831212092663,45.4408294895439 60.9804262634139,45.4462193812487 60.9750363717092,45.4435244353963 60.9709939529306,45.4475668541748 60.9709939529306,45.4502618000272 60.9790787904877,45.4583466375843 60.9763838446354,45.463736529289 60.9777313175615,45.4704738939199 60.9804262634139,45.4677789480675 60.9858161551186,45.4677789480675 60.9912060468233,45.4704738939199 60.9925535197495,45.4691264209937 60.9898585738972,45.4664314751413 61.0060282490113,45.4556516917319 60.9925535197495,45.4664314751413 60.9952484656019,45.4718213668461 60.9912060468233,45.4758637856246 60.9804262634139,45.4758637856246 60.9787678351971,45.476692999733 60.9750363717092,45.4704738939199 60.9669515341521,45.4731688397722</coordinates></LinearRing></outerBoundaryIs><innerBoundaryIs><LinearRing><coordinates>60.9831212092663,45.51628797341 60.9858161551186,45.51628797341 60.9871636280448,45.5122455546314 60.988511100971,45.51628797341 60.9871636280448,45.5176354463362 60.9831212092663,45.51628797341</coordinates></LinearRing></innerBoundaryIs><innerBoundaryIs><LinearRing><coordinates>61.0087231948637,45.4394820166178 61.0079532103344,45.4398670088824 61.0093969313267,45.4374608072285 61.0087231948637,45.4394820166178</coordinates></LinearRing></innerBoundaryIs><innerBoundaryIs><LinearRing><coordinates>60.996595938528,45.4556516917319 60.9939009926757,45.4569991646581 60.9925535197495,45.4556516917319 60.996595938528,45.4556516917319</coordinates></LinearRing></innerBoundaryIs><innerBoundaryIs><LinearRing><coordinates>60.9656040612259,45.4852960961079 60.9709939529306,45.4879910419602 60.966277797689,45.4886647784233 60.9682990070783,45.4879910419602 60.9656040612259,45.4852960961079</coordinates></LinearRing></innerBoundaryIs><innerBoundaryIs><LinearRing><coordinates>60.9696464800045,45.4758637856246 60.9750363717092,45.478558731477 60.9730151623199,45.4795693361716 60.9682990070783,45.4772112585508 60.9696464800045,45.4758637856246</coordinates></LinearRing></innerBoundaryIs><innerBoundaryIs><LinearRing><coordinates>60.944621982804,45.5091656165145 60.9453919673332,45.5082031358529 60.9521293319641,45.5041607170744 60.944621982804,45.5091656165145</coordinates></LinearRing></innerBoundaryIs><innerBoundaryIs><LinearRing><coordinates>60.9440444944071,45.5122455546314 60.9346121839238,45.5216778651147 60.9440444944071,45.5098874770106 60.9440444944071,45.5122455546314</coordinates></LinearRing></innerBoundaryIs><innerBoundaryIs><LinearRing><coordinates>60.9332647109976,45.5230253380409 60.9278748192929,45.5203303921885 60.9319172380714,45.5189829192623 60.9346121839238,45.5216778651147 60.9332647109976,45.5230253380409</coordinates></LinearRing></innerBoundaryIs><innerBoundaryIs><LinearRing><coordinates>60.9534768048903,45.5135930275576 60.9521293319641,45.5122455546314 60.9561717507427,45.5055081900005 60.9602141695212,45.5095506087791 60.9534768048903,45.5135930275576</coordinates></LinearRing></innerBoundaryIs><innerBoundaryIs><LinearRing><coordinates>60.9467394402594,45.5041607170744 60.9453919673332,45.5055081900005 60.9440444944071,45.5041607170744 60.9467394402594,45.5041607170744</coordinates></LinearRing></innerBoundaryIs><innerBoundaryIs><LinearRing><coordinates>60.9844686821924,45.4583466375843 60.9831212092663,45.4596941105104 60.9817737363401,45.4583466375843 60.9844686821924,45.4583466375843</coordinates></LinearRing></innerBoundaryIs><innerBoundaryIs><LinearRing><coordinates>61.0154605594946,45.5297627026718 61.0141130865684,45.5284152297456 61.0154605594946,45.5270677568194 61.0154605594946,45.5297627026718</coordinates></LinearRing></innerBoundaryIs><innerBoundaryIs><LinearRing><coordinates>61.0195029782731,45.5284152297456 61.0208504511993,45.5270677568194 61.0221979241255,45.5284152297456 61.0195029782731,45.5284152297456</coordinates></LinearRing></innerBoundaryIs><innerBoundaryIs><LinearRing><coordinates>61.0235453970516,45.5189829192623 61.0248928699778,45.5203303921885 61.0235453970516,45.5216778651147 61.0235453970516,45.5189829192623</coordinates></LinearRing></innerBoundaryIs><innerBoundaryIs><LinearRing><coordinates>61.0168080324207,45.5149405004838 61.0154605594946,45.51628797341 61.0141130865684,45.5149405004838 61.0168080324207,45.5149405004838</coordinates></LinearRing></innerBoundaryIs></Polygon><Polygon><outerBoundaryIs><LinearRing><coordinates>60.9851837852682,45.5343547580755 60.9912060468233,45.5343547580755 60.9912060468233,45.5324576485241 60.9858161551186,45.5324576485241 60.9851837852682,45.5343547580755</coordinates></LinearRing></outerBoundaryIs></Polygon><Polygon><outerBoundaryIs><LinearRing><coordinates>61.0003757241441,45.4343547580755 60.992606046382,45.4343547580755 60.9939009926757,45.4408294895439 61.0003757241441,45.4343547580755</coordinates></LinearRing></outerBoundaryIs></Polygon></MultiGeometry>
  </Placemark>
</Folder>
</Document></kml>
