<?xml version="1.0" encoding="utf-8" ?>
<kml xmlns="http://www.opengis.net/kml/2.2">
<Document id="root_doc">
<Schema name="task_grid_v6_45.61_60.16" id="task_grid_v6_45.61_60.16">
	<SimpleField name="area_ha" type="float"></SimpleField>
	<SimpleField name="low_risk_ha" type="float"></SimpleField>
	<SimpleField name="moderate_risk_ha" type="float"></SimpleField>
	<SimpleField name="grid_cell_deg" type="string"></SimpleField>
</Schema>
<Folder><name>task_grid_v6_45.61_60.16</name>
  <Placemark id="task_grid_v6_45.61_60.16.1">
	<name>task_grid_v6_45.61_60.16</name>
	<name>3086.9</name>
	<description>5800.1</description>
	<Style><LineStyle><color>ff0000ff</color></LineStyle><PolyStyle><fill>0</fill></PolyStyle></Style>
	<ExtendedData><SchemaData schemaUrl="#task_grid_v6_45.61_60.16">
		<SimpleData name="area_ha">2713.2</SimpleData>
		<SimpleData name="low_risk_ha">0.1</SimpleData>
	</SchemaData></ExtendedData>
      <MultiGeometry><Polygon><outerBoundaryIs><LinearRing><coordinates>60.1153486448068,45.5944414031284 60.1140011718806,45.5957888760546 60.1207385365115,45.5971363489807 60.1207385365115,45.5944414031284 60.1153486448068,45.5944414031284</coordinates></LinearRing></outerBoundaryIs></Polygon><Polygon><outerBoundaryIs><LinearRing><coordinates>60.1557728325922,45.5728818363095 60.1503829408875,45.5728818363095 60.1369082116257,45.5863565655713 60.1288233740686,45.5890515114237 60.12478095529,45.5930939302022 60.1274759011424,45.5957888760546 60.1220860094377,45.5984838219069 60.1274759011424,45.6011787677593 60.1261284282162,45.6025262406854 60.1153486448068,45.6025262406854 60.1140011718806,45.606568659464 60.1342132657733,45.6079161323902 60.1360098963415,45.6068381540492 60.1422981033304,45.6106110782425 60.1476879950351,45.6106110782425 60.1422981033304,45.6186959157996 60.1234334823639,45.6186959157996 60.1180435906592,45.621390861652 60.1153486448068,45.6186959157996 60.1102213862645,45.6186959157996 60.1102213862645,45.6414716389634 60.1102213862645,45.6483403201755 60.1165036216007,45.6483403201755 60.1102213862645,45.6523381062985 60.1102213862645,45.6625641451378 60.1138504534059,45.6625641451378 60.1142250012561,45.6625641451378 60.1168468362077,45.6625641451378 60.1226843866634,45.6625641451378 60.1293851958439,45.6625641451378 60.1288233740686,45.6618150494373 60.1234334823639,45.6618150494373 60.1342132657733,45.659120103585 60.1436455762566,45.6523827389541 60.1382556845518,45.6496877931017 60.1369082116257,45.6456453743232 60.1328657928471,45.6496877931017 60.1355607386995,45.6523827389541 60.1342132657733,45.6537302118803 60.1288233740686,45.6537302118803 60.1261284282162,45.6564251577326 60.1193910635853,45.6523827389541 60.1220860094377,45.6496877931017 60.1207385365115,45.6456453743232 60.1180435906592,45.6473603398656 60.1180435906592,45.6429504284708 60.1234334823639,45.6429504284708 60.1261284282162,45.6456453743232 60.1355607386995,45.644297901397 60.1308445834579,45.6422766920077 60.1342132657733,45.6429504284708 60.1342132657733,45.6402554826185 60.1288233740686,45.6402554826185 60.1280148903129,45.6410639663742 60.1261284282162,45.6402554826185 60.1301708469948,45.6362130638399 60.12478095529,45.6308231721352 60.1261284282162,45.629475699209 60.1315183199209,45.629475699209 60.139603157478,45.6375605367661 60.140180645875,45.6358280715753 60.1409506304042,45.6389080096923 60.1476879950351,45.6456453743232 60.1571203055184,45.6469928472494 60.1490354679613,45.6496877931017 60.1517304138136,45.6523827389541 60.1503829408875,45.6564251577326 60.1382556845518,45.6604675765112 60.1389545407607,45.6625641451378 60.2028841455169,45.6625641451378 60.206976803787,45.6564251577326 60.2096717496393,45.659120103585 60.2102213862645,45.659120103585 60.2102213862645,45.6546017057291 60.1988919662299,45.6537302118803 60.1988919662299,45.6510352660279 60.2042818579346,45.6510352660279 60.2062581515597,45.6470826787778 60.2102213862645,45.6476488551642 60.2102213862645,45.6456453743232 60.2102213862645,45.6216656799646 60.2102213862645,45.6185127035912 60.2096717496393,45.6186959157996 60.2096717496393,45.6160009699472 60.2102213862645,45.6160009699472 60.2102213862645,45.6003809314583 60.2083242767132,45.5984838219069 60.2102213862645,45.5981043999966 60.2102213862645,45.5906738026624 60.206976803787,45.5890515114237 60.2042818579346,45.5944414031284 60.2042818579346,45.591746457276 60.2002394391561,45.591746457276 60.2029343850084,45.5903989843498 60.2015869120823,45.5863565655713 60.1972749987185,45.5874345439122 60.1935020745252,45.5836616197189 60.1908071286728,45.5836616197189 60.1948495474514,45.5823141467928 60.1935020745252,45.5782717280142 60.1800273452634,45.5782717280142 60.1759849264849,45.5823141467928 60.1867647098943,45.5930939302022 60.1813748181896,45.5930939302022 60.1827222911158,45.5971363489807 60.1867647098943,45.5984838219069 60.1827222911158,45.5998312948331 60.1711725231771,45.5905914804822 60.1746374535587,45.591746457276 60.1759849264849,45.5850090926451 60.169247561854,45.5809666738666 60.1652051430754,45.5823141467928 60.1702100425155,45.5898214959529 60.169247561854,45.5890515114237 60.1625101972231,45.5796192009404 60.1638576701492,45.5782717280142 60.1665526160016,45.5809666738666 60.1705950347801,45.5796192009404 60.169247561854,45.5728818363095 60.1584677784445,45.5701868904572 60.1557728325922,45.5728818363095</coordinates></LinearRing></outerBoundaryIs><innerBoundaryIs><LinearRing><coordinates>60.1988919662299,45.5971363489807 60.1975444933037,45.5930939302022 60.2042818579346,45.5944414031284 60.1988919662299,45.5971363489807</coordinates></LinearRing></innerBoundaryIs><innerBoundaryIs><LinearRing><coordinates>60.1557728325922,45.6079161323902 60.1530778867398,45.6079161323902 60.1517304138136,45.6058949230009 60.1557728325922,45.6079161323902</coordinates></LinearRing></innerBoundaryIs><innerBoundaryIs><LinearRing><coordinates>60.169247561854,45.5971363489807 60.1705950347801,45.5984838219069 60.1652051430754,45.606568659464 60.1679000889278,45.6011787677593 60.1638576701492,45.5998312948331 60.1584677784445,45.6025262406854 60.169247561854,45.5971363489807</coordinates></LinearRing></innerBoundaryIs><innerBoundaryIs><LinearRing><coordinates>60.1813748181896,45.6038737136116 60.1813748181896,45.606568659464 60.177332399411,45.5998312948331 60.1813748181896,45.6038737136116</coordinates></LinearRing></innerBoundaryIs><innerBoundaryIs><LinearRing><coordinates>60.1813748181896,45.6119585511687 60.1802651346033,45.6121170773953 60.1813748181896,45.606568659464 60.1813748181896,45.6119585511687</coordinates></LinearRing></innerBoundaryIs><innerBoundaryIs><LinearRing><coordinates>60.1854172369681,45.6106110782425 60.1854172369681,45.6100720890721 60.1908071286728,45.6133060240949 60.1854172369681,45.6106110782425</coordinates></LinearRing></innerBoundaryIs><innerBoundaryIs><LinearRing><coordinates>60.1854172369681,45.6079161323902 60.1854172369681,45.6079161323902 60.1854172369681,45.6079161323902 60.1854172369681,45.6079161323902</coordinates></LinearRing></innerBoundaryIs><innerBoundaryIs><LinearRing><coordinates>60.192154601599,45.6038737136116 60.1948495474514,45.606568659464 60.1935020745252,45.6079161323902 60.1890921631304,45.6057111766928 60.192154601599,45.6038737136116</coordinates></LinearRing></innerBoundaryIs><innerBoundaryIs><LinearRing><coordinates>60.1598152513707,45.5957888760546 60.1611627242969,45.5944414031284 60.1638576701492,45.5944414031284 60.1638576701492,45.5971363489807 60.1598152513707,45.5957888760546</coordinates></LinearRing></innerBoundaryIs><innerBoundaryIs><LinearRing><coordinates>60.2029343850084,45.6173484428734 60.2015869120823,45.6186959157996 60.2002394391561,45.6173484428734 60.2029343850084,45.6173484428734</coordinates></LinearRing></innerBoundaryIs><innerBoundaryIs><LinearRing><coordinates>60.1288233740686,45.621390861652 60.1317633149984,45.6218808518069 60.1288233740686,45.6224688399929 60.1288233740686,45.621390861652</coordinates></LinearRing></innerBoundaryIs><innerBoundaryIs><LinearRing><coordinates>60.1449930491827,45.6240858075043 60.1369082116257,45.6240858075043 60.1352912441142,45.6224688399929 60.1449930491827,45.6240858075043</coordinates></LinearRing></innerBoundaryIs><innerBoundaryIs><LinearRing><coordinates>60.1503829408875,45.6240858075043 60.1530778867398,45.629475699209 60.1482269842056,45.6262417641862 60.1503829408875,45.6240858075043</coordinates></LinearRing></innerBoundaryIs><innerBoundaryIs><LinearRing><coordinates>60.1598152513707,45.6254332804305 60.1584677784445,45.629475699209 60.1530778867398,45.629475699209 60.1598152513707,45.6254332804305</coordinates></LinearRing></innerBoundaryIs><innerBoundaryIs><LinearRing><coordinates>60.1827222911158,45.6321706450614 60.1840697640419,45.6362130638399 60.1827222911158,45.6364055599722 60.1827222911158,45.6321706450614</coordinates></LinearRing></innerBoundaryIs><innerBoundaryIs><LinearRing><coordinates>60.1786798723372,45.6369830483692 60.1746374535587,45.6375605367661 60.1732899806325,45.6362130638399 60.1786798723372,45.6369830483692</coordinates></LinearRing></innerBoundaryIs><innerBoundaryIs><LinearRing><coordinates>60.1827222911158,45.621390861652 60.1840697640419,45.6227383345781 60.1827222911158,45.6240858075043 60.1827222911158,45.621390861652</coordinates></LinearRing></innerBoundaryIs><innerBoundaryIs><LinearRing><coordinates>60.1894596557467,45.6227383345781 60.1881121828205,45.6240858075043 60.1867647098943,45.6227383345781 60.1894596557467,45.6227383345781</coordinates></LinearRing></innerBoundaryIs></Polygon></MultiGeometry>
  </Placemark>
</Folder>
</Document></kml>
