<?xml version="1.0" encoding="utf-8" ?>
<kml xmlns="http://www.opengis.net/kml/2.2">
<Document id="root_doc">
<Schema name="task_grid_v6_44.58_60.88" id="task_grid_v6_44.58_60.88">
	<SimpleField name="area_ha" type="float"></SimpleField>
	<SimpleField name="low_risk_ha" type="float"></SimpleField>
	<SimpleField name="moderate_risk_ha" type="float"></SimpleField>
	<SimpleField name="grid_cell_deg" type="string"></SimpleField>
</Schema>
<Folder><name>task_grid_v6_44.58_60.88</name>
  <Placemark id="task_grid_v6_44.58_60.88.1">
	<name>task_grid_v6_44.58_60.88</name>
	<name>234.6</name>
	<description>1740.7</description>
	<Style><LineStyle><color>ff0000ff</color></LineStyle><PolyStyle><fill>0</fill></PolyStyle></Style>
	<ExtendedData><SchemaData schemaUrl="#task_grid_v6_44.58_60.88">
		<SimpleData name="area_ha">1506.1</SimpleData>
		<SimpleData name="low_risk_ha">0.1</SimpleData>
	</SchemaData></ExtendedData>
      <MultiGeometry><Polygon><outerBoundaryIs><LinearRing><coordinates>60.8309816178914,44.5343547580755 60.8322042415342,44.5380226290038 60.8362466603127,44.5366751560776 60.835473194312,44.5343547580755 60.8309816178914,44.5343547580755</coordinates></LinearRing></outerBoundaryIs></Polygon><Polygon><outerBoundaryIs><LinearRing><coordinates>60.8402890790912,44.5353276831515 60.8389416061651,44.5366751560776 60.845678970796,44.5380226290038 60.8362466603127,44.53937010193 60.8402890790912,44.5407175748562 60.8429840249436,44.5461074665609 60.8497213895745,44.5474549394871 60.8416365520174,44.5528448311918 60.845678970796,44.5568872499703 60.8510688625007,44.5568872499703 60.8591537000578,44.562277141675 60.8631961188363,44.5555397770441 60.8578062271316,44.5474549394871 60.8672385376148,44.5461074665609 60.8699334834672,44.5488024124133 60.8753233751719,44.5407175748562 60.8820607398028,44.53937010193 60.8745377240211,44.5343547580755 60.8515941288256,44.5343547580755 60.8564587542054,44.5353276831515 60.85710554121,44.5366212571606 60.8402890790912,44.5353276831515</coordinates></LinearRing></outerBoundaryIs><innerBoundaryIs><LinearRing><coordinates>60.8524163354269,44.53937010193 60.8572672379611,44.5369446506629 60.8591537000578,44.5407175748562 60.8618486459101,44.5380226290038 60.8631961188363,44.53937010193 60.8591537000578,44.5434125207085 60.853763808353,44.5407175748562 60.8510688625007,44.5434125207085 60.8524163354269,44.53937010193</coordinates></LinearRing></innerBoundaryIs></Polygon><Polygon><outerBoundaryIs><LinearRing><coordinates>60.8322042415342,44.554192304118 60.8389416061651,44.5501498853394 60.8362466603127,44.53937010193 60.8322042415342,44.5380226290038 60.8263910613787,44.5415105370971 60.8263910613787,44.5573105384211 60.8268143498295,44.5568872499703 60.8295092956818,44.5595821958227 60.8322042415342,44.554192304118</coordinates></LinearRing></outerBoundaryIs><innerBoundaryIs><LinearRing><coordinates>60.830856768608,44.5501498853394 60.8295092956818,44.5514973582656 60.8281618227556,44.5501498853394 60.830856768608,44.5501498853394</coordinates></LinearRing></innerBoundaryIs></Polygon><Polygon><outerBoundaryIs><LinearRing><coordinates>60.8281618227556,44.5751743825399 60.8263910613787,44.5754273484509 60.8263910613787,44.57887010524 60.8268143498295,44.5784468167892 60.8322042415342,44.5838367084939 60.8429840249436,44.5865316543463 60.8443314978698,44.5851841814201 60.8416365520174,44.5824892355677 60.8443314978698,44.5797942897154 60.8389416061651,44.5744043980107 60.8416365520174,44.5717094521583 60.8335517144603,44.5690145063059 60.8281618227556,44.5636246146012 60.8268143498295,44.5568872499703 60.8263910613787,44.5598502691257 60.8263910613787,44.5681679294044 60.8264468572132,44.5682795210735 60.8263910613787,44.568372514131 60.8263910613787,44.5749214166289 60.8281618227556,44.5751743825399</coordinates></LinearRing></outerBoundaryIs></Polygon><Polygon><outerBoundaryIs><LinearRing><coordinates>60.8503829408875,44.6343547580755 60.8571121820849,44.6343547580755 60.853763808353,44.6323457338364 60.8497213895745,44.6336932067625 60.8503829408875,44.6343547580755</coordinates></LinearRing></outerBoundaryIs></Polygon><Polygon><outerBoundaryIs><LinearRing><coordinates>60.8793657939504,44.577099343863 60.883408212729,44.5838367084939 60.8928405232122,44.5717094521583 60.8861031585813,44.5703619792321 60.8793657939504,44.577099343863</coordinates></LinearRing></outerBoundaryIs></Polygon><Polygon><outerBoundaryIs><LinearRing><coordinates>60.8591537000578,44.5892266001986 60.8726284293195,44.5865316543463 60.8739759022457,44.5878791272725 60.8712809563934,44.5905740731248 60.8739759022457,44.5932690189772 60.8766708480981,44.6040488023866 60.8807132668766,44.6080912211651 60.883408212729,44.6027013294604 60.8874506315075,44.6040488023866 60.8874506315075,44.606743748239 60.8820607398028,44.6094386940913 60.883408212729,44.6107861670175 60.8941879961384,44.6080912211651 60.8941879961384,44.6053962753128 60.8901455773599,44.6040488023866 60.8955354690646,44.5986589106819 60.8901455773599,44.5905740731248 60.8887981044337,44.5892266001986 60.883408212729,44.5946164919033 60.8793657939504,44.5905740731248 60.8820607398028,44.5851841814201 60.8780183210243,44.5811417626416 60.8699334834672,44.5811417626416 60.8591537000578,44.5676670333798 60.8510688625007,44.5676670333798 60.8483739166483,44.5730569250845 60.8416365520174,44.5744043980107 60.8510688625007,44.5784468167892 60.8524163354269,44.5851841814201 60.8591537000578,44.5892266001986</coordinates></LinearRing></outerBoundaryIs><innerBoundaryIs><LinearRing><coordinates>60.8874506315075,44.5986589106819 60.8887981044337,44.5973114377557 60.8901455773599,44.5986589106819 60.8874506315075,44.5986589106819</coordinates></LinearRing></innerBoundaryIs><innerBoundaryIs><LinearRing><coordinates>60.8618486459101,44.5838367084939 60.8631961188363,44.5851841814201 60.8618486459101,44.5865316543463 60.8618486459101,44.5838367084939</coordinates></LinearRing></innerBoundaryIs><innerBoundaryIs><LinearRing><coordinates>60.8551112812792,44.5744043980107 60.853763808353,44.5757518709368 60.8524163354269,44.5744043980107 60.8551112812792,44.5744043980107</coordinates></LinearRing></innerBoundaryIs></Polygon><Polygon><outerBoundaryIs><LinearRing><coordinates>60.8672385376148,44.6000063836081 60.8618486459101,44.591921546051 60.8605011729839,44.5986589106819 60.8645435917625,44.6053962753128 60.8672385376148,44.6053962753128 60.8712809563934,44.6013538565342 60.8672385376148,44.6000063836081</coordinates></LinearRing></outerBoundaryIs></Polygon><Polygon><outerBoundaryIs><LinearRing><coordinates>60.9263910613787,44.6069167750873 60.9263910613787,44.6031101844245 60.9251798734405,44.606743748239 60.9263910613787,44.6069167750873</coordinates></LinearRing></outerBoundaryIs></Polygon><Polygon><outerBoundaryIs><LinearRing><coordinates>60.8631961188363,44.6094386940913 60.853763808353,44.6053962753128 60.8510688625007,44.5973114377557 60.8470264437221,44.6013538565342 60.8497213895745,44.6040488023866 60.8470264437221,44.6094386940913 60.8510688625007,44.6107861670175 60.853763808353,44.6161760587222 60.8631961188363,44.6094386940913</coordinates></LinearRing></outerBoundaryIs></Polygon></MultiGeometry>
  </Placemark>
</Folder>
</Document></kml>
