<?xml version="1.0" encoding="utf-8" ?>
<kml xmlns="http://www.opengis.net/kml/2.2">
<Document id="root_doc">
<Schema name="task_grid_v6_44.51_60.96" id="task_grid_v6_44.51_60.96">
	<SimpleField name="area_ha" type="float"></SimpleField>
	<SimpleField name="low_risk_ha" type="float"></SimpleField>
	<SimpleField name="moderate_risk_ha" type="float"></SimpleField>
	<SimpleField name="grid_cell_deg" type="string"></SimpleField>
</Schema>
<Folder><name>task_grid_v6_44.51_60.96</name>
  <Placemark id="task_grid_v6_44.51_60.96.1">
	<name>task_grid_v6_44.51_60.96</name>
	<name>36.7</name>
	<description>344.2</description>
	<Style><LineStyle><color>ff0000ff</color></LineStyle><PolyStyle><fill>0</fill></PolyStyle></Style>
	<ExtendedData><SchemaData schemaUrl="#task_grid_v6_44.51_60.96">
		<SimpleData name="area_ha">307.5</SimpleData>
		<SimpleData name="low_risk_ha">0.1</SimpleData>
	</SchemaData></ExtendedData>
      <MultiGeometry><Polygon><outerBoundaryIs><LinearRing><coordinates>60.9373071297762,44.4679540368425 60.9292222922191,44.4679540368425 60.9255167416721,44.4716595873895 60.9238324005144,44.4706489826949 60.9224849275882,44.4746914014734 60.9292222922191,44.4787338202519 60.9305697651453,44.4746914014734 60.9283239769349,44.4733439285472 60.9346121839238,44.4760388743996 60.9386546027023,44.471996455621 60.9373071297762,44.4679540368425</coordinates></LinearRing></outerBoundaryIs></Polygon><Polygon><outerBoundaryIs><LinearRing><coordinates>60.9561717507427,44.486818657809 60.9642565882997,44.486818657809 60.9669515341521,44.4814287661043 60.973688898783,44.4773863473257 60.9669515341521,44.4760388743996 60.9642565882997,44.4787338202519 60.958866696595,44.4787338202519 60.9575192236688,44.4746914014734 60.9629091153736,44.4693015097687 60.958866696595,44.4625641451378 60.9548242778165,44.463911618064 60.9521293319641,44.4800812931781 60.9575192236688,44.4827762390305 60.9548242778165,44.4854711848828 60.9561717507427,44.486818657809</coordinates></LinearRing></outerBoundaryIs></Polygon><Polygon><outerBoundaryIs><LinearRing><coordinates>60.9400020756285,44.4814287661043 60.9346121839238,44.4814287661043 60.9332647109976,44.4854711848828 60.9346121839238,44.486818657809 60.9400020756285,44.4841237119566 60.9400020756285,44.4814287661043</coordinates></LinearRing></outerBoundaryIs></Polygon><Polygon><outerBoundaryIs><LinearRing><coordinates>60.9157475629573,44.4922085495137 60.9224849275882,44.4908610765875 60.9184425088096,44.4895136036614 60.9157475629573,44.486818657809 60.9157475629573,44.4922085495137</coordinates></LinearRing></outerBoundaryIs></Polygon><Polygon><outerBoundaryIs><LinearRing><coordinates>60.9102213862645,44.4936241649339 60.9130526171049,44.4922085495137 60.9130526171049,44.4895136036614 60.9102213862645,44.4900798498294 60.9102213862645,44.4936241649339</coordinates></LinearRing></outerBoundaryIs></Polygon><Polygon><outerBoundaryIs><LinearRing><coordinates>60.9117051441788,44.5097256975541 60.9102213862645,44.5096267803598 60.9102213862645,44.5098246147483 60.9117051441788,44.5097256975541</coordinates></LinearRing></outerBoundaryIs></Polygon><Polygon><outerBoundaryIs><LinearRing><coordinates>61.0100706677898,44.5299377914467 61.0060282490113,44.5366751560776 61.0073757219375,44.5407175748562 61.0102213862645,44.5390101762599 61.0102213862645,44.5301889889046 61.0100706677898,44.5299377914467</coordinates></LinearRing></outerBoundaryIs></Polygon></MultiGeometry>
  </Placemark>
</Folder>
</Document></kml>
