<?xml version="1.0" encoding="utf-8" ?>
<kml xmlns="http://www.opengis.net/kml/2.2">
<Document id="root_doc">
<Schema name="task_grid_v6_45.98_59.68" id="task_grid_v6_45.98_59.68">
	<SimpleField name="area_ha" type="float"></SimpleField>
	<SimpleField name="low_risk_ha" type="float"></SimpleField>
	<SimpleField name="moderate_risk_ha" type="float"></SimpleField>
	<SimpleField name="grid_cell_deg" type="string"></SimpleField>
</Schema>
<Folder><name>task_grid_v6_45.98_59.68</name>
  <Placemark id="task_grid_v6_45.98_59.68.1">
	<name>task_grid_v6_45.98_59.68</name>
	<name>0</name>
	<description>31.3</description>
	<Style><LineStyle><color>ff0000ff</color></LineStyle><PolyStyle><fill>0</fill></PolyStyle></Style>
	<ExtendedData><SchemaData schemaUrl="#task_grid_v6_45.98_59.68">
		<SimpleData name="area_ha">31.3</SimpleData>
		<SimpleData name="low_risk_ha">0.1</SimpleData>
	</SchemaData></ExtendedData>
      <MultiGeometry><Polygon><outerBoundaryIs><LinearRing><coordinates>59.7057168752483,46.0256327395057 59.7097592940268,46.0215903207272 59.7057168752483,46.020242847801 59.7016744564698,46.0242852665796 59.7057168752483,46.0256327395057</coordinates></LinearRing></outerBoundaryIs></Polygon><Polygon><outerBoundaryIs><LinearRing><coordinates>59.7016744564698,46.0296751582843 59.7003269835436,46.0256327395057 59.696284564765,46.0269802124319 59.7003269835436,46.0310226312105 59.7016744564698,46.0296751582843</coordinates></LinearRing></outerBoundaryIs></Polygon></MultiGeometry>
  </Placemark>
</Folder>
</Document></kml>
