<?xml version="1.0" encoding="utf-8" ?>
<kml xmlns="http://www.opengis.net/kml/2.2">
<Document id="root_doc">
<Schema name="task_grid_v6_46.38_59.98" id="task_grid_v6_46.38_59.98">
	<SimpleField name="area_ha" type="float"></SimpleField>
	<SimpleField name="low_risk_ha" type="float"></SimpleField>
	<SimpleField name="moderate_risk_ha" type="float"></SimpleField>
	<SimpleField name="grid_cell_deg" type="string"></SimpleField>
</Schema>
<Folder><name>task_grid_v6_46.38_59.98</name>
  <Placemark id="task_grid_v6_46.38_59.98.1">
	<name>task_grid_v6_46.38_59.98</name>
	<name>75.8</name>
	<description>80.7</description>
	<Style><LineStyle><color>ff0000ff</color></LineStyle><PolyStyle><fill>0</fill></PolyStyle></Style>
	<ExtendedData><SchemaData schemaUrl="#task_grid_v6_46.38_59.98">
		<SimpleData name="area_ha">4.9</SimpleData>
		<SimpleData name="low_risk_ha">0.1</SimpleData>
	</SchemaData></ExtendedData>
      <MultiGeometry><Polygon><outerBoundaryIs><LinearRing><coordinates>59.9450110989219,46.3343547580755 59.9455670561082,46.3382464583793 59.947234927667,46.3343547580755 59.9450110989219,46.3343547580755</coordinates></LinearRing></outerBoundaryIs></Polygon><Polygon><outerBoundaryIs><LinearRing><coordinates>59.95904178537,46.3921453754265 59.95904178537,46.3894504295742 59.9536518936653,46.3894504295742 59.9469145290344,46.3934928483527 59.9536518936653,46.3948403212789 59.95904178537,46.3921453754265</coordinates></LinearRing></outerBoundaryIs></Polygon><Polygon><outerBoundaryIs><LinearRing><coordinates>60.0048558648601,46.4083150505407 59.996771027303,46.4083150505407 59.9954235543768,46.4096625234668 60.0048558648601,46.411009996393 60.0048558648601,46.4083150505407</coordinates></LinearRing></outerBoundaryIs></Polygon><Polygon><outerBoundaryIs><LinearRing><coordinates>60.0008134460816,46.4312220902857 59.9940760814507,46.4298746173595 59.9900336626721,46.4339170361381 59.9904713846095,46.4343547580755 59.9976807782918,46.4343547580755 60.0008134460816,46.4312220902857</coordinates></LinearRing></outerBoundaryIs></Polygon><Polygon><outerBoundaryIs><LinearRing><coordinates>59.9779064063365,46.4325695632119 59.9774195350101,46.4343547580755 59.9789775232547,46.4343547580755 59.9779064063365,46.4325695632119</coordinates></LinearRing></outerBoundaryIs></Polygon></MultiGeometry>
  </Placemark>
</Folder>
</Document></kml>
