<?xml version="1.0" encoding="utf-8" ?>
<kml xmlns="http://www.opengis.net/kml/2.2">
<Document id="root_doc">
<Schema name="task_grid_v6_45.48_58.88" id="task_grid_v6_45.48_58.88">
	<SimpleField name="area_ha" type="float"></SimpleField>
	<SimpleField name="low_risk_ha" type="float"></SimpleField>
	<SimpleField name="moderate_risk_ha" type="float"></SimpleField>
	<SimpleField name="grid_cell_deg" type="string"></SimpleField>
</Schema>
<Folder><name>task_grid_v6_45.48_58.88</name>
  <Placemark id="task_grid_v6_45.48_58.88.1">
	<name>task_grid_v6_45.48_58.88</name>
	<name>0</name>
	<description>982.2</description>
	<Style><LineStyle><color>ff0000ff</color></LineStyle><PolyStyle><fill>0</fill></PolyStyle></Style>
	<ExtendedData><SchemaData schemaUrl="#task_grid_v6_45.48_58.88">
		<SimpleData name="area_ha">982.2</SimpleData>
		<SimpleData name="low_risk_ha">0.1</SimpleData>
	</SchemaData></ExtendedData>
      <MultiGeometry><Polygon><outerBoundaryIs><LinearRing><coordinates>58.9026230112454,45.4381345436916 58.9012755383193,45.4421769624701 58.9053179570978,45.4435244353963 58.906665430024,45.4421769624701 58.9026230112454,45.4381345436916</coordinates></LinearRing></outerBoundaryIs></Polygon><Polygon><outerBoundaryIs><LinearRing><coordinates>58.9214876322119,45.4381345436916 58.9174452134334,45.4394820166178 58.9214876322119,45.4462193812487 58.9241825780643,45.4462193812487 58.9255300509905,45.4421769624701 58.9214876322119,45.4381345436916</coordinates></LinearRing></outerBoundaryIs></Polygon><Polygon><outerBoundaryIs><LinearRing><coordinates>58.8608513505339,45.4475668541748 58.8621988234601,45.4516092729534 58.8662412422386,45.4502618000272 58.8648937693124,45.4462193812487 58.8608513505339,45.4475668541748</coordinates></LinearRing></outerBoundaryIs></Polygon><Polygon><outerBoundaryIs><LinearRing><coordinates>58.9107078488025,45.4435244353963 58.9080129029502,45.448914327101 58.8972331195407,45.4516092729534 58.8945381736884,45.448914327101 58.8931907007622,45.4529567458796 58.8972331195407,45.4569991646581 58.8999280653931,45.4543042188057 58.9012755383193,45.4556516917319 58.8958856466145,45.4610415834366 58.9012755383193,45.4691264209937 58.8931907007622,45.4691264209937 58.8931907007622,45.4772112585508 58.8904957549098,45.4826011502555 58.8972331195407,45.486643569034 58.8972331195407,45.4758637856246 58.9053179570978,45.4704738939199 58.9080129029502,45.4758637856246 58.9107078488025,45.4731688397722 58.9120553217287,45.4745163126984 58.906665430024,45.4799062044031 58.9134027946549,45.486643569034 58.9160977405072,45.4839486231817 58.9214876322119,45.486643569034 58.9228351051381,45.4879910419602 58.9174452134334,45.4906859878126 58.9187926863596,45.4920334607388 58.9263910613787,45.4952899071755 58.9263910613787,45.4516092729534 58.9187926863596,45.4516092729534 58.9134027946549,45.448914327101 58.9107078488025,45.4435244353963</coordinates></LinearRing></outerBoundaryIs><innerBoundaryIs><LinearRing><coordinates>58.9120553217287,45.463736529289 58.9160977405072,45.4596941105104 58.9160977405072,45.4650840022152 58.9120553217287,45.463736529289</coordinates></LinearRing></innerBoundaryIs><innerBoundaryIs><LinearRing><coordinates>58.9214876322119,45.4543042188057 58.9228351051381,45.4583466375843 58.9214876322119,45.4596941105104 58.9201401592858,45.4556516917319 58.9214876322119,45.4543042188057</coordinates></LinearRing></innerBoundaryIs><innerBoundaryIs><LinearRing><coordinates>58.9080129029502,45.4623890563628 58.906665430024,45.4610415834366 58.9093603758763,45.4610415834366 58.9080129029502,45.4623890563628</coordinates></LinearRing></innerBoundaryIs></Polygon><Polygon><outerBoundaryIs><LinearRing><coordinates>58.8716311339433,45.4852960961079 58.8675887151648,45.478558731477 58.8648937693124,45.478558731477 58.8635462963862,45.4826011502555 58.8675887151648,45.4893385148864 58.8702836610171,45.4893385148864 58.8716311339433,45.4852960961079</coordinates></LinearRing></outerBoundaryIs></Polygon><Polygon><outerBoundaryIs><LinearRing><coordinates>58.9263910613787,45.5302491652097 58.9228351051381,45.5338051214503 58.9244840150137,45.5343547580755 58.9263910613787,45.5343547580755 58.9263910613787,45.5302491652097</coordinates></LinearRing></outerBoundaryIs></Polygon></MultiGeometry>
  </Placemark>
</Folder>
</Document></kml>
