<?xml version="1.0" encoding="utf-8" ?>
<kml xmlns="http://www.opengis.net/kml/2.2">
<Document id="root_doc">
<Schema name="task_grid_v6_45.41_59.06" id="task_grid_v6_45.41_59.06">
	<SimpleField name="area_ha" type="float"></SimpleField>
	<SimpleField name="low_risk_ha" type="float"></SimpleField>
	<SimpleField name="moderate_risk_ha" type="float"></SimpleField>
	<SimpleField name="grid_cell_deg" type="string"></SimpleField>
</Schema>
<Folder><name>task_grid_v6_45.41_59.06</name>
  <Placemark id="task_grid_v6_45.41_59.06.1">
	<name>task_grid_v6_45.41_59.06</name>
	<name>2377.6</name>
	<description>6507.7</description>
	<Style><LineStyle><color>ff0000ff</color></LineStyle><PolyStyle><fill>0</fill></PolyStyle></Style>
	<ExtendedData><SchemaData schemaUrl="#task_grid_v6_45.41_59.06">
		<SimpleData name="area_ha">4130.1</SimpleData>
		<SimpleData name="low_risk_ha">0.1</SimpleData>
	</SchemaData></ExtendedData>
      <MultiGeometry><Polygon><outerBoundaryIs><LinearRing><coordinates>59.0414127226419,45.4017527746847 59.0427601955681,45.4031002476109 59.0481500872728,45.4004053017586 59.0548874519037,45.4071426663895 59.0521925060513,45.4098376122418 59.0562349248299,45.4192699227251 59.0616248165346,45.4138800310204 59.0629722894608,45.4152275039465 59.0521925060513,45.4233123415036 59.0589298706822,45.4246598144298 59.0616248165346,45.4219648685774 59.0616248165346,45.4273547602821 59.0468026143466,45.4313971790607 59.0521925060513,45.434092124913 59.049497560199,45.4367870707654 59.0535399789775,45.4408294895439 59.0589298706822,45.4381345436916 59.0697096540917,45.4435244353963 59.072404599944,45.4408294895439 59.0750995457964,45.4462193812487 59.0777944916487,45.4408294895439 59.0804894375011,45.4435244353963 59.0885742750582,45.4435244353963 59.0939641667629,45.4408294895439 59.0936272985314,45.43779767546 59.0953116396891,45.4394820166178 59.0953116396891,45.4529567458796 59.1068405187989,45.4625641451378 59.1069136296998,45.4625641451378 59.1076139847997,45.4625641451378 59.1102213862645,45.4625641451378 59.1102213862645,45.3625641451378 59.1021609190077,45.3625641451378 59.0993540584676,45.3653710056779 59.0939641667629,45.3653710056779 59.0953116396891,45.3640235327517 59.0944360071207,45.3625641451378 59.0866090230128,45.3625641451378 59.042972589239,45.3625641451378 59.0417872704921,45.3625641451378 59.0210968283389,45.3625641451378 59.0159280297902,45.3652797779868 59.0158107370445,45.3653710056779 59.0157762634026,45.365359514464 59.010568688283,45.3680955201189 59.0171582099707,45.3694134244564 59.0144632641183,45.3721083703088 59.019853155823,45.3748033161612 59.0144632641183,45.3801932078659 59.0158107370445,45.3869305724968 59.0225481016754,45.3855830995706 59.0171582099707,45.3828881537182 59.0212006287492,45.381540680792 59.0238955746016,45.3842356266444 59.0292854663063,45.373455843235 59.0319804121587,45.381540680792 59.0265905204539,45.3788457349397 59.0252430475278,45.3828881537182 59.0265905204539,45.3842356266444 59.0171582099707,45.3909729912753 59.0131157911921,45.3977103559062 59.0102213862645,45.3989508151609 59.0102213862645,45.4040650492535 59.0131157911921,45.4031002476109 59.0131157911921,45.4057951934633 59.0104208453398,45.4057951934633 59.0102213862645,45.405595734388 59.0102213862645,45.4084901393156 59.0104208453398,45.4084901393156 59.011768318266,45.4125325580942 59.0104208453398,45.4138800310204 59.0102213862645,45.4134811128699 59.0102213862645,45.4298502470592 59.019853155823,45.4394820166178 59.0158107370445,45.4462193812487 59.0102213862645,45.4470178599315 59.0102213862645,45.4518087320286 59.0131157911921,45.448914327101 59.0185056828969,45.4516092729534 59.019853155823,45.4448719083225 59.0238955746016,45.4435244353963 59.0265905204539,45.448914327101 59.0306329392325,45.4502618000272 59.019853155823,45.4529567458796 59.0265905204539,45.4623890563628 59.0441076684943,45.4583466375843 59.0360228309372,45.4529567458796 59.0387177767895,45.4502618000272 59.0333278850848,45.4394820166178 59.0400652497157,45.4381345436916 59.0441076684943,45.434092124913 59.0414127226419,45.4287022332083 59.049497560199,45.4233123415036 59.0468026143466,45.4206173956512 59.0521925060513,45.4179224497989 59.0521925060513,45.4125325580942 59.0401512586259,45.4028995601538 59.0414127226419,45.3999561441165 59.0414127226419,45.4017527746847</coordinates></LinearRing></outerBoundaryIs><innerBoundaryIs><LinearRing><coordinates>59.0899217479844,45.4233123415036 59.0926166938367,45.4206173956512 59.0953116396891,45.4233123415036 59.0942336613481,45.4254682981855 59.0899217479844,45.4233123415036</coordinates></LinearRing></innerBoundaryIs><innerBoundaryIs><LinearRing><coordinates>59.087226802132,45.4044477205371 59.0858793292058,45.4031002476109 59.0980065855414,45.4152275039465 59.0953116396891,45.4179224497989 59.087226802132,45.4044477205371</coordinates></LinearRing></innerBoundaryIs><innerBoundaryIs><LinearRing><coordinates>59.0777944916487,45.4084901393156 59.0750995457964,45.4057951934633 59.0750995457964,45.4057951934633 59.0777944916487,45.4031002476109 59.0777944916487,45.4084901393156</coordinates></LinearRing></innerBoundaryIs><innerBoundaryIs><LinearRing><coordinates>59.0697096540917,45.4084901393156 59.0656672353131,45.4044477205371 59.0711796245566,45.4077551540832 59.0697096540917,45.4084901393156</coordinates></LinearRing></innerBoundaryIs><innerBoundaryIs><LinearRing><coordinates>59.0818369104273,45.3882780454229 59.0806391567151,45.3864814148547 59.0813877527852,45.3842356266444 59.0831843833535,45.3869305724968 59.0845318562796,45.3855830995706 59.0791419645749,45.3936679371277 59.0818369104273,45.3882780454229</coordinates></LinearRing></innerBoundaryIs><innerBoundaryIs><LinearRing><coordinates>59.0764470187226,45.3801932078659 59.0777944916487,45.3788457349397 59.0770458955786,45.38109152315 59.0764470187226,45.3801932078659</coordinates></LinearRing></innerBoundaryIs><innerBoundaryIs><LinearRing><coordinates>59.072404599944,45.3680659515303 59.072404599944,45.3670553468356 59.0818369104273,45.3694134244564 59.072404599944,45.3680659515303</coordinates></LinearRing></innerBoundaryIs><innerBoundaryIs><LinearRing><coordinates>59.072404599944,45.3653710056779 59.0750995457964,45.3644726903938 59.0750995457964,45.3653710056779 59.072404599944,45.366269320962 59.072404599944,45.3653710056779</coordinates></LinearRing></innerBoundaryIs><innerBoundaryIs><LinearRing><coordinates>59.0697096540917,45.3626760598255 59.0750995457964,45.3626760598255 59.0750995457964,45.3637540381665 59.0697096540917,45.3626760598255</coordinates></LinearRing></innerBoundaryIs><innerBoundaryIs><LinearRing><coordinates>59.0521925060513,45.3694134244564 59.0548874519037,45.3748033161612 59.049497560199,45.3774982620135 59.049497560199,45.3801932078659 59.0589298706822,45.3869305724968 59.0616248165346,45.3842356266444 59.0629722894608,45.3909729912753 59.0683621811655,45.39636288298 59.0670147082393,45.3977103559062 59.064319762387,45.3950154100538 59.0601276243944,45.4013036170427 59.0589298706822,45.3977103559062 59.0548874519037,45.3990578288324 59.0602773436084,45.39636288298 59.0575823977561,45.3936679371277 59.0602773436084,45.3909729912753 59.0414127226419,45.3774982620135 59.0454551414204,45.373455843235 59.0481500872728,45.3761507890873 59.049497560199,45.3748033161612 59.049497560199,45.3694134244564 59.0521925060513,45.3667184786041 59.0552243201352,45.369750292688 59.0521925060513,45.3694134244564</coordinates></LinearRing></innerBoundaryIs><innerBoundaryIs><LinearRing><coordinates>59.0427601955681,45.3707608973826 59.0414127226419,45.3694134244564 59.0435301800973,45.3651785095456 59.0450059837784,45.3673922150672 59.0427601955681,45.3707608973826</coordinates></LinearRing></innerBoundaryIs><innerBoundaryIs><LinearRing><coordinates>59.0387177767895,45.4017527746847 59.0360228309372,45.3936679371277 59.0398894923775,45.4026901471551 59.0387177767895,45.4017527746847</coordinates></LinearRing></innerBoundaryIs><innerBoundaryIs><LinearRing><coordinates>59.034675358011,45.364216028884 59.034675358011,45.3626760598255 59.0360228309372,45.3640235327517 59.034675358011,45.364216028884</coordinates></LinearRing></innerBoundaryIs><innerBoundaryIs><LinearRing><coordinates>59.0265905204539,45.364216028884 59.0306329392325,45.364793517281 59.0265905204539,45.3653710056779 59.0265905204539,45.364216028884</coordinates></LinearRing></innerBoundaryIs><innerBoundaryIs><LinearRing><coordinates>59.0737520728702,45.434092124913 59.0791419645749,45.4313971790607 59.0764470187226,45.434092124913 59.0777944916487,45.4381345436916 59.0737520728702,45.434092124913</coordinates></LinearRing></innerBoundaryIs><innerBoundaryIs><LinearRing><coordinates>59.0764470187226,45.4287022332083 59.0791419645749,45.426007287356 59.0791419645749,45.4313971790607 59.0764470187226,45.4287022332083</coordinates></LinearRing></innerBoundaryIs><innerBoundaryIs><LinearRing><coordinates>59.0831843833535,45.411185085168 59.0845318562796,45.4119935689237 59.0791419645749,45.4152275039465 59.0831843833535,45.411185085168</coordinates></LinearRing></innerBoundaryIs><innerBoundaryIs><LinearRing><coordinates>59.0858793292058,45.4233123415036 59.087226802132,45.4179224497989 59.0899217479844,45.4152275039465 59.0858793292058,45.4233123415036</coordinates></LinearRing></innerBoundaryIs><innerBoundaryIs><LinearRing><coordinates>59.0858793292058,45.4300497061345 59.0845318562796,45.4287022332083 59.0849168485443,45.4271622641498 59.0858793292058,45.4300497061345</coordinates></LinearRing></innerBoundaryIs><innerBoundaryIs><LinearRing><coordinates>59.0899217479844,45.4287022332083 59.089416445637,45.4298812720187 59.0885742750582,45.4273547602821 59.0899217479844,45.4287022332083</coordinates></LinearRing></innerBoundaryIs><innerBoundaryIs><LinearRing><coordinates>59.0737520728702,45.3828881537182 59.0737520728702,45.3882780454229 59.072404599944,45.381540680792 59.0737520728702,45.3828881537182</coordinates></LinearRing></innerBoundaryIs><innerBoundaryIs><LinearRing><coordinates>59.072404599944,45.4138800310204 59.0737520728702,45.4152275039465 59.0697096540917,45.4192699227251 59.0683621811655,45.4152275039465 59.072404599944,45.4138800310204</coordinates></LinearRing></innerBoundaryIs><innerBoundaryIs><LinearRing><coordinates>59.0481500872728,45.3869305724968 59.049497560199,45.3909729912753 59.0481500872728,45.3923204642015 59.0468026143466,45.3882780454229 59.0481500872728,45.3869305724968</coordinates></LinearRing></innerBoundaryIs><innerBoundaryIs><LinearRing><coordinates>59.0629722894608,45.4098376122418 59.0616248165346,45.411185085168 59.0602773436084,45.4098376122418 59.0629722894608,45.4098376122418</coordinates></LinearRing></innerBoundaryIs><innerBoundaryIs><LinearRing><coordinates>59.0562349248299,45.3788457349397 59.0575823977561,45.3801932078659 59.0562349248299,45.381540680792 59.0562349248299,45.3788457349397</coordinates></LinearRing></innerBoundaryIs><innerBoundaryIs><LinearRing><coordinates>59.0292854663063,45.4057951934633 59.034675358011,45.4057951934633 59.0360228309372,45.4152275039465 59.0279379933801,45.4152275039465 59.0306329392325,45.426007287356 59.0252430475278,45.426007287356 59.0238955746016,45.4327446519869 59.0225481016754,45.426007287356 59.0144632641183,45.4179224497989 59.0212006287492,45.4165749768727 59.0292854663063,45.4057951934633</coordinates></LinearRing></innerBoundaryIs><innerBoundaryIs><LinearRing><coordinates>59.0427601955681,45.4138800310204 59.0441076684943,45.4152275039465 59.0441076684943,45.4206173956512 59.0414127226419,45.4206173956512 59.0427601955681,45.4138800310204</coordinates></LinearRing></innerBoundaryIs><innerBoundaryIs><LinearRing><coordinates>59.0265905204539,45.4408294895439 59.0252430475278,45.4367870707654 59.0279379933801,45.4367870707654 59.0279379933801,45.4394820166178 59.0265905204539,45.4408294895439</coordinates></LinearRing></innerBoundaryIs><innerBoundaryIs><LinearRing><coordinates>59.034675358011,45.4246598144298 59.0333278850848,45.4233123415036 59.034675358011,45.4219648685774 59.034675358011,45.4246598144298</coordinates></LinearRing></innerBoundaryIs><innerBoundaryIs><LinearRing><coordinates>59.0158107370445,45.411185085168 59.0171582099707,45.4125325580942 59.0158107370445,45.4138800310204 59.0158107370445,45.411185085168</coordinates></LinearRing></innerBoundaryIs><innerBoundaryIs><LinearRing><coordinates>59.0265905204539,45.4031002476109 59.0252430475278,45.4017527746847 59.0265905204539,45.4004053017586 59.0265905204539,45.4031002476109</coordinates></LinearRing></innerBoundaryIs><innerBoundaryIs><LinearRing><coordinates>59.0225481016754,45.3936679371277 59.0238955746016,45.3923204642015 59.0252430475278,45.3936679371277 59.0225481016754,45.3936679371277</coordinates></LinearRing></innerBoundaryIs><innerBoundaryIs><LinearRing><coordinates>59.1007015313938,45.4017527746847 59.10204900432,45.4004053017586 59.1087863689509,45.4044477205371 59.1047439501723,45.4057951934633 59.1007015313938,45.4017527746847</coordinates></LinearRing></innerBoundaryIs><innerBoundaryIs><LinearRing><coordinates>59.0966591126153,45.4031002476109 59.0953116396891,45.3990578288324 59.0966591126153,45.3977103559062 59.0980065855414,45.4017527746847 59.0966591126153,45.4031002476109</coordinates></LinearRing></innerBoundaryIs><innerBoundaryIs><LinearRing><coordinates>59.1007015313938,45.4233123415036 59.0993540584676,45.4246598144298 59.0980065855414,45.4233123415036 59.1007015313938,45.4233123415036</coordinates></LinearRing></innerBoundaryIs><innerBoundaryIs><LinearRing><coordinates>59.1007015313938,45.4098376122418 59.10204900432,45.4084901393156 59.1033964772462,45.4098376122418 59.1007015313938,45.4098376122418</coordinates></LinearRing></innerBoundaryIs><innerBoundaryIs><LinearRing><coordinates>59.0899217479844,45.3801932078659 59.0885742750582,45.381540680792 59.087226802132,45.3801932078659 59.0899217479844,45.3801932078659</coordinates></LinearRing></innerBoundaryIs></Polygon><Polygon><outerBoundaryIs><LinearRing><coordinates>59.0427601955681,45.4462193812487 59.0441076684943,45.4448719083225 59.0400652497157,45.4408294895439 59.0360228309372,45.4421769624701 59.0427601955681,45.4462193812487</coordinates></LinearRing></outerBoundaryIs></Polygon><Polygon><outerBoundaryIs><LinearRing><coordinates>59.0158107370445,45.4596941105104 59.019853155823,45.4583466375843 59.0185056828969,45.4543042188057 59.0144632641183,45.4583466375843 59.0158107370445,45.4596941105104</coordinates></LinearRing></outerBoundaryIs></Polygon><Polygon><outerBoundaryIs><LinearRing><coordinates>59.0510201219001,45.4625641451378 59.0543799313366,45.4625641451378 59.0548874519037,45.4610415834366 59.0508450331252,45.4569991646581 59.049497560199,45.4610415834366 59.0510201219001,45.4625641451378</coordinates></LinearRing></outerBoundaryIs></Polygon><Polygon><outerBoundaryIs><LinearRing><coordinates>59.0186107361618,45.4625641451378 59.0185056828969,45.4623890563628 59.017805327797,45.4625641451378 59.0186107361618,45.4625641451378</coordinates></LinearRing></outerBoundaryIs></Polygon><Polygon><outerBoundaryIs><LinearRing><coordinates>59.0969948566785,45.3625641451378 59.0965471979275,45.3625641451378 59.0966591126153,45.3626760598255 59.0969948566785,45.3625641451378</coordinates></LinearRing></outerBoundaryIs></Polygon><Polygon><outerBoundaryIs><LinearRing><coordinates>59.0602773436084,45.4610415834366 59.064319762387,45.4569991646581 59.0670147082393,45.4623890563628 59.0710571270179,45.4610415834366 59.0683621811655,45.4502618000272 59.0670147082393,45.448914327101 59.064319762387,45.4516092729534 59.0616248165346,45.4462193812487 59.0589298706822,45.448914327101 59.049497560199,45.4502618000272 59.0548874519037,45.4529567458796 59.0580899183231,45.4625641451378 59.0617999053096,45.4625641451378 59.0602773436084,45.4610415834366</coordinates></LinearRing></outerBoundaryIs><innerBoundaryIs><LinearRing><coordinates>59.0602773436084,45.4529567458796 59.0589298706822,45.4543042188057 59.0575823977561,45.4529567458796 59.0602773436084,45.4529567458796</coordinates></LinearRing></innerBoundaryIs></Polygon><Polygon><outerBoundaryIs><LinearRing><coordinates>59.0913275838355,45.4625641451378 59.0912692209105,45.4623890563628 59.0750995457964,45.4623890563628 59.0748077311714,45.4625641451378 59.0913275838355,45.4625641451378</coordinates></LinearRing></outerBoundaryIs></Polygon></MultiGeometry>
  </Placemark>
</Folder>
</Document></kml>
