<?xml version="1.0" encoding="utf-8" ?>
<kml xmlns="http://www.opengis.net/kml/2.2">
<Document id="root_doc">
<Schema name="task_grid_v6_45.21_59.36" id="task_grid_v6_45.21_59.36">
	<SimpleField name="area_ha" type="float"></SimpleField>
	<SimpleField name="low_risk_ha" type="float"></SimpleField>
	<SimpleField name="moderate_risk_ha" type="float"></SimpleField>
	<SimpleField name="grid_cell_deg" type="string"></SimpleField>
</Schema>
<Folder><name>task_grid_v6_45.21_59.36</name>
  <Placemark id="task_grid_v6_45.21_59.36.1">
	<name>task_grid_v6_45.21_59.36</name>
	<name>784.4</name>
	<description>1069.8</description>
	<Style><LineStyle><color>ff0000ff</color></LineStyle><PolyStyle><fill>0</fill></PolyStyle></Style>
	<ExtendedData><SchemaData schemaUrl="#task_grid_v6_45.21_59.36">
		<SimpleData name="area_ha">285.3</SimpleData>
		<SimpleData name="low_risk_ha">0.1</SimpleData>
	</SchemaData></ExtendedData>
      <MultiGeometry><Polygon><outerBoundaryIs><LinearRing><coordinates>59.3755860083344,45.2036175510799 59.371616796965,45.2053145570991 59.372891062482,45.2104116191673 59.3769334812606,45.2117590920935 59.3782809541867,45.2077166733149 59.3755860083344,45.2050217274626 59.3755860083344,45.2036175510799</coordinates></LinearRing></outerBoundaryIs></Polygon><Polygon><outerBoundaryIs><LinearRing><coordinates>59.3553739144417,45.2225388755029 59.3594163332202,45.2184964567244 59.358068860294,45.2144540379458 59.3513314956631,45.2184964567244 59.3553739144417,45.2225388755029</coordinates></LinearRing></outerBoundaryIs></Polygon><Polygon><outerBoundaryIs><LinearRing><coordinates>59.3850183188176,45.238708550617 59.3863657917438,45.2373610776909 59.3823233729653,45.23062371306 59.3809759000391,45.2373610776909 59.3850183188176,45.238708550617</coordinates></LinearRing></outerBoundaryIs></Polygon><Polygon><outerBoundaryIs><LinearRing><coordinates>59.3162971995825,45.2319711859861 59.3176446725087,45.2414034964694 59.3216870912872,45.2346661318385 59.3176446725087,45.23062371306 59.3162971995825,45.2319711859861</coordinates></LinearRing></outerBoundaryIs></Polygon><Polygon><outerBoundaryIs><LinearRing><coordinates>59.349984022737,45.238708550617 59.3526789685893,45.2414034964694 59.3553739144417,45.238708550617 59.3634587519988,45.2494883340265 59.3675011707773,45.2508358069527 59.3688486437035,45.2602681174359 59.3742385354082,45.2575731715836 59.3755860083344,45.2589206445097 59.372891062482,45.2616155903621 59.372891062482,45.2625641451378 59.3782809541867,45.2625641451378 59.3782809541867,45.253530752805 59.3755860083344,45.2508358069527 59.3755860083344,45.2400560235432 59.372891062482,45.2373610776909 59.372891062482,45.2238863484291 59.3688486437035,45.2225388755029 59.3661536978511,45.2279287672076 59.3553739144417,45.2252338213553 59.3526789685893,45.23062371306 59.349984022737,45.2198439296505 59.3418991851799,45.2198439296505 59.3405517122537,45.2292762401338 59.3432466581061,45.2319711859861 59.3378567664014,45.2346661318385 59.3418991851799,45.238708550617 59.349984022737,45.238708550617</coordinates></LinearRing></outerBoundaryIs><innerBoundaryIs><LinearRing><coordinates>59.3701961166296,45.253530752805 59.3715435895558,45.2521832798788 59.372891062482,45.253530752805 59.3701961166296,45.253530752805</coordinates></LinearRing></innerBoundaryIs><innerBoundaryIs><LinearRing><coordinates>59.3607638061464,45.238708550617 59.3621112790726,45.2400560235432 59.3607638061464,45.2414034964694 59.3607638061464,45.238708550617</coordinates></LinearRing></innerBoundaryIs><innerBoundaryIs><LinearRing><coordinates>59.3701961166296,45.2346661318385 59.3688486437035,45.2360136047647 59.3675011707773,45.2346661318385 59.3701961166296,45.2346661318385</coordinates></LinearRing></innerBoundaryIs></Polygon><Polygon><outerBoundaryIs><LinearRing><coordinates>59.3931031563747,45.2494883340265 59.3944506293009,45.2454459152479 59.3904082105223,45.2414034964694 59.3890607375962,45.2454459152479 59.3931031563747,45.2494883340265</coordinates></LinearRing></outerBoundaryIs></Polygon><Polygon><outerBoundaryIs><LinearRing><coordinates>59.3634587519988,45.2602681174359 59.3619280668642,45.2625641451378 59.364224094566,45.2625641451378 59.3634587519988,45.2602681174359</coordinates></LinearRing></outerBoundaryIs></Polygon><Polygon><outerBoundaryIs><LinearRing><coordinates>59.4066953499351,45.1903169895732 59.4079253585627,45.1915469982008 59.4052304127103,45.1942419440531 59.4065778856365,45.2144540379458 59.4102213862645,45.2108105373178 59.4102213862645,45.188809459659 59.4066953499351,45.1903169895732</coordinates></LinearRing></outerBoundaryIs></Polygon><Polygon><outerBoundaryIs><LinearRing><coordinates>59.406038896466,45.2219998863324 59.4052304127103,45.2238863484291 59.4102213862645,45.2338682955375 59.4102213862645,45.2157820146318 59.4092728314888,45.2144540379458 59.4072516220996,45.2191701931874 59.4065778856365,45.2171489837982 59.402535466858,45.2184964567244 59.406038896466,45.2219998863324</coordinates></LinearRing></outerBoundaryIs></Polygon><Polygon><outerBoundaryIs><LinearRing><coordinates>59.3998405210056,45.2373610776909 59.3971455751532,45.2346661318385 59.402535466858,45.2292762401338 59.3998405210056,45.2265812942814 59.3984930480794,45.2171489837982 59.3944506293009,45.2238863484291 59.3971455751532,45.2292762401338 59.3944506293009,45.2319711859861 59.3944506293009,45.2427509693956 59.3984930480794,45.2467933881741 59.3998405210056,45.2373610776909</coordinates></LinearRing></outerBoundaryIs></Polygon><Polygon><outerBoundaryIs><LinearRing><coordinates>59.4102213862645,45.2354639681395 59.4079253585627,45.2400560235432 59.4092493657153,45.2625641451378 59.4094437964105,45.2625641451378 59.4102213862645,45.2607497688117 59.4102213862645,45.2354639681395</coordinates></LinearRing></outerBoundaryIs></Polygon><Polygon><outerBoundaryIs><LinearRing><coordinates>59.4065778856365,45.2602681174359 59.4079253585627,45.2589206445097 59.4065778856365,45.2494883340265 59.4052304127103,45.2508358069527 59.4065778856365,45.2602681174359</coordinates></LinearRing></outerBoundaryIs></Polygon></MultiGeometry>
  </Placemark>
</Folder>
</Document></kml>
