<?xml version="1.0" encoding="utf-8" ?>
<kml xmlns="http://www.opengis.net/kml/2.2">
<Document id="root_doc">
<Schema name="task_grid_v6_45.58_61.08" id="task_grid_v6_45.58_61.08">
	<SimpleField name="area_ha" type="float"></SimpleField>
	<SimpleField name="low_risk_ha" type="float"></SimpleField>
	<SimpleField name="moderate_risk_ha" type="float"></SimpleField>
	<SimpleField name="grid_cell_deg" type="string"></SimpleField>
</Schema>
<Folder><name>task_grid_v6_45.58_61.08</name>
  <Placemark id="task_grid_v6_45.58_61.08.1">
	<name>task_grid_v6_45.58_61.08</name>
	<name>1083.8</name>
	<description>4597.1</description>
	<Style><LineStyle><color>ff0000ff</color></LineStyle><PolyStyle><fill>0</fill></PolyStyle></Style>
	<ExtendedData><SchemaData schemaUrl="#task_grid_v6_45.58_61.08">
		<SimpleData name="area_ha">3513.3</SimpleData>
		<SimpleData name="low_risk_ha">0.1</SimpleData>
	</SchemaData></ExtendedData>
      <MultiGeometry><Polygon><outerBoundaryIs><LinearRing><coordinates>61.0383853449975,45.5343547580755 61.0263910613787,45.5343547580755 61.0263910613787,45.5474778108963 61.0289352887564,45.5432374319336 61.0358651495196,45.5547871998722 61.0343251804611,45.554017215343 61.0316302346087,45.5567121611954 61.0263910613787,45.5549657701187 61.0263910613787,45.5594071070477 61.0263910613787,45.573390681785 61.0289352887564,45.5728818363095 61.0302827616825,45.5742293092357 61.0263910613787,45.5750076492965 61.0263910613787,45.5931599169303 61.0289352887564,45.591746457276 61.0370201263134,45.5971363489807 61.041062545092,45.5930939302022 61.0383675992396,45.5903989843498 61.041062545092,45.5877040384975 61.0383675992396,45.5850090926451 61.0383675992396,45.5796192009404 61.0356726533872,45.576924255088 61.0397150721658,45.5701868904572 61.0424100180181,45.5782717280142 61.0477999097229,45.5755767821619 61.0504948555752,45.5809666738666 61.0495965402911,45.5818649891507 61.0477999097229,45.5809666738666 61.0437574909443,45.5850090926451 61.0504948555752,45.5890515114237 61.0558847472799,45.5890515114237 61.0612746389846,45.5971363489807 61.0653170577632,45.5957888760546 61.0666645306894,45.591746457276 61.0774443140988,45.591746457276 61.0814867328773,45.5957888760546 61.078791787025,45.5984838219069 61.0801392599512,45.5998312948331 61.0882240975082,45.5998312948331 61.0909190433606,45.5971363489807 61.0963089350653,45.5971363489807 61.1003513538438,45.5930939302022 61.093613989213,45.5890515114237 61.0855291516559,45.5944414031284 61.0760968411726,45.5850090926451 61.0760968411726,45.5823141467928 61.0653170577632,45.5742293092357 61.0666645306894,45.5701868904572 61.0693594765417,45.5728818363095 61.0747493682464,45.5728818363095 61.0764337094042,45.5678288128363 61.0774443140988,45.5728818363095 61.0832191980681,45.5717268595156 61.0828342058035,45.5728818363095 61.0760968411726,45.5742293092357 61.0801392599512,45.5782717280142 61.0828342058035,45.5755767821619 61.0841816787297,45.576924255088 61.0814867328773,45.5823141467928 61.0828342058035,45.5836616197189 61.093613989213,45.5809666738666 61.093613989213,45.5863565655713 61.1030462996962,45.5877040384975 61.1003513538438,45.5903989843498 61.10169882677,45.591746457276 61.1097836643271,45.591746457276 61.1124786101795,45.5890515114237 61.1178685018842,45.5944414031284 61.1192159748104,45.5903989843498 61.1151735560318,45.5836616197189 61.1097836643271,45.5836616197189 61.1070887184747,45.5863565655713 61.1043937726224,45.5809666738666 61.0990038809177,45.5836616197189 61.0976564079915,45.5823141467928 61.1030462996962,45.576924255088 61.0949614621391,45.5742293092357 61.10169882677,45.5701868904572 61.1111311372533,45.568839417531 61.1003513538438,45.5607545799739 61.1097836643271,45.5621020529001 61.1124786101795,45.5647969987524 61.1111311372533,45.5661444716786 61.1124786101795,45.5674919446048 61.1246058665151,45.5661444716786 61.1232583935889,45.554017215343 61.116521028958,45.5553646882692 61.1097836643271,45.5513222694906 61.1080511991363,45.5547871998722 61.1030462996962,45.5472798507121 61.1043937726224,45.5459323777859 61.1070887184747,45.5486273236383 61.1178685018842,45.5432374319336 61.1205634477365,45.5378475402288 61.1263910613787,45.543675153871 61.1263910613787,45.5374098182914 61.1263910613787,45.536972096354 61.1263910613787,45.5343547580755 61.1224605572879,45.5343547580755 61.1259533394413,45.5378475402288 61.1224605572879,45.5343547580755 61.1105815006281,45.5343547580755 61.1070887184747,45.5378475402288 61.1057412455486,45.5365000673027 61.1078865547757,45.5343547580755 61.0791759571996,45.5343547580755 61.0723779813072,45.5343547580755 61.0566825835809,45.5343547580755 61.0512926918762,45.5343547580755 61.0495965402911,45.5360509096606 61.0477999097229,45.5351525943765 61.0485977460238,45.5343547580755 61.0433585727938,45.5343547580755 61.0405129084668,45.5343547580755 61.0383853449975,45.5343547580755</coordinates></LinearRing></outerBoundaryIs><innerBoundaryIs><LinearRing><coordinates>61.0612746389846,45.5782717280142 61.0626221119108,45.5796192009404 61.0572322202061,45.5823141467928 61.0585796931323,45.5836616197189 61.063969584837,45.5836616197189 61.0666645306894,45.5809666738666 61.0707069494679,45.5823141467928 61.0666645306894,45.5863565655713 61.0585796931323,45.5863565655713 61.0513931708593,45.5827633044348 61.0558847472799,45.5836616197189 61.0558847472799,45.5809666738666 61.0504948555752,45.5809666738666 61.0612746389846,45.5782717280142</coordinates></LinearRing></innerBoundaryIs><innerBoundaryIs><LinearRing><coordinates>61.0666645306894,45.5513222694906 61.0720544223941,45.5486273236383 61.0734018953203,45.5499747965645 61.0653170577632,45.5553646882692 61.0720544223941,45.5621020529001 61.0599271660585,45.5526697424168 61.0653170577632,45.5499747965645 61.063969584837,45.5459323777859 61.0666645306894,45.5513222694906</coordinates></LinearRing></innerBoundaryIs><innerBoundaryIs><LinearRing><coordinates>61.0801392599512,45.5567121611954 61.078791787025,45.5553646882692 61.0841816787297,45.5499747965645 61.0855291516559,45.5513222694906 61.0801392599512,45.5567121611954</coordinates></LinearRing></innerBoundaryIs><innerBoundaryIs><LinearRing><coordinates>61.0760968411726,45.5418899590074 61.0801392599512,45.5378475402288 61.0820257220478,45.5397340023255 61.078791787025,45.5445849048597 61.0812417377999,45.5470348556346 61.0760968411726,45.5418899590074</coordinates></LinearRing></innerBoundaryIs><innerBoundaryIs><LinearRing><coordinates>61.0407930505067,45.5664139662638 61.0397150721658,45.5674919446048 61.0343251804611,45.5674919446048 61.0407930505067,45.5664139662638</coordinates></LinearRing></innerBoundaryIs><innerBoundaryIs><LinearRing><coordinates>61.0397150721658,45.5567121611954 61.0386370938248,45.5561731720249 61.0451049638705,45.554017215343 61.0397150721658,45.5567121611954</coordinates></LinearRing></innerBoundaryIs><innerBoundaryIs><LinearRing><coordinates>61.0963089350653,45.5418899590074 61.0963089350653,45.5416204644221 61.0976564079915,45.5418899590074 61.0963089350653,45.5418899590074</coordinates></LinearRing></innerBoundaryIs><innerBoundaryIs><LinearRing><coordinates>61.0963089350653,45.5674919446048 61.0976564079915,45.5580596341215 61.0963089350653,45.5701868904572 61.0895715704344,45.5580596341215 61.0963089350653,45.5674919446048</coordinates></LinearRing></innerBoundaryIs><innerBoundaryIs><LinearRing><coordinates>61.0948772450812,45.5542698665167 61.0990038809177,45.5513222694906 61.1003513538438,45.5553646882692 61.0948772450812,45.5542698665167</coordinates></LinearRing></innerBoundaryIs><innerBoundaryIs><LinearRing><coordinates>61.0784067947604,45.5653744871494 61.0771074458673,45.5658076034471 61.0774443140988,45.5647969987524 61.0784067947604,45.5653744871494</coordinates></LinearRing></innerBoundaryIs><innerBoundaryIs><LinearRing><coordinates>61.0836041903328,45.5705718827218 61.0816551669931,45.567323510489 61.0841816787297,45.568839417531 61.0836041903328,45.5705718827218</coordinates></LinearRing></innerBoundaryIs><innerBoundaryIs><LinearRing><coordinates>61.0289352887564,45.5809666738666 61.0275878158302,45.5796192009404 61.0316302346087,45.5782717280142 61.0329777075349,45.5796192009404 61.0289352887564,45.5809666738666</coordinates></LinearRing></innerBoundaryIs><innerBoundaryIs><LinearRing><coordinates>61.0895715704344,45.5742293092357 61.0895715704344,45.5715343633833 61.0922665162868,45.5715343633833 61.0909190433606,45.5755767821619 61.0895715704344,45.5742293092357</coordinates></LinearRing></innerBoundaryIs><innerBoundaryIs><LinearRing><coordinates>61.0612746389846,45.5594071070477 61.063969584837,45.5594071070477 61.063969584837,45.5621020529001 61.0599271660585,45.5607545799739 61.0612746389846,45.5594071070477</coordinates></LinearRing></innerBoundaryIs><innerBoundaryIs><LinearRing><coordinates>61.0451049638705,45.5486273236383 61.0437574909443,45.5472798507121 61.0464524367967,45.5472798507121 61.0451049638705,45.5486273236383</coordinates></LinearRing></innerBoundaryIs><innerBoundaryIs><LinearRing><coordinates>61.1084361914009,45.5418899590074 61.1097836643271,45.5405424860812 61.1097836643271,45.5432374319336 61.1084361914009,45.5418899590074</coordinates></LinearRing></innerBoundaryIs><innerBoundaryIs><LinearRing><coordinates>61.0343251804611,45.5378475402288 61.0356726533872,45.539195013155 61.0329777075349,45.539195013155 61.0343251804611,45.5378475402288</coordinates></LinearRing></innerBoundaryIs><innerBoundaryIs><LinearRing><coordinates>61.0895715704344,45.5365000673027 61.0882240975082,45.5378475402288 61.0882240975082,45.5351525943765 61.0895715704344,45.5365000673027</coordinates></LinearRing></innerBoundaryIs></Polygon><Polygon><outerBoundaryIs><LinearRing><coordinates>61.0263910613787,45.5533877950877 61.0275878158302,45.5526697424168 61.0263910613787,45.5514729879653 61.0263910613787,45.5533877950877</coordinates></LinearRing></outerBoundaryIs></Polygon><Polygon><outerBoundaryIs><LinearRing><coordinates>61.0316302346087,45.5971363489807 61.0263910613787,45.5981841836267 61.0263910613787,45.6023755222107 61.0289352887564,45.5998312948331 61.0302827616825,45.6011787677593 61.0275878158302,45.6038737136116 61.0289352887564,45.6052211865378 61.0383675992396,45.6011787677593 61.0316302346087,45.5971363489807</coordinates></LinearRing></outerBoundaryIs></Polygon><Polygon><outerBoundaryIs><LinearRing><coordinates>61.049147382649,45.6038737136116 61.0477999097229,45.5998312948331 61.0437574909443,45.6038737136116 61.0451049638705,45.6052211865378 61.049147382649,45.6038737136116</coordinates></LinearRing></outerBoundaryIs></Polygon><Polygon><outerBoundaryIs><LinearRing><coordinates>61.0693594765417,45.5944414031284 61.063969584837,45.6025262406854 61.0572322202061,45.6038737136116 61.0612746389846,45.6052211865378 61.0666645306894,45.6133060240949 61.0720544223941,45.6079161323902 61.078791787025,45.606568659464 61.0693594765417,45.5944414031284</coordinates></LinearRing></outerBoundaryIs></Polygon><Polygon><outerBoundaryIs><LinearRing><coordinates>61.0263910613787,45.6099816579872 61.0275878158302,45.6092636053164 61.0263910613787,45.6056733419619 61.0263910613787,45.6099816579872</coordinates></LinearRing></outerBoundaryIs></Polygon><Polygon><outerBoundaryIs><LinearRing><coordinates>61.0626221119108,45.6119585511687 61.0612746389846,45.6052211865378 61.0545372743538,45.6092636053164 61.0612746389846,45.6133060240949 61.0626221119108,45.6119585511687</coordinates></LinearRing></outerBoundaryIs></Polygon><Polygon><outerBoundaryIs><LinearRing><coordinates>61.0464524367967,45.6092636053164 61.0424100180181,45.6052211865378 61.0356726533872,45.6092636053164 61.0451049638705,45.6160009699472 61.0464524367967,45.6092636053164</coordinates></LinearRing></outerBoundaryIs></Polygon><Polygon><outerBoundaryIs><LinearRing><coordinates>61.0680120036156,45.6227383345781 61.0666645306894,45.6186959157996 61.0626221119108,45.6227383345781 61.063969584837,45.6240858075043 61.0680120036156,45.6227383345781</coordinates></LinearRing></outerBoundaryIs></Polygon><Polygon><outerBoundaryIs><LinearRing><coordinates>61.0531898014276,45.6240858075043 61.049147382649,45.6281282262829 61.0612746389846,45.629475699209 61.0612746389846,45.6240858075043 61.0585796931323,45.6267807533567 61.0531898014276,45.6240858075043</coordinates></LinearRing></outerBoundaryIs></Polygon><Polygon><outerBoundaryIs><LinearRing><coordinates>61.0697777965857,45.6343547580755 61.0680120036156,45.6308231721352 61.0760968411726,45.6254332804305 61.0720544223941,45.621390861652 61.0693594765417,45.6240858075043 61.063969584837,45.6240858075043 61.0612746389846,45.629475699209 61.0558847472799,45.629475699209 61.0545372743538,45.6335181179876 61.0570471946175,45.6343547580755 61.0697777965857,45.6343547580755</coordinates></LinearRing></outerBoundaryIs></Polygon><Polygon><outerBoundaryIs><LinearRing><coordinates>61.1259533394413,45.554017215343 61.1263910613787,45.554017215343 61.1263910613787,45.5450397803541 61.1219109206627,45.5472798507121 61.1259533394413,45.554017215343</coordinates></LinearRing></outerBoundaryIs></Polygon><Polygon><outerBoundaryIs><LinearRing><coordinates>61.1178685018842,45.5755767821619 61.1219109206627,45.5715343633833 61.1124786101795,45.5701868904572 61.1111311372533,45.5715343633833 61.1178685018842,45.5755767821619</coordinates></LinearRing></outerBoundaryIs></Polygon><Polygon><outerBoundaryIs><LinearRing><coordinates>61.1263910613787,45.588478924043 61.1219109206627,45.5903989843498 61.1263910613787,45.591295012493 61.1263910613787,45.588478924043</coordinates></LinearRing></outerBoundaryIs></Polygon><Polygon><outerBoundaryIs><LinearRing><coordinates>61.0855291516559,45.6025262406854 61.0841816787297,45.6038737136116 61.0882240975082,45.6079161323902 61.093613989213,45.6079161323902 61.0949614621391,45.606568659464 61.0909190433606,45.6025262406854 61.0855291516559,45.6025262406854</coordinates></LinearRing></outerBoundaryIs></Polygon><Polygon><outerBoundaryIs><LinearRing><coordinates>61.1030462996962,45.6011787677593 61.0990038809177,45.5971363489807 61.0949614621391,45.6011787677593 61.0976564079915,45.606568659464 61.0949614621391,45.6119585511687 61.0963089350653,45.6133060240949 61.1057412455486,45.6092636053164 61.1030462996962,45.606568659464 61.1030462996962,45.6011787677593</coordinates></LinearRing></outerBoundaryIs></Polygon><Polygon><outerBoundaryIs><LinearRing><coordinates>61.1192159748104,45.6146534970211 61.1124786101795,45.6106110782425 61.1084361914009,45.6146534970211 61.1097836643271,45.6160009699472 61.1192159748104,45.6146534970211</coordinates></LinearRing></outerBoundaryIs></Polygon><Polygon><outerBoundaryIs><LinearRing><coordinates>61.0909190433606,45.6160009699472 61.093613989213,45.6186959157996 61.0949614621391,45.6146534970211 61.0882240975082,45.6106110782425 61.0720544223941,45.6106110782425 61.0707069494679,45.6119585511687 61.0801392599512,45.6186959157996 61.0828342058035,45.6186959157996 61.0855291516559,45.6133060240949 61.0882240975082,45.6186959157996 61.0909190433606,45.6160009699472</coordinates></LinearRing></outerBoundaryIs></Polygon><Polygon><outerBoundaryIs><LinearRing><coordinates>61.1263910613787,45.6245235294418 61.1259533394413,45.6240858075043 61.1219109206627,45.6281282262829 61.1263910613787,45.6290242544261 61.1263910613787,45.6245235294418</coordinates></LinearRing></outerBoundaryIs></Polygon><Polygon><outerBoundaryIs><LinearRing><coordinates>61.1030462996962,45.6308231721352 61.10169882677,45.6267807533567 61.0976564079915,45.6308231721352 61.0990038809177,45.6321706450614 61.1030462996962,45.6308231721352</coordinates></LinearRing></outerBoundaryIs></Polygon></MultiGeometry>
  </Placemark>
</Folder>
</Document></kml>
