<?xml version="1.0" encoding="utf-8" ?>
<kml xmlns="http://www.opengis.net/kml/2.2">
<Document id="root_doc">
<Schema name="task_grid_v6_45.01_60.76" id="task_grid_v6_45.01_60.76">
	<SimpleField name="area_ha" type="float"></SimpleField>
	<SimpleField name="low_risk_ha" type="float"></SimpleField>
	<SimpleField name="moderate_risk_ha" type="float"></SimpleField>
	<SimpleField name="grid_cell_deg" type="string"></SimpleField>
</Schema>
<Folder><name>task_grid_v6_45.01_60.76</name>
  <Placemark id="task_grid_v6_45.01_60.76.1">
	<name>task_grid_v6_45.01_60.76</name>
	<name>0</name>
	<description>605.2</description>
	<Style><LineStyle><color>ff0000ff</color></LineStyle><PolyStyle><fill>0</fill></PolyStyle></Style>
	<ExtendedData><SchemaData schemaUrl="#task_grid_v6_45.01_60.76">
		<SimpleData name="area_ha">605.2</SimpleData>
		<SimpleData name="low_risk_ha">0.1</SimpleData>
	</SchemaData></ExtendedData>
      <MultiGeometry><Polygon><outerBoundaryIs><LinearRing><coordinates>60.763483122299,44.9732563841597 60.7567457576681,44.9692139653812 60.7500083930372,44.9732563841597 60.7621356493729,44.9772988029383 60.763483122299,44.9732563841597</coordinates></LinearRing></outerBoundaryIs></Polygon><Polygon><outerBoundaryIs><LinearRing><coordinates>60.7419235554802,44.9894260592739 60.7351861908493,44.9880785863477 60.7338387179231,44.9894260592739 60.7378811367016,44.9934684780524 60.7419235554802,44.9894260592739</coordinates></LinearRing></outerBoundaryIs></Polygon><Polygon><outerBoundaryIs><LinearRing><coordinates>60.7863901620441,44.9799937487906 60.7836952161917,44.9772988029383 60.7810002703394,44.9799937487906 60.778305324487,44.9772988029383 60.7769578515608,44.9786462758644 60.778305324487,44.982688694643 60.7877376349703,44.9867311134215 60.7823477432655,44.9921210051262 60.7836952161917,45.0015533156095 60.7890851078964,45.0042482614619 60.7917800537488,44.9988583697571 60.7944749996011,45.0015533156095 60.8025598371582,45.0015533156095 60.8092972017891,45.005595734388 60.8039073100844,45.0082906802404 60.8102213862645,45.0120791259485 60.8102213862645,45.0002058426833 60.8092972017891,45.0002058426833 60.8102213862645,44.9992816582079 60.8102213862645,44.9777531344186 60.8079497288629,44.9772988029383 60.8079497288629,44.982688694643 60.7971699454535,44.982688694643 60.7944749996011,44.9799937487906 60.7863901620441,44.9799937487906</coordinates></LinearRing></outerBoundaryIs><innerBoundaryIs><LinearRing><coordinates>60.8039073100844,44.997510896831 60.8025598371582,44.9988583697571 60.8025598371582,44.9961634239048 60.8039073100844,44.997510896831</coordinates></LinearRing></innerBoundaryIs><innerBoundaryIs><LinearRing><coordinates>60.8079497288629,44.9880785863477 60.8066022559368,44.9867311134215 60.8092972017891,44.9867311134215 60.8079497288629,44.9880785863477</coordinates></LinearRing></innerBoundaryIs></Polygon></MultiGeometry>
  </Placemark>
</Folder>
</Document></kml>
