<?xml version="1.0" encoding="utf-8" ?>
<kml xmlns="http://www.opengis.net/kml/2.2">
<Document id="root_doc">
<Schema name="task_grid_v6_45.98_59.98" id="task_grid_v6_45.98_59.98">
	<SimpleField name="area_ha" type="float"></SimpleField>
	<SimpleField name="low_risk_ha" type="float"></SimpleField>
	<SimpleField name="moderate_risk_ha" type="float"></SimpleField>
	<SimpleField name="grid_cell_deg" type="string"></SimpleField>
</Schema>
<Folder><name>task_grid_v6_45.98_59.98</name>
  <Placemark id="task_grid_v6_45.98_59.98.1">
	<name>task_grid_v6_45.98_59.98</name>
	<name>16.2</name>
	<description>1733.1</description>
	<Style><LineStyle><color>ff0000ff</color></LineStyle><PolyStyle><fill>0</fill></PolyStyle></Style>
	<ExtendedData><SchemaData schemaUrl="#task_grid_v6_45.98_59.98">
		<SimpleData name="area_ha">1716.9</SimpleData>
		<SimpleData name="low_risk_ha">0.1</SimpleData>
	</SchemaData></ExtendedData>
      <MultiGeometry><Polygon><outerBoundaryIs><LinearRing><coordinates>59.9267024351417,45.9555641473444 59.9263910613787,45.9558755211074 59.9263910613787,45.9634621606437 59.9267024351417,45.9636489849015 59.9307448539202,45.959606566123 59.9267024351417,45.9555641473444</coordinates></LinearRing></outerBoundaryIs></Polygon><Polygon><outerBoundaryIs><LinearRing><coordinates>59.9263910613787,45.972113181471 59.9293973809941,45.9771237141633 59.9361347456249,45.9730812953848 59.9320923268464,45.9663439307539 59.9293973809941,45.9717338224586 59.9267024351417,45.9690388766062 59.9263910613787,45.9693502503692 59.9263910613787,45.972113181471</coordinates></LinearRing></outerBoundaryIs></Polygon><Polygon><outerBoundaryIs><LinearRing><coordinates>60.0008134460816,45.9542166744182 59.9954235543768,45.959606566123 60.0008134460816,45.9649964578277 59.996771027303,45.9663439307539 59.9832962980412,45.9582590931968 59.9725165146318,45.9582590931968 59.9698215687794,45.9555641473444 59.9630842041485,45.9623015119753 59.9630842041485,45.9730812953848 59.9725165146318,45.9744287683109 59.9779064063365,45.9717338224586 59.9832962980412,45.9771237141633 59.9846437709674,45.9730812953848 59.9792538792627,45.96769140368 59.9832962980412,45.9636489849015 59.9859912438936,45.9636489849015 59.9886861897459,45.9690388766062 59.9954235543768,45.9703863495324 59.9940760814507,45.9744287683109 59.9913811355983,45.9717338224586 59.9886861897459,45.9771237141633 59.9846437709674,45.9784711870895 59.9846437709674,45.9838610787942 59.9873387168198,45.9865560246465 59.9846437709674,45.9946408622036 59.9927286085245,46.0000307539083 59.9954235543768,46.0054206456131 59.9873387168198,46.0108105373178 59.9927286085245,46.0188953748749 59.996771027303,46.020242847801 60.0035083919339,46.0108105373178 60.0035083919339,46.0027256997607 59.9981185002292,46.0000307539083 60.0008134460816,45.997335808056 59.9927286085245,45.9946408622036 60.0008134460816,45.9892509704989 59.9981185002292,45.9838610787942 59.9981185002292,45.9757762412371 60.0035083919339,45.9757762412371 60.0048558648601,45.9690388766062 60.0062033377863,45.9784711870895 60.0035083919339,45.9811661329418 60.0075508107125,45.9852085517204 60.0102457565648,45.982513605868 60.0129407024172,45.9905984434251 60.0142881753433,45.9838610787942 60.0196780670481,45.9811661329418 60.0169831211957,45.9784711870895 60.0169831211957,45.9703863495324 60.0102457565648,45.9636489849015 60.0035083919339,45.9623015119753 60.0035083919339,45.9515217285659 60.0062033377863,45.9488267827135 60.0008134460816,45.9434368910088 60.0062033377863,45.9407419451565 60.0062033377863,45.9380469993041 59.9913811355983,45.9366995263779 59.9890363672959,45.9343547580755 59.988476083216,45.9343547580755 59.9846437709674,45.9407419451565 59.9913811355983,45.9501742556397 59.996771027303,45.9501742556397 60.0008134460816,45.9542166744182</coordinates></LinearRing></outerBoundaryIs></Polygon><Polygon><outerBoundaryIs><LinearRing><coordinates>59.9267024351417,46.012158010244 59.9293973809941,46.0067681185392 59.9334397997726,46.0054206456131 59.9320923268464,46.0013782268345 59.9293973809941,46.0040731726869 59.9267024351417,46.0013782268345 59.9263910613787,46.0014820180889 59.9263910613787,46.0114314714636 59.9267024351417,46.012158010244</coordinates></LinearRing></outerBoundaryIs></Polygon><Polygon><outerBoundaryIs><LinearRing><coordinates>60.0088982836386,46.0000307539083 60.011593229491,46.0027256997607 60.0088982836386,46.0054206456131 60.0156356482695,46.012158010244 60.0223730129004,46.0135054831701 60.0169831211957,46.0162004290225 60.011593229491,46.0323701041366 60.0102457565648,46.0337175770628 60.0075508107125,46.0310226312105 60.0064401017574,46.0343547580755 60.0263910613787,46.0343547580755 60.0263910613787,46.0147311045949 60.0250679587528,46.0081155914654 60.0156356482695,45.9986832809822 60.0102457565648,45.9986832809822 60.0088982836386,46.0000307539083</coordinates></LinearRing></outerBoundaryIs></Polygon></MultiGeometry>
  </Placemark>
</Folder>
</Document></kml>
