<?xml version="1.0" encoding="utf-8" ?>
<kml xmlns="http://www.opengis.net/kml/2.2">
<Document id="root_doc">
<Schema name="task_grid_v6_45.21_61.46" id="task_grid_v6_45.21_61.46">
	<SimpleField name="area_ha" type="float"></SimpleField>
	<SimpleField name="low_risk_ha" type="float"></SimpleField>
	<SimpleField name="moderate_risk_ha" type="float"></SimpleField>
	<SimpleField name="grid_cell_deg" type="string"></SimpleField>
</Schema>
<Folder><name>task_grid_v6_45.21_61.46</name>
  <Placemark id="task_grid_v6_45.21_61.46.1">
	<name>task_grid_v6_45.21_61.46</name>
	<name>0</name>
	<description>598.2</description>
	<Style><LineStyle><color>ff0000ff</color></LineStyle><PolyStyle><fill>0</fill></PolyStyle></Style>
	<ExtendedData><SchemaData schemaUrl="#task_grid_v6_45.21_61.46">
		<SimpleData name="area_ha">598.2</SimpleData>
		<SimpleData name="low_risk_ha">0.1</SimpleData>
	</SchemaData></ExtendedData>
      <MultiGeometry><Polygon><outerBoundaryIs><LinearRing><coordinates>61.4520417875766,45.1848096335699 61.4479993687981,45.1888520523484 61.454736733429,45.1928944711269 61.4560842063552,45.1888520523484 61.4520417875766,45.1848096335699</coordinates></LinearRing></outerBoundaryIs></Polygon><Polygon><outerBoundaryIs><LinearRing><coordinates>61.4331771666101,45.2117590920935 61.4439569500196,45.2090641462411 61.4506943146505,45.2023267816102 61.4412620041672,45.1901995252746 61.4385670583149,45.200979308684 61.4358721124625,45.1955894169793 61.4291347478316,45.1996318357578 61.4291347478316,45.2077166733149 61.4331771666101,45.2117590920935</coordinates></LinearRing></outerBoundaryIs></Polygon><Polygon><outerBoundaryIs><LinearRing><coordinates>61.4102213862645,45.210387248867 61.4102701268651,45.2104116191673 61.4116175997913,45.2144540379458 61.4183549644222,45.2104116191673 61.417007491496,45.1982843628317 61.4143125456436,45.200979308684 61.4116175997913,45.1982843628317 61.4102701268651,45.2050217274626 61.4102213862645,45.2050460977628 61.4102213862645,45.210387248867</coordinates></LinearRing></outerBoundaryIs></Polygon><Polygon><outerBoundaryIs><LinearRing><coordinates>61.4641690439123,45.2211914025767 61.4641690439123,45.2265812942814 61.4614740980599,45.2292762401338 61.4682114626908,45.23062371306 61.469558935617,45.2292762401338 61.4668639897646,45.2265812942814 61.4682114626908,45.2252338213553 61.4709064085432,45.2279287672076 61.4749488273217,45.2184964567244 61.4682114626908,45.2171489837982 61.4601266251337,45.2090641462411 61.454736733429,45.2090641462411 61.4506943146505,45.2131065650196 61.454736733429,45.2198439296505 61.4641690439123,45.2211914025767</coordinates></LinearRing></outerBoundaryIs></Polygon><Polygon><outerBoundaryIs><LinearRing><coordinates>61.5059407046238,45.2279287672076 61.5045932316976,45.2292762401338 61.5102213862645,45.2316883063767 61.5102213862645,45.2279287672076 61.5059407046238,45.2279287672076</coordinates></LinearRing></outerBoundaryIs></Polygon><Polygon><outerBoundaryIs><LinearRing><coordinates>61.4682114626908,45.2440984423218 61.4655165168384,45.2414034964694 61.4614740980599,45.2427509693956 61.4682114626908,45.2494883340265 61.4749488273217,45.2481408611003 61.4736013543955,45.2440984423218 61.4682114626908,45.2440984423218</coordinates></LinearRing></outerBoundaryIs></Polygon></MultiGeometry>
  </Placemark>
</Folder>
</Document></kml>
