<?xml version="1.0" encoding="utf-8" ?>
<kml xmlns="http://www.opengis.net/kml/2.2">
<Document id="root_doc">
<Schema name="task_grid_v6_45.58_59.98" id="task_grid_v6_45.58_59.98">
	<SimpleField name="area_ha" type="float"></SimpleField>
	<SimpleField name="low_risk_ha" type="float"></SimpleField>
	<SimpleField name="moderate_risk_ha" type="float"></SimpleField>
	<SimpleField name="grid_cell_deg" type="string"></SimpleField>
</Schema>
<Folder><name>task_grid_v6_45.58_59.98</name>
  <Placemark id="task_grid_v6_45.58_59.98.1">
	<name>task_grid_v6_45.58_59.98</name>
	<name>2159.4</name>
	<description>3670.7</description>
	<Style><LineStyle><color>ff0000ff</color></LineStyle><PolyStyle><fill>0</fill></PolyStyle></Style>
	<ExtendedData><SchemaData schemaUrl="#task_grid_v6_45.58_59.98">
		<SimpleData name="area_ha">1511.3</SimpleData>
		<SimpleData name="low_risk_ha">0.1</SimpleData>
	</SchemaData></ExtendedData>
      <MultiGeometry><Polygon><outerBoundaryIs><LinearRing><coordinates>59.9401771644035,45.5809666738666 59.9267024351417,45.5809666738666 59.9263910613787,45.5808109869851 59.9263910613787,45.5839264610622 59.9361347456249,45.5850090926451 59.9263910613787,45.5850090926451 59.9263910613787,45.6001426685961 59.9267024351417,45.5998312948331 59.9320923268464,45.6052211865378 59.9263910613787,45.602370553804 59.9263910613787,45.6073976942271 59.9401771644035,45.6133060240949 59.9563468395176,45.6133060240949 59.95904178537,45.6186959157996 59.9671266229271,45.6133060240949 59.9779064063365,45.6106110782425 59.9792538792627,45.6146534970211 59.9765589334103,45.6200433887258 59.981948825115,45.6227383345781 59.9832962980412,45.6267807533567 59.9859912438936,45.6240858075043 59.9913811355983,45.6240858075043 59.996771027303,45.629475699209 59.9994659731554,45.6267807533567 60.0008134460816,45.6281282262829 59.9981185002292,45.6308231721352 60.0021609190077,45.6321706450614 60.0032529755148,45.6343547580755 60.0263910613787,45.6343547580755 60.0263910613787,45.6025262406854 60.0263910613787,45.5939759986195 60.0263910613787,45.5929049155414 60.0250679587528,45.5930939302022 60.0263910613787,45.5924323788892 60.0263910613787,45.5890515114237 60.0183305941219,45.5890515114237 60.0129407024172,45.5836616197189 59.9698215687794,45.5755767821619 59.9671266229271,45.5782717280142 59.9617367312224,45.5782717280142 59.9576943124438,45.5823141467928 59.9644316770747,45.5863565655713 59.95904178537,45.5863565655713 59.9563468395176,45.5890515114237 59.9509569478129,45.5863565655713 59.9487111596026,45.5877040384975 59.9496094748867,45.5850090926451 59.9401771644035,45.5809666738666</coordinates></LinearRing></outerBoundaryIs><innerBoundaryIs><LinearRing><coordinates>60.0035083919339,45.6011787677593 60.0068770742494,45.602863108917 60.0021609190077,45.6052211865378 59.9913811355983,45.6052211865378 60.0035083919339,45.6038737136116 60.0006209499492,45.6019487522885 60.0048558648601,45.5998312948331 60.0129407024172,45.5998312948331 60.0035083919339,45.6011787677593</coordinates></LinearRing></innerBoundaryIs><innerBoundaryIs><LinearRing><coordinates>59.9886861897459,45.6079161323902 59.9832962980412,45.6052211865378 59.9886861897459,45.6025262406854 59.9913811355983,45.6052211865378 59.9886861897459,45.6079161323902</coordinates></LinearRing></innerBoundaryIs><innerBoundaryIs><LinearRing><coordinates>59.996771027303,45.6160009699472 59.9940760814507,45.621390861652 59.9913811355983,45.6133060240949 59.9940760814507,45.6160009699472 59.9994659731554,45.6133060240949 59.9994659731554,45.621390861652 59.996771027303,45.6160009699472</coordinates></LinearRing></innerBoundaryIs><innerBoundaryIs><LinearRing><coordinates>59.9859912438936,45.6133060240949 59.9846437709674,45.6146534970211 59.9900336626721,45.6173484428734 59.9859912438936,45.6186959157996 59.981948825115,45.6146534970211 59.9826974211851,45.6094133245304 59.9886861897459,45.6106110782425 59.9913811355983,45.6133060240949 59.9859912438936,45.6133060240949</coordinates></LinearRing></innerBoundaryIs><innerBoundaryIs><LinearRing><coordinates>59.9965260322255,45.5858665754163 59.9994659731554,45.5863565655713 59.9997654115834,45.5872548808554 59.9965260322255,45.5858665754163</coordinates></LinearRing></innerBoundaryIs><innerBoundaryIs><LinearRing><coordinates>59.9455670561082,45.6079161323902 59.9444890777673,45.6089941107311 59.9432571025205,45.6071461478609 59.9444890777673,45.6046821973673 59.9455670561082,45.6079161323902</coordinates></LinearRing></innerBoundaryIs><innerBoundaryIs><LinearRing><coordinates>59.9517861619213,45.6066723112275 59.9536518936653,45.6079161323902 59.9509569478129,45.6106110782425 59.9509569478129,45.6079161323902 59.9455670561082,45.6079161323902 59.9517861619213,45.6066723112275</coordinates></LinearRing></innerBoundaryIs><innerBoundaryIs><LinearRing><coordinates>59.9455670561082,45.6106110782425 59.9447378419998,45.6093672570799 59.9509569478129,45.6106110782425 59.9455670561082,45.6106110782425</coordinates></LinearRing></innerBoundaryIs><innerBoundaryIs><LinearRing><coordinates>59.9644316770747,45.6079161323902 59.9617367312224,45.6079161323902 59.9576943124438,45.6058949230009 59.95904178537,45.6052211865378 59.9644316770747,45.6079161323902</coordinates></LinearRing></innerBoundaryIs><innerBoundaryIs><LinearRing><coordinates>59.9671266229271,45.6025262406854 59.9698215687794,45.6079161323902 59.9644316770747,45.6079161323902 59.9671266229271,45.6025262406854</coordinates></LinearRing></innerBoundaryIs><innerBoundaryIs><LinearRing><coordinates>59.9779064063365,45.6079161323902 59.9752114604841,45.6079161323902 59.9779064063365,45.6052211865378 59.9779064063365,45.6079161323902</coordinates></LinearRing></innerBoundaryIs><innerBoundaryIs><LinearRing><coordinates>59.9496094748867,45.5930939302022 59.9509569478129,45.5971363489807 59.9487111596026,45.5926447725601 59.9496094748867,45.5930939302022</coordinates></LinearRing></innerBoundaryIs><innerBoundaryIs><LinearRing><coordinates>59.9450280669377,45.6036042190264 59.9455670561082,45.6025262406854 59.9464653713923,45.6031251175415 59.9450280669377,45.6036042190264</coordinates></LinearRing></innerBoundaryIs><innerBoundaryIs><LinearRing><coordinates>59.9361347456249,45.5930939302022 59.9320923268464,45.5971363489807 59.9307448539202,45.5957888760546 59.9347872726988,45.591746457276 59.9361347456249,45.5930939302022</coordinates></LinearRing></innerBoundaryIs><innerBoundaryIs><LinearRing><coordinates>60.0088982836386,45.6254332804305 60.0048558648601,45.629475699209 60.0035083919339,45.6254332804305 60.0088982836386,45.6227383345781 60.0088982836386,45.6254332804305</coordinates></LinearRing></innerBoundaryIs><innerBoundaryIs><LinearRing><coordinates>59.981948825115,45.6011787677593 59.9846437709674,45.6011787677593 59.9832962980412,45.6025262406854 59.981948825115,45.6011787677593</coordinates></LinearRing></innerBoundaryIs><innerBoundaryIs><LinearRing><coordinates>60.011593229491,45.5957888760546 60.0102457565648,45.5971363489807 60.0088982836386,45.5957888760546 60.011593229491,45.5957888760546</coordinates></LinearRing></innerBoundaryIs></Polygon><Polygon><outerBoundaryIs><LinearRing><coordinates>59.95904178537,45.6240858075043 59.9536518936653,45.6240858075043 59.9509569478129,45.621390861652 59.9455670561082,45.629475699209 59.9401771644035,45.629475699209 59.9388296914773,45.6281282262829 59.9415246373297,45.6227383345781 59.9469145290344,45.6200433887258 59.9455670561082,45.6186959157996 59.9347872726988,45.621390861652 59.9320923268464,45.6267807533567 59.9293973809941,45.6267807533567 59.9263910613787,45.6254923306644 59.9263910613787,45.6343547580755 59.9536518936653,45.6343547580755 59.9536518936653,45.6321706450614 59.9549993665915,45.6335181179876 59.9541627265035,45.6343547580755 59.9634558653014,45.6343547580755 59.9644316770747,45.629475699209 59.9684740958533,45.6308231721352 59.9657791500009,45.6335181179876 59.9699623504405,45.6343547580755 59.9792538792627,45.6343547580755 59.9792538792627,45.6335181179876 59.9794212072803,45.6343547580755 59.982785465203,45.6343547580755 59.981948825115,45.6335181179876 59.9806013521889,45.6321706450614 59.981948825115,45.6308231721352 59.9725165146318,45.629475699209 59.9617367312224,45.621390861652 59.95904178537,45.6240858075043</coordinates></LinearRing></outerBoundaryIs><innerBoundaryIs><LinearRing><coordinates>59.95904178537,45.6321706450614 59.9576943124438,45.6308231721352 59.95904178537,45.629475699209 59.95904178537,45.6321706450614</coordinates></LinearRing></innerBoundaryIs></Polygon><Polygon><outerBoundaryIs><LinearRing><coordinates>59.9657791500009,45.6335181179876 59.9644316770747,45.6321706450614 59.9644316770747,45.6343547580755 59.9666157900888,45.6343547580755 59.9657791500009,45.6335181179876</coordinates></LinearRing></outerBoundaryIs></Polygon><Polygon><outerBoundaryIs><LinearRing><coordinates>59.9833432252616,45.6343547580755 59.9881753569077,45.6343547580755 59.9859912438936,45.6321706450614 59.981948825115,45.6335181179876 59.9833432252616,45.6343547580755</coordinates></LinearRing></outerBoundaryIs></Polygon></MultiGeometry>
  </Placemark>
</Folder>
</Document></kml>
