<?xml version="1.0" encoding="utf-8" ?>
<kml xmlns="http://www.opengis.net/kml/2.2">
<Document id="root_doc">
<Schema name="task_grid_v6_45.11_61.66" id="task_grid_v6_45.11_61.66">
	<SimpleField name="area_ha" type="float"></SimpleField>
	<SimpleField name="low_risk_ha" type="float"></SimpleField>
	<SimpleField name="moderate_risk_ha" type="float"></SimpleField>
	<SimpleField name="grid_cell_deg" type="string"></SimpleField>
</Schema>
<Folder><name>task_grid_v6_45.11_61.66</name>
  <Placemark id="task_grid_v6_45.11_61.66.1">
	<name>task_grid_v6_45.11_61.66</name>
	<name>31.8</name>
	<description>265.5</description>
	<Style><LineStyle><color>ff0000ff</color></LineStyle><PolyStyle><fill>0</fill></PolyStyle></Style>
	<ExtendedData><SchemaData schemaUrl="#task_grid_v6_45.11_61.66">
		<SimpleData name="area_ha">233.7</SimpleData>
		<SimpleData name="low_risk_ha">0.1</SimpleData>
	</SchemaData></ExtendedData>
      <MultiGeometry><Polygon><outerBoundaryIs><LinearRing><coordinates>61.6609000911344,45.0648845431399 61.664942509913,45.0716219077708 61.6662899828391,45.0702744348446 61.664942509913,45.0635370702137 61.6609000911344,45.0648845431399</coordinates></LinearRing></outerBoundaryIs></Polygon><Polygon><outerBoundaryIs><LinearRing><coordinates>61.6568576723559,45.0824016911803 61.6609000911344,45.0783592724017 61.6595526182083,45.0662320160661 61.6528152535774,45.0675794889923 61.6528152535774,45.072969380697 61.6582051452821,45.0756643265494 61.6528152535774,45.0783592724017 61.6568576723559,45.0824016911803</coordinates></LinearRing></outerBoundaryIs></Polygon><Polygon><outerBoundaryIs><LinearRing><coordinates>61.6662899828391,45.0864441099588 61.664942509913,45.0850966370326 61.6635950369868,45.0891390558111 61.6676374557653,45.0904865287373 61.6689849286915,45.0891390558111 61.6703324016177,45.0904865287373 61.6743748203962,45.0864441099588 61.6703324016177,45.0797067453279 61.6662899828391,45.0864441099588</coordinates></LinearRing></outerBoundaryIs></Polygon><Polygon><outerBoundaryIs><LinearRing><coordinates>61.6959343872151,45.1241733518918 61.6999768059936,45.1282157706703 61.7013242789198,45.1241733518918 61.6972818601413,45.1201309331133 61.6959343872151,45.1241733518918</coordinates></LinearRing></outerBoundaryIs></Polygon><Polygon><outerBoundaryIs><LinearRing><coordinates>61.6366455784632,45.148427864563 61.6406879972417,45.1497753374892 61.6420354701679,45.1457329187107 61.6379930513894,45.1416904999321 61.6366455784632,45.148427864563</coordinates></LinearRing></outerBoundaryIs></Polygon><Polygon><outerBoundaryIs><LinearRing><coordinates>61.6204759033491,45.1511228104154 61.6245183221276,45.1524702833416 61.6258657950538,45.1511228104154 61.6218233762752,45.1470803916369 61.6204759033491,45.1511228104154</coordinates></LinearRing></outerBoundaryIs></Polygon><Polygon><outerBoundaryIs><LinearRing><coordinates>61.6541627265035,45.1551652291939 61.6555101994297,45.1538177562677 61.6541627265035,45.1497753374892 61.650120307725,45.1511228104154 61.6541627265035,45.1551652291939</coordinates></LinearRing></outerBoundaryIs></Polygon><Polygon><outerBoundaryIs><LinearRing><coordinates>61.6184620050499,45.1625641451378 61.6204759033491,45.1592076479725 61.6191284304229,45.1551652291939 61.6164334845705,45.1578601750463 61.6137385387182,45.1551652291939 61.6102213862645,45.1563376133451 61.6102213862645,45.1624278601497 61.6103576712526,45.1625641451378 61.6184620050499,45.1625641451378</coordinates></LinearRing></outerBoundaryIs></Polygon></MultiGeometry>
  </Placemark>
</Folder>
</Document></kml>
