<?xml version="1.0" encoding="utf-8" ?>
<kml xmlns="http://www.opengis.net/kml/2.2">
<Document id="root_doc">
<Schema name="task_grid_v6_44.61_60.96" id="task_grid_v6_44.61_60.96">
	<SimpleField name="area_ha" type="float"></SimpleField>
	<SimpleField name="low_risk_ha" type="float"></SimpleField>
	<SimpleField name="moderate_risk_ha" type="float"></SimpleField>
	<SimpleField name="grid_cell_deg" type="string"></SimpleField>
</Schema>
<Folder><name>task_grid_v6_44.61_60.96</name>
  <Placemark id="task_grid_v6_44.61_60.96.1">
	<name>task_grid_v6_44.61_60.96</name>
	<name>0</name>
	<description>57.6</description>
	<Style><LineStyle><color>ff0000ff</color></LineStyle><PolyStyle><fill>0</fill></PolyStyle></Style>
	<ExtendedData><SchemaData schemaUrl="#task_grid_v6_44.61_60.96">
		<SimpleData name="area_ha">57.6</SimpleData>
		<SimpleData name="low_risk_ha">0.1</SimpleData>
	</SchemaData></ExtendedData>
      <MultiGeometry><Polygon><outerBoundaryIs><LinearRing><coordinates>60.9251798734405,44.606743748239 60.9346121839238,44.6080912211651 60.93595965685,44.606743748239 60.9319172380714,44.6027013294604 60.9292222922191,44.6053962753128 60.9265273463667,44.6027013294604 60.9251798734405,44.606743748239</coordinates></LinearRing></outerBoundaryIs></Polygon><Polygon><outerBoundaryIs><LinearRing><coordinates>60.9629091153736,44.6229134233531 60.9561717507427,44.6161760587222 60.9548242778165,44.6229134233531 60.9615616424474,44.6242608962793 60.9629091153736,44.6229134233531</coordinates></LinearRing></outerBoundaryIs></Polygon></MultiGeometry>
  </Placemark>
</Folder>
</Document></kml>
