<?xml version="1.0" encoding="utf-8" ?>
<kml xmlns="http://www.opengis.net/kml/2.2">
<Document id="root_doc">
<Schema name="task_grid_v6_45.18_61.08" id="task_grid_v6_45.18_61.08">
	<SimpleField name="area_ha" type="float"></SimpleField>
	<SimpleField name="low_risk_ha" type="float"></SimpleField>
	<SimpleField name="moderate_risk_ha" type="float"></SimpleField>
	<SimpleField name="grid_cell_deg" type="string"></SimpleField>
</Schema>
<Folder><name>task_grid_v6_45.18_61.08</name>
  <Placemark id="task_grid_v6_45.18_61.08.1">
	<name>task_grid_v6_45.18_61.08</name>
	<name>0</name>
	<description>463.2</description>
	<Style><LineStyle><color>ff0000ff</color></LineStyle><PolyStyle><fill>0</fill></PolyStyle></Style>
	<ExtendedData><SchemaData schemaUrl="#task_grid_v6_45.18_61.08">
		<SimpleData name="area_ha">463.2</SimpleData>
		<SimpleData name="low_risk_ha">0.1</SimpleData>
	</SchemaData></ExtendedData>
      <MultiGeometry><Polygon><outerBoundaryIs><LinearRing><coordinates>61.0872959383074,45.1343547580755 61.0882240975082,45.1389955540798 61.0905444955104,45.1343547580755 61.0872959383074,45.1343547580755</coordinates></LinearRing></outerBoundaryIs></Polygon><Polygon><outerBoundaryIs><LinearRing><coordinates>61.0990038809177,45.1389955540798 61.0990038809177,45.1443854457845 61.1084361914009,45.1430379728583 61.10169882677,45.1416904999321 61.0990038809177,45.1389955540798</coordinates></LinearRing></outerBoundaryIs></Polygon><Polygon><outerBoundaryIs><LinearRing><coordinates>61.078791787025,45.1753773230866 61.0841816787297,45.178072268939 61.0814867328773,45.1807672147913 61.0841816787297,45.1834621606437 61.0814867328773,45.1861571064961 61.0841816787297,45.1888520523484 61.0814867328773,45.1969368899055 61.0855291516559,45.200979308684 61.0922665162868,45.1969368899055 61.0895715704344,45.1942419440531 61.0895715704344,45.1834621606437 61.0922665162868,45.1807672147913 61.0922665162868,45.1753773230866 61.093613989213,45.1740298501604 61.0963089350653,45.1767247960128 61.1003513538438,45.1726823772343 61.0922665162868,45.1699874313819 61.0949614621391,45.1672924855295 61.0895715704344,45.1645975396772 61.0922665162868,45.1619025938248 61.0882240975082,45.1578601750463 61.0828342058035,45.1578601750463 61.078791787025,45.1645975396772 61.0814867328773,45.1699874313819 61.078791787025,45.1753773230866</coordinates></LinearRing></outerBoundaryIs></Polygon><Polygon><outerBoundaryIs><LinearRing><coordinates>61.0572322202061,45.2131065650196 61.0612746389846,45.2225388755029 61.0653170577632,45.215801510872 61.063969584837,45.2090641462411 61.0572322202061,45.2131065650196</coordinates></LinearRing></outerBoundaryIs></Polygon><Polygon><outerBoundaryIs><LinearRing><coordinates>61.0518423285014,45.2265812942814 61.0531898014276,45.23062371306 61.0572322202061,45.2292762401338 61.0558847472799,45.2225388755029 61.0518423285014,45.2265812942814</coordinates></LinearRing></outerBoundaryIs></Polygon></MultiGeometry>
  </Placemark>
</Folder>
</Document></kml>
