<?xml version="1.0" encoding="utf-8" ?>
<kml xmlns="http://www.opengis.net/kml/2.2">
<Document id="root_doc">
<Schema name="task_grid_v6_46.28_60.38" id="task_grid_v6_46.28_60.38">
	<SimpleField name="area_ha" type="float"></SimpleField>
	<SimpleField name="low_risk_ha" type="float"></SimpleField>
	<SimpleField name="moderate_risk_ha" type="float"></SimpleField>
	<SimpleField name="grid_cell_deg" type="string"></SimpleField>
</Schema>
<Folder><name>task_grid_v6_46.28_60.38</name>
  <Placemark id="task_grid_v6_46.28_60.38.1">
	<name>task_grid_v6_46.28_60.38</name>
	<name>163.9</name>
	<description>359.4</description>
	<Style><LineStyle><color>ff0000ff</color></LineStyle><PolyStyle><fill>0</fill></PolyStyle></Style>
	<ExtendedData><SchemaData schemaUrl="#task_grid_v6_46.28_60.38">
		<SimpleData name="area_ha">195.5</SimpleData>
		<SimpleData name="low_risk_ha">0.1</SimpleData>
	</SchemaData></ExtendedData>
      <MultiGeometry><Polygon><outerBoundaryIs><LinearRing><coordinates>60.3430715693311,46.2776101767013 60.3444190422573,46.2816525954798 60.3511564068882,46.2776101767013 60.349808933962,46.2735677579227 60.3430715693311,46.2776101767013</coordinates></LinearRing></outerBoundaryIs></Polygon><Polygon><outerBoundaryIs><LinearRing><coordinates>60.3403766234787,46.2910849059631 60.3471139881096,46.2924323788892 60.3471139881096,46.2897374330369 60.3417240964049,46.2897374330369 60.3403766234787,46.2910849059631</coordinates></LinearRing></outerBoundaryIs></Polygon><Polygon><outerBoundaryIs><LinearRing><coordinates>60.3269018942169,46.3072545810772 60.3336392588478,46.3112969998558 60.334986731774,46.3072545810772 60.3322917859217,46.3045596352249 60.3363342047002,46.3005172164463 60.3430715693311,46.2991697435201 60.3430715693311,46.2964747976678 60.3363342047002,46.2897374330369 60.3322917859217,46.2937798518154 60.334986731774,46.2964747976678 60.3336392588478,46.297822270594 60.3309443129955,46.2951273247416 60.3269018942169,46.3018646893725 60.3269018942169,46.3072545810772</coordinates></LinearRing></outerBoundaryIs></Polygon><Polygon><outerBoundaryIs><LinearRing><coordinates>60.3484614610358,46.3018646893725 60.3551988256667,46.3032121622987 60.3551988256667,46.3005172164463 60.349808933962,46.3005172164463 60.3484614610358,46.3018646893725</coordinates></LinearRing></outerBoundaryIs></Polygon><Polygon><outerBoundaryIs><LinearRing><coordinates>60.3511564068882,46.3288141478961 60.3578937715191,46.3301616208223 60.3619361902976,46.3261192020437 60.3578937715191,46.3247717291175 60.3511564068882,46.3288141478961</coordinates></LinearRing></outerBoundaryIs></Polygon><Polygon><outerBoundaryIs><LinearRing><coordinates>60.3423224736307,46.3343547580755 60.3486121795105,46.3343547580755 60.3444190422573,46.3301616208223 60.3423224736307,46.3343547580755</coordinates></LinearRing></outerBoundaryIs></Polygon><Polygon><outerBoundaryIs><LinearRing><coordinates>60.3544497299663,46.3343547580755 60.3566970170676,46.3343547580755 60.3551988256667,46.3328565666746 60.3544497299663,46.3343547580755</coordinates></LinearRing></outerBoundaryIs></Polygon><Polygon><outerBoundaryIs><LinearRing><coordinates>60.3590905259706,46.3343547580755 60.3613378130719,46.3343547580755 60.3605887173714,46.3328565666746 60.3590905259706,46.3343547580755</coordinates></LinearRing></outerBoundaryIs></Polygon><Polygon><outerBoundaryIs><LinearRing><coordinates>60.4198775261233,46.3086020540034 60.4212249990495,46.3072545810772 60.4198775261233,46.3032121622987 60.4158351073448,46.3045596352249 60.4198775261233,46.3086020540034</coordinates></LinearRing></outerBoundaryIs></Polygon><Polygon><outerBoundaryIs><LinearRing><coordinates>60.3996654322306,46.320729310339 60.402360378083,46.3180343644866 60.4010129051568,46.3139919457081 60.3969704863783,46.3180343644866 60.3969704863783,46.3234242561914 60.3942755405259,46.3261192020437 60.3978050645395,46.3343547580755 60.3984267551637,46.3343547580755 60.3996654322306,46.320729310339</coordinates></LinearRing></outerBoundaryIs></Polygon><Polygon><outerBoundaryIs><LinearRing><coordinates>60.4090977427139,46.3328565666746 60.4158351073448,46.3315090937484 60.4117926885662,46.3274666749699 60.4077502697877,46.3315090937484 60.4090977427139,46.3328565666746</coordinates></LinearRing></outerBoundaryIs></Polygon><Polygon><outerBoundaryIs><LinearRing><coordinates>60.3834957571165,46.3315090937484 60.3844443118922,46.3343547580755 60.3868378207951,46.3343547580755 60.3915805946735,46.3315090937484 60.3902331217474,46.3274666749699 60.3834957571165,46.3315090937484</coordinates></LinearRing></outerBoundaryIs></Polygon><Polygon><outerBoundaryIs><LinearRing><coordinates>60.3692719321542,46.3343547580755 60.3775970199362,46.3343547580755 60.3767583924856,46.3301616208223 60.3713685007809,46.3301616208223 60.3692719321542,46.3343547580755</coordinates></LinearRing></outerBoundaryIs></Polygon><Polygon><outerBoundaryIs><LinearRing><coordinates>60.425267417828,46.3328565666746 60.4239199449018,46.3342040396008 60.4246735372753,46.3343547580755 60.4263910613787,46.3343547580755 60.4263910613787,46.3328565666746 60.425267417828,46.3328565666746</coordinates></LinearRing></outerBoundaryIs></Polygon><Polygon><outerBoundaryIs><LinearRing><coordinates>60.4050553239353,46.3343547580755 60.4130648022551,46.3343547580755 60.4131401614924,46.3342040396008 60.4050553239353,46.3342040396008 60.4050553239353,46.3343547580755</coordinates></LinearRing></outerBoundaryIs></Polygon></MultiGeometry>
  </Placemark>
</Folder>
</Document></kml>
