<?xml version="1.0" encoding="utf-8" ?>
<kml xmlns="http://www.opengis.net/kml/2.2">
<Document id="root_doc">
<Schema name="task_grid_v6_46.21_60.26" id="task_grid_v6_46.21_60.26">
	<SimpleField name="area_ha" type="float"></SimpleField>
	<SimpleField name="low_risk_ha" type="float"></SimpleField>
	<SimpleField name="moderate_risk_ha" type="float"></SimpleField>
	<SimpleField name="grid_cell_deg" type="string"></SimpleField>
</Schema>
<Folder><name>task_grid_v6_46.21_60.26</name>
  <Placemark id="task_grid_v6_46.21_60.26.1">
	<name>task_grid_v6_46.21_60.26</name>
	<name>275.5</name>
	<description>542.5</description>
	<Style><LineStyle><color>ff0000ff</color></LineStyle><PolyStyle><fill>0</fill></PolyStyle></Style>
	<ExtendedData><SchemaData schemaUrl="#task_grid_v6_46.21_60.26">
		<SimpleData name="area_ha">267</SimpleData>
		<SimpleData name="low_risk_ha">0.1</SimpleData>
	</SchemaData></ExtendedData>
      <MultiGeometry><Polygon><outerBoundaryIs><LinearRing><coordinates>60.2118685037756,46.1625641451378 60.2102213862645,46.1625641451378 60.2102213862645,46.1638452365353 60.2118685037756,46.1625641451378</coordinates></LinearRing></outerBoundaryIs></Polygon><Polygon><outerBoundaryIs><LinearRing><coordinates>60.2500959374247,46.1657699238284 60.2533017161153,46.1625641451378 60.2490273445278,46.1625641451378 60.2500959374247,46.1657699238284</coordinates></LinearRing></outerBoundaryIs></Polygon><Polygon><outerBoundaryIs><LinearRing><coordinates>60.3102213862645,46.1657699238284 60.3102213862645,46.1625641451378 60.2856410663436,46.1625641451378 60.2783928688745,46.1698123426069 60.282435287653,46.1738547613855 60.2932150710625,46.1657699238284 60.3102213862645,46.1657699238284</coordinates></LinearRing></outerBoundaryIs></Polygon><Polygon><outerBoundaryIs><LinearRing><coordinates>60.2150616413441,46.1684648696807 60.2102213862645,46.1719221947376 60.2102213862645,46.1760000706126 60.2123666954917,46.1738547613855 60.2231464789011,46.1738547613855 60.2258414247535,46.1765497072378 60.2285363706059,46.1711598155331 60.2339262623106,46.1738547613855 60.2379686810891,46.1671173967546 60.2352737352368,46.1644224509022 60.2366212081629,46.163074977976 60.24470604572,46.1684648696807 60.2453616817803,46.1625641451378 60.22686309043,46.1625641451378 60.2258414247535,46.163074977976 60.2253305919152,46.1625641451378 60.2224184412298,46.1625641451378 60.2204515330488,46.1684648696807 60.2150616413441,46.1684648696807</coordinates></LinearRing></outerBoundaryIs><innerBoundaryIs><LinearRing><coordinates>60.229883843532,46.1671173967546 60.2285363706059,46.1684648696807 60.2271888976797,46.1671173967546 60.229883843532,46.1671173967546</coordinates></LinearRing></innerBoundaryIs></Polygon><Polygon><outerBoundaryIs><LinearRing><coordinates>60.2271888976797,46.1832870718687 60.2339262623106,46.1846345447949 60.2339262623106,46.1819395989425 60.2285363706059,46.1819395989425 60.2271888976797,46.1832870718687</coordinates></LinearRing></outerBoundaryIs></Polygon><Polygon><outerBoundaryIs><LinearRing><coordinates>60.2541383562033,46.2048466386876 60.2581807749818,46.2142789491708 60.259528247908,46.2129314762447 60.2581807749818,46.2034991657614 60.2541383562033,46.2048466386876</coordinates></LinearRing></outerBoundaryIs></Polygon><Polygon><outerBoundaryIs><LinearRing><coordinates>60.2649181396127,46.215626422097 60.2635706666865,46.2061941116138 60.259528247908,46.2075415845399 60.259528247908,46.2129314762447 60.2568333020556,46.215626422097 60.2581807749818,46.2196688408756 60.2649181396127,46.215626422097</coordinates></LinearRing></outerBoundaryIs></Polygon><Polygon><outerBoundaryIs><LinearRing><coordinates>60.2474009915724,46.2196688408756 60.2460535186462,46.2210163138017 60.2527908832771,46.2223637867279 60.2527908832771,46.2196688408756 60.2474009915724,46.2196688408756</coordinates></LinearRing></outerBoundaryIs></Polygon><Polygon><outerBoundaryIs><LinearRing><coordinates>60.274350450096,46.2358385159897 60.2676130854651,46.2398809347683 60.2649181396127,46.245270826473 60.2662656125389,46.2466182993991 60.274350450096,46.2466182993991 60.2783928688745,46.2425758806206 60.274350450096,46.2358385159897</coordinates></LinearRing></outerBoundaryIs></Polygon><Polygon><outerBoundaryIs><LinearRing><coordinates>60.2339262623106,46.2439233535468 60.2312313164582,46.2412284076944 60.229883843532,46.245270826473 60.2393161540153,46.2466182993991 60.2393161540153,46.2412284076944 60.2339262623106,46.2439233535468</coordinates></LinearRing></outerBoundaryIs></Polygon></MultiGeometry>
  </Placemark>
</Folder>
</Document></kml>
