<?xml version="1.0" encoding="utf-8" ?>
<kml xmlns="http://www.opengis.net/kml/2.2">
<Document id="root_doc">
<Schema name="task_grid_v6_45.88_60.38" id="task_grid_v6_45.88_60.38">
	<SimpleField name="area_ha" type="float"></SimpleField>
	<SimpleField name="low_risk_ha" type="float"></SimpleField>
	<SimpleField name="moderate_risk_ha" type="float"></SimpleField>
	<SimpleField name="grid_cell_deg" type="string"></SimpleField>
</Schema>
<Folder><name>task_grid_v6_45.88_60.38</name>
  <Placemark id="task_grid_v6_45.88_60.38.1">
	<name>task_grid_v6_45.88_60.38</name>
	<name>0</name>
	<description>180.5</description>
	<Style><LineStyle><color>ff0000ff</color></LineStyle><PolyStyle><fill>0</fill></PolyStyle></Style>
	<ExtendedData><SchemaData schemaUrl="#task_grid_v6_45.88_60.38">
		<SimpleData name="area_ha">180.5</SimpleData>
		<SimpleData name="low_risk_ha">0.1</SimpleData>
	</SchemaData></ExtendedData>
      <MultiGeometry><Polygon><outerBoundaryIs><LinearRing><coordinates>60.3346428642773,45.8343547580755 60.3390291505526,45.8369865298406 60.3406082136116,45.8343547580755 60.3346428642773,45.8343547580755</coordinates></LinearRing></outerBoundaryIs></Polygon><Polygon><outerBoundaryIs><LinearRing><coordinates>60.4010129051568,45.8477663132501 60.4050553239353,45.8437238944715 60.3956230134521,45.839681475693 60.3929280675997,45.8450713673977 60.3888856488212,45.8464188403239 60.4010129051568,45.8477663132501</coordinates></LinearRing></outerBoundaryIs></Polygon><Polygon><outerBoundaryIs><LinearRing><coordinates>60.4263910613787,45.8477663132501 60.4225724719757,45.8477663132501 60.4212249990495,45.8491137861763 60.4263910613787,45.8501469986421 60.4263910613787,45.8477663132501</coordinates></LinearRing></outerBoundaryIs></Polygon><Polygon><outerBoundaryIs><LinearRing><coordinates>60.4090977427139,45.8720208259213 60.4077502697877,45.8733682988475 60.4144876344186,45.8747157717737 60.4144876344186,45.8720208259213 60.4090977427139,45.8720208259213</coordinates></LinearRing></outerBoundaryIs></Polygon><Polygon><outerBoundaryIs><LinearRing><coordinates>60.4263910613787,45.88983791202 60.4198775261233,45.8854955551831 60.4144876344186,45.8854955551831 60.4104452156401,45.8895379739616 60.417182580271,45.8962753385925 60.4263910613787,45.8939732183156 60.4263910613787,45.88983791202</coordinates></LinearRing></outerBoundaryIs></Polygon></MultiGeometry>
  </Placemark>
</Folder>
</Document></kml>
