<?xml version="1.0" encoding="utf-8" ?>
<kml xmlns="http://www.opengis.net/kml/2.2">
<Document id="root_doc">
<Schema name="task_grid_v6_44.88_61.18" id="task_grid_v6_44.88_61.18">
	<SimpleField name="area_ha" type="float"></SimpleField>
	<SimpleField name="low_risk_ha" type="float"></SimpleField>
	<SimpleField name="moderate_risk_ha" type="float"></SimpleField>
	<SimpleField name="grid_cell_deg" type="string"></SimpleField>
</Schema>
<Folder><name>task_grid_v6_44.88_61.18</name>
  <Placemark id="task_grid_v6_44.88_61.18.1">
	<name>task_grid_v6_44.88_61.18</name>
	<name>277.1</name>
	<description>3234.8</description>
	<Style><LineStyle><color>ff0000ff</color></LineStyle><PolyStyle><fill>0</fill></PolyStyle></Style>
	<ExtendedData><SchemaData schemaUrl="#task_grid_v6_44.88_61.18">
		<SimpleData name="area_ha">2957.7</SimpleData>
		<SimpleData name="low_risk_ha">0.1</SimpleData>
	</SchemaData></ExtendedData>
      <MultiGeometry><Polygon><outerBoundaryIs><LinearRing><coordinates>61.1372049632085,44.8343547580755 61.1313991884899,44.8343547580755 61.131343231146,44.8344666727633 61.1312686213541,44.8343547580755 61.1263910613787,44.8343547580755 61.1263910613787,44.8474899572421 61.1286482852936,44.8479414020251 61.1380805957769,44.8358141456894 61.1372049632085,44.8343547580755</coordinates></LinearRing></outerBoundaryIs></Polygon><Polygon><outerBoundaryIs><LinearRing><coordinates>61.169072473079,44.8910605356628 61.1636825813743,44.8910605356628 61.1623351084481,44.892408008589 61.169072473079,44.8937554815152 61.169072473079,44.8910605356628</coordinates></LinearRing></outerBoundaryIs></Polygon><Polygon><outerBoundaryIs><LinearRing><coordinates>61.1263910613787,44.9040975429872 61.1273008123674,44.9031877919984 61.1263910613787,44.9026419414052 61.1263910613787,44.9040975429872</coordinates></LinearRing></outerBoundaryIs></Polygon><Polygon><outerBoundaryIs><LinearRing><coordinates>61.2041067691597,44.8802807522534 61.1960219316026,44.8856706439581 61.1879370940455,44.8856706439581 61.1852421481931,44.8829756981057 61.1825472023408,44.8856706439581 61.1798522564884,44.8829756981057 61.1744623647837,44.8883655898104 61.1717674189314,44.8856706439581 61.1704199460052,44.8897130627366 61.1731148918575,44.892408008589 61.1636825813743,44.8991453732199 61.1609876355219,44.8937554815152 61.1582926896696,44.8964504273675 61.1569452167434,44.8951029544413 61.1555977438172,44.8883655898104 61.1515553250387,44.892408008589 61.154250270891,44.8951029544413 61.1488603791863,44.900492846146 61.1529027979648,44.9072302107769 61.1555977438172,44.9045352649246 61.1623351084481,44.9112726295555 61.1555977438172,44.9126201024817 61.1529027979648,44.9180099941864 61.1502078521125,44.915315048334 61.1421230145554,44.915315048334 61.1367331228507,44.9180099941864 61.131343231146,44.9126201024817 61.1263910613787,44.9126201024817 61.1263910613787,44.9343547580755 61.172328176772,44.9343547580755 61.1708691036472,44.9341796693005 61.1852421481931,44.9341796693005 61.1854172369681,44.9343547580755 61.1948388999967,44.9343547580755 61.1958468428276,44.9343547580755 61.2263910613787,44.9343547580755 61.2263910613787,44.930759998048 61.2256663359785,44.9314847234482 61.2189289713476,44.9274423046696 61.2243188630523,44.9193574671126 61.2162340254953,44.9139675754078 61.2162340254953,44.9058827378508 61.2175814984214,44.9045352649246 61.2202764442738,44.9072302107769 61.2256663359785,44.9072302107769 61.2263910613787,44.9069007901405 61.2263910613787,44.9011155936721 61.2256663359785,44.9018403190722 61.2243188630523,44.900492846146 61.2263910613787,44.900492846146 61.2263910613787,44.8856706439581 61.2202764442738,44.8856706439581 61.2202764442738,44.8883655898104 61.2243188630523,44.8897130627366 61.2202764442738,44.8910605356628 61.2041067691597,44.8802807522534</coordinates></LinearRing></outerBoundaryIs><innerBoundaryIs><LinearRing><coordinates>61.1771573106361,44.9180099941864 61.1771573106361,44.9233998858911 61.1786972796946,44.9241698704203 61.1717674189314,44.9287897775958 61.1758098377099,44.9247473588173 61.1731148918575,44.9220524129649 61.1771573106361,44.9180099941864</coordinates></LinearRing></innerBoundaryIs><innerBoundaryIs><LinearRing><coordinates>61.1933269857502,44.9260948317434 61.1973694045288,44.930137250522 61.1965609207731,44.9314847234482 61.1933269857502,44.9260948317434</coordinates></LinearRing></innerBoundaryIs><innerBoundaryIs><LinearRing><coordinates>61.2162340254953,44.8951029544413 61.2135390796429,44.8977979002937 61.2162340254953,44.900492846146 61.2148865525691,44.9018403190722 61.2014118233073,44.9018403190722 61.2000643503811,44.8977979002937 61.1946744586764,44.8951029544413 61.206801715012,44.8937554815152 61.2121916067167,44.8964504273675 61.2121916067167,44.8883655898104 61.2162340254953,44.8951029544413</coordinates></LinearRing></innerBoundaryIs><innerBoundaryIs><LinearRing><coordinates>61.1825472023408,44.8964504273675 61.183894675267,44.900492846146 61.1798522564884,44.9018403190722 61.1758098377099,44.8977979002937 61.1825472023408,44.8964504273675</coordinates></LinearRing></innerBoundaryIs><innerBoundaryIs><LinearRing><coordinates>61.1582926896696,44.9180099941864 61.1582926896696,44.915315048334 61.1596401625957,44.9166625212602 61.1582926896696,44.9180099941864</coordinates></LinearRing></innerBoundaryIs></Polygon></MultiGeometry>
  </Placemark>
</Folder>
</Document></kml>
