<?xml version="1.0" encoding="utf-8" ?>
<kml xmlns="http://www.opengis.net/kml/2.2">
<Document id="root_doc">
<Schema name="task_grid_v6_45.01_61.46" id="task_grid_v6_45.01_61.46">
	<SimpleField name="area_ha" type="float"></SimpleField>
	<SimpleField name="low_risk_ha" type="float"></SimpleField>
	<SimpleField name="moderate_risk_ha" type="float"></SimpleField>
	<SimpleField name="grid_cell_deg" type="string"></SimpleField>
</Schema>
<Folder><name>task_grid_v6_45.01_61.46</name>
  <Placemark id="task_grid_v6_45.01_61.46.1">
	<name>task_grid_v6_45.01_61.46</name>
	<name>241.6</name>
	<description>1179.1</description>
	<Style><LineStyle><color>ff0000ff</color></LineStyle><PolyStyle><fill>0</fill></PolyStyle></Style>
	<ExtendedData><SchemaData schemaUrl="#task_grid_v6_45.01_61.46">
		<SimpleData name="area_ha">937.6</SimpleData>
		<SimpleData name="low_risk_ha">0.1</SimpleData>
	</SchemaData></ExtendedData>
      <Polygon><outerBoundaryIs><LinearRing><coordinates>61.4250923290531,45.0311977199854 61.4237448561269,45.0379350846163 61.4304822207578,45.0392825575425 61.4412620041672,45.0527572868043 61.454736733429,45.0500623409519 61.4574316792814,45.0527572868043 61.4628215709861,45.0500623409519 61.4682114626908,45.0554522326567 61.4736013543955,45.0554522326567 61.4816861919526,45.0608421243614 61.4884235565835,45.0594946514352 61.4911185024358,45.0514098138781 61.4803387190264,45.0406300304687 61.4789912461002,45.0311977199854 61.4736013543955,45.0285027741331 61.454736733429,45.0285027741331 61.4520417875766,45.0258078282807 61.4412620041672,45.0258078282807 61.4331771666101,45.0311977199854 61.4250923290531,45.0311977199854</coordinates></LinearRing></outerBoundaryIs><innerBoundaryIs><LinearRing><coordinates>61.4668639897646,45.0433249763211 61.4655165168384,45.0406300304687 61.4682114626908,45.0446724492472 61.4671334843499,45.0479063842701 61.4655165168384,45.0446724492472 61.4668639897646,45.0433249763211</coordinates></LinearRing></innerBoundaryIs><innerBoundaryIs><LinearRing><coordinates>61.4608003615968,45.0359138752271 61.4628215709861,45.0365876116902 61.4634204478422,45.0374859269743 61.4608003615968,45.0359138752271</coordinates></LinearRing></innerBoundaryIs><innerBoundaryIs><LinearRing><coordinates>61.4533892605028,45.0345664023009 61.454736733429,45.0338926658378 61.4556350487131,45.0341921042658 61.4533892605028,45.0345664023009</coordinates></LinearRing></innerBoundaryIs><innerBoundaryIs><LinearRing><coordinates>61.4789912461002,45.0488645872398 61.4789912461002,45.0446724492472 61.4803387190264,45.0487148680258 61.4789912461002,45.0488645872398</coordinates></LinearRing></innerBoundaryIs><innerBoundaryIs><LinearRing><coordinates>61.4675773577844,45.0487941311391 61.4736013543955,45.0494634640959 61.4682114626908,45.0500623409519 61.4675773577844,45.0487941311391</coordinates></LinearRing></innerBoundaryIs><innerBoundaryIs><LinearRing><coordinates>61.4466518958719,45.0338926658378 61.4453044229457,45.0325451929116 61.4479993687981,45.0325451929116 61.4466518958719,45.0338926658378</coordinates></LinearRing></innerBoundaryIs></Polygon>
  </Placemark>
</Folder>
</Document></kml>
