<?xml version="1.0" encoding="utf-8" ?>
<kml xmlns="http://www.opengis.net/kml/2.2">
<Document id="root_doc">
<Schema name="task_grid_v6_45.61_61.26" id="task_grid_v6_45.61_61.26">
	<SimpleField name="area_ha" type="float"></SimpleField>
	<SimpleField name="low_risk_ha" type="float"></SimpleField>
	<SimpleField name="moderate_risk_ha" type="float"></SimpleField>
	<SimpleField name="grid_cell_deg" type="string"></SimpleField>
</Schema>
<Folder><name>task_grid_v6_45.61_61.26</name>
  <Placemark id="task_grid_v6_45.61_61.26.1">
	<name>task_grid_v6_45.61_61.26</name>
	<name>56.7</name>
	<description>432.6</description>
	<Style><LineStyle><color>ff0000ff</color></LineStyle><PolyStyle><fill>0</fill></PolyStyle></Style>
	<ExtendedData><SchemaData schemaUrl="#task_grid_v6_45.61_61.26">
		<SimpleData name="area_ha">376</SimpleData>
		<SimpleData name="low_risk_ha">0.1</SimpleData>
	</SchemaData></ExtendedData>
      <MultiGeometry><Polygon><outerBoundaryIs><LinearRing><coordinates>61.2171194061837,45.5625641451378 61.2162340254953,45.5634495258263 61.2175814984214,45.5647969987524 61.2216239172,45.5634495258263 61.2213287903038,45.5625641451378 61.2171194061837,45.5625641451378</coordinates></LinearRing></outerBoundaryIs></Polygon><Polygon><outerBoundaryIs><LinearRing><coordinates>61.2431834840189,45.5634495258263 61.244530956945,45.5674919446048 61.2566582132806,45.5661444716786 61.2539632674283,45.5634495258263 61.2548486481168,45.5625641451378 61.2503829408875,45.5625641451378 61.2512683215759,45.5634495258263 61.2499208486498,45.5647969987524 61.2454551414204,45.5625641451378 61.2440688647073,45.5625641451378 61.2431834840189,45.5634495258263</coordinates></LinearRing></outerBoundaryIs></Polygon><Polygon><outerBoundaryIs><LinearRing><coordinates>61.2472259027974,45.5971363489807 61.2512683215759,45.5957888760546 61.2499208486498,45.5890515114237 61.2458784298712,45.5930939302022 61.2472259027974,45.5971363489807</coordinates></LinearRing></outerBoundaryIs></Polygon><Polygon><outerBoundaryIs><LinearRing><coordinates>61.244530956945,45.5998312948331 61.2431834840189,45.6011787677593 61.2526157945021,45.6025262406854 61.2526157945021,45.5998312948331 61.244530956945,45.5998312948331</coordinates></LinearRing></outerBoundaryIs></Polygon><Polygon><outerBoundaryIs><LinearRing><coordinates>61.2310562276832,45.6133060240949 61.2431834840189,45.6038737136116 61.2391410652403,45.5998312948331 61.236446119388,45.6025262406854 61.2310562276832,45.6025262406854 61.2283612818309,45.6079161323902 61.2229713901262,45.6052211865378 61.2189289713476,45.6092636053164 61.2310562276832,45.6133060240949</coordinates></LinearRing></outerBoundaryIs></Polygon><Polygon><outerBoundaryIs><LinearRing><coordinates>61.2526157945021,45.6025262406854 61.2431834840189,45.6038737136116 61.2431834840189,45.606568659464 61.2472259027974,45.6079161323902 61.2499208486498,45.6133060240949 61.2512683215759,45.6119585511687 61.2526157945021,45.6133060240949 61.2566582132806,45.6119585511687 61.2553107403545,45.6052211865378 61.2536937728431,45.6079161323902 61.2526157945021,45.6025262406854</coordinates></LinearRing></outerBoundaryIs></Polygon><Polygon><outerBoundaryIs><LinearRing><coordinates>61.2472259027974,45.5836616197189 61.2526157945021,45.5863565655713 61.2566582132806,45.5850090926451 61.2472259027974,45.5782717280142 61.2472259027974,45.5836616197189</coordinates></LinearRing></outerBoundaryIs></Polygon><Polygon><outerBoundaryIs><LinearRing><coordinates>61.2647430508377,45.5903989843498 61.2687854696163,45.591746457276 61.2728278883948,45.5877040384975 61.2687854696163,45.5863565655713 61.2647430508377,45.5903989843498</coordinates></LinearRing></outerBoundaryIs></Polygon><Polygon><outerBoundaryIs><LinearRing><coordinates>61.2553107403545,45.5971363489807 61.259353159133,45.5957888760546 61.2580056862068,45.591746457276 61.2539632674283,45.5957888760546 61.2553107403545,45.5971363489807</coordinates></LinearRing></outerBoundaryIs></Polygon><Polygon><outerBoundaryIs><LinearRing><coordinates>61.2660905237639,45.6321706450614 61.2620481049854,45.6335181179876 61.2647430508377,45.6362130638399 61.2620481049854,45.6389080096923 61.2687854696163,45.6402554826185 61.2728278883948,45.6362130638399 61.2660905237639,45.6321706450614</coordinates></LinearRing></outerBoundaryIs></Polygon><Polygon><outerBoundaryIs><LinearRing><coordinates>61.2580056862068,45.6483403201755 61.259353159133,45.6416029555446 61.2553107403545,45.6348655909138 61.2512683215759,45.644297901397 61.2580056862068,45.6483403201755</coordinates></LinearRing></outerBoundaryIs></Polygon></MultiGeometry>
  </Placemark>
</Folder>
</Document></kml>
