<?xml version="1.0" encoding="utf-8" ?>
<kml xmlns="http://www.opengis.net/kml/2.2">
<Document id="root_doc">
<Schema name="task_grid_v6_45.68_60.58" id="task_grid_v6_45.68_60.58">
	<SimpleField name="area_ha" type="float"></SimpleField>
	<SimpleField name="low_risk_ha" type="float"></SimpleField>
	<SimpleField name="moderate_risk_ha" type="float"></SimpleField>
	<SimpleField name="grid_cell_deg" type="string"></SimpleField>
</Schema>
<Folder><name>task_grid_v6_45.68_60.58</name>
  <Placemark id="task_grid_v6_45.68_60.58.1">
	<name>task_grid_v6_45.68_60.58</name>
	<name>0</name>
	<description>493.5</description>
	<Style><LineStyle><color>ff0000ff</color></LineStyle><PolyStyle><fill>0</fill></PolyStyle></Style>
	<ExtendedData><SchemaData schemaUrl="#task_grid_v6_45.68_60.58">
		<SimpleData name="area_ha">493.5</SimpleData>
		<SimpleData name="low_risk_ha">0.1</SimpleData>
	</SchemaData></ExtendedData>
      <MultiGeometry><Polygon><outerBoundaryIs><LinearRing><coordinates>60.6139136274931,45.6510352660279 60.6125661545669,45.6523827389541 60.6219984650502,45.6537302118803 60.6219984650502,45.6510352660279 60.6139136274931,45.6510352660279</coordinates></LinearRing></outerBoundaryIs></Polygon><Polygon><outerBoundaryIs><LinearRing><coordinates>60.5761843855601,45.659120103585 60.5775318584863,45.6577726306588 60.5748369126339,45.6550776848064 60.5802268043387,45.6523827389541 60.568099548003,45.6510352660279 60.5640571292245,45.6577726306588 60.568099548003,45.659120103585 60.5707944938554,45.6564251577326 60.5761843855601,45.659120103585</coordinates></LinearRing></outerBoundaryIs></Polygon><Polygon><outerBoundaryIs><LinearRing><coordinates>60.6139136274931,45.6645099952897 60.6125661545669,45.6658574682159 60.6193035191978,45.6672049411421 60.6193035191978,45.6645099952897 60.6139136274931,45.6645099952897</coordinates></LinearRing></outerBoundaryIs></Polygon><Polygon><outerBoundaryIs><LinearRing><coordinates>60.6004388982313,45.696849345518 60.6017863711575,45.6955018725918 60.6017863711575,45.6793321974777 60.5990914253052,45.6793321974777 60.5990914253052,45.6847220891824 60.5937015336004,45.6874170350347 60.5937015336004,45.6928069267395 60.6004388982313,45.696849345518</coordinates></LinearRing></outerBoundaryIs><innerBoundaryIs><LinearRing><coordinates>60.5963964794528,45.6901119808871 60.5990914253052,45.6901119808871 60.597743952379,45.6914594538133 60.5963964794528,45.6901119808871</coordinates></LinearRing></innerBoundaryIs></Polygon><Polygon><outerBoundaryIs><LinearRing><coordinates>60.5802268043387,45.6981968184442 60.5842692231172,45.7022392372227 60.5856166960434,45.7008917642965 60.5842692231172,45.6941543996656 60.5802268043387,45.6981968184442</coordinates></LinearRing></outerBoundaryIs></Polygon><Polygon><outerBoundaryIs><LinearRing><coordinates>60.5721419667816,45.7008917642965 60.5761843855601,45.7049341830751 60.5775318584863,45.7035867101489 60.5761843855601,45.6995442913704 60.5721419667816,45.7008917642965</coordinates></LinearRing></outerBoundaryIs></Polygon><Polygon><outerBoundaryIs><LinearRing><coordinates>60.5330652519224,45.7130190206322 60.5317177789962,45.7143664935583 60.5384551436271,45.7157139664845 60.5384551436271,45.7130190206322 60.5330652519224,45.7130190206322</coordinates></LinearRing></outerBoundaryIs></Polygon><Polygon><outerBoundaryIs><LinearRing><coordinates>60.5721419667816,45.7170614394107 60.5734894397077,45.7184089123369 60.5788793314125,45.7184089123369 60.582921750191,45.7143664935583 60.5788793314125,45.7103240747798 60.5721419667816,45.7170614394107</coordinates></LinearRing></outerBoundaryIs></Polygon><Polygon><outerBoundaryIs><LinearRing><coordinates>60.597743952379,45.7211038581892 60.5950490065266,45.7237988040416 60.5923540606743,45.7211038581892 60.5842692231172,45.7211038581892 60.582921750191,45.7251462769678 60.5950490065266,45.7318836415987 60.597743952379,45.7264937498939 60.6004388982313,45.7291886957463 60.6044813170099,45.7278412228201 60.6044813170099,45.7224513311154 60.6085237357884,45.7184089123369 60.620650992124,45.7170614394107 60.6193035191978,45.7130190206322 60.6085237357884,45.7103240747798 60.6058287899361,45.7076291289274 60.6058287899361,45.7157139664845 60.6031338440837,45.7130190206322 60.5990914253052,45.7143664935583 60.6017863711575,45.719756385263 60.6004388982313,45.7237988040416 60.597743952379,45.7211038581892</coordinates></LinearRing></outerBoundaryIs></Polygon></MultiGeometry>
  </Placemark>
</Folder>
</Document></kml>
