<?xml version="1.0" encoding="utf-8" ?>
<kml xmlns="http://www.opengis.net/kml/2.2">
<Document id="root_doc">
<Schema name="task_grid_v6_45.81_59.26" id="task_grid_v6_45.81_59.26">
	<SimpleField name="area_ha" type="float"></SimpleField>
	<SimpleField name="low_risk_ha" type="float"></SimpleField>
	<SimpleField name="moderate_risk_ha" type="float"></SimpleField>
	<SimpleField name="grid_cell_deg" type="string"></SimpleField>
</Schema>
<Folder><name>task_grid_v6_45.81_59.26</name>
  <Placemark id="task_grid_v6_45.81_59.26.1">
	<name>task_grid_v6_45.81_59.26</name>
	<name>521.1</name>
	<description>879.8</description>
	<Style><LineStyle><color>ff0000ff</color></LineStyle><PolyStyle><fill>0</fill></PolyStyle></Style>
	<ExtendedData><SchemaData schemaUrl="#task_grid_v6_45.81_59.26">
		<SimpleData name="area_ha">358.7</SimpleData>
		<SimpleData name="low_risk_ha">0.1</SimpleData>
	</SchemaData></ExtendedData>
      <MultiGeometry><Polygon><outerBoundaryIs><LinearRing><coordinates>59.2273639864546,45.7790451940149 59.2314064052332,45.7830876127935 59.2354488240117,45.7763502481626 59.2287114593808,45.7669179376793 59.2273639864546,45.7790451940149</coordinates></LinearRing></outerBoundaryIs></Polygon><Polygon><outerBoundaryIs><LinearRing><coordinates>59.2516184991259,45.8006047608338 59.2556609179044,45.8073421254647 59.2623982825353,45.8032997066862 59.2543134449782,45.7952148691291 59.2529659720521,45.7857825586458 59.2516184991259,45.8006047608338</coordinates></LinearRing></outerBoundaryIs></Polygon><Polygon><outerBoundaryIs><LinearRing><coordinates>59.2502710261997,45.8154269630218 59.2543134449782,45.8113845442432 59.2502710261997,45.8046471796123 59.2489235532735,45.8059946525385 59.2502710261997,45.8154269630218</coordinates></LinearRing></outerBoundaryIs></Polygon><Polygon><outerBoundaryIs><LinearRing><coordinates>59.2637457554615,45.8181219088741 59.26778817424,45.8140794900956 59.2637457554615,45.8100370713171 59.2583558637568,45.8154269630218 59.2516184991259,45.816774435948 59.2556609179044,45.8208168547265 59.2543134449782,45.824859273505 59.2637457554615,45.8262067464312 59.2637457554615,45.8181219088741</coordinates></LinearRing></outerBoundaryIs></Polygon><Polygon><outerBoundaryIs><LinearRing><coordinates>59.2583558637568,45.8369865298406 59.2529659720521,45.8369865298406 59.2516184991259,45.8410289486192 59.2529659720521,45.8423764215454 59.2556609179044,45.839681475693 59.2583558637568,45.8423764215454 59.2583558637568,45.8369865298406</coordinates></LinearRing></outerBoundaryIs></Polygon><Polygon><outerBoundaryIs><LinearRing><coordinates>59.259703336683,45.8571986237333 59.2664407013138,45.8585460966595 59.26778817424,45.8571986237333 59.2623982825353,45.854503677881 59.2610508096091,45.8504612591024 59.259703336683,45.8571986237333</coordinates></LinearRing></outerBoundaryIs></Polygon><Polygon><outerBoundaryIs><LinearRing><coordinates>59.3001275244683,45.7776977210888 59.3001275244683,45.7790451940149 59.3095598349516,45.7884775044982 59.3082123620254,45.7898249774244 59.3102213862645,45.7926376113592 59.3102213862645,45.7882569873939 59.3102213862645,45.7881467288417 59.3102213862645,45.7837491641064 59.3082123620254,45.7817401398673 59.3102213862645,45.7817401398673 59.3102213862645,45.772307829384 59.3095598349516,45.772307829384 59.3041699432469,45.7776977210888 59.3014749973945,45.7750027752364 59.3082123620254,45.7736553023102 59.3001275244683,45.7709603564579 59.3001275244683,45.7682654106055 59.305517416173,45.7655704647531 59.2987800515422,45.764222991827 59.297121204853,45.7625641451378 59.2895034279404,45.7625641451378 59.2893477410589,45.7628755189008 59.2893477410589,45.7628755189008 59.2890363672959,45.7625641451378 59.287654901745,45.7625641451378 59.2866527952065,45.7655704647531 59.2906952139851,45.7696128835317 59.2915671082314,45.7669972007926 59.2987800515422,45.7803926669411 59.3001275244683,45.7776977210888</coordinates></LinearRing></outerBoundaryIs></Polygon><Polygon><outerBoundaryIs><LinearRing><coordinates>59.26778817424,45.8006047608338 59.26778817424,45.7790451940149 59.2718305930186,45.7750027752364 59.2745255388709,45.7803926669411 59.2785679576495,45.7736553023102 59.2785679576495,45.7628755189008 59.2780490013778,45.7625641451378 59.2618507078368,45.7625641451378 59.259703336683,45.7655704647531 59.2623982825353,45.7682654106055 59.2623982825353,45.7898249774244 59.259703336683,45.7952148691291 59.2637457554615,45.80195223376 59.26778817424,45.8006047608338</coordinates></LinearRing></outerBoundaryIs></Polygon><Polygon><outerBoundaryIs><LinearRing><coordinates>59.2785679576495,45.8598935695857 59.2812385332015,45.8625641451378 59.2830676575035,45.8625641451378 59.2839578493542,45.8598935695857 59.2799154305756,45.8558511508072 59.2785679576495,45.8598935695857</coordinates></LinearRing></outerBoundaryIs></Polygon><Polygon><outerBoundaryIs><LinearRing><coordinates>59.2704912435258,45.8625641451378 59.2758486414968,45.8625641451378 59.2718305930186,45.8585460966595 59.2704912435258,45.8625641451378</coordinates></LinearRing></outerBoundaryIs></Polygon></MultiGeometry>
  </Placemark>
</Folder>
</Document></kml>
