<?xml version="1.0" encoding="utf-8" ?>
<kml xmlns="http://www.opengis.net/kml/2.2">
<Document id="root_doc">
<Schema name="task_grid_v6_46.31_59.46" id="task_grid_v6_46.31_59.46">
	<SimpleField name="area_ha" type="float"></SimpleField>
	<SimpleField name="low_risk_ha" type="float"></SimpleField>
	<SimpleField name="moderate_risk_ha" type="float"></SimpleField>
	<SimpleField name="grid_cell_deg" type="string"></SimpleField>
</Schema>
<Folder><name>task_grid_v6_46.31_59.46</name>
  <Placemark id="task_grid_v6_46.31_59.46.1">
	<name>task_grid_v6_46.31_59.46</name>
	<name>893.4</name>
	<description>1150.2</description>
	<Style><LineStyle><color>ff0000ff</color></LineStyle><PolyStyle><fill>0</fill></PolyStyle></Style>
	<ExtendedData><SchemaData schemaUrl="#task_grid_v6_46.31_59.46">
		<SimpleData name="area_ha">256.8</SimpleData>
		<SimpleData name="low_risk_ha">0.1</SimpleData>
	</SchemaData></ExtendedData>
      <MultiGeometry><Polygon><outerBoundaryIs><LinearRing><coordinates>59.4955110987643,46.2762627037751 59.4874262612072,46.2762627037751 59.4860787882811,46.2776101767013 59.4955110987643,46.2789576496275 59.4955110987643,46.2762627037751</coordinates></LinearRing></outerBoundaryIs></Polygon><Polygon><outerBoundaryIs><LinearRing><coordinates>59.4901212070596,46.2789576496275 59.4887737341334,46.2803051225536 59.4955110987643,46.2816525954798 59.4955110987643,46.2789576496275 59.4901212070596,46.2789576496275</coordinates></LinearRing></outerBoundaryIs></Polygon><Polygon><outerBoundaryIs><LinearRing><coordinates>59.4726040590193,46.2883899601107 59.4739515319455,46.2735677579227 59.4672141673146,46.2776101767013 59.4752990048716,46.2722202849966 59.4658666943884,46.2708728120704 59.4591293297575,46.2776101767013 59.4645192214622,46.2803051225536 59.4591293297575,46.283000068406 59.4591293297575,46.2883899601107 59.4618242756098,46.2910849059631 59.4618242756098,46.3045596352249 59.4672141673146,46.3126444727819 59.4752990048716,46.3180343644866 59.4793414236502,46.3247717291175 59.5102213862645,46.3453583708605 59.5102213862645,46.3294319270153 59.5062908821738,46.3274666749699 59.5102213862645,46.3261565069396 59.5102213862645,46.3258953726682 59.5076383550999,46.320729310339 59.5089858280261,46.305907108151 59.5035959363214,46.305907108151 59.4993085224654,46.3119094875495 59.4982060446167,46.3086020540034 59.4914686799858,46.3126444727819 59.4910195223437,46.3139919457081 59.4901212070596,46.3112969998558 59.4914686799858,46.3072545810772 59.4901212070596,46.305907108151 59.4847313153549,46.3086020540034 59.4820363695025,46.3032121622987 59.477993950724,46.3072545810772 59.4806888965764,46.3126444727819 59.477993950724,46.3126444727819 59.4672141673146,46.2910849059631 59.4672141673146,46.2856950142583 59.4685616402407,46.2924323788892 59.4726040590193,46.2883899601107</coordinates></LinearRing></outerBoundaryIs><innerBoundaryIs><LinearRing><coordinates>59.4699091131669,46.2803051225536 59.4692353767038,46.2816525954798 59.4672141673146,46.2776101767013 59.4699091131669,46.2803051225536</coordinates></LinearRing></innerBoundaryIs><innerBoundaryIs><LinearRing><coordinates>59.4968585716905,46.320729310339 59.5062908821738,46.3274666749699 59.500900990469,46.3247717291175 59.4968585716905,46.320729310339</coordinates></LinearRing></innerBoundaryIs><innerBoundaryIs><LinearRing><coordinates>59.4968585716905,46.3153394186343 59.4995535175429,46.3180343644866 59.4968585716905,46.320729310339 59.4968585716905,46.3153394186343</coordinates></LinearRing></innerBoundaryIs></Polygon><Polygon><outerBoundaryIs><LinearRing><coordinates>59.4820363695025,46.2870424871845 59.4806888965764,46.2883899601107 59.4901212070596,46.2897374330369 59.4901212070596,46.2870424871845 59.4820363695025,46.2870424871845</coordinates></LinearRing></outerBoundaryIs></Polygon></MultiGeometry>
  </Placemark>
</Folder>
</Document></kml>
