<?xml version="1.0" encoding="utf-8" ?>
<kml xmlns="http://www.opengis.net/kml/2.2">
<Document id="root_doc">
<Schema name="task_grid_v6_45.61_61.06" id="task_grid_v6_45.61_61.06">
	<SimpleField name="area_ha" type="float"></SimpleField>
	<SimpleField name="low_risk_ha" type="float"></SimpleField>
	<SimpleField name="moderate_risk_ha" type="float"></SimpleField>
	<SimpleField name="grid_cell_deg" type="string"></SimpleField>
</Schema>
<Folder><name>task_grid_v6_45.61_61.06</name>
  <Placemark id="task_grid_v6_45.61_61.06.1">
	<name>task_grid_v6_45.61_61.06</name>
	<name>494.5</name>
	<description>3167.4</description>
	<Style><LineStyle><color>ff0000ff</color></LineStyle><PolyStyle><fill>0</fill></PolyStyle></Style>
	<ExtendedData><SchemaData schemaUrl="#task_grid_v6_45.61_61.06">
		<SimpleData name="area_ha">2672.9</SimpleData>
		<SimpleData name="low_risk_ha">0.1</SimpleData>
	</SchemaData></ExtendedData>
      <MultiGeometry><Polygon><outerBoundaryIs><LinearRing><coordinates>61.0284731965186,45.5625641451378 61.0102213862645,45.5625641451378 61.0102213862645,45.5731330337673 61.0141130865684,45.5796192009404 61.0127656136422,45.5809666738666 61.0102213862645,45.5784224464889 61.0102213862645,45.591746457276 61.0127656136422,45.591746457276 61.0141130865684,45.5957888760546 61.0102213862645,45.5974567476133 61.0102213862645,45.6146534970211 61.0141130865684,45.6146534970211 61.0154605594946,45.6079161323902 61.0181555053469,45.6079161323902 61.0208504511993,45.6133060240949 61.0275878158302,45.6092636053164 61.026240342904,45.6052211865378 61.0168080324207,45.6038737136116 61.0221979241255,45.6011787677593 61.0168080324207,45.5984838219069 61.0289352887564,45.591746457276 61.0370201263134,45.5971363489807 61.041062545092,45.5930939302022 61.0383675992396,45.5903989843498 61.041062545092,45.5877040384975 61.0383675992396,45.5850090926451 61.0383675992396,45.5796192009404 61.0356726533872,45.576924255088 61.0397150721658,45.5701868904572 61.0424100180181,45.5782717280142 61.0477999097229,45.5755767821619 61.0504948555752,45.5809666738666 61.0495965402911,45.5818649891507 61.0477999097229,45.5809666738666 61.0437574909443,45.5850090926451 61.0504948555752,45.5890515114237 61.0558847472799,45.5890515114237 61.0612746389846,45.5971363489807 61.0653170577632,45.5957888760546 61.0666645306894,45.591746457276 61.0774443140988,45.591746457276 61.0814867328773,45.5957888760546 61.078791787025,45.5984838219069 61.0801392599512,45.5998312948331 61.0882240975082,45.5998312948331 61.0909190433606,45.5971363489807 61.0963089350653,45.5971363489807 61.1003513538438,45.5930939302022 61.093613989213,45.5890515114237 61.0855291516559,45.5944414031284 61.0760968411726,45.5850090926451 61.0760968411726,45.5823141467928 61.0653170577632,45.5742293092357 61.0666645306894,45.5701868904572 61.0693594765417,45.5728818363095 61.0747493682464,45.5728818363095 61.0764337094042,45.5678288128363 61.0774443140988,45.5728818363095 61.0832191980681,45.5717268595156 61.0828342058035,45.5728818363095 61.0760968411726,45.5742293092357 61.0801392599512,45.5782717280142 61.0828342058035,45.5755767821619 61.0841816787297,45.576924255088 61.0814867328773,45.5823141467928 61.0828342058035,45.5836616197189 61.093613989213,45.5809666738666 61.093613989213,45.5863565655713 61.1030462996962,45.5877040384975 61.1003513538438,45.5903989843498 61.10169882677,45.591746457276 61.1097836643271,45.591746457276 61.1102213862645,45.5913087353386 61.1102213862645,45.5836616197189 61.1097836643271,45.5836616197189 61.1070887184747,45.5863565655713 61.1043937726224,45.5809666738666 61.0990038809177,45.5836616197189 61.0976564079915,45.5823141467928 61.1030462996962,45.576924255088 61.0949614621391,45.5742293092357 61.10169882677,45.5701868904572 61.1102213862645,45.5689693819579 61.1102213862645,45.5681571042894 61.1027641073957,45.5625641451378 61.0971559067675,45.5625641451378 61.0963089350653,45.5701868904572 61.0920740765545,45.5625641451378 61.0527277091899,45.5625641451378 61.0284731965186,45.5625641451378</coordinates></LinearRing></outerBoundaryIs><innerBoundaryIs><LinearRing><coordinates>61.0612746389846,45.5782717280142 61.0626221119108,45.5796192009404 61.0572322202061,45.5823141467928 61.0585796931323,45.5836616197189 61.063969584837,45.5836616197189 61.0666645306894,45.5809666738666 61.0707069494679,45.5823141467928 61.0666645306894,45.5863565655713 61.0585796931323,45.5863565655713 61.0513931708593,45.5827633044348 61.0558847472799,45.5836616197189 61.0558847472799,45.5809666738666 61.0504948555752,45.5809666738666 61.0612746389846,45.5782717280142</coordinates></LinearRing></innerBoundaryIs><innerBoundaryIs><LinearRing><coordinates>61.0407930505067,45.5664139662638 61.0397150721658,45.5674919446048 61.0343251804611,45.5674919446048 61.0407930505067,45.5664139662638</coordinates></LinearRing></innerBoundaryIs><innerBoundaryIs><LinearRing><coordinates>61.0836041903328,45.5705718827218 61.0816551669931,45.567323510489 61.0841816787297,45.568839417531 61.0836041903328,45.5705718827218</coordinates></LinearRing></innerBoundaryIs><innerBoundaryIs><LinearRing><coordinates>61.0784067947604,45.5653744871494 61.0771074458673,45.5658076034471 61.0774443140988,45.5647969987524 61.0784067947604,45.5653744871494</coordinates></LinearRing></innerBoundaryIs><innerBoundaryIs><LinearRing><coordinates>61.0181555053469,45.5890515114237 61.0168080324207,45.5850090926451 61.0208504511993,45.5809666738666 61.0221979241255,45.5850090926451 61.0181555053469,45.5890515114237</coordinates></LinearRing></innerBoundaryIs><innerBoundaryIs><LinearRing><coordinates>61.0302827616825,45.5742293092357 61.0235453970516,45.5755767821619 61.0221979241255,45.5742293092357 61.0289352887564,45.5728818363095 61.0302827616825,45.5742293092357</coordinates></LinearRing></innerBoundaryIs><innerBoundaryIs><LinearRing><coordinates>61.0329777075349,45.5796192009404 61.0289352887564,45.5809666738666 61.0275878158302,45.5796192009404 61.0316302346087,45.5782717280142 61.0329777075349,45.5796192009404</coordinates></LinearRing></innerBoundaryIs><innerBoundaryIs><LinearRing><coordinates>61.0909190433606,45.5755767821619 61.0895715704344,45.5742293092357 61.0895715704344,45.5715343633833 61.0922665162868,45.5715343633833 61.0909190433606,45.5755767821619</coordinates></LinearRing></innerBoundaryIs><innerBoundaryIs><LinearRing><coordinates>61.011418140716,45.6038737136116 61.0127656136422,45.6025262406854 61.0141130865684,45.6038737136116 61.011418140716,45.6038737136116</coordinates></LinearRing></innerBoundaryIs></Polygon><Polygon><outerBoundaryIs><LinearRing><coordinates>61.0289352887564,45.6052211865378 61.0383675992396,45.6011787677593 61.0316302346087,45.5971363489807 61.0248928699778,45.5984838219069 61.026240342904,45.6025262406854 61.0289352887564,45.5998312948331 61.0302827616825,45.6011787677593 61.0275878158302,45.6038737136116 61.0289352887564,45.6052211865378</coordinates></LinearRing></outerBoundaryIs></Polygon><Polygon><outerBoundaryIs><LinearRing><coordinates>61.049147382649,45.6038737136116 61.0477999097229,45.5998312948331 61.0437574909443,45.6038737136116 61.0451049638705,45.6052211865378 61.049147382649,45.6038737136116</coordinates></LinearRing></outerBoundaryIs></Polygon><Polygon><outerBoundaryIs><LinearRing><coordinates>61.0626221119108,45.6119585511687 61.0612746389846,45.6052211865378 61.0545372743538,45.6092636053164 61.0612746389846,45.6133060240949 61.0626221119108,45.6119585511687</coordinates></LinearRing></outerBoundaryIs></Polygon><Polygon><outerBoundaryIs><LinearRing><coordinates>61.0451049638705,45.6160009699472 61.0464524367967,45.6092636053164 61.0424100180181,45.6052211865378 61.0356726533872,45.6092636053164 61.0451049638705,45.6160009699472</coordinates></LinearRing></outerBoundaryIs></Polygon><Polygon><outerBoundaryIs><LinearRing><coordinates>61.0102213862645,45.6197419517764 61.011418140716,45.6173484428734 61.0102213862645,45.6161516884219 61.0102213862645,45.6197419517764</coordinates></LinearRing></outerBoundaryIs></Polygon><Polygon><outerBoundaryIs><LinearRing><coordinates>61.0531898014276,45.6240858075043 61.049147382649,45.6281282262829 61.0612746389846,45.629475699209 61.0612746389846,45.6240858075043 61.0585796931323,45.6267807533567 61.0531898014276,45.6240858075043</coordinates></LinearRing></outerBoundaryIs></Polygon><Polygon><outerBoundaryIs><LinearRing><coordinates>61.0168080324207,45.6416029555446 61.0154605594946,45.6375605367661 61.0102213862645,45.6375605367661 61.0102213862645,45.6455549432384 61.0168080324207,45.6416029555446</coordinates></LinearRing></outerBoundaryIs></Polygon><Polygon><outerBoundaryIs><LinearRing><coordinates>61.0383675992396,45.6496877931017 61.0370201263134,45.6456453743232 61.0329777075349,45.6469928472494 61.0370201263134,45.6510352660279 61.0383675992396,45.6496877931017</coordinates></LinearRing></outerBoundaryIs></Polygon><Polygon><outerBoundaryIs><LinearRing><coordinates>61.0356726533872,45.6523827389541 61.0397150721658,45.6618150494373 61.0464524367967,45.6577726306588 61.0464524367967,45.6550776848064 61.0397150721658,45.6483403201755 61.0383675992396,45.6496877931017 61.0356726533872,45.6523827389541</coordinates></LinearRing></outerBoundaryIs></Polygon><Polygon><outerBoundaryIs><LinearRing><coordinates>61.0970129064177,45.5625641451378 61.0927890783032,45.5625641451378 61.0963089350653,45.5674919446048 61.0970129064177,45.5625641451378</coordinates></LinearRing></outerBoundaryIs></Polygon><Polygon><outerBoundaryIs><LinearRing><coordinates>61.0693594765417,45.5944414031284 61.063969584837,45.6025262406854 61.0572322202061,45.6038737136116 61.0612746389846,45.6052211865378 61.0666645306894,45.6133060240949 61.0720544223941,45.6079161323902 61.078791787025,45.606568659464 61.0693594765417,45.5944414031284</coordinates></LinearRing></outerBoundaryIs></Polygon><Polygon><outerBoundaryIs><LinearRing><coordinates>61.0855291516559,45.6025262406854 61.0841816787297,45.6038737136116 61.0882240975082,45.6079161323902 61.093613989213,45.6079161323902 61.0949614621391,45.606568659464 61.0909190433606,45.6025262406854 61.0855291516559,45.6025262406854</coordinates></LinearRing></outerBoundaryIs></Polygon><Polygon><outerBoundaryIs><LinearRing><coordinates>61.1030462996962,45.606568659464 61.1030462996962,45.6011787677593 61.0990038809177,45.5971363489807 61.0949614621391,45.6011787677593 61.0976564079915,45.606568659464 61.0949614621391,45.6119585511687 61.0963089350653,45.6133060240949 61.1057412455486,45.6092636053164 61.1030462996962,45.606568659464</coordinates></LinearRing></outerBoundaryIs></Polygon><Polygon><outerBoundaryIs><LinearRing><coordinates>61.1102213862645,45.6159384382419 61.1102213862645,45.6128683021575 61.1084361914009,45.6146534970211 61.1097836643271,45.6160009699472 61.1102213862645,45.6159384382419</coordinates></LinearRing></outerBoundaryIs></Polygon><Polygon><outerBoundaryIs><LinearRing><coordinates>61.0909190433606,45.6160009699472 61.093613989213,45.6186959157996 61.0949614621391,45.6146534970211 61.0882240975082,45.6106110782425 61.0720544223941,45.6106110782425 61.0707069494679,45.6119585511687 61.0801392599512,45.6186959157996 61.0828342058035,45.6186959157996 61.0855291516559,45.6133060240949 61.0882240975082,45.6186959157996 61.0909190433606,45.6160009699472</coordinates></LinearRing></outerBoundaryIs></Polygon><Polygon><outerBoundaryIs><LinearRing><coordinates>61.063969584837,45.6240858075043 61.0680120036156,45.6227383345781 61.0666645306894,45.6186959157996 61.0626221119108,45.6227383345781 61.063969584837,45.6240858075043</coordinates></LinearRing></outerBoundaryIs></Polygon><Polygon><outerBoundaryIs><LinearRing><coordinates>61.1030462996962,45.6308231721352 61.10169882677,45.6267807533567 61.0976564079915,45.6308231721352 61.0990038809177,45.6321706450614 61.1030462996962,45.6308231721352</coordinates></LinearRing></outerBoundaryIs></Polygon><Polygon><outerBoundaryIs><LinearRing><coordinates>61.0585796931323,45.6402554826185 61.0518423285014,45.6416029555446 61.0585796931323,45.6456453743232 61.063969584837,45.6456453743232 61.0666645306894,45.6510352660279 61.0707069494679,45.6496877931017 61.0707069494679,45.6416029555446 61.0680120036156,45.6389080096923 61.0707069494679,45.6362130638399 61.0680120036156,45.6308231721352 61.0760968411726,45.6254332804305 61.0720544223941,45.621390861652 61.0693594765417,45.6240858075043 61.063969584837,45.6240858075043 61.0612746389846,45.629475699209 61.0558847472799,45.629475699209 61.0545372743538,45.6335181179876 61.0626221119108,45.6362130638399 61.0585796931323,45.6402554826185</coordinates></LinearRing></outerBoundaryIs></Polygon></MultiGeometry>
  </Placemark>
</Folder>
</Document></kml>
