<?xml version="1.0" encoding="utf-8" ?>
<kml xmlns="http://www.opengis.net/kml/2.2">
<Document id="root_doc">
<Schema name="task_grid_v6_45.68_61.08" id="task_grid_v6_45.68_61.08">
	<SimpleField name="area_ha" type="float"></SimpleField>
	<SimpleField name="low_risk_ha" type="float"></SimpleField>
	<SimpleField name="moderate_risk_ha" type="float"></SimpleField>
	<SimpleField name="grid_cell_deg" type="string"></SimpleField>
</Schema>
<Folder><name>task_grid_v6_45.68_61.08</name>
  <Placemark id="task_grid_v6_45.68_61.08.1">
	<name>task_grid_v6_45.68_61.08</name>
	<name>211.8</name>
	<description>366.7</description>
	<Style><LineStyle><color>ff0000ff</color></LineStyle><PolyStyle><fill>0</fill></PolyStyle></Style>
	<ExtendedData><SchemaData schemaUrl="#task_grid_v6_45.68_61.08">
		<SimpleData name="area_ha">154.9</SimpleData>
		<SimpleData name="low_risk_ha">0.1</SimpleData>
	</SchemaData></ExtendedData>
      <MultiGeometry><Polygon><outerBoundaryIs><LinearRing><coordinates>61.0585796931323,45.6456453743232 61.063969584837,45.6456453743232 61.0666645306894,45.6510352660279 61.0707069494679,45.6496877931017 61.0707069494679,45.6416029555446 61.0680120036156,45.6389080096923 61.0707069494679,45.6362130638399 61.0697777965857,45.6343547580755 61.0570471946175,45.6343547580755 61.0626221119108,45.6362130638399 61.0585796931323,45.6402554826185 61.0518423285014,45.6416029555446 61.0585796931323,45.6456453743232</coordinates></LinearRing></outerBoundaryIs></Polygon><Polygon><outerBoundaryIs><LinearRing><coordinates>61.0329777075349,45.6469928472494 61.0370201263134,45.6510352660279 61.0383675992396,45.6496877931017 61.0370201263134,45.6456453743232 61.0329777075349,45.6469928472494</coordinates></LinearRing></outerBoundaryIs></Polygon><Polygon><outerBoundaryIs><LinearRing><coordinates>61.0397150721658,45.6483403201755 61.0383675992396,45.6496877931017 61.0356726533872,45.6523827389541 61.0397150721658,45.6618150494373 61.0464524367967,45.6577726306588 61.0464524367967,45.6550776848064 61.0397150721658,45.6483403201755</coordinates></LinearRing></outerBoundaryIs></Polygon><Polygon><outerBoundaryIs><LinearRing><coordinates>61.0397150721658,45.6725948328468 61.0343251804611,45.6725948328468 61.0302827616825,45.6793321974777 61.0316302346087,45.6806796704038 61.0397150721658,45.6752897786991 61.0397150721658,45.6725948328468</coordinates></LinearRing></outerBoundaryIs></Polygon><Polygon><outerBoundaryIs><LinearRing><coordinates>61.0747493682464,45.6752897786991 61.0680120036156,45.6793321974777 61.0720544223941,45.6833746162562 61.078791787025,45.6766372516253 61.0747493682464,45.6752897786991</coordinates></LinearRing></outerBoundaryIs></Polygon><Polygon><outerBoundaryIs><LinearRing><coordinates>61.0572322202061,45.6793321974777 61.0585796931323,45.6833746162562 61.0626221119108,45.68202714333 61.0612746389846,45.6779847245515 61.0572322202061,45.6793321974777</coordinates></LinearRing></outerBoundaryIs></Polygon><Polygon><outerBoundaryIs><LinearRing><coordinates>61.0343251804611,45.6833746162562 61.0316302346087,45.6833746162562 61.0263910613787,45.6865181201942 61.0263910613787,45.6876310623777 61.0343251804611,45.6887645079609 61.0343251804611,45.6833746162562</coordinates></LinearRing></outerBoundaryIs></Polygon><Polygon><outerBoundaryIs><LinearRing><coordinates>61.0963089350653,45.7211038581892 61.0976564079915,45.719756385263 61.0963089350653,45.7130190206322 61.0922665162868,45.7143664935583 61.0963089350653,45.7211038581892</coordinates></LinearRing></outerBoundaryIs></Polygon><Polygon><outerBoundaryIs><LinearRing><coordinates>61.0720544223941,45.7211038581892 61.0760968411726,45.719756385263 61.0747493682464,45.7157139664845 61.0707069494679,45.719756385263 61.0720544223941,45.7211038581892</coordinates></LinearRing></outerBoundaryIs></Polygon></MultiGeometry>
  </Placemark>
</Folder>
</Document></kml>
