<?xml version="1.0" encoding="utf-8" ?>
<kml xmlns="http://www.opengis.net/kml/2.2">
<Document id="root_doc">
<Schema name="task_grid_v6_46.31_60.36" id="task_grid_v6_46.31_60.36">
	<SimpleField name="area_ha" type="float"></SimpleField>
	<SimpleField name="low_risk_ha" type="float"></SimpleField>
	<SimpleField name="moderate_risk_ha" type="float"></SimpleField>
	<SimpleField name="grid_cell_deg" type="string"></SimpleField>
</Schema>
<Folder><name>task_grid_v6_46.31_60.36</name>
  <Placemark id="task_grid_v6_46.31_60.36.1">
	<name>task_grid_v6_46.31_60.36</name>
	<name>903</name>
	<description>1166.3</description>
	<Style><LineStyle><color>ff0000ff</color></LineStyle><PolyStyle><fill>0</fill></PolyStyle></Style>
	<ExtendedData><SchemaData schemaUrl="#task_grid_v6_46.31_60.36">
		<SimpleData name="area_ha">263.3</SimpleData>
		<SimpleData name="low_risk_ha">0.1</SimpleData>
	</SchemaData></ExtendedData>
      <MultiGeometry><Polygon><outerBoundaryIs><LinearRing><coordinates>60.3430715693311,46.2776101767013 60.3444190422573,46.2816525954798 60.3511564068882,46.2776101767013 60.349808933962,46.2735677579227 60.3430715693311,46.2776101767013</coordinates></LinearRing></outerBoundaryIs></Polygon><Polygon><outerBoundaryIs><LinearRing><coordinates>60.3403766234787,46.2910849059631 60.3471139881096,46.2924323788892 60.3471139881096,46.2897374330369 60.3417240964049,46.2897374330369 60.3403766234787,46.2910849059631</coordinates></LinearRing></outerBoundaryIs></Polygon><Polygon><outerBoundaryIs><LinearRing><coordinates>60.3269018942169,46.3072545810772 60.3336392588478,46.3112969998558 60.334986731774,46.3072545810772 60.3322917859217,46.3045596352249 60.3363342047002,46.3005172164463 60.3430715693311,46.2991697435201 60.3430715693311,46.2964747976678 60.3363342047002,46.2897374330369 60.3322917859217,46.2937798518154 60.334986731774,46.2964747976678 60.3336392588478,46.297822270594 60.3309443129955,46.2951273247416 60.3269018942169,46.3018646893725 60.3269018942169,46.3072545810772</coordinates></LinearRing></outerBoundaryIs></Polygon><Polygon><outerBoundaryIs><LinearRing><coordinates>60.349808933962,46.3005172164463 60.3484614610358,46.3018646893725 60.3551988256667,46.3032121622987 60.3551988256667,46.3005172164463 60.349808933962,46.3005172164463</coordinates></LinearRing></outerBoundaryIs></Polygon><Polygon><outerBoundaryIs><LinearRing><coordinates>60.3551988256667,46.3328565666746 60.3525038798143,46.3382464583793 60.3444190422573,46.3301616208223 60.3417240964049,46.335551512527 60.3322917859217,46.3395939313055 60.3430715693311,46.3422888771579 60.3390291505526,46.3463312959364 60.3309443129955,46.3409414042317 60.3282493671431,46.3436363500841 60.3174695837337,46.3409414042317 60.3134271649552,46.3449838230102 60.320164529586,46.3463312959364 60.3282493671431,46.3571110793458 60.3444190422573,46.3571110793458 60.349808933962,46.3490262417888 60.3578937715191,46.3490262417888 60.3605887173714,46.3463312959364 60.36463113615,46.3557636064197 60.3600974436712,46.3625641451378 60.3647457586489,46.3625641451378 60.3700210278547,46.3530686605673 60.3700210278547,46.3476787688626 60.3754109195594,46.3449838230102 60.3754109195594,46.3395939313055 60.3781058654118,46.3368989854532 60.3767583924856,46.3301616208223 60.3713685007809,46.3301616208223 60.3686735549285,46.335551512527 60.3632836632238,46.3382464583793 60.3605887173714,46.3328565666746 60.3578937715191,46.335551512527 60.3551988256667,46.3328565666746</coordinates></LinearRing></outerBoundaryIs></Polygon><Polygon><outerBoundaryIs><LinearRing><coordinates>60.3161221108075,46.358458552272 60.3228594754384,46.3598060251982 60.3228594754384,46.3571110793458 60.3174695837337,46.3571110793458 60.3161221108075,46.358458552272</coordinates></LinearRing></outerBoundaryIs></Polygon><Polygon><outerBoundaryIs><LinearRing><coordinates>60.3996654322306,46.320729310339 60.402360378083,46.3180343644866 60.4010129051568,46.3139919457081 60.3969704863783,46.3180343644866 60.3969704863783,46.3234242561914 60.3942755405259,46.3261192020437 60.3983179593044,46.335551512527 60.3996654322306,46.320729310339</coordinates></LinearRing></outerBoundaryIs></Polygon><Polygon><outerBoundaryIs><LinearRing><coordinates>60.3511564068882,46.3288141478961 60.3578937715191,46.3301616208223 60.3619361902976,46.3261192020437 60.3578937715191,46.3247717291175 60.3511564068882,46.3288141478961</coordinates></LinearRing></outerBoundaryIs></Polygon><Polygon><outerBoundaryIs><LinearRing><coordinates>60.4090977427139,46.3328565666746 60.4102213862645,46.3326318379645 60.4102213862645,46.3290379772716 60.4077502697877,46.3315090937484 60.4090977427139,46.3328565666746</coordinates></LinearRing></outerBoundaryIs></Polygon><Polygon><outerBoundaryIs><LinearRing><coordinates>60.3834957571165,46.3315090937484 60.3848432300426,46.335551512527 60.3915805946735,46.3315090937484 60.3902331217474,46.3274666749699 60.3834957571165,46.3315090937484</coordinates></LinearRing></outerBoundaryIs></Polygon><Polygon><outerBoundaryIs><LinearRing><coordinates>60.4102213862645,46.3342040396008 60.4050553239353,46.3342040396008 60.4050553239353,46.3395939313055 60.3969704863783,46.3476787688626 60.3983179593044,46.3517211876411 60.4102213862645,46.339817760681 60.4102213862645,46.3342040396008</coordinates></LinearRing></outerBoundaryIs></Polygon><Polygon><outerBoundaryIs><LinearRing><coordinates>60.4102213862645,46.3511974202072 60.4102213862645,46.3479025982381 60.4077502697877,46.350373714715 60.4102213862645,46.3511974202072</coordinates></LinearRing></outerBoundaryIs></Polygon></MultiGeometry>
  </Placemark>
</Folder>
</Document></kml>
