<?xml version="1.0" encoding="utf-8" ?>
<kml xmlns="http://www.opengis.net/kml/2.2">
<Document id="root_doc">
<Schema name="task_grid_v6_46.51_61.46" id="task_grid_v6_46.51_61.46">
	<SimpleField name="area_ha" type="float"></SimpleField>
	<SimpleField name="low_risk_ha" type="float"></SimpleField>
	<SimpleField name="moderate_risk_ha" type="float"></SimpleField>
	<SimpleField name="grid_cell_deg" type="string"></SimpleField>
</Schema>
<Folder><name>task_grid_v6_46.51_61.46</name>
  <Placemark id="task_grid_v6_46.51_61.46.1">
	<name>task_grid_v6_46.51_61.46</name>
	<name>76.5</name>
	<description>76.5</description>
	<Style><LineStyle><color>ff0000ff</color></LineStyle><PolyStyle><fill>0</fill></PolyStyle></Style>
	<ExtendedData><SchemaData schemaUrl="#task_grid_v6_46.51_61.46">
		<SimpleData name="area_ha">0</SimpleData>
		<SimpleData name="low_risk_ha">0.1</SimpleData>
	</SchemaData></ExtendedData>
      <MultiGeometry><Polygon><outerBoundaryIs><LinearRing><coordinates>61.4677548105937,46.4625641451378 61.4591115839996,46.4625641451378 61.4587791522075,46.463561440514 61.4677548105937,46.4625641451378</coordinates></LinearRing></outerBoundaryIs></Polygon><Polygon><outerBoundaryIs><LinearRing><coordinates>61.4709064085432,46.4810785885543 61.4762963002479,46.4837735344067 61.4776437731741,46.4743412239234 61.4682114626908,46.4702988051449 61.4668639897646,46.4743412239234 61.4709064085432,46.4810785885543</coordinates></LinearRing></outerBoundaryIs></Polygon></MultiGeometry>
  </Placemark>
</Folder>
</Document></kml>
