<?xml version="1.0" encoding="utf-8" ?>
<kml xmlns="http://www.opengis.net/kml/2.2">
<Document id="root_doc">
<Schema name="task_grid_v6_45.91_60.46" id="task_grid_v6_45.91_60.46">
	<SimpleField name="area_ha" type="float"></SimpleField>
	<SimpleField name="low_risk_ha" type="float"></SimpleField>
	<SimpleField name="moderate_risk_ha" type="float"></SimpleField>
	<SimpleField name="grid_cell_deg" type="string"></SimpleField>
</Schema>
<Folder><name>task_grid_v6_45.91_60.46</name>
  <Placemark id="task_grid_v6_45.91_60.46.1">
	<name>task_grid_v6_45.91_60.46</name>
	<name>0</name>
	<description>767</description>
	<Style><LineStyle><color>ff0000ff</color></LineStyle><PolyStyle><fill>0</fill></PolyStyle></Style>
	<ExtendedData><SchemaData schemaUrl="#task_grid_v6_45.91_60.46">
		<SimpleData name="area_ha">767</SimpleData>
		<SimpleData name="low_risk_ha">0.1</SimpleData>
	</SchemaData></ExtendedData>
      <MultiGeometry><Polygon><outerBoundaryIs><LinearRing><coordinates>60.4102213862645,45.8720208259213 60.4102213862645,45.8738625221429 60.4144876344186,45.8747157717737 60.4144876344186,45.8720208259213 60.4102213862645,45.8720208259213</coordinates></LinearRing></outerBoundaryIs></Polygon><Polygon><outerBoundaryIs><LinearRing><coordinates>60.4791663348752,45.877410717626 60.4751239160967,45.8787581905522 60.4818612807276,45.8854955551831 60.4832087536537,45.8814531364046 60.4791663348752,45.877410717626</coordinates></LinearRing></outerBoundaryIs></Polygon><Polygon><outerBoundaryIs><LinearRing><coordinates>60.4279623636804,45.8935803927402 60.4320047824589,45.8976228115187 60.4293098366066,45.9030127032234 60.4306573095327,45.907055122002 60.4468269846469,45.9097500678543 60.454911822204,45.915139959559 60.4576067680563,45.9097500678543 60.4603017139087,45.9124450137067 60.4710814973181,45.9124450137067 60.4818612807276,45.9232247971161 60.4859036995061,45.9245722700423 60.4832087536537,45.9272672158947 60.4845562265799,45.9286146888208 60.4899461182846,45.9286146888208 60.492641064137,45.9313096346732 60.4939885370632,45.929962161747 60.4939885370632,45.9245722700423 60.4845562265799,45.915139959559 60.4818612807276,45.915139959559 60.4764713890228,45.907055122002 60.4737764431705,45.9097500678543 60.4656916056134,45.9097500678543 60.4576067680563,45.9016652302973 60.454911822204,45.9016652302973 60.4522168763516,45.8962753385925 60.4441320387945,45.9016652302973 60.4427845658684,45.9003177573711 60.4454795117207,45.8976228115187 60.4414370929422,45.8935803927402 60.4333522553851,45.8881905010355 60.4279623636804,45.8908854468878 60.4198775261233,45.8854955551831 60.4144876344186,45.8854955551831 60.4104452156401,45.8895379739616 60.417182580271,45.8962753385925 60.4279623636804,45.8935803927402</coordinates></LinearRing></outerBoundaryIs></Polygon><Polygon><outerBoundaryIs><LinearRing><coordinates>60.5061157933988,45.9340045805256 60.5102213862645,45.9315412248061 60.5102213862645,45.9238213609617 60.5088107392511,45.9205298512638 60.5047683204726,45.9218773241899 60.507463266325,45.9245722700423 60.507463266325,45.929962161747 60.5047683204726,45.9326571075994 60.5061157933988,45.9340045805256</coordinates></LinearRing></outerBoundaryIs></Polygon><Polygon><outerBoundaryIs><LinearRing><coordinates>60.4737764431705,45.9501742556397 60.4724289702443,45.9515217285659 60.4818612807276,45.9528692014921 60.4818612807276,45.9501742556397 60.4737764431705,45.9501742556397</coordinates></LinearRing></outerBoundaryIs></Polygon></MultiGeometry>
  </Placemark>
</Folder>
</Document></kml>
