<?xml version="1.0" encoding="utf-8" ?>
<kml xmlns="http://www.opengis.net/kml/2.2">
<Document id="root_doc">
<Schema name="task_grid_v6_44.88_60.98" id="task_grid_v6_44.88_60.98">
	<SimpleField name="area_ha" type="float"></SimpleField>
	<SimpleField name="low_risk_ha" type="float"></SimpleField>
	<SimpleField name="moderate_risk_ha" type="float"></SimpleField>
	<SimpleField name="grid_cell_deg" type="string"></SimpleField>
</Schema>
<Folder><name>task_grid_v6_44.88_60.98</name>
  <Placemark id="task_grid_v6_44.88_60.98.1">
	<name>task_grid_v6_44.88_60.98</name>
	<name>15.9</name>
	<description>1041.6</description>
	<Style><LineStyle><color>ff0000ff</color></LineStyle><PolyStyle><fill>0</fill></PolyStyle></Style>
	<ExtendedData><SchemaData schemaUrl="#task_grid_v6_44.88_60.98">
		<SimpleData name="area_ha">1025.7</SimpleData>
		<SimpleData name="low_risk_ha">0.1</SimpleData>
	</SchemaData></ExtendedData>
      <MultiGeometry><Polygon><outerBoundaryIs><LinearRing><coordinates>60.9521293319641,44.8573737125083 60.9561717507427,44.8614161312868 60.9602141695212,44.8573737125083 60.9534768048903,44.8560262395821 60.9521293319641,44.8573737125083</coordinates></LinearRing></outerBoundaryIs></Polygon><Polygon><outerBoundaryIs><LinearRing><coordinates>60.9319172380714,44.8641110771392 60.93595965685,44.862763604213 60.9346121839238,44.8587211854345 60.9305697651453,44.862763604213 60.9319172380714,44.8641110771392</coordinates></LinearRing></outerBoundaryIs></Polygon><Polygon><outerBoundaryIs><LinearRing><coordinates>60.9263910613787,44.8612798462988 60.9263910613787,44.8642473621272 60.9278748192929,44.862763604213 60.9263910613787,44.8612798462988</coordinates></LinearRing></outerBoundaryIs></Polygon><Polygon><outerBoundaryIs><LinearRing><coordinates>60.9615616424474,44.8695009688439 60.9656040612259,44.862763604213 60.9642565882997,44.8587211854345 60.958866696595,44.8641110771392 60.9534768048903,44.8614161312868 60.9453919673332,44.8614161312868 60.9440444944071,44.8654585500654 60.9507818590379,44.8695009688439 60.9615616424474,44.8695009688439</coordinates></LinearRing></outerBoundaryIs></Polygon><Polygon><outerBoundaryIs><LinearRing><coordinates>60.9263910613787,44.8666697380035 60.9263910613787,44.8682883830009 60.9278748192929,44.8681534959177 60.9263910613787,44.8666697380035</coordinates></LinearRing></outerBoundaryIs></Polygon><Polygon><outerBoundaryIs><LinearRing><coordinates>60.9265273463667,44.8721959146963 60.9263910613787,44.8723321996843 60.9263910613787,44.8742701003854 60.9319172380714,44.877585806401 60.9319172380714,44.8721959146963 60.9265273463667,44.8721959146963</coordinates></LinearRing></outerBoundaryIs></Polygon><Polygon><outerBoundaryIs><LinearRing><coordinates>60.9265273463667,44.8964504273675 60.9265273463667,44.8883655898104 60.9263910613787,44.8885018747985 60.9263910613787,44.8963141423795 60.9265273463667,44.8964504273675</coordinates></LinearRing></outerBoundaryIs></Polygon><Polygon><outerBoundaryIs><LinearRing><coordinates>60.9411851072344,44.9343547580755 60.9442089357273,44.9343547580755 60.9467394402594,44.930137250522 60.9426970214809,44.9260948317434 60.9386546027023,44.930137250522 60.9411851072344,44.9343547580755</coordinates></LinearRing></outerBoundaryIs></Polygon><Polygon><outerBoundaryIs><LinearRing><coordinates>60.9494343861118,44.930137250522 60.9521293319641,44.9328321963743 60.9490842085618,44.9343547580755 60.9637526168843,44.9343547580755 60.9629091153736,44.930137250522 60.9534768048903,44.9260948317434 60.9494343861118,44.930137250522</coordinates></LinearRing></outerBoundaryIs></Polygon><Polygon><outerBoundaryIs><LinearRing><coordinates>61.0181555053469,44.8425515103203 61.0127656136422,44.8452464561727 61.0073757219375,44.8425515103203 61.0060282490113,44.8465939290989 61.0127656136422,44.8506363478774 61.0195029782731,44.8438989832465 61.0181555053469,44.8425515103203</coordinates></LinearRing></outerBoundaryIs></Polygon><Polygon><outerBoundaryIs><LinearRing><coordinates>60.9898585738972,44.8519838208036 60.996595938528,44.8533312937298 60.996595938528,44.8506363478774 60.9912060468233,44.8506363478774 60.9898585738972,44.8519838208036</coordinates></LinearRing></outerBoundaryIs></Polygon><Polygon><outerBoundaryIs><LinearRing><coordinates>61.0046807760851,44.8614161312868 61.0087231948637,44.8600686583607 61.0073757219375,44.8560262395821 61.0033333031589,44.8573737125083 61.0046807760851,44.8614161312868</coordinates></LinearRing></outerBoundaryIs></Polygon><Polygon><outerBoundaryIs><LinearRing><coordinates>60.9709939529306,44.8681534959177 60.9750363717092,44.8721959146963 60.9804262634139,44.8721959146963 60.9817737363401,44.8681534959177 60.9777313175615,44.8641110771392 60.9709939529306,44.8681534959177</coordinates></LinearRing></outerBoundaryIs></Polygon><Polygon><outerBoundaryIs><LinearRing><coordinates>61.0154605594946,44.8802807522534 61.026240342904,44.8668060229916 61.0263910613787,44.8667557835 61.0263910613787,44.8649025928791 61.0208504511993,44.8641110771392 61.0100706677898,44.8695009688439 61.0060282490113,44.8762383334748 61.0100706677898,44.8802807522534 61.0127656136422,44.877585806401 61.0154605594946,44.8802807522534</coordinates></LinearRing></outerBoundaryIs></Polygon><Polygon><outerBoundaryIs><LinearRing><coordinates>60.9709939529306,44.8977979002937 60.9790787904877,44.8897130627366 60.9723414258568,44.8856706439581 60.9669515341521,44.8856706439581 60.9602141695212,44.8951029544413 60.9669515341521,44.8964504273675 60.9696464800045,44.9018403190722 60.973688898783,44.900492846146 60.9709939529306,44.8977979002937</coordinates></LinearRing></outerBoundaryIs></Polygon><Polygon><outerBoundaryIs><LinearRing><coordinates>60.9521293319641,44.9220524129649 60.958866696595,44.9233998858911 60.9642565882997,44.9207049400387 60.9709939529306,44.9247473588173 60.9682990070783,44.9274423046696 60.9696464800045,44.9287897775958 60.9723414258568,44.9287897775958 60.9790787904877,44.9220524129649 60.9763838446354,44.9193574671126 60.9790787904877,44.9166625212602 60.9763838446354,44.9139675754078 60.9750363717092,44.9045352649246 60.9723414258568,44.9072302107769 60.9696464800045,44.9045352649246 60.9642565882997,44.9045352649246 60.958866696595,44.9072302107769 60.9548242778165,44.9112726295555 60.9575192236688,44.9139675754078 60.9521293319641,44.9220524129649</coordinates></LinearRing></outerBoundaryIs><innerBoundaryIs><LinearRing><coordinates>60.9682990070783,44.9139675754078 60.9669515341521,44.915315048334 60.9656040612259,44.914865890692 60.9682990070783,44.9139675754078</coordinates></LinearRing></innerBoundaryIs><innerBoundaryIs><LinearRing><coordinates>60.9671440302844,44.9105026450262 60.9709939529306,44.9112726295555 60.9682990070783,44.9139675754078 60.9671440302844,44.9105026450262</coordinates></LinearRing></innerBoundaryIs><innerBoundaryIs><LinearRing><coordinates>60.9639197200682,44.9109357613239 60.9642565882997,44.9099251566293 60.9659409294575,44.9102620248608 60.9639197200682,44.9109357613239</coordinates></LinearRing></innerBoundaryIs><innerBoundaryIs><LinearRing><coordinates>60.9639197200682,44.9143044436394 60.9629091153736,44.9139675754078 60.9633582730156,44.9126201024817 60.9639197200682,44.9143044436394</coordinates></LinearRing></innerBoundaryIs></Polygon><Polygon><outerBoundaryIs><LinearRing><coordinates>60.9669515341521,44.9287897775958 60.9650965406589,44.9343547580755 60.9706133125053,44.9343547580755 60.9709939529306,44.9328321963743 60.9669515341521,44.9287897775958</coordinates></LinearRing></outerBoundaryIs></Polygon></MultiGeometry>
  </Placemark>
</Folder>
</Document></kml>
