<?xml version="1.0" encoding="utf-8" ?>
<kml xmlns="http://www.opengis.net/kml/2.2">
<Document id="root_doc">
<Schema name="task_grid_v6_45.78_61.78" id="task_grid_v6_45.78_61.78">
	<SimpleField name="area_ha" type="float"></SimpleField>
	<SimpleField name="low_risk_ha" type="float"></SimpleField>
	<SimpleField name="moderate_risk_ha" type="float"></SimpleField>
	<SimpleField name="grid_cell_deg" type="string"></SimpleField>
</Schema>
<Folder><name>task_grid_v6_45.78_61.78</name>
  <Placemark id="task_grid_v6_45.78_61.78.1">
	<name>task_grid_v6_45.78_61.78</name>
	<name>43.9</name>
	<description>43.9</description>
	<Style><LineStyle><color>ff0000ff</color></LineStyle><PolyStyle><fill>0</fill></PolyStyle></Style>
	<ExtendedData><SchemaData schemaUrl="#task_grid_v6_45.78_61.78">
		<SimpleData name="area_ha">0</SimpleData>
		<SimpleData name="low_risk_ha">0.1</SimpleData>
	</SchemaData></ExtendedData>
      <Polygon><outerBoundaryIs><LinearRing><coordinates>61.8185544234974,45.7803926669411 61.8239443152021,45.7803926669411 61.8252917881283,45.7790451940149 61.8212493693498,45.772307829384 61.8145120047189,45.7763502481626 61.8185544234974,45.7803926669411</coordinates></LinearRing></outerBoundaryIs></Polygon>
  </Placemark>
</Folder>
</Document></kml>
