<?xml version="1.0" encoding="utf-8" ?>
<kml xmlns="http://www.opengis.net/kml/2.2">
<Document id="root_doc">
<Schema name="task_grid_v6_45.58_61.38" id="task_grid_v6_45.58_61.38">
	<SimpleField name="area_ha" type="float"></SimpleField>
	<SimpleField name="low_risk_ha" type="float"></SimpleField>
	<SimpleField name="moderate_risk_ha" type="float"></SimpleField>
	<SimpleField name="grid_cell_deg" type="string"></SimpleField>
</Schema>
<Folder><name>task_grid_v6_45.58_61.38</name>
  <Placemark id="task_grid_v6_45.58_61.38.1">
	<name>task_grid_v6_45.58_61.38</name>
	<name>168.3</name>
	<description>1266.5</description>
	<Style><LineStyle><color>ff0000ff</color></LineStyle><PolyStyle><fill>0</fill></PolyStyle></Style>
	<ExtendedData><SchemaData schemaUrl="#task_grid_v6_45.58_61.38">
		<SimpleData name="area_ha">1098.2</SimpleData>
		<SimpleData name="low_risk_ha">0.1</SimpleData>
	</SchemaData></ExtendedData>
      <MultiGeometry><Polygon><outerBoundaryIs><LinearRing><coordinates>61.3550237368917,45.554017215343 61.3482863722608,45.5553646882692 61.3577186827441,45.5567121611954 61.3577186827441,45.5513222694906 61.3550237368917,45.554017215343</coordinates></LinearRing></outerBoundaryIs></Polygon><Polygon><outerBoundaryIs><LinearRing><coordinates>61.3658035203012,45.591746457276 61.364456047375,45.5957888760546 61.3658035203012,45.5971363489807 61.3711934120059,45.5944414031284 61.3711934120059,45.591746457276 61.3658035203012,45.591746457276</coordinates></LinearRing></outerBoundaryIs></Polygon><Polygon><outerBoundaryIs><LinearRing><coordinates>61.3263910613787,45.6035379695484 61.3263910613787,45.6042094576749 61.326726805442,45.6038737136116 61.3263910613787,45.6035379695484</coordinates></LinearRing></outerBoundaryIs></Polygon><Polygon><outerBoundaryIs><LinearRing><coordinates>61.3388540617776,45.6052211865378 61.3415490076299,45.6025262406854 61.3428964805561,45.606568659464 61.3375065888514,45.6092636053164 61.3280742783681,45.6267807533567 61.3263910613787,45.6267807533567 61.3263910613787,45.6288937337029 61.3318472025614,45.6283977208681 61.3294217512943,45.6308231721352 61.3307692242205,45.6321706450614 61.3327904336098,45.6314969085983 61.3310757239235,45.6343547580755 61.3351133158153,45.6343547580755 61.3428964805561,45.6281282262829 61.3375065888514,45.6254332804305 61.3415490076299,45.621390861652 61.349633845187,45.6186959157996 61.3523287910394,45.621390861652 61.349633845187,45.6240858075043 61.3455914264085,45.6254332804305 61.3550237368917,45.629475699209 61.3577186827441,45.6267807533567 61.3590661556703,45.6254332804305 61.3550237368917,45.6186959157996 61.3604136285965,45.6267807533567 61.3658035203012,45.6133060240949 61.3711934120059,45.621390861652 61.3752358307844,45.6173484428734 61.3752358307844,45.6092636053164 61.3711934120059,45.6052211865378 61.3536762639656,45.6011787677593 61.3577186827441,45.5971363489807 61.3604136285965,45.5998312948331 61.364456047375,45.5984838219069 61.3590661556703,45.5903989843498 61.3523287910394,45.5863565655713 61.349633845187,45.5890515114237 61.3469388993347,45.5863565655713 61.3375065888514,45.5930939302022 61.334811642999,45.6011787677593 61.3388540617776,45.6052211865378</coordinates></LinearRing></outerBoundaryIs><innerBoundaryIs><LinearRing><coordinates>61.3339397487527,45.6282074893962 61.334811642999,45.6281282262829 61.3342341546021,45.6290907069444 61.3339397487527,45.6282074893962</coordinates></LinearRing></innerBoundaryIs><innerBoundaryIs><LinearRing><coordinates>61.3523287910394,45.6052211865378 61.3550237368917,45.6052211865378 61.3577186827441,45.6106110782425 61.3617611015226,45.6119585511687 61.3617611015226,45.6146534970211 61.3577186827441,45.6160009699472 61.3523287910394,45.6052211865378</coordinates></LinearRing></innerBoundaryIs><innerBoundaryIs><LinearRing><coordinates>61.3509813181132,45.5930939302022 61.3469388993347,45.5971363489807 61.3415490076299,45.5971363489807 61.3402015347038,45.5957888760546 61.3442439534823,45.591746457276 61.3509813181132,45.5930939302022</coordinates></LinearRing></innerBoundaryIs><innerBoundaryIs><LinearRing><coordinates>61.3658035203012,45.6079161323902 61.3671509932273,45.6092636053164 61.3658035203012,45.6106110782425 61.3658035203012,45.6079161323902</coordinates></LinearRing></innerBoundaryIs><innerBoundaryIs><LinearRing><coordinates>61.3482863722608,45.606568659464 61.3469388993347,45.6079161323902 61.3455914264085,45.606568659464 61.3482863722608,45.606568659464</coordinates></LinearRing></innerBoundaryIs></Polygon><Polygon><outerBoundaryIs><LinearRing><coordinates>61.3568771266642,45.6343547580755 61.3609646847665,45.6343547580755 61.3577186827441,45.6267807533567 61.3568771266642,45.6343547580755</coordinates></LinearRing></outerBoundaryIs></Polygon><Polygon><outerBoundaryIs><LinearRing><coordinates>61.3280742783681,45.6321706450614 61.3263910613787,45.6324111046313 61.3263910613787,45.6343547580755 61.3302583913823,45.6343547580755 61.3280742783681,45.6321706450614</coordinates></LinearRing></outerBoundaryIs></Polygon><Polygon><outerBoundaryIs><LinearRing><coordinates>61.364456047375,45.576924255088 61.364456047375,45.5823141467928 61.3738883578582,45.5836616197189 61.3752358307844,45.5796192009404 61.3684984661535,45.5728818363095 61.364456047375,45.576924255088</coordinates></LinearRing></outerBoundaryIs></Polygon><Polygon><outerBoundaryIs><LinearRing><coordinates>61.3765833037106,45.5998312948331 61.3806257224891,45.5984838219069 61.379278249563,45.5944414031284 61.3752358307844,45.5984838219069 61.3765833037106,45.5998312948331</coordinates></LinearRing></outerBoundaryIs></Polygon><Polygon><outerBoundaryIs><LinearRing><coordinates>61.4129650727174,45.6146534970211 61.4089226539389,45.6106110782425 61.4062277080865,45.6133060240949 61.4035327622342,45.6106110782425 61.3994903434557,45.6146534970211 61.3994903434557,45.6173484428734 61.4062277080865,45.6240858075043 61.4102701268651,45.6227383345781 61.4075751810127,45.6200433887258 61.4089226539389,45.6186959157996 61.4156600185698,45.6173484428734 61.417007491496,45.6186959157996 61.4210499102745,45.6146534970211 61.4143125456436,45.6133060240949 61.4129650727174,45.6146534970211</coordinates></LinearRing></outerBoundaryIs></Polygon><Polygon><outerBoundaryIs><LinearRing><coordinates>61.417007491496,45.6240858075043 61.4143125456436,45.6186959157996 61.4075751810127,45.6254332804305 61.4089226539389,45.6267807533567 61.4210499102745,45.6254332804305 61.4210499102745,45.6227383345781 61.4197024373483,45.621390861652 61.417007491496,45.6240858075043</coordinates></LinearRing></outerBoundaryIs></Polygon><Polygon><outerBoundaryIs><LinearRing><coordinates>61.3765833037106,45.6267807533567 61.3806257224891,45.6254332804305 61.379278249563,45.621390861652 61.3752358307844,45.6227383345781 61.3765833037106,45.6267807533567</coordinates></LinearRing></outerBoundaryIs></Polygon><Polygon><outerBoundaryIs><LinearRing><coordinates>61.420941307858,45.6343547580755 61.4263910613787,45.6343547580755 61.4263910613787,45.6311722255169 61.4223973832007,45.6321706450614 61.420941307858,45.6343547580755</coordinates></LinearRing></outerBoundaryIs></Polygon></MultiGeometry>
  </Placemark>
</Folder>
</Document></kml>
