<?xml version="1.0" encoding="utf-8" ?>
<kml xmlns="http://www.opengis.net/kml/2.2">
<Document id="root_doc">
<Schema name="task_grid_v6_45.21_61.26" id="task_grid_v6_45.21_61.26">
	<SimpleField name="area_ha" type="float"></SimpleField>
	<SimpleField name="low_risk_ha" type="float"></SimpleField>
	<SimpleField name="moderate_risk_ha" type="float"></SimpleField>
	<SimpleField name="grid_cell_deg" type="string"></SimpleField>
</Schema>
<Folder><name>task_grid_v6_45.21_61.26</name>
  <Placemark id="task_grid_v6_45.21_61.26.1">
	<name>task_grid_v6_45.21_61.26</name>
	<name>69.7</name>
	<description>847.7</description>
	<Style><LineStyle><color>ff0000ff</color></LineStyle><PolyStyle><fill>0</fill></PolyStyle></Style>
	<ExtendedData><SchemaData schemaUrl="#task_grid_v6_45.21_61.26">
		<SimpleData name="area_ha">778</SimpleData>
		<SimpleData name="low_risk_ha">0.1</SimpleData>
	</SchemaData></ExtendedData>
      <MultiGeometry><Polygon><outerBoundaryIs><LinearRing><coordinates>61.2553107403545,45.2144540379458 61.2539632674283,45.215801510872 61.2607006320592,45.2198439296505 61.2607006320592,45.2144540379458 61.2553107403545,45.2144540379458</coordinates></LinearRing></outerBoundaryIs></Polygon><Polygon><outerBoundaryIs><LinearRing><coordinates>61.2216239172,45.2184964567244 61.2202764442738,45.2144540379458 61.2148865525691,45.2198439296505 61.2102213862645,45.2198439296505 61.2102213862645,45.2245090959551 61.2121916067167,45.2225388755029 61.2175814984214,45.2225388755029 61.2216239172,45.2184964567244</coordinates></LinearRing></outerBoundaryIs></Polygon><Polygon><outerBoundaryIs><LinearRing><coordinates>61.2458784298712,45.2265812942814 61.2391410652403,45.2252338213553 61.236446119388,45.2333186589123 61.2310562276832,45.2279287672076 61.2297087547571,45.2292762401338 61.2324037006094,45.2400560235432 61.236446119388,45.2440984423218 61.2418360110927,45.2440984423218 61.2458784298712,45.2400560235432 61.2463275875133,45.238708550617 61.2472259027974,45.2414034964694 61.2488111650635,45.2404523391097 61.2526157945021,45.2467933881741 61.2539632674283,45.2427509693956 61.2616225872192,45.2376447562016 61.2633955779115,45.238708550617 61.2620481049854,45.2400560235432 61.2660905237639,45.2414034964694 61.2674379966901,45.2346661318385 61.2728278883948,45.2319711859861 61.2660905237639,45.2252338213553 61.2607006320592,45.2279287672076 61.2553107403545,45.2252338213553 61.2485733757236,45.2265812942814 61.2485733757236,45.2292762401338 61.2472259027974,45.2252338213553 61.2431834840189,45.2292762401338 61.2458784298712,45.2265812942814</coordinates></LinearRing></outerBoundaryIs><innerBoundaryIs><LinearRing><coordinates>61.2539632674283,45.2319711859861 61.2539632674283,45.2373610776909 61.2499208486498,45.23062371306 61.2478996392605,45.2339923953754 61.2485733757236,45.2319711859861 61.2453394407007,45.2303542184747 61.2485733757236,45.2292762401338 61.2539632674283,45.2319711859861</coordinates></LinearRing></innerBoundaryIs><innerBoundaryIs><LinearRing><coordinates>61.2377935923141,45.2373610776909 61.2404885381665,45.2373610776909 61.2391410652403,45.238708550617 61.2377935923141,45.2373610776909</coordinates></LinearRing></innerBoundaryIs><innerBoundaryIs><LinearRing><coordinates>61.2633955779115,45.2333186589123 61.2647430508377,45.2373610776909 61.2633955779115,45.238708550617 61.2633955779115,45.2333186589123</coordinates></LinearRing></innerBoundaryIs></Polygon><Polygon><outerBoundaryIs><LinearRing><coordinates>61.2202764442738,45.2548782257312 61.2135390796429,45.2562256986574 61.2229713901262,45.2575731715836 61.2229713901262,45.2521832798788 61.2202764442738,45.2548782257312</coordinates></LinearRing></outerBoundaryIs></Polygon><Polygon><outerBoundaryIs><LinearRing><coordinates>61.2687854696163,45.1686399584557 61.2728278883948,45.1672924855295 61.2714804154686,45.163250066751 61.2674379966901,45.1672924855295 61.2687854696163,45.1686399584557</coordinates></LinearRing></outerBoundaryIs></Polygon><Polygon><outerBoundaryIs><LinearRing><coordinates>61.2889975635089,45.1807672147913 61.2863026176566,45.178072268939 61.2903450364351,45.1767247960128 61.2943874552137,45.1726823772343 61.2795652530257,45.1740298501604 61.2728278883948,45.1807672147913 61.2728278883948,45.1834621606437 61.282260198878,45.1848096335699 61.2876500905828,45.1821146877175 61.2889975635089,45.1807672147913</coordinates></LinearRing></outerBoundaryIs></Polygon><Polygon><outerBoundaryIs><LinearRing><coordinates>61.2795652530257,45.1982843628317 61.2768703071733,45.1928944711269 61.274175361321,45.1955894169793 61.2714804154686,45.1928944711269 61.2674379966901,45.1969368899055 61.274175361321,45.2036742545364 61.2836076718042,45.1996318357578 61.2795652530257,45.1982843628317</coordinates></LinearRing></outerBoundaryIs></Polygon><Polygon><outerBoundaryIs><LinearRing><coordinates>61.297082401066,45.2077166733149 61.3038197656969,45.2117590920935 61.3078621844755,45.2050217274626 61.3038197656969,45.2036742545364 61.2984298739922,45.1955894169793 61.297082401066,45.2077166733149</coordinates></LinearRing></outerBoundaryIs></Polygon><Polygon><outerBoundaryIs><LinearRing><coordinates>61.3038197656969,45.2279287672076 61.3051672386231,45.2265812942814 61.3038197656969,45.2171489837982 61.2997773469184,45.2184964567244 61.3038197656969,45.2279287672076</coordinates></LinearRing></outerBoundaryIs></Polygon></MultiGeometry>
  </Placemark>
</Folder>
</Document></kml>
