<?xml version="1.0" encoding="utf-8" ?>
<kml xmlns="http://www.opengis.net/kml/2.2">
<Document id="root_doc">
<Schema name="task_grid_v6_45.61_60.36" id="task_grid_v6_45.61_60.36">
	<SimpleField name="area_ha" type="float"></SimpleField>
	<SimpleField name="low_risk_ha" type="float"></SimpleField>
	<SimpleField name="moderate_risk_ha" type="float"></SimpleField>
	<SimpleField name="grid_cell_deg" type="string"></SimpleField>
</Schema>
<Folder><name>task_grid_v6_45.61_60.36</name>
  <Placemark id="task_grid_v6_45.61_60.36.1">
	<name>task_grid_v6_45.61_60.36</name>
	<name>373.4</name>
	<description>1926.6</description>
	<Style><LineStyle><color>ff0000ff</color></LineStyle><PolyStyle><fill>0</fill></PolyStyle></Style>
	<ExtendedData><SchemaData schemaUrl="#task_grid_v6_45.61_60.36">
		<SimpleData name="area_ha">1553.2</SimpleData>
		<SimpleData name="low_risk_ha">0.1</SimpleData>
	</SchemaData></ExtendedData>
      <MultiGeometry><Polygon><outerBoundaryIs><LinearRing><coordinates>60.3107322191028,45.5823141467928 60.3147746378813,45.5863565655713 60.3161221108075,45.5850090926451 60.3147746378813,45.5782717280142 60.3107322191028,45.5823141467928</coordinates></LinearRing></outerBoundaryIs></Polygon><Polygon><outerBoundaryIs><LinearRing><coordinates>60.3102213862645,45.6087527724781 60.3102213862645,45.6151643298593 60.3107322191028,45.6146534970211 60.3147746378813,45.6186959157996 60.3228594754384,45.6133060240949 60.3134271649552,45.6200433887258 60.3161221108075,45.6227383345781 60.312079692029,45.6267807533567 60.3102213862645,45.625665769898 60.3102213862645,45.6345070308761 60.3188170566599,45.6308231721352 60.3188170566599,45.6254332804305 60.3243294459033,45.6177159354896 60.3255544212908,45.621390861652 60.3363342047002,45.6160009699472 60.3417240964049,45.6160009699472 60.3471139881096,45.6106110782425 60.3525038798143,45.6133060240949 60.3578937715191,45.6079161323902 60.3632836632238,45.6106110782425 60.3673260820023,45.606568659464 60.3605887173714,45.6052211865378 60.349808933962,45.591746457276 60.3444190422573,45.591746457276 60.3417240964049,45.5890515114237 60.3390291505526,45.591746457276 60.3363342047002,45.5836616197189 60.3336392588478,45.5863565655713 60.3282493671431,45.5863565655713 60.3255544212908,45.5836616197189 60.3215120025122,45.5877040384975 60.3269018942169,45.5903989843498 60.3295968400693,45.5957888760546 60.3282493671431,45.5971363489807 60.312079692029,45.5944414031284 60.3102213862645,45.5925830973639 60.3102213862645,45.6055000665671 60.3134271649552,45.606568659464 60.3107322191028,45.6092636053163 60.3102213862645,45.6087527724781</coordinates></LinearRing></outerBoundaryIs><innerBoundaryIs><LinearRing><coordinates>60.3309443129955,45.6133060240949 60.3309443129955,45.6144610008888 60.3228594754384,45.6133060240949 60.3309443129955,45.6133060240949</coordinates></LinearRing></innerBoundaryIs><innerBoundaryIs><LinearRing><coordinates>60.3309443129955,45.6149229916063 60.3309443129955,45.6160009699472 60.3246561060066,45.617258611345 60.3255544212908,45.6160009699472 60.3309443129955,45.6149229916063</coordinates></LinearRing></innerBoundaryIs><innerBoundaryIs><LinearRing><coordinates>60.3269018942169,45.6011787677593 60.3295968400693,45.6011787677593 60.3282493671431,45.6025262406854 60.3269018942169,45.6011787677593</coordinates></LinearRing></innerBoundaryIs></Polygon><Polygon><outerBoundaryIs><LinearRing><coordinates>60.3102213862645,45.6195325558875 60.3102213862645,45.6202988051449 60.3107322191028,45.6200433887258 60.3102213862645,45.6195325558875</coordinates></LinearRing></outerBoundaryIs></Polygon><Polygon><outerBoundaryIs><LinearRing><coordinates>60.3403766234787,45.6416029555446 60.3309443129955,45.6375605367661 60.3282493671431,45.6402554826185 60.3228594754384,45.6402554826185 60.320164529586,45.6375605367661 60.3102213862645,45.6386653304685 60.3102213862645,45.6474111672933 60.3128496765582,45.6487253124402 60.3102213862645,45.6492509704989 60.3102213862645,45.6518719061158 60.312079692029,45.6537302118803 60.320164529586,45.6537302118803 60.3228594754384,45.6510352660279 60.3269018942169,45.6550776848064 60.3242069483646,45.6577726306588 60.3309443129955,45.6618150494373 60.3309443129955,45.6510352660279 60.3336392588478,45.6537302118803 60.3363342047002,45.6510352660279 60.3390291505526,45.6537302118803 60.3403766234787,45.6523827389541 60.3390291505526,45.6483403201755 60.3403766234787,45.6416029555446</coordinates></LinearRing></outerBoundaryIs><innerBoundaryIs><LinearRing><coordinates>60.320164529586,45.6456453743232 60.3223204862679,45.6478013310051 60.3174695837337,45.6510352660279 60.320164529586,45.6456453743232</coordinates></LinearRing></innerBoundaryIs></Polygon><Polygon><outerBoundaryIs><LinearRing><coordinates>60.3102213862645,45.6545668519682 60.3102213862645,45.6555885176447 60.3107322191028,45.6550776848064 60.3102213862645,45.6545668519682</coordinates></LinearRing></outerBoundaryIs></Polygon><Polygon><outerBoundaryIs><LinearRing><coordinates>60.387538175895,45.6079161323902 60.3767583924856,45.6079161323902 60.3713685007809,45.6025262406854 60.3673260820023,45.6038737136116 60.3700210278547,45.6092636053164 60.3659786090761,45.6133060240949 60.3605887173714,45.6133060240949 60.3578937715191,45.6106110782425 60.3511564068882,45.6173484428734 60.3578937715191,45.6186959157996 60.36463113615,45.6254332804305 60.3592412444452,45.6281282262829 60.3632836632238,45.6321706450614 60.3700210278547,45.6281282262829 60.3673260820023,45.6227383345781 60.3767583924856,45.621390861652 60.3821482841903,45.6106110782425 60.3808008112641,45.6146534970211 60.3848432300426,45.6160009699472 60.3861907029688,45.6146534970211 60.387538175895,45.6160009699472 60.3915805946735,45.6146534970211 60.387538175895,45.6079161323902</coordinates></LinearRing></outerBoundaryIs></Polygon><Polygon><outerBoundaryIs><LinearRing><coordinates>60.3781058654118,45.6281282262829 60.3821482841903,45.6321706450614 60.3834957571165,45.6308231721352 60.3821482841903,45.6267807533567 60.3781058654118,45.6281282262829</coordinates></LinearRing></outerBoundaryIs></Polygon><Polygon><outerBoundaryIs><LinearRing><coordinates>60.3457665151834,45.6416029555446 60.3511564068882,45.6362130638399 60.3430715693311,45.6362130638399 60.3430715693311,45.6416029555446 60.3403766234787,45.644297901397 60.3417240964049,45.6483403201755 60.3484614610358,45.6469928472494 60.3457665151834,45.6416029555446</coordinates></LinearRing></outerBoundaryIs></Polygon></MultiGeometry>
  </Placemark>
</Folder>
</Document></kml>
