<?xml version="1.0" encoding="utf-8" ?>
<kml xmlns="http://www.opengis.net/kml/2.2">
<Document id="root_doc">
<Schema name="task_grid_v6_46.48_59.68" id="task_grid_v6_46.48_59.68">
	<SimpleField name="area_ha" type="float"></SimpleField>
	<SimpleField name="low_risk_ha" type="float"></SimpleField>
	<SimpleField name="moderate_risk_ha" type="float"></SimpleField>
	<SimpleField name="grid_cell_deg" type="string"></SimpleField>
</Schema>
<Folder><name>task_grid_v6_46.48_59.68</name>
  <Placemark id="task_grid_v6_46.48_59.68.1">
	<name>task_grid_v6_46.48_59.68</name>
	<name>86.8</name>
	<description>86.8</description>
	<Style><LineStyle><color>ff0000ff</color></LineStyle><PolyStyle><fill>0</fill></PolyStyle></Style>
	<ExtendedData><SchemaData schemaUrl="#task_grid_v6_46.48_59.68">
		<SimpleData name="area_ha">0</SimpleData>
		<SimpleData name="low_risk_ha">0.1</SimpleData>
	</SchemaData></ExtendedData>
      <MultiGeometry><Polygon><outerBoundaryIs><LinearRing><coordinates>59.7138017128054,46.5107229929303 59.7151491857315,46.5120704658565 59.7097592940268,46.5174603575612 59.7164966586577,46.5188078304874 59.7178441315839,46.5093755200041 59.7138017128054,46.5053331012256 59.711106766953,46.5080280470779 59.711106766953,46.5026381553732 59.7070643481745,46.5039856282994 59.7070643481745,46.5093755200041 59.7138017128054,46.5107229929303</coordinates></LinearRing></outerBoundaryIs></Polygon><Polygon><outerBoundaryIs><LinearRing><coordinates>59.6976320376912,46.516112884635 59.6976320376912,46.5134179387826 59.6895472001341,46.5134179387826 59.688199727208,46.5147654117088 59.6976320376912,46.516112884635</coordinates></LinearRing></outerBoundaryIs></Polygon></MultiGeometry>
  </Placemark>
</Folder>
</Document></kml>
