<?xml version="1.0" encoding="utf-8" ?>
<kml xmlns="http://www.opengis.net/kml/2.2">
<Document id="root_doc">
<Schema name="task_grid_v6_44.98_60.48" id="task_grid_v6_44.98_60.48">
	<SimpleField name="area_ha" type="float"></SimpleField>
	<SimpleField name="low_risk_ha" type="float"></SimpleField>
	<SimpleField name="moderate_risk_ha" type="float"></SimpleField>
	<SimpleField name="grid_cell_deg" type="string"></SimpleField>
</Schema>
<Folder><name>task_grid_v6_44.98_60.48</name>
  <Placemark id="task_grid_v6_44.98_60.48.1">
	<name>task_grid_v6_44.98_60.48</name>
	<name>11.1</name>
	<description>186.2</description>
	<Style><LineStyle><color>ff0000ff</color></LineStyle><PolyStyle><fill>0</fill></PolyStyle></Style>
	<ExtendedData><SchemaData schemaUrl="#task_grid_v6_44.98_60.48">
		<SimpleData name="area_ha">175.1</SimpleData>
		<SimpleData name="low_risk_ha">0.1</SimpleData>
	</SchemaData></ExtendedData>
      <MultiGeometry><Polygon><outerBoundaryIs><LinearRing><coordinates>60.4266148907542,44.9921210051262 60.4293098366066,44.9894260592739 60.4360472012375,44.9907735322001 60.4360472012375,44.9880785863477 60.440089620016,44.9840361675692 60.4306573095327,44.9772988029383 60.4263910613787,44.9772988029383 60.4263910613787,44.9977347262065 60.4293098366066,44.9948159509786 60.4266148907542,44.9921210051262</coordinates></LinearRing></outerBoundaryIs></Polygon><Polygon><outerBoundaryIs><LinearRing><coordinates>60.4562592951302,45.0002058426833 60.4495219304993,44.9961634239048 60.4414370929422,44.9961634239048 60.440089620016,44.997510896831 60.4495219304993,45.0042482614619 60.4562592951302,45.0002058426833</coordinates></LinearRing></outerBoundaryIs></Polygon></MultiGeometry>
  </Placemark>
</Folder>
</Document></kml>
