<?xml version="1.0" encoding="utf-8" ?>
<kml xmlns="http://www.opengis.net/kml/2.2">
<Document id="root_doc">
<Schema name="task_grid_v6_46.41_60.26" id="task_grid_v6_46.41_60.26">
	<SimpleField name="area_ha" type="float"></SimpleField>
	<SimpleField name="low_risk_ha" type="float"></SimpleField>
	<SimpleField name="moderate_risk_ha" type="float"></SimpleField>
	<SimpleField name="grid_cell_deg" type="string"></SimpleField>
</Schema>
<Folder><name>task_grid_v6_46.41_60.26</name>
  <Placemark id="task_grid_v6_46.41_60.26.1">
	<name>task_grid_v6_46.41_60.26</name>
	<name>127.4</name>
	<description>127.4</description>
	<Style><LineStyle><color>ff0000ff</color></LineStyle><PolyStyle><fill>0</fill></PolyStyle></Style>
	<ExtendedData><SchemaData schemaUrl="#task_grid_v6_46.41_60.26">
		<SimpleData name="area_ha">0</SimpleData>
		<SimpleData name="low_risk_ha">0.1</SimpleData>
	</SchemaData></ExtendedData>
      <Polygon><outerBoundaryIs><LinearRing><coordinates>60.2770453959483,46.3705858086076 60.2905201252101,46.3786706461647 60.3012999086195,46.3786706461647 60.3039948544719,46.3813655920171 60.3080372732504,46.3800181190909 60.3039948544719,46.3759757003124 60.2878251793577,46.37328075446 60.2797403418007,46.3678908627553 60.2541383562033,46.3692383356815 60.2770453959483,46.3705858086076</coordinates></LinearRing></outerBoundaryIs></Polygon>
  </Placemark>
</Folder>
</Document></kml>
