<?xml version="1.0" encoding="utf-8" ?>
<kml xmlns="http://www.opengis.net/kml/2.2">
<Document id="root_doc">
<Schema name="task_grid_v6_45.61_60.86" id="task_grid_v6_45.61_60.86">
	<SimpleField name="area_ha" type="float"></SimpleField>
	<SimpleField name="low_risk_ha" type="float"></SimpleField>
	<SimpleField name="moderate_risk_ha" type="float"></SimpleField>
	<SimpleField name="grid_cell_deg" type="string"></SimpleField>
</Schema>
<Folder><name>task_grid_v6_45.61_60.86</name>
  <Placemark id="task_grid_v6_45.61_60.86.1">
	<name>task_grid_v6_45.61_60.86</name>
	<name>900.4</name>
	<description>1627.8</description>
	<Style><LineStyle><color>ff0000ff</color></LineStyle><PolyStyle><fill>0</fill></PolyStyle></Style>
	<ExtendedData><SchemaData schemaUrl="#task_grid_v6_45.61_60.86">
		<SimpleData name="area_ha">727.5</SimpleData>
		<SimpleData name="low_risk_ha">0.1</SimpleData>
	</SchemaData></ExtendedData>
      <MultiGeometry><Polygon><outerBoundaryIs><LinearRing><coordinates>60.8928405232122,45.5742293092357 60.8901455773599,45.5742293092357 60.8901455773599,45.5796192009404 60.8887981044337,45.5728818363095 60.8874506315075,45.5877040384975 60.8887981044337,45.5890515114237 60.8914930502861,45.5863565655713 60.8941879961384,45.5890515114237 60.898230414917,45.5850090926451 60.8941879961384,45.591746457276 60.8901455773599,45.5930939302022 60.8941879961384,45.5998312948331 60.8887981044337,45.5944414031284 60.8820607398028,45.6011787677593 60.883408212729,45.6052211865378 60.8887981044337,45.5998312948331 60.8941879961384,45.6079161323902 60.8962092055277,45.6072423959271 60.8928405232122,45.6092636053164 60.8995778878431,45.6106110782425 60.9029465701586,45.6072423959271 60.9036203066217,45.6092636053164 60.906315252474,45.6092636053164 60.9009253607693,45.6119585511687 60.9036203066217,45.6146534970211 60.8995778878431,45.6186959157996 60.8968829419908,45.6160009699472 60.8914930502861,45.6186959157996 60.8887981044337,45.6160009699472 60.8793657939504,45.6173484428734 60.8793657939504,45.6200433887258 60.8793657939504,45.6227383345781 60.883408212729,45.6267807533567 60.8887981044337,45.6267807533567 60.8968829419908,45.6321706450614 60.8955354690646,45.6416029555446 60.8995778878431,45.6429504284708 60.9009253607693,45.6416029555446 60.9022728336955,45.6429504284708 60.9009253607693,45.644297901397 60.8968829419908,45.6429504284708 60.8955354690646,45.644297901397 60.8914930502861,45.6429504284708 60.8874506315075,45.6496877931017 60.8901455773599,45.6523827389541 60.8861031585813,45.6564251577326 60.8807132668766,45.6510352660279 60.8780183210243,45.6537302118803 60.8726284293195,45.6537302118803 60.8726284293195,45.6564251577326 60.8780183210243,45.6564251577326 60.8793657939504,45.6604675765112 60.8764305978732,45.6625641451378 60.8857286107311,45.6625641451378 60.8865020767318,45.6625641451378 60.8961338462903,45.6625641451378 60.898230414917,45.6604675765112 60.8968829419908,45.659120103585 60.9036203066217,45.6523827389541 60.906315252474,45.644297901397 60.9102213862645,45.6429958568002 60.9102213862645,45.6296119841971 60.9102213862645,45.6185596308116 60.9102213862645,45.6153297963098 60.9102213862645,45.6151683045848 60.9102213862645,45.5945776881164 60.9102213862645,45.5883096324666 60.9090101983264,45.5877040384975 60.9078354783395,45.579480998589 60.9102213862645,45.5775722722489 60.9102213862645,45.5667500656477 60.9090101983264,45.5661444716786 60.9102213862645,45.5657407423659 60.9102213862645,45.5625641451378 60.9005634477365,45.5625641451378 60.9003863715988,45.5634495258263 60.9002092954611,45.5625641451378 60.8966212081629,45.5625641451378 60.8995778878431,45.5674919446048 60.898230414917,45.5742293092357 60.8968829419908,45.5701868904572 60.8928405232122,45.5742293092357</coordinates></LinearRing></outerBoundaryIs><innerBoundaryIs><LinearRing><coordinates>60.906315252474,45.6011787677593 60.9009253607693,45.5930939302022 60.906315252474,45.5877040384975 60.9036203066217,45.5903989843498 60.906315252474,45.5930939302022 60.9036203066217,45.5957888760546 60.906315252474,45.6011787677593</coordinates></LinearRing></innerBoundaryIs><innerBoundaryIs><LinearRing><coordinates>60.9022728336955,45.6052211865378 60.902609701927,45.6062317912324 60.9009253607693,45.6056703441799 60.9022728336955,45.6052211865378</coordinates></LinearRing></innerBoundaryIs><innerBoundaryIs><LinearRing><coordinates>60.8887981044337,45.659120103585 60.8941879961384,45.6564251577326 60.8877201260928,45.6607370710964 60.8887981044337,45.659120103585</coordinates></LinearRing></innerBoundaryIs><innerBoundaryIs><LinearRing><coordinates>60.9036203066217,45.6362130638399 60.9036203066217,45.6416029555446 60.9022728336955,45.6429504284708 60.9036203066217,45.6362130638399</coordinates></LinearRing></innerBoundaryIs></Polygon><Polygon><outerBoundaryIs><LinearRing><coordinates>60.8807132668766,45.6160009699472 60.8847556856552,45.6119585511687 60.8780183210243,45.6079161323902 60.8739759022457,45.6119585511687 60.8807132668766,45.6160009699472</coordinates></LinearRing></outerBoundaryIs></Polygon><Polygon><outerBoundaryIs><LinearRing><coordinates>60.8780183210243,45.621390861652 60.8793657939504,45.6200433887258 60.8780183210243,45.6160009699472 60.8739759022457,45.6173484428734 60.8780183210243,45.621390861652</coordinates></LinearRing></outerBoundaryIs></Polygon><Polygon><outerBoundaryIs><LinearRing><coordinates>60.8928405232122,45.6146534970211 60.8968829419908,45.6160009699472 60.9009253607693,45.6119585511687 60.8968829419908,45.6106110782425 60.8928405232122,45.6146534970211</coordinates></LinearRing></outerBoundaryIs></Polygon></MultiGeometry>
  </Placemark>
</Folder>
</Document></kml>
