<?xml version="1.0" encoding="utf-8" ?>
<kml xmlns="http://www.opengis.net/kml/2.2">
<Document id="root_doc">
<Schema name="task_grid_v6_45.68_59.58" id="task_grid_v6_45.68_59.58">
	<SimpleField name="area_ha" type="float"></SimpleField>
	<SimpleField name="low_risk_ha" type="float"></SimpleField>
	<SimpleField name="moderate_risk_ha" type="float"></SimpleField>
	<SimpleField name="grid_cell_deg" type="string"></SimpleField>
</Schema>
<Folder><name>task_grid_v6_45.68_59.58</name>
  <Placemark id="task_grid_v6_45.68_59.58.1">
	<name>task_grid_v6_45.68_59.58</name>
	<name>11</name>
	<description>662.8</description>
	<Style><LineStyle><color>ff0000ff</color></LineStyle><PolyStyle><fill>0</fill></PolyStyle></Style>
	<ExtendedData><SchemaData schemaUrl="#task_grid_v6_45.68_59.58">
		<SimpleData name="area_ha">651.8</SimpleData>
		<SimpleData name="low_risk_ha">0.1</SimpleData>
	</SchemaData></ExtendedData>
      <MultiGeometry><Polygon><outerBoundaryIs><LinearRing><coordinates>59.5925291494492,45.6483403201755 59.5871392577445,45.6483403201755 59.5857917848183,45.6523827389541 59.5925291494492,45.6537302118803 59.5925291494492,45.6483403201755</coordinates></LinearRing></outerBoundaryIs></Polygon><Polygon><outerBoundaryIs><LinearRing><coordinates>59.6194786079728,45.6456453743232 59.6046564057848,45.6550776848064 59.606003878711,45.6698998869944 59.6113937704157,45.6672049411421 59.6140887162681,45.6725948328468 59.6181311350466,45.6712473599206 59.6181311350466,45.6658574682159 59.6235210267514,45.6604675765112 59.620826080899,45.6577726306588 59.6221735538252,45.6510352660279 59.6263910613787,45.6510352660279 59.6263910613787,45.6404899594487 59.620826080899,45.6416029555446 59.6235210267514,45.6469928472494 59.6221735538252,45.6483403201755 59.6194786079728,45.6456453743232</coordinates></LinearRing></outerBoundaryIs></Polygon><Polygon><outerBoundaryIs><LinearRing><coordinates>59.5898342035969,45.6887645079609 59.5925291494492,45.6860695621086 59.597919041154,45.6887645079609 59.6006139870063,45.6860695621086 59.6029720646271,45.6864064303401 59.6019614599325,45.6874170350347 59.6086988245634,45.6887645079609 59.6086988245634,45.6872245389024 59.6194786079728,45.6887645079609 59.620826080899,45.6847220891824 59.6113937704157,45.6779847245515 59.6086988245634,45.6833746162562 59.6019614599325,45.68202714333 59.6127412433419,45.673942305773 59.6033089328587,45.6698998869944 59.5952240953016,45.6806796704038 59.5898342035969,45.6806796704038 59.5857917848183,45.6847220891824 59.5898342035969,45.6887645079609</coordinates></LinearRing></outerBoundaryIs></Polygon><Polygon><outerBoundaryIs><LinearRing><coordinates>59.6100462974896,45.711671547706 59.6194786079728,45.7130190206322 59.620826080899,45.7089766018536 59.6140887162681,45.7022392372227 59.6100462974896,45.711671547706</coordinates></LinearRing></outerBoundaryIs></Polygon></MultiGeometry>
  </Placemark>
</Folder>
</Document></kml>
