<?xml version="1.0" encoding="utf-8" ?>
<kml xmlns="http://www.opengis.net/kml/2.2">
<Document id="root_doc">
<Schema name="task_grid_v6_45.91_59.86" id="task_grid_v6_45.91_59.86">
	<SimpleField name="area_ha" type="float"></SimpleField>
	<SimpleField name="low_risk_ha" type="float"></SimpleField>
	<SimpleField name="moderate_risk_ha" type="float"></SimpleField>
	<SimpleField name="grid_cell_deg" type="string"></SimpleField>
</Schema>
<Folder><name>task_grid_v6_45.91_59.86</name>
  <Placemark id="task_grid_v6_45.91_59.86.1">
	<name>task_grid_v6_45.91_59.86</name>
	<name>280.5</name>
	<description>2377.6</description>
	<Style><LineStyle><color>ff0000ff</color></LineStyle><PolyStyle><fill>0</fill></PolyStyle></Style>
	<ExtendedData><SchemaData schemaUrl="#task_grid_v6_45.91_59.86">
		<SimpleData name="area_ha">2097.2</SimpleData>
		<SimpleData name="low_risk_ha">0.1</SimpleData>
	</SchemaData></ExtendedData>
      <MultiGeometry><Polygon><outerBoundaryIs><LinearRing><coordinates>59.8337268032353,45.8652834612904 59.8350742761615,45.8693258800689 59.83911669494,45.8652834612904 59.8382102562225,45.8625641451378 59.836446119388,45.8625641451378 59.8337268032353,45.8652834612904</coordinates></LinearRing></outerBoundaryIs></Polygon><Polygon><outerBoundaryIs><LinearRing><coordinates>59.831031857383,45.8625885154381 59.8310805979835,45.8625641451378 59.8229713901262,45.8625641451378 59.8215995468997,45.8639359883642 59.8135147093426,45.8666309342166 59.8121672364165,45.8706733529951 59.8269894386044,45.8720208259213 59.831031857383,45.8679784071428 59.831031857383,45.8625885154381</coordinates></LinearRing></outerBoundaryIs></Polygon><Polygon><outerBoundaryIs><LinearRing><coordinates>59.8337268032353,45.8868430281093 59.8323793303091,45.8828006093307 59.8283369115306,45.8841480822569 59.8296843844568,45.8881905010355 59.8337268032353,45.8868430281093</coordinates></LinearRing></outerBoundaryIs></Polygon><Polygon><outerBoundaryIs><LinearRing><coordinates>59.8606762617589,45.8868430281093 59.8674136263898,45.8881905010355 59.8674136263898,45.8854955551831 59.8620237346851,45.8854955551831 59.8606762617589,45.8868430281093</coordinates></LinearRing></outerBoundaryIs></Polygon><Polygon><outerBoundaryIs><LinearRing><coordinates>59.8121672364165,45.8895379739616 59.8135147093426,45.8962753385925 59.8229470198259,45.8949278656664 59.8242944927521,45.8828006093307 59.8148621822688,45.8841480822569 59.8121672364165,45.8895379739616</coordinates></LinearRing></outerBoundaryIs></Polygon><Polygon><outerBoundaryIs><LinearRing><coordinates>59.868761099316,45.8976228115187 59.8674136263898,45.8935803927402 59.8633712076113,45.8949278656664 59.8674136263898,45.8989702844449 59.868761099316,45.8976228115187</coordinates></LinearRing></outerBoundaryIs></Polygon><Polygon><outerBoundaryIs><LinearRing><coordinates>59.8525914242018,45.9003177573711 59.8566338429804,45.9043601761496 59.8606762617589,45.9003177573711 59.853938897128,45.8989702844449 59.8525914242018,45.9003177573711</coordinates></LinearRing></outerBoundaryIs></Polygon><Polygon><outerBoundaryIs><LinearRing><coordinates>59.8525914242018,45.9057076490758 59.8485490054233,45.9016652302973 59.8472015324971,45.9057076490758 59.8512439512757,45.907055122002 59.8525914242018,45.9057076490758</coordinates></LinearRing></outerBoundaryIs></Polygon><Polygon><outerBoundaryIs><LinearRing><coordinates>59.8674136263898,45.9016652302973 59.8647186805375,45.9032821978087 59.8647186805375,45.9016652302973 59.8593287888327,45.9016652302973 59.8552863700542,45.9057076490758 59.8606762617589,45.9110975407805 59.8606762617589,45.9164874324852 59.8647186805375,45.9205298512638 59.8593287888327,45.9178349054114 59.8566338429804,45.9259197429685 59.8552863700542,45.9218773241899 59.8525914242018,45.9218773241899 59.8525914242018,45.9272672158947 59.8620237346851,45.9286146888208 59.8647186805375,45.9232247971161 59.8674136263898,45.9286146888208 59.8889731932087,45.9313096346732 59.8903206661349,45.929962161747 59.8862782473563,45.9232247971161 59.8873562256973,45.9199908620933 59.8889731932087,45.9232247971161 59.891668139061,45.9232247971161 59.8930156119872,45.9164874324852 59.8876257202825,45.9137924866329 59.8903206661349,45.9084025949281 59.8889731932087,45.9043601761496 59.883583301504,45.907055122002 59.8781934097992,45.9043601761496 59.8768459368731,45.9084025949281 59.8795408827254,45.9110975407805 59.8781934097992,45.9124450137067 59.8754984639469,45.9097500678543 59.8741509910207,45.9137924866329 59.8741509910207,45.9110975407805 59.8714560451683,45.9084025949281 59.8768459368731,45.9057076490758 59.8701085722422,45.9016652302973 59.8684242310844,45.9067182537704 59.8674136263898,45.9016652302973</coordinates></LinearRing></outerBoundaryIs><innerBoundaryIs><LinearRing><coordinates>59.883583301504,45.9259197429685 59.8781934097992,45.9232247971161 59.8754984639469,45.9259197429685 59.868761099316,45.9245722700423 59.8728035180945,45.9205298512638 59.8781934097992,45.9205298512638 59.8808883556516,45.915139959559 59.8795408827254,45.9191823783376 59.8862782473563,45.9232247971161 59.883583301504,45.9259197429685</coordinates></LinearRing></innerBoundaryIs><innerBoundaryIs><LinearRing><coordinates>59.8862782473563,45.9178349054114 59.8866632396209,45.9186048899406 59.8808883556516,45.915139959559 59.8862782473563,45.9178349054114</coordinates></LinearRing></innerBoundaryIs><innerBoundaryIs><LinearRing><coordinates>59.8728035180945,45.9178349054114 59.8710068875263,45.9178349054114 59.8731029565226,45.9169365901273 59.8728035180945,45.9178349054114</coordinates></LinearRing></innerBoundaryIs><innerBoundaryIs><LinearRing><coordinates>59.8674136263898,45.915139959559 59.8660661534636,45.9137924866329 59.868761099316,45.9137924866329 59.8674136263898,45.915139959559</coordinates></LinearRing></innerBoundaryIs></Polygon><Polygon><outerBoundaryIs><LinearRing><coordinates>59.83911669494,45.9137924866329 59.8377692220139,45.907055122002 59.831031857383,45.9110975407805 59.8350742761615,45.915139959559 59.83911669494,45.9137924866329</coordinates></LinearRing></outerBoundaryIs></Polygon><Polygon><outerBoundaryIs><LinearRing><coordinates>59.8108197634903,45.9286146888208 59.8135147093426,45.9313096346732 59.8242944927521,45.9205298512638 59.8283369115306,45.9191823783376 59.831031857383,45.9137924866329 59.8242944927521,45.9124450137067 59.8215995468997,45.9178349054114 59.8189046010474,45.915139959559 59.8135147093426,45.9205298512638 59.8102213862645,45.9205298512638 59.8102213862645,45.9286146888208 59.8108197634903,45.9286146888208</coordinates></LinearRing></outerBoundaryIs></Polygon><Polygon><outerBoundaryIs><LinearRing><coordinates>59.8108197634903,45.9340045805256 59.8102213862645,45.934363606861 59.8102213862645,45.9400359118774 59.8148621822688,45.9380469993041 59.8108197634903,45.9340045805256</coordinates></LinearRing></outerBoundaryIs></Polygon><Polygon><outerBoundaryIs><LinearRing><coordinates>59.8512439512757,45.944784363935 59.8579813159065,45.9407419451565 59.8485490054233,45.9393944722303 59.8458540595709,45.9366995263779 59.8445065866448,45.9407419451565 59.8512439512757,45.944784363935</coordinates></LinearRing></outerBoundaryIs></Polygon><Polygon><outerBoundaryIs><LinearRing><coordinates>59.8148621822688,45.9569116202706 59.8121672364165,45.959606566123 59.8102213862645,45.959606566123 59.8102213862645,45.9625641451378 59.8404641678662,45.9625641451378 59.8404641678662,45.9609540390491 59.8418116407924,45.9623015119753 59.8415490076299,45.9625641451378 59.8447692198072,45.9625641451378 59.8445065866448,45.9623015119753 59.8472015324971,45.9623015119753 59.8469388993347,45.9625641451378 59.859460105414,45.9625641451378 59.8579813159065,45.959606566123 59.8633712076113,45.959606566123 59.8620237346851,45.9528692014921 59.853938897128,45.9474793097873 59.8458540595709,45.9474793097873 59.8431591137186,45.9501742556397 59.8404641678662,45.9474793097873 59.831031857383,45.9515217285659 59.8337268032353,45.9542166744182 59.8323793303091,45.9555641473444 59.8269894386044,45.9528692014921 59.8242944927521,45.9609540390491 59.8189046010474,45.9609540390491 59.8175571281212,45.959606566123 59.8229470198259,45.9569116202706 59.8256419656783,45.9488267827135 59.816209655195,45.944784363935 59.8102213862645,45.9477784984002 59.8102213862645,45.9570623387453 59.8108197634903,45.9582590931968 59.8135147093426,45.9555641473444 59.8148621822688,45.9569116202706</coordinates></LinearRing></outerBoundaryIs><innerBoundaryIs><LinearRing><coordinates>59.8512439512757,45.9555641473444 59.8552863700542,45.9569116202706 59.853938897128,45.9609540390491 59.8498964783495,45.959606566123 59.8512439512757,45.9555641473444</coordinates></LinearRing></innerBoundaryIs></Polygon><Polygon><outerBoundaryIs><LinearRing><coordinates>59.8997529766181,45.877410717626 59.8997529766181,45.8720208259213 59.8943630849134,45.8720208259213 59.8930156119872,45.8733682988475 59.8997529766181,45.877410717626</coordinates></LinearRing></outerBoundaryIs></Polygon><Polygon><outerBoundaryIs><LinearRing><coordinates>59.8970580307657,45.8828006093307 59.9011004495443,45.8787581905522 59.8943630849134,45.877410717626 59.8903206661349,45.8814531364046 59.8970580307657,45.8828006093307</coordinates></LinearRing></outerBoundaryIs></Polygon><Polygon><outerBoundaryIs><LinearRing><coordinates>59.8754984639469,45.9016652302973 59.8754984639469,45.8989702844449 59.8701085722422,45.8989702844449 59.868761099316,45.9003177573711 59.8754984639469,45.9016652302973</coordinates></LinearRing></outerBoundaryIs></Polygon><Polygon><outerBoundaryIs><LinearRing><coordinates>59.9011004495443,45.9030127032234 59.8997529766181,45.8962753385925 59.8957105578396,45.8976228115187 59.8997529766181,45.9043601761496 59.9011004495443,45.9030127032234</coordinates></LinearRing></outerBoundaryIs></Polygon><Polygon><outerBoundaryIs><LinearRing><coordinates>59.8957105578396,45.9084025949281 59.9051428683228,45.9178349054114 59.9102213862645,45.9191045348968 59.9102213862645,45.915139959559 59.9078378141752,45.915139959559 59.8970580307657,45.9016652302973 59.8957105578396,45.9084025949281</coordinates></LinearRing></outerBoundaryIs></Polygon><Polygon><outerBoundaryIs><LinearRing><coordinates>59.9037953953966,45.9326571075994 59.9024479224705,45.9259197429685 59.8984055036919,45.929962161747 59.8997529766181,45.9340045805256 59.9037953953966,45.9326571075994</coordinates></LinearRing></outerBoundaryIs></Polygon><Polygon><outerBoundaryIs><LinearRing><coordinates>59.9037953953966,45.9380469993041 59.9024479224705,45.9340045805256 59.8984055036919,45.9353520534517 59.9024479224705,45.9393944722303 59.9037953953966,45.9380469993041</coordinates></LinearRing></outerBoundaryIs></Polygon><Polygon><outerBoundaryIs><LinearRing><coordinates>59.9091852871014,45.9380469993041 59.9051428683228,45.9340045805256 59.9037953953966,45.9380469993041 59.9078378141752,45.9393944722303 59.9091852871014,45.9380469993041</coordinates></LinearRing></outerBoundaryIs></Polygon><Polygon><outerBoundaryIs><LinearRing><coordinates>59.9091852871014,45.9407419451565 59.9102213862645,45.9417780443196 59.9102213862645,45.9405347253238 59.9091852871014,45.9407419451565</coordinates></LinearRing></outerBoundaryIs></Polygon><Polygon><outerBoundaryIs><LinearRing><coordinates>59.8692863656409,45.9625641451378 59.8932782451497,45.9625641451378 59.891668139061,45.9609540390491 59.8849307744301,45.959606566123 59.8849307744301,45.9380469993041 59.8808883556516,45.9340045805256 59.8754984639469,45.9393944722303 59.8728035180945,45.9313096346732 59.8633712076113,45.9326571075994 59.8633712076113,45.9461318368612 59.8579813159065,45.9488267827135 59.8660661534636,45.9542166744182 59.868761099316,45.9623015119753 59.8692863656409,45.9625641451378</coordinates></LinearRing></outerBoundaryIs><innerBoundaryIs><LinearRing><coordinates>59.8728035180945,45.944784363935 59.8660661534636,45.9434368910088 59.8701085722422,45.9393944722303 59.8741509910207,45.9434368910088 59.8728035180945,45.944784363935</coordinates></LinearRing></innerBoundaryIs><innerBoundaryIs><LinearRing><coordinates>59.8741509910207,45.959606566123 59.8728035180945,45.9609540390491 59.8714560451683,45.9569116202706 59.8728035180945,45.9555641473444 59.8741509910207,45.959606566123</coordinates></LinearRing></innerBoundaryIs><innerBoundaryIs><LinearRing><coordinates>59.8795408827254,45.959606566123 59.8768459368731,45.959606566123 59.8768459368731,45.9569116202706 59.8781934097992,45.9555641473444 59.8795408827254,45.959606566123</coordinates></LinearRing></innerBoundaryIs><innerBoundaryIs><LinearRing><coordinates>59.8808883556516,45.9474793097873 59.8768459368731,45.9434368910088 59.8781934097992,45.9420894180826 59.8822358285778,45.9461318368612 59.8808883556516,45.9474793097873</coordinates></LinearRing></innerBoundaryIs><innerBoundaryIs><LinearRing><coordinates>59.8754984639469,45.9501742556397 59.8741509910207,45.9488267827135 59.8768459368731,45.9488267827135 59.8754984639469,45.9501742556397</coordinates></LinearRing></innerBoundaryIs></Polygon></MultiGeometry>
  </Placemark>
</Folder>
</Document></kml>
