<?xml version="1.0" encoding="utf-8" ?>
<kml xmlns="http://www.opengis.net/kml/2.2">
<Document id="root_doc">
<Schema name="task_grid_v6_45.01_60.26" id="task_grid_v6_45.01_60.26">
	<SimpleField name="area_ha" type="float"></SimpleField>
	<SimpleField name="low_risk_ha" type="float"></SimpleField>
	<SimpleField name="moderate_risk_ha" type="float"></SimpleField>
	<SimpleField name="grid_cell_deg" type="string"></SimpleField>
</Schema>
<Folder><name>task_grid_v6_45.01_60.26</name>
  <Placemark id="task_grid_v6_45.01_60.26.1">
	<name>task_grid_v6_45.01_60.26</name>
	<name>70</name>
	<description>627.2</description>
	<Style><LineStyle><color>ff0000ff</color></LineStyle><PolyStyle><fill>0</fill></PolyStyle></Style>
	<ExtendedData><SchemaData schemaUrl="#task_grid_v6_45.01_60.26">
		<SimpleData name="area_ha">557.2</SimpleData>
		<SimpleData name="low_risk_ha">0.1</SimpleData>
	</SchemaData></ExtendedData>
      <MultiGeometry><Polygon><outerBoundaryIs><LinearRing><coordinates>60.297257489841,45.0217654095022 60.2932150710625,45.0177229907236 60.2891726522839,45.0190704636498 60.2918675981363,45.0244603553545 60.2959100169148,45.0258078282807 60.297257489841,45.0217654095022</coordinates></LinearRing></outerBoundaryIs></Polygon><Polygon><outerBoundaryIs><LinearRing><coordinates>60.2851302335054,45.020417936576 60.2783928688745,45.0244603553545 60.2797403418007,45.0285027741331 60.2864777064316,45.0244603553545 60.2851302335054,45.020417936576</coordinates></LinearRing></outerBoundaryIs></Polygon><Polygon><outerBoundaryIs><LinearRing><coordinates>60.2932150710625,45.0338926658378 60.2918675981363,45.035240138764 60.297257489841,45.0433249763211 60.2905201252101,45.0473673950996 60.2878251793577,45.0419775033949 60.2851302335054,45.0419775033949 60.2837827605792,45.0514098138781 60.2756979230222,45.0567997055828 60.2783928688745,45.0541047597305 60.2770453959483,45.0473673950996 60.2676130854651,45.0514098138781 60.2689605583912,45.058147178509 60.274350450096,45.058147178509 60.2756979230221,45.0567997055828 60.282435287653,45.0608421243614 60.2851302335054,45.058147178509 60.2864777064316,45.0594946514352 60.285454541864,45.0625641451378 60.3007015313938,45.0625641451378 60.2999524356934,45.0621895972876 60.3066898003242,45.058147178509 60.3102213862645,45.058147178509 60.3102213862645,45.0421448314125 60.3093847461766,45.0419775033949 60.3080372732504,45.0487148680258 60.3039948544719,45.0527572868043 60.2986049627672,45.0554522326567 60.2945625439886,45.0541047597305 60.2945625439886,45.0514098138781 60.3026473815457,45.0460199221734 60.3066898003242,45.0365876116902 60.3093847461766,45.0392825575425 60.3102213862645,45.0388642374986 60.3102213862645,45.0287816541624 60.3093847461766,45.0285027741331 60.3066898003242,45.0338926658378 60.2932150710625,45.0338926658378</coordinates></LinearRing></outerBoundaryIs></Polygon><Polygon><outerBoundaryIs><LinearRing><coordinates>60.2581807749818,45.0554522326567 60.2541383562033,45.0594946514352 60.2572078499058,45.0625641451378 60.2591537000578,45.0625641451378 60.2622231937603,45.0594946514352 60.2581807749818,45.0554522326567</coordinates></LinearRing></outerBoundaryIs></Polygon></MultiGeometry>
  </Placemark>
</Folder>
</Document></kml>
