<?xml version="1.0" encoding="utf-8" ?>
<kml xmlns="http://www.opengis.net/kml/2.2">
<Document id="root_doc">
<Schema name="task_grid_v6_45.51_59.26" id="task_grid_v6_45.51_59.26">
	<SimpleField name="area_ha" type="float"></SimpleField>
	<SimpleField name="low_risk_ha" type="float"></SimpleField>
	<SimpleField name="moderate_risk_ha" type="float"></SimpleField>
	<SimpleField name="grid_cell_deg" type="string"></SimpleField>
</Schema>
<Folder><name>task_grid_v6_45.51_59.26</name>
  <Placemark id="task_grid_v6_45.51_59.26.1">
	<name>task_grid_v6_45.51_59.26</name>
	<name>31.6</name>
	<description>3004.1</description>
	<Style><LineStyle><color>ff0000ff</color></LineStyle><PolyStyle><fill>0</fill></PolyStyle></Style>
	<ExtendedData><SchemaData schemaUrl="#task_grid_v6_45.51_59.26">
		<SimpleData name="area_ha">2972.5</SimpleData>
		<SimpleData name="low_risk_ha">0.1</SimpleData>
	</SchemaData></ExtendedData>
      <MultiGeometry><Polygon><outerBoundaryIs><LinearRing><coordinates>59.2287114593808,45.5189829192623 59.2367962969379,45.5135930275576 59.2502710261997,45.5135930275576 59.2516184991259,45.5122455546314 59.2462286074212,45.5068556629267 59.2529659720521,45.5028132441482 59.2556609179044,45.5082031358529 59.2610508096091,45.5082031358529 59.2637457554615,45.5108980817053 59.2637457554615,45.4920334607388 59.2664407013138,45.4920334607388 59.2704831200924,45.4987708253696 59.26778817424,45.501465771222 59.2664407013138,45.5135930275576 59.2718305930186,45.5135930275576 59.2718305930186,45.5082031358529 59.2772204847233,45.5082031358529 59.2812629035018,45.5041607170744 59.2812629035018,45.4987708253696 59.2758730117971,45.4906859878126 59.2839578493542,45.4745163126984 59.282610376428,45.4677789480675 59.2772204847233,45.4704738939199 59.2758730117971,45.4691264209937 59.2791541497251,45.4625641451378 59.2608757208342,45.4625641451378 59.259703336683,45.463736529289 59.2623982825353,45.4664314751413 59.2610508096091,45.4677789480675 59.2543134449782,45.4691264209937 59.2556609179044,45.4731688397722 59.2583558637568,45.4704738939199 59.2623982825353,45.4718213668461 59.2570083908306,45.4745163126984 59.2610508096091,45.4758637856246 59.2570083908306,45.4772112585508 59.2556609179044,45.4758637856246 59.2529659720521,45.4812536773293 59.2502710261997,45.4758637856246 59.2543134449782,45.4718213668461 59.2489235532735,45.4707433885051 59.2516184991259,45.4691264209937 59.2424313129276,45.4625641451378 59.2413107447678,45.4625641451378 59.2354488240117,45.463736529289 59.2381437698641,45.4691264209937 59.2367962969379,45.4731688397722 59.2314064052332,45.4731688397722 59.2287114593808,45.4758637856246 59.2273639864546,45.4745163126984 59.2287114593808,45.4704738939199 59.2327538781594,45.4691264209937 59.2327538781594,45.463736529289 59.2315814940082,45.4625641451378 59.2130670505916,45.4625641451378 59.2165842030452,45.463736529289 59.2138892571929,45.4691264209937 59.2165842030452,45.4718213668461 59.2111943113405,45.4718213668461 59.2111943113405,45.4772112585508 59.2138892571929,45.4799062044031 59.2102213862645,45.4835740753315 59.2102213862645,45.4852960961079 59.2192791488976,45.4852960961079 59.2138892571929,45.4906859878126 59.2192791488976,45.501465771222 59.2179316759714,45.5028132441482 59.2111943113405,45.4933809336649 59.2102213862645,45.4927323169476 59.2102213862645,45.5056954639257 59.215236730119,45.5082031358529 59.2206266218238,45.5055081900005 59.2219740947499,45.5095506087791 59.2192791488976,45.5122455546314 59.2287114593808,45.5189829192623</coordinates></LinearRing></outerBoundaryIs><innerBoundaryIs><LinearRing><coordinates>59.244881134495,45.478558731477 59.2381437698641,45.4772112585508 59.2465654756527,45.4721582350776 59.2502710261997,45.4758637856246 59.244881134495,45.478558731477</coordinates></LinearRing></innerBoundaryIs><innerBoundaryIs><LinearRing><coordinates>59.2327538781594,45.4852960961079 59.2273639864546,45.4933809336649 59.2327538781594,45.4960758795173 59.2260165135285,45.4974233524435 59.2192791488976,45.4906859878126 59.2260165135285,45.4893385148864 59.230058932307,45.4852960961079 59.2246690406023,45.4826011502555 59.2260165135285,45.4812536773293 59.2327538781594,45.4852960961079</coordinates></LinearRing></innerBoundaryIs><innerBoundaryIs><LinearRing><coordinates>59.2475760803473,45.4893385148864 59.2489235532735,45.4933809336649 59.2462286074212,45.4987708253696 59.2489235532735,45.501465771222 59.2475760803473,45.5028132441482 59.2421861886426,45.5001182982958 59.2394912427903,45.5028132441482 59.2381437698641,45.4960758795173 59.2394912427903,45.4947284065911 59.2421861886426,45.4974233524435 59.2475760803473,45.4893385148864</coordinates></LinearRing></innerBoundaryIs><innerBoundaryIs><LinearRing><coordinates>59.2260165135285,45.4650840022152 59.2273639864546,45.4664314751413 59.2233215676761,45.4731688397722 59.2192791488976,45.4718213668461 59.2206266218238,45.4677789480675 59.2260165135285,45.4650840022152</coordinates></LinearRing></innerBoundaryIs><innerBoundaryIs><LinearRing><coordinates>59.2260165135285,45.5055081900005 59.2327538781594,45.5068556629267 59.2287114593808,45.5108980817053 59.2260165135285,45.5055081900005</coordinates></LinearRing></innerBoundaryIs><innerBoundaryIs><LinearRing><coordinates>59.2583558637568,45.4839486231817 59.259703336683,45.4852960961079 59.2570083908306,45.4879910419602 59.259703336683,45.4906859878126 59.2583558637568,45.4920334607388 59.2556609179044,45.4893385148864 59.2529659720521,45.4920334607388 59.2516184991259,45.4906859878126 59.2583558637568,45.4839486231817</coordinates></LinearRing></innerBoundaryIs><innerBoundaryIs><LinearRing><coordinates>59.2516184991259,45.4987708253696 59.2529659720521,45.4974233524435 59.2556609179044,45.4974233524435 59.2556609179044,45.5001182982958 59.2516184991259,45.4987708253696</coordinates></LinearRing></innerBoundaryIs><innerBoundaryIs><LinearRing><coordinates>59.2354488240117,45.5068556629267 59.2367962969379,45.5055081900005 59.2381437698641,45.5068556629267 59.2354488240117,45.5068556629267</coordinates></LinearRing></innerBoundaryIs><innerBoundaryIs><LinearRing><coordinates>59.2273639864546,45.501465771222 59.2260165135285,45.5028132441482 59.2246690406023,45.501465771222 59.2273639864546,45.501465771222</coordinates></LinearRing></innerBoundaryIs><innerBoundaryIs><LinearRing><coordinates>59.2408387157164,45.4906859878126 59.2421861886426,45.4893385148864 59.2435336615688,45.4906859878126 59.2408387157164,45.4906859878126</coordinates></LinearRing></innerBoundaryIs><innerBoundaryIs><LinearRing><coordinates>59.2367962969379,45.486643569034 59.2381437698641,45.4879910419602 59.2367962969379,45.4893385148864 59.2367962969379,45.486643569034</coordinates></LinearRing></innerBoundaryIs><innerBoundaryIs><LinearRing><coordinates>59.2758730117971,45.4852960961079 59.2745255388709,45.486643569034 59.2731780659447,45.4852960961079 59.2758730117971,45.4852960961079</coordinates></LinearRing></innerBoundaryIs><innerBoundaryIs><LinearRing><coordinates>59.2691356471662,45.4758637856246 59.26778817424,45.4745163126984 59.2691356471662,45.4731688397722 59.2691356471662,45.4758637856246</coordinates></LinearRing></innerBoundaryIs><innerBoundaryIs><LinearRing><coordinates>59.2650932283877,45.4691264209937 59.2664407013138,45.4677789480675 59.26778817424,45.4691264209937 59.2650932283877,45.4691264209937</coordinates></LinearRing></innerBoundaryIs><innerBoundaryIs><LinearRing><coordinates>59.2718305930186,45.4677789480675 59.2731780659447,45.4691264209937 59.2718305930186,45.4704738939199 59.2718305930186,45.4677789480675</coordinates></LinearRing></innerBoundaryIs><innerBoundaryIs><LinearRing><coordinates>59.2731780659447,45.463736529289 59.2718305930186,45.4650840022152 59.2704831200924,45.463736529289 59.2731780659447,45.463736529289</coordinates></LinearRing></innerBoundaryIs></Polygon><Polygon><outerBoundaryIs><LinearRing><coordinates>59.2102213862645,45.5085776837031 59.2102213862645,45.5187581905522 59.2165842030452,45.5149405004838 59.2102213862645,45.5085776837031</coordinates></LinearRing></outerBoundaryIs></Polygon><Polygon><outerBoundaryIs><LinearRing><coordinates>59.244881134495,45.5216778651147 59.2435336615688,45.5257202838932 59.244881134495,45.5270677568194 59.2502710261997,45.5243728109671 59.2502710261997,45.5216778651147 59.244881134495,45.5216778651147</coordinates></LinearRing></outerBoundaryIs></Polygon><Polygon><outerBoundaryIs><LinearRing><coordinates>59.2102213862645,45.5274423046696 59.2125417842667,45.5297627026718 59.2138892571929,45.5284152297456 59.2125417842667,45.5243728109671 59.2102213862645,45.5251462769678 59.2102213862645,45.5274423046696</coordinates></LinearRing></outerBoundaryIs></Polygon><Polygon><outerBoundaryIs><LinearRing><coordinates>59.2179316759714,45.5405424860812 59.2273639864546,45.5284152297456 59.2246690406023,45.5203303921885 59.2206266218238,45.51628797341 59.2138892571929,45.5203303921885 59.215236730119,45.5243728109671 59.2219740947499,45.5257202838932 59.2138892571929,45.539195013155 59.215236730119,45.5405424860812 59.2179316759714,45.5405424860812</coordinates></LinearRing></outerBoundaryIs></Polygon><Polygon><outerBoundaryIs><LinearRing><coordinates>59.2475760803473,45.5432374319336 59.2529659720521,45.5459323777859 59.259703336683,45.5418899590074 59.2529659720521,45.5405424860812 59.2516184991259,45.539195013155 59.2543134449782,45.5365000673027 59.2475760803473,45.5351525943765 59.2421861886426,45.5270677568194 59.2394912427903,45.5297627026718 59.2367962969379,45.5270677568194 59.230058932307,45.531110175598 59.2408387157164,45.5338051214503 59.244881134495,45.5459323777859 59.2475760803473,45.5432374319336</coordinates></LinearRing></outerBoundaryIs></Polygon><Polygon><outerBoundaryIs><LinearRing><coordinates>59.2341013510855,45.5459323777859 59.2408387157164,45.5418899590074 59.2367962969379,45.5378475402288 59.2327538781594,45.5418899590074 59.2341013510855,45.5459323777859</coordinates></LinearRing></outerBoundaryIs></Polygon><Polygon><outerBoundaryIs><LinearRing><coordinates>59.2394912427903,45.554017215343 59.2408387157164,45.5526697424168 59.2367962969379,45.5486273236383 59.2354488240117,45.5526697424168 59.2394912427903,45.554017215343</coordinates></LinearRing></outerBoundaryIs></Polygon><Polygon><outerBoundaryIs><LinearRing><coordinates>59.2206266218238,45.5567121611954 59.2138892571929,45.5526697424168 59.2165842030452,45.5499747965645 59.2138892571929,45.5472798507121 59.2165842030452,45.5445849048597 59.215236730119,45.5432374319336 59.2102213862645,45.5419835959699 59.2102213862645,45.5569618597622 59.2179316759714,45.5621020529001 59.2287114593808,45.5621020529001 59.2327538781594,45.5580596341215 59.2314064052332,45.5567121611954 59.2206266218238,45.5567121611954</coordinates></LinearRing></outerBoundaryIs></Polygon><Polygon><outerBoundaryIs><LinearRing><coordinates>59.2583558637568,45.5216778651147 59.259703336683,45.5176354463362 59.2556609179044,45.5135930275576 59.2543134449782,45.5176354463362 59.2583558637568,45.5216778651147</coordinates></LinearRing></outerBoundaryIs></Polygon><Polygon><outerBoundaryIs><LinearRing><coordinates>59.2799154305756,45.5243728109671 59.2839578493542,45.5230253380409 59.282610376428,45.5189829192623 59.2785679576495,45.5230253380409 59.2799154305756,45.5243728109671</coordinates></LinearRing></outerBoundaryIs></Polygon><Polygon><outerBoundaryIs><LinearRing><coordinates>59.2623982825353,45.5284152297456 59.2691356471662,45.5297627026718 59.2731780659447,45.5257202838932 59.2664407013138,45.5243728109671 59.2623982825353,45.5284152297456</coordinates></LinearRing></outerBoundaryIs></Polygon><Polygon><outerBoundaryIs><LinearRing><coordinates>59.2475760803473,45.5324576485241 59.2516184991259,45.531110175598 59.2502710261997,45.5270677568194 59.2462286074212,45.5284152297456 59.2475760803473,45.5324576485241</coordinates></LinearRing></outerBoundaryIs></Polygon><Polygon><outerBoundaryIs><LinearRing><coordinates>59.2623982825353,45.531110175598 59.2583558637568,45.5270677568194 59.2543134449782,45.5338051214503 59.2556609179044,45.5351525943765 59.2623982825353,45.531110175598</coordinates></LinearRing></outerBoundaryIs></Polygon><Polygon><outerBoundaryIs><LinearRing><coordinates>59.2758730117971,45.539195013155 59.2799154305756,45.5432374319336 59.2839578493542,45.5365000673027 59.282610376428,45.5324576485241 59.2785679576495,45.5338051214503 59.2758730117971,45.539195013155</coordinates></LinearRing></outerBoundaryIs></Polygon></MultiGeometry>
  </Placemark>
</Folder>
</Document></kml>
