<?xml version="1.0" encoding="utf-8" ?>
<kml xmlns="http://www.opengis.net/kml/2.2">
<Document id="root_doc">
<Schema name="task_grid_v6_45.01_61.06" id="task_grid_v6_45.01_61.06">
	<SimpleField name="area_ha" type="float"></SimpleField>
	<SimpleField name="low_risk_ha" type="float"></SimpleField>
	<SimpleField name="moderate_risk_ha" type="float"></SimpleField>
	<SimpleField name="grid_cell_deg" type="string"></SimpleField>
</Schema>
<Folder><name>task_grid_v6_45.01_61.06</name>
  <Placemark id="task_grid_v6_45.01_61.06.1">
	<name>task_grid_v6_45.01_61.06</name>
	<name>38.2</name>
	<description>3880.3</description>
	<Style><LineStyle><color>ff0000ff</color></LineStyle><PolyStyle><fill>0</fill></PolyStyle></Style>
	<ExtendedData><SchemaData schemaUrl="#task_grid_v6_45.01_61.06">
		<SimpleData name="area_ha">3842.1</SimpleData>
		<SimpleData name="low_risk_ha">0.1</SimpleData>
	</SchemaData></ExtendedData>
      <MultiGeometry><Polygon><outerBoundaryIs><LinearRing><coordinates>61.0356726533872,44.9651715466026 61.0397150721658,44.9665190195288 61.041062545092,44.9651715466026 61.039498104213,44.9625641451378 61.0361941336802,44.9625641451378 61.0356726533872,44.9651715466026</coordinates></LinearRing></outerBoundaryIs></Polygon><Polygon><outerBoundaryIs><LinearRing><coordinates>61.0289352887564,44.9772988029383 61.0302827616825,44.9759513300121 61.026240342904,44.9719089112335 61.0248928699778,44.9759513300121 61.0289352887564,44.9772988029383</coordinates></LinearRing></outerBoundaryIs></Polygon><Polygon><outerBoundaryIs><LinearRing><coordinates>61.0477999097229,44.9746038570859 61.0545372743538,44.9705614383074 61.0477999097229,44.9665190195288 61.0437574909443,44.9705614383074 61.0437574909443,44.9786462758644 61.0356726533872,44.9813412217168 61.0397150721658,44.9853836404953 61.0464524367967,44.9813412217168 61.0477999097229,44.9746038570859</coordinates></LinearRing></outerBoundaryIs></Polygon><Polygon><outerBoundaryIs><LinearRing><coordinates>61.0383675992396,44.9867311134215 61.0343251804611,44.982688694643 61.0302827616825,44.9867311134215 61.0316302346087,44.9907735322001 61.0383675992396,44.9867311134215</coordinates></LinearRing></outerBoundaryIs></Polygon><Polygon><outerBoundaryIs><LinearRing><coordinates>61.0316302346087,44.9988583697571 61.0316302346087,44.9961634239048 61.026240342904,44.9961634239048 61.0248928699778,44.997510896831 61.0316302346087,44.9988583697571</coordinates></LinearRing></outerBoundaryIs></Polygon><Polygon><outerBoundaryIs><LinearRing><coordinates>61.0102213862645,45.0112870630421 61.011418140716,45.0136805719451 61.0181555053469,45.0177229907236 61.0195029782731,45.0163755177975 61.0102213862645,45.0044420423579 61.0102213862645,45.0112870630421</coordinates></LinearRing></outerBoundaryIs></Polygon><Polygon><outerBoundaryIs><LinearRing><coordinates>61.026240342904,45.0311977199854 61.0221979241255,45.035240138764 61.0289352887564,45.0365876116902 61.0343251804611,45.0419775033949 61.0343251804611,45.0311977199854 61.026240342904,45.0311977199854</coordinates></LinearRing></outerBoundaryIs></Polygon><Polygon><outerBoundaryIs><LinearRing><coordinates>61.0208504511993,45.0419775033949 61.0221979241255,45.0406300304687 61.0181555053469,45.0365876116902 61.0141130865684,45.0406300304687 61.0208504511993,45.0419775033949</coordinates></LinearRing></outerBoundaryIs></Polygon><Polygon><outerBoundaryIs><LinearRing><coordinates>61.0235453970516,45.0500623409519 61.0102213862645,45.0420679344797 61.0102213862645,45.0475181135743 61.0127656136422,45.0500623409519 61.0181555053469,45.0500623409519 61.0208504511993,45.0527572868043 61.0275878158302,45.0514098138781 61.026240342904,45.0473673950996 61.0235453970516,45.0500623409519</coordinates></LinearRing></outerBoundaryIs></Polygon><Polygon><outerBoundaryIs><LinearRing><coordinates>61.0424100180181,45.0554522326567 61.0424100180181,45.0527572868043 61.0370201263134,45.0527572868043 61.0356726533872,45.0541047597305 61.0424100180181,45.0554522326567</coordinates></LinearRing></outerBoundaryIs></Polygon><Polygon><outerBoundaryIs><LinearRing><coordinates>61.016832402721,45.0625641451378 61.0225724719757,45.0625641451378 61.0208504511993,45.0608421243614 61.016832402721,45.0625641451378</coordinates></LinearRing></outerBoundaryIs></Polygon><Polygon><outerBoundaryIs><LinearRing><coordinates>61.0760092967851,44.9625641451378 61.0739934111232,44.9625641451378 61.0747493682464,44.9638240736765 61.0760092967851,44.9625641451378</coordinates></LinearRing></outerBoundaryIs></Polygon><Polygon><outerBoundaryIs><LinearRing><coordinates>61.0813991884899,44.9625641451378 61.0788793314125,44.9625641451378 61.0801392599512,44.9638240736765 61.0813991884899,44.9625641451378</coordinates></LinearRing></outerBoundaryIs></Polygon><Polygon><outerBoundaryIs><LinearRing><coordinates>61.1102213862645,44.965643575654 61.1102213862645,44.9625641451378 61.0896591148219,44.9625641451378 61.093613989213,44.9665190195288 61.0963089350653,44.9638240736765 61.10169882677,44.9665190195288 61.1043937726224,44.9638240736765 61.1097836643271,44.9665190195288 61.1102213862645,44.965643575654</coordinates></LinearRing></outerBoundaryIs></Polygon><Polygon><outerBoundaryIs><LinearRing><coordinates>61.0801392599512,44.9799937487906 61.0734018953203,44.9840361675692 61.0760968411726,44.9813412217168 61.0747493682464,44.9746038570859 61.0693594765417,44.9772988029383 61.0666645306894,44.9746038570859 61.0626221119108,44.9759513300121 61.0653170577632,44.9786462758644 61.0626221119108,44.9840361675692 61.0653170577632,44.9894260592739 61.0666645306894,44.9907735322001 61.0693594765417,44.9880785863477 61.0734018953203,44.9921210051262 61.0720544223941,44.9934684780524 61.0693594765417,44.9907735322001 61.0626221119108,44.9948159509786 61.0693594765417,44.9961634239048 61.0693594765417,45.0015533156095 61.0504948555752,44.9907735322001 61.0464524367967,44.9948159509786 61.0518423285014,45.0002058426833 61.0504948555752,45.0015533156095 61.0424100180181,45.0042482614619 61.0370201263134,45.0015533156095 61.0302827616825,45.0082906802404 61.0289352887564,45.0150280448713 61.026240342904,45.0069432073142 61.0221979241255,45.0109856260927 61.0235453970516,45.0150280448713 61.0302827616825,45.0190704636498 61.0248928699778,45.0217654095022 61.0289352887564,45.0258078282807 61.0383675992396,45.0271553012069 61.0397150721658,45.0392825575425 61.0451049638705,45.0392825575425 61.0477999097229,45.0365876116902 61.0612746389846,45.0365876116902 61.063969584837,45.0338926658378 61.0680120036156,45.0406300304687 61.0666645306894,45.0473673950996 61.063969584837,45.0419775033949 61.0585796931323,45.0446724492472 61.0558847472799,45.0419775033949 61.0504948555752,45.0419775033949 61.0424100180181,45.0473673950996 61.0424100180181,45.0500623409519 61.0531898014276,45.0500623409519 61.0558847472799,45.0527572868043 61.0585796931323,45.0473673950996 61.0612746389846,45.0473673950996 61.0626221119108,45.0514098138781 61.0666645306894,45.0527572868043 61.0693594765417,45.0500623409519 61.0828342058035,45.0500623409519 61.0855291516559,45.0473673950996 61.0909190433606,45.0500623409519 61.0963089350653,45.0500623409519 61.0990038809177,45.0473673950996 61.1003513538438,45.0487148680258 61.1003513538438,45.0541047597305 61.1057412455486,45.0567997055828 61.0990038809177,45.0608421243614 61.0963089350653,45.0554522326567 61.093613989213,45.058147178509 61.0909190433606,45.0554522326567 61.0882240975082,45.058147178509 61.0828342058035,45.058147178509 61.0774443140988,45.0527572868043 61.0734018953203,45.0541047597305 61.0734018953203,45.0621895972876 61.07302734747,45.0625641451378 61.1102213862645,45.0625641451378 61.1102213862645,45.046323172503 61.1070887184747,45.0473673950996 61.1070887184747,45.0446724492472 61.1097836643271,45.0446724492472 61.1102213862645,45.0451101711847 61.1102213862645,45.0257202838932 61.1097836643271,45.0258078282807 61.10169882677,45.020417936576 61.0990038809177,45.0258078282807 61.0963089350653,45.0258078282807 61.0895715704344,45.0190704636498 61.1003513538438,45.005595734388 61.0841816787297,45.005595734388 61.0895715704344,45.0029007885357 61.0868766245821,45.0002058426833 61.0895715704344,44.997510896831 61.0895715704344,44.9921210051262 61.0855291516559,44.9880785863477 61.0828342058035,44.9907735322001 61.0774443140988,44.9880785863477 61.0841816787297,44.9840361675692 61.0801392599512,44.9799937487906</coordinates></LinearRing></outerBoundaryIs><innerBoundaryIs><LinearRing><coordinates>61.0626221119108,45.0109856260927 61.0720544223941,45.0042482614619 61.0734018953203,45.005595734388 61.0707069494679,45.0109856260927 61.0760968411726,45.0136805719451 61.0693594765417,45.0150280448713 61.0666645306894,45.0096381531666 61.063969584837,45.0150280448713 61.0626221119108,45.0109856260927</coordinates></LinearRing></innerBoundaryIs><innerBoundaryIs><LinearRing><coordinates>61.041062545092,45.0298502470593 61.0424100180181,45.0285027741331 61.0451049638705,45.0311977199854 61.0477999097229,45.0258078282807 61.0477999097229,45.0338926658378 61.041062545092,45.0298502470593</coordinates></LinearRing></innerBoundaryIs><innerBoundaryIs><LinearRing><coordinates>61.0801392599512,45.0446724492472 61.0801392599512,45.0473673950996 61.0747493682464,45.0473673950996 61.0734018953203,45.0460199221734 61.0801392599512,45.0446724492472</coordinates></LinearRing></innerBoundaryIs><innerBoundaryIs><LinearRing><coordinates>61.0707069494679,45.0379350846163 61.0720544223941,45.0365876116902 61.0734018953203,45.0406300304687 61.0720544223941,45.0419775033949 61.0707069494679,45.0379350846163</coordinates></LinearRing></innerBoundaryIs><innerBoundaryIs><LinearRing><coordinates>61.0356726533872,45.0136805719451 61.0356726533872,45.0163755177975 61.0329777075349,45.0163755177975 61.0343251804611,45.0123330990189 61.0356726533872,45.0136805719451</coordinates></LinearRing></innerBoundaryIs><innerBoundaryIs><LinearRing><coordinates>61.0855291516559,45.0608421243614 61.0868766245821,45.0621895972876 61.0841816787297,45.0621895972876 61.0855291516559,45.0608421243614</coordinates></LinearRing></innerBoundaryIs><innerBoundaryIs><LinearRing><coordinates>61.093613989213,45.0473673950996 61.0922665162868,45.0460199221734 61.0949614621391,45.0460199221734 61.093613989213,45.0473673950996</coordinates></LinearRing></innerBoundaryIs><innerBoundaryIs><LinearRing><coordinates>61.0841816787297,45.0433249763211 61.0855291516559,45.0419775033949 61.0855291516559,45.0446724492472 61.0841816787297,45.0433249763211</coordinates></LinearRing></innerBoundaryIs><innerBoundaryIs><LinearRing><coordinates>61.1003513538438,45.035240138764 61.0990038809177,45.0365876116902 61.0990038809177,45.0338926658378 61.1003513538438,45.035240138764</coordinates></LinearRing></innerBoundaryIs><innerBoundaryIs><LinearRing><coordinates>61.0720544223941,45.0338926658378 61.0707069494679,45.0325451929116 61.0734018953203,45.0325451929116 61.0720544223941,45.0338926658378</coordinates></LinearRing></innerBoundaryIs><innerBoundaryIs><LinearRing><coordinates>61.0680120036156,44.9813412217168 61.0693594765417,44.9799937487906 61.0693594765417,44.982688694643 61.0680120036156,44.9813412217168</coordinates></LinearRing></innerBoundaryIs></Polygon><Polygon><outerBoundaryIs><LinearRing><coordinates>61.0976564079915,44.9894260592739 61.1070887184747,44.9934684780524 61.1097836643271,44.9907735322001 61.1102213862645,44.9912112541375 61.1102213862645,44.9795903339671 61.1084361914009,44.9867311134215 61.1057412455486,44.9867311134215 61.1043937726224,44.982688694643 61.10169882677,44.9880785863477 61.0976564079915,44.9894260592739</coordinates></LinearRing></outerBoundaryIs></Polygon><Polygon><outerBoundaryIs><LinearRing><coordinates>61.1102213862645,44.9991808303164 61.1030462996962,45.0002058426833 61.1102213862645,45.0037933859675 61.1102213862645,44.9991808303164</coordinates></LinearRing></outerBoundaryIs></Polygon><Polygon><outerBoundaryIs><LinearRing><coordinates>61.1102213862645,45.0092004312291 61.1097836643271,45.0096381531666 61.0976564079915,45.0109856260927 61.1043937726224,45.0150280448713 61.1097836643271,45.0123330990189 61.1102213862645,45.0127708209564 61.1102213862645,45.0092004312291</coordinates></LinearRing></outerBoundaryIs></Polygon><Polygon><outerBoundaryIs><LinearRing><coordinates>61.1084361914009,45.0190704636498 61.1097836643271,45.020417936576 61.1102213862645,45.0201990756073 61.1102213862645,45.0155000739226 61.1084361914009,45.0190704636498</coordinates></LinearRing></outerBoundaryIs></Polygon><Polygon><outerBoundaryIs><LinearRing><coordinates>61.049147382649,45.0621895972876 61.0487728347988,45.0625641451378 61.0541627265035,45.0625641451378 61.0545372743538,45.0621895972876 61.0451049638705,45.058147178509 61.0406879972417,45.0625641451378 61.0468269846469,45.0625641451378 61.0464524367967,45.0621895972876 61.049147382649,45.0621895972876</coordinates></LinearRing></outerBoundaryIs></Polygon></MultiGeometry>
  </Placemark>
</Folder>
</Document></kml>
