<?xml version="1.0" encoding="utf-8" ?>
<kml xmlns="http://www.opengis.net/kml/2.2">
<Document id="root_doc">
<Schema name="task_grid_v6_46.28_60.08" id="task_grid_v6_46.28_60.08">
	<SimpleField name="area_ha" type="float"></SimpleField>
	<SimpleField name="low_risk_ha" type="float"></SimpleField>
	<SimpleField name="moderate_risk_ha" type="float"></SimpleField>
	<SimpleField name="grid_cell_deg" type="string"></SimpleField>
</Schema>
<Folder><name>task_grid_v6_46.28_60.08</name>
  <Placemark id="task_grid_v6_46.28_60.08.1">
	<name>task_grid_v6_46.28_60.08</name>
	<name>508.3</name>
	<description>508.3</description>
	<Style><LineStyle><color>ff0000ff</color></LineStyle><PolyStyle><fill>0</fill></PolyStyle></Style>
	<ExtendedData><SchemaData schemaUrl="#task_grid_v6_46.28_60.08">
		<SimpleData name="area_ha">0</SimpleData>
		<SimpleData name="low_risk_ha">0.1</SimpleData>
	</SchemaData></ExtendedData>
      <MultiGeometry><Polygon><outerBoundaryIs><LinearRing><coordinates>60.0830092945785,46.2412284076944 60.0897466592094,46.2398809347683 60.0803143487261,46.2358385159897 60.0762719299476,46.2425758806206 60.0708820382429,46.245270826473 60.0749244570214,46.2493132452515 60.0830092945785,46.2412284076944</coordinates></LinearRing></outerBoundaryIs></Polygon><Polygon><outerBoundaryIs><LinearRing><coordinates>60.0654921465382,46.2722202849966 60.0668396194643,46.2735677579227 60.0722295111691,46.2735677579227 60.0789668758,46.2641354474395 60.0762719299476,46.2614405015871 60.0762719299476,46.25335566403 60.0722295111691,46.2493132452515 60.0708820382429,46.2560506098824 60.0735769840952,46.2587455557348 60.0735769840952,46.2641354474395 60.0708820382429,46.2695253391442 60.0654921465382,46.2722202849966</coordinates></LinearRing></outerBoundaryIs></Polygon><Polygon><outerBoundaryIs><LinearRing><coordinates>60.0614497277596,46.2762627037751 60.0601022548334,46.2776101767013 60.0668396194643,46.2789576496275 60.0668396194643,46.2762627037751 60.0614497277596,46.2762627037751</coordinates></LinearRing></outerBoundaryIs></Polygon><Polygon><outerBoundaryIs><LinearRing><coordinates>60.0883991862832,46.2735677579227 60.0830092945785,46.2735677579227 60.0735769840952,46.283000068406 60.0857042404309,46.2843475413322 60.0924416050617,46.2776101767013 60.0883991862832,46.2735677579227</coordinates></LinearRing></outerBoundaryIs></Polygon><Polygon><outerBoundaryIs><LinearRing><coordinates>60.0506699443502,46.2897374330369 60.049322471424,46.2910849059631 60.0560598360549,46.2924323788892 60.0560598360549,46.2897374330369 60.0506699443502,46.2897374330369</coordinates></LinearRing></outerBoundaryIs></Polygon><Polygon><outerBoundaryIs><LinearRing><coordinates>60.1261284282162,46.305907108151 60.1220860094377,46.3099495269296 60.1234334823639,46.3112969998558 60.1263910613787,46.3103111401841 60.1263910613787,46.3066950076384 60.1261284282162,46.305907108151</coordinates></LinearRing></outerBoundaryIs></Polygon><Polygon><outerBoundaryIs><LinearRing><coordinates>60.0964840238403,46.3247717291175 60.0951365509141,46.3234242561914 60.0978314967665,46.320729310339 60.0937890779879,46.3193818374128 60.0883991862832,46.3247717291175 60.0803143487261,46.3274666749699 60.0789668758,46.3342040396008 60.0786654388506,46.3343547580755 60.0997728502453,46.3343547580755 60.1005264426188,46.3342040396008 60.0964840238403,46.3301616208223 60.0937890779879,46.3328565666746 60.0924416050617,46.3315090937484 60.0964840238403,46.3274666749699 60.1072638072497,46.3274666749699 60.1113062260283,46.3234242561914 60.1072638072497,46.3166868915605 60.1032213884712,46.3180343644866 60.1059163343235,46.320729310339 60.1045688613974,46.3220767832652 60.0991789696926,46.3247717291175 60.0964840238403,46.3247717291175</coordinates></LinearRing></outerBoundaryIs></Polygon></MultiGeometry>
  </Placemark>
</Folder>
</Document></kml>
