<?xml version="1.0" encoding="utf-8" ?>
<kml xmlns="http://www.opengis.net/kml/2.2">
<Document id="root_doc">
<Schema name="task_grid_v6_46.38_59.78" id="task_grid_v6_46.38_59.78">
	<SimpleField name="area_ha" type="float"></SimpleField>
	<SimpleField name="low_risk_ha" type="float"></SimpleField>
	<SimpleField name="moderate_risk_ha" type="float"></SimpleField>
	<SimpleField name="grid_cell_deg" type="string"></SimpleField>
</Schema>
<Folder><name>task_grid_v6_46.38_59.78</name>
  <Placemark id="task_grid_v6_46.38_59.78.1">
	<name>task_grid_v6_46.38_59.78</name>
	<name>90.09999999999999</name>
	<description>90.09999999999999</description>
	<Style><LineStyle><color>ff0000ff</color></LineStyle><PolyStyle><fill>0</fill></PolyStyle></Style>
	<ExtendedData><SchemaData schemaUrl="#task_grid_v6_46.38_59.78">
		<SimpleData name="area_ha">0</SimpleData>
		<SimpleData name="low_risk_ha">0.1</SimpleData>
	</SchemaData></ExtendedData>
      <MultiGeometry><Polygon><outerBoundaryIs><LinearRing><coordinates>59.7326663337719,46.3382464583793 59.7263910613787,46.3382464583793 59.7263910613787,46.3403709249232 59.7326663337719,46.3409414042317 59.7326663337719,46.3382464583793</coordinates></LinearRing></outerBoundaryIs></Polygon><Polygon><outerBoundaryIs><LinearRing><coordinates>59.7263910613787,46.3508358069527 59.7272764420672,46.3517211876411 59.7299713879195,46.3490262417888 59.7326663337719,46.3544161334935 59.7340138066981,46.3476787688626 59.740751171329,46.3463312959364 59.740751171329,46.3436363500841 59.7326663337719,46.3436363500841 59.7272764420672,46.3463312959364 59.7263910613787,46.3489874380018 59.7263910613787,46.3508358069527</coordinates></LinearRing></outerBoundaryIs></Polygon><Polygon><outerBoundaryIs><LinearRing><coordinates>59.7299713879195,46.3571110793458 59.7263910613787,46.3606914058867 59.7263910613787,46.3616155903621 59.7299713879195,46.3651959169029 59.7313188608457,46.3638484439767 59.7299713879195,46.3571110793458</coordinates></LinearRing></outerBoundaryIs></Polygon></MultiGeometry>
  </Placemark>
</Folder>
</Document></kml>
