<?xml version="1.0" encoding="utf-8" ?>
<kml xmlns="http://www.opengis.net/kml/2.2">
<Document id="root_doc">
<Schema name="task_grid_v6_45.38_59.08" id="task_grid_v6_45.38_59.08">
	<SimpleField name="area_ha" type="float"></SimpleField>
	<SimpleField name="low_risk_ha" type="float"></SimpleField>
	<SimpleField name="moderate_risk_ha" type="float"></SimpleField>
	<SimpleField name="grid_cell_deg" type="string"></SimpleField>
</Schema>
<Folder><name>task_grid_v6_45.38_59.08</name>
  <Placemark id="task_grid_v6_45.38_59.08.1">
	<name>task_grid_v6_45.38_59.08</name>
	<name>4466.6</name>
	<description>7257.5</description>
	<Style><LineStyle><color>ff0000ff</color></LineStyle><PolyStyle><fill>0</fill></PolyStyle></Style>
	<ExtendedData><SchemaData schemaUrl="#task_grid_v6_45.38_59.08">
		<SimpleData name="area_ha">2790.9</SimpleData>
		<SimpleData name="low_risk_ha">0.1</SimpleData>
	</SchemaData></ExtendedData>
      <MultiGeometry><Polygon><outerBoundaryIs><LinearRing><coordinates>59.0263910613787,45.3792446530902 59.0292854663063,45.373455843235 59.0319804121587,45.381540680792 59.0265905204539,45.3788457349397 59.0263910613787,45.3794441121654 59.0263910613787,45.3840361675692 59.0265905204539,45.3842356266444 59.0263910613787,45.3843780974124 59.0263910613787,45.4017527746847 59.0279379933801,45.4017527746847 59.0265905204539,45.4031002476109 59.0263910613787,45.4029007885357 59.0263910613787,45.4096544000334 59.0292854663063,45.4057951934633 59.034675358011,45.4057951934633 59.0360228309372,45.4152275039465 59.0279379933801,45.4152275039465 59.0306329392325,45.426007287356 59.0263910613787,45.426007287356 59.0263910613787,45.4343547580755 59.0438450353318,45.4343547580755 59.0441076684943,45.434092124913 59.0414127226419,45.4287022332083 59.049497560199,45.4233123415036 59.0468026143466,45.4206173956512 59.0521925060513,45.4179224497989 59.0521925060513,45.4125325580942 59.0401512586259,45.4028995601538 59.0414127226419,45.3999561441165 59.0414127226419,45.4017527746847 59.0427601955681,45.4031002476109 59.0481500872728,45.4004053017586 59.0548874519037,45.4071426663895 59.0521925060513,45.4098376122418 59.0562349248299,45.4192699227251 59.0616248165346,45.4138800310204 59.0629722894608,45.4152275039465 59.0521925060513,45.4233123415036 59.0589298706822,45.4246598144298 59.0616248165346,45.4219648685774 59.0616248165346,45.4273547602821 59.0468026143466,45.4313971790607 59.0521925060513,45.434092124913 59.0519298728889,45.4343547580755 59.0740147060327,45.4343547580755 59.0737520728702,45.434092124913 59.0791419645749,45.4313971790607 59.0764470187226,45.434092124913 59.0765345631101,45.4343547580755 59.087499237327,45.4343547580755 59.0881472005755,45.4343547580755 59.0926166938367,45.4343547580755 59.0932447521553,45.4343547580755 59.1263910613787,45.4343547580755 59.1263910613787,45.4024702833416 59.1263910613787,45.3977541280999 59.1263910613787,45.3464626125176 59.1263910613787,45.3464188403239 59.1263910613787,45.3343547580755 59.1223342091135,45.3343547580755 59.1222610982127,45.3343791283758 59.1236085711388,45.3397690200805 59.1214428663368,45.3343547580755 59.1201197637109,45.3343547580755 59.1168712065079,45.3397690200805 59.1168712065079,45.3478538576376 59.1155237335818,45.3492013305637 59.1128287877294,45.3465063847114 59.1060914230985,45.358633641047 59.0993540584676,45.3626760598255 59.0980065855414,45.3613285868994 59.1007015313938,45.358633641047 59.0953116396891,45.3532437493423 59.0966591126153,45.3518962764161 59.10204900432,45.3572861681208 59.1033964772462,45.3559386951946 59.1033964772462,45.3478538576376 59.1007015313938,45.3451589117852 59.1033964772462,45.3424639659329 59.1005090352615,45.3407315007421 59.1033964772462,45.3397690200805 59.101076079244,45.3343547580755 59.0979944003913,45.3343547580755 59.0973450342285,45.3343547580755 59.0952872693888,45.3343547580755 59.09330261545,45.3343547580755 59.092641064137,45.3343547580755 59.0747891523803,45.3343547580755 59.0679884165074,45.3379277937742 59.0710571270179,45.3397690200805 59.0670147082393,45.343811438859 59.0654908854649,45.3392399705357 59.0588656639617,45.3427207928152 59.0575823977561,45.3478538576376 59.0535399789775,45.3518962764161 59.0500186876758,45.3473689018854 59.0364201338813,45.3545134402216 59.0263910613787,45.3597826103154 59.0263910613787,45.3628755189008 59.0263910613787,45.3641875347304 59.0263910613787,45.3792446530902</coordinates></LinearRing></outerBoundaryIs><innerBoundaryIs><LinearRing><coordinates>59.0764470187226,45.4287022332083 59.0791419645749,45.426007287356 59.0791419645749,45.4313971790607 59.0764470187226,45.4287022332083</coordinates></LinearRing></innerBoundaryIs><innerBoundaryIs><LinearRing><coordinates>59.0616248165346,45.3518962764161 59.0629722894608,45.3532437493423 59.0624333002903,45.3559386951946 59.0616248165346,45.3518962764161</coordinates></LinearRing></innerBoundaryIs><innerBoundaryIs><LinearRing><coordinates>59.0831843833535,45.411185085168 59.0845318562796,45.4119935689237 59.0791419645749,45.4152275039465 59.0831843833535,45.411185085168</coordinates></LinearRing></innerBoundaryIs><innerBoundaryIs><LinearRing><coordinates>59.0858793292058,45.4233123415036 59.087226802132,45.4179224497989 59.0899217479844,45.4152275039465 59.0858793292058,45.4233123415036</coordinates></LinearRing></innerBoundaryIs><innerBoundaryIs><LinearRing><coordinates>59.0858793292058,45.4300497061345 59.0845318562796,45.4287022332083 59.0849168485443,45.4271622641498 59.0858793292058,45.4300497061345</coordinates></LinearRing></innerBoundaryIs><innerBoundaryIs><LinearRing><coordinates>59.0899217479844,45.4287022332083 59.089416445637,45.4298812720187 59.0885742750582,45.4273547602821 59.0899217479844,45.4287022332083</coordinates></LinearRing></innerBoundaryIs><innerBoundaryIs><LinearRing><coordinates>59.0899217479844,45.4233123415036 59.0926166938367,45.4206173956512 59.0953116396891,45.4233123415036 59.0942336613481,45.4254682981855 59.0899217479844,45.4233123415036</coordinates></LinearRing></innerBoundaryIs><innerBoundaryIs><LinearRing><coordinates>59.087226802132,45.4044477205371 59.0858793292058,45.4031002476109 59.0980065855414,45.4152275039465 59.0953116396891,45.4179224497989 59.087226802132,45.4044477205371</coordinates></LinearRing></innerBoundaryIs><innerBoundaryIs><LinearRing><coordinates>59.0777944916487,45.4084901393156 59.0750995457964,45.4057951934633 59.0750995457964,45.4057951934633 59.0777944916487,45.4031002476109 59.0777944916487,45.4084901393156</coordinates></LinearRing></innerBoundaryIs><innerBoundaryIs><LinearRing><coordinates>59.0697096540917,45.4084901393156 59.0656672353131,45.4044477205371 59.0711796245566,45.4077551540832 59.0697096540917,45.4084901393156</coordinates></LinearRing></innerBoundaryIs><innerBoundaryIs><LinearRing><coordinates>59.0818369104273,45.3882780454229 59.0806391567151,45.3864814148547 59.0813877527852,45.3842356266444 59.0831843833535,45.3869305724968 59.0845318562796,45.3855830995706 59.0791419645749,45.3936679371277 59.0818369104273,45.3882780454229</coordinates></LinearRing></innerBoundaryIs><innerBoundaryIs><LinearRing><coordinates>59.072404599944,45.3680659515303 59.072404599944,45.3670553468356 59.0818369104273,45.3694134244564 59.072404599944,45.3680659515303</coordinates></LinearRing></innerBoundaryIs><innerBoundaryIs><LinearRing><coordinates>59.072404599944,45.3653710056779 59.0750995457964,45.3644726903938 59.0750995457964,45.3653710056779 59.072404599944,45.366269320962 59.072404599944,45.3653710056779</coordinates></LinearRing></innerBoundaryIs><innerBoundaryIs><LinearRing><coordinates>59.0697096540917,45.3626760598255 59.0750995457964,45.3626760598255 59.0750995457964,45.3637540381665 59.0697096540917,45.3626760598255</coordinates></LinearRing></innerBoundaryIs><innerBoundaryIs><LinearRing><coordinates>59.0521925060513,45.3694134244564 59.0548874519037,45.3748033161612 59.049497560199,45.3774982620135 59.049497560199,45.3801932078659 59.0589298706822,45.3869305724968 59.0616248165346,45.3842356266444 59.0629722894608,45.3909729912753 59.0683621811655,45.39636288298 59.0670147082393,45.3977103559062 59.064319762387,45.3950154100538 59.0601276243944,45.4013036170427 59.0589298706822,45.3977103559062 59.0548874519037,45.3990578288324 59.0602773436084,45.39636288298 59.0575823977561,45.3936679371277 59.0602773436084,45.3909729912753 59.0414127226419,45.3774982620135 59.0454551414204,45.373455843235 59.0481500872728,45.3761507890873 59.049497560199,45.3748033161612 59.049497560199,45.3694134244564 59.0521925060513,45.3667184786041 59.0552243201352,45.369750292688 59.0521925060513,45.3694134244564</coordinates></LinearRing></innerBoundaryIs><innerBoundaryIs><LinearRing><coordinates>59.0427601955681,45.3707608973826 59.0414127226419,45.3694134244564 59.0435301800973,45.3651785095456 59.0450059837784,45.3673922150672 59.0427601955681,45.3707608973826</coordinates></LinearRing></innerBoundaryIs><innerBoundaryIs><LinearRing><coordinates>59.0360228309372,45.3640235327517 59.034675358011,45.364216028884 59.034675358011,45.3626760598255 59.0360228309372,45.3640235327517</coordinates></LinearRing></innerBoundaryIs><innerBoundaryIs><LinearRing><coordinates>59.0265905204539,45.3653710056779 59.0265905204539,45.364216028884 59.0306329392325,45.364793517281 59.0265905204539,45.3653710056779</coordinates></LinearRing></innerBoundaryIs><innerBoundaryIs><LinearRing><coordinates>59.0764470187226,45.3801932078659 59.0777944916487,45.3788457349397 59.0770458955786,45.38109152315 59.0764470187226,45.3801932078659</coordinates></LinearRing></innerBoundaryIs><innerBoundaryIs><LinearRing><coordinates>59.0737520728702,45.3828881537182 59.0737520728702,45.3882780454229 59.072404599944,45.381540680792 59.0737520728702,45.3828881537182</coordinates></LinearRing></innerBoundaryIs><innerBoundaryIs><LinearRing><coordinates>59.0360228309372,45.3936679371277 59.0398894923775,45.4026901471551 59.0387177767895,45.4017527746847 59.0360228309372,45.3936679371277</coordinates></LinearRing></innerBoundaryIs><innerBoundaryIs><LinearRing><coordinates>59.072404599944,45.4138800310204 59.0737520728702,45.4152275039465 59.0697096540917,45.4192699227251 59.0683621811655,45.4152275039465 59.072404599944,45.4138800310204</coordinates></LinearRing></innerBoundaryIs><innerBoundaryIs><LinearRing><coordinates>59.0481500872728,45.3869305724968 59.049497560199,45.3909729912753 59.0481500872728,45.3923204642015 59.0468026143466,45.3882780454229 59.0481500872728,45.3869305724968</coordinates></LinearRing></innerBoundaryIs><innerBoundaryIs><LinearRing><coordinates>59.0616248165346,45.4084901393156 59.0629722894608,45.4098376122418 59.0616248165346,45.411185085168 59.0616248165346,45.4084901393156</coordinates></LinearRing></innerBoundaryIs><innerBoundaryIs><LinearRing><coordinates>59.0548874519037,45.3801932078659 59.0562349248299,45.3788457349397 59.0575823977561,45.3801932078659 59.0548874519037,45.3801932078659</coordinates></LinearRing></innerBoundaryIs><innerBoundaryIs><LinearRing><coordinates>59.0427601955681,45.4138800310204 59.0441076684943,45.4152275039465 59.0441076684943,45.4206173956512 59.0414127226419,45.4206173956512 59.0427601955681,45.4138800310204</coordinates></LinearRing></innerBoundaryIs><innerBoundaryIs><LinearRing><coordinates>59.0360228309372,45.4233123415036 59.034675358011,45.4246598144298 59.0333278850848,45.4233123415036 59.0360228309372,45.4233123415036</coordinates></LinearRing></innerBoundaryIs><innerBoundaryIs><LinearRing><coordinates>59.087226802132,45.3370740742281 59.0885742750582,45.335726601302 59.0908200632685,45.3379723895123 59.0899217479844,45.3397690200805 59.087226802132,45.3370740742281</coordinates></LinearRing></innerBoundaryIs><innerBoundaryIs><LinearRing><coordinates>59.0912692209105,45.343811438859 59.0885742750582,45.3465063847114 59.087226802132,45.3451589117852 59.0899217479844,45.3397690200805 59.0912692209105,45.343811438859</coordinates></LinearRing></innerBoundaryIs><innerBoundaryIs><LinearRing><coordinates>59.0926166938367,45.3424639659329 59.0953116396891,45.3451589117852 59.0939641667629,45.3465063847114 59.0912692209105,45.343811438859 59.0926166938367,45.3424639659329</coordinates></LinearRing></innerBoundaryIs><innerBoundaryIs><LinearRing><coordinates>59.124956044065,45.4017527746847 59.124956044065,45.3990578288324 59.1263035169912,45.3977103559062 59.124956044065,45.4017527746847</coordinates></LinearRing></innerBoundaryIs><innerBoundaryIs><LinearRing><coordinates>59.0891132642287,45.3669879731893 59.0885742750582,45.3680659515303 59.087226802132,45.3676167938882 59.0891132642287,45.3669879731893</coordinates></LinearRing></innerBoundaryIs><innerBoundaryIs><LinearRing><coordinates>59.1007015313938,45.4017527746847 59.10204900432,45.4004053017586 59.1087863689509,45.4044477205371 59.1047439501723,45.4057951934633 59.1007015313938,45.4017527746847</coordinates></LinearRing></innerBoundaryIs><innerBoundaryIs><LinearRing><coordinates>59.0966591126153,45.4031002476109 59.0953116396891,45.3990578288324 59.0966591126153,45.3977103559062 59.0980065855414,45.4017527746847 59.0966591126153,45.4031002476109</coordinates></LinearRing></innerBoundaryIs><innerBoundaryIs><LinearRing><coordinates>59.1007015313938,45.4233123415036 59.0993540584676,45.4246598144298 59.0980065855414,45.4233123415036 59.1007015313938,45.4233123415036</coordinates></LinearRing></innerBoundaryIs><innerBoundaryIs><LinearRing><coordinates>59.1007015313938,45.4098376122418 59.10204900432,45.4084901393156 59.1033964772462,45.4098376122418 59.1007015313938,45.4098376122418</coordinates></LinearRing></innerBoundaryIs><innerBoundaryIs><LinearRing><coordinates>59.0899217479844,45.3801932078659 59.0885742750582,45.381540680792 59.087226802132,45.3801932078659 59.0899217479844,45.3801932078659</coordinates></LinearRing></innerBoundaryIs><innerBoundaryIs><LinearRing><coordinates>59.0858793292058,45.3572861681208 59.0845318562796,45.3559386951946 59.0858793292058,45.3545912222685 59.0858793292058,45.3572861681208</coordinates></LinearRing></innerBoundaryIs><innerBoundaryIs><LinearRing><coordinates>59.0899217479844,45.3532437493423 59.0912692209105,45.3518962764161 59.0926166938367,45.3532437493423 59.0899217479844,45.3532437493423</coordinates></LinearRing></innerBoundaryIs><innerBoundaryIs><LinearRing><coordinates>59.0777944916487,45.3411164930067 59.0791419645749,45.3424639659329 59.0777944916487,45.343811438859 59.0777944916487,45.3411164930067</coordinates></LinearRing></innerBoundaryIs></Polygon><Polygon><outerBoundaryIs><LinearRing><coordinates>59.1033721069459,45.3343547580755 59.1033964772462,45.3343791283758 59.1047439501723,45.3411164930067 59.1087863689509,45.3343791283758 59.1087619986506,45.3343547580755 59.1033721069459,45.3343547580755</coordinates></LinearRing></outerBoundaryIs></Polygon></MultiGeometry>
  </Placemark>
</Folder>
</Document></kml>
