<?xml version="1.0" encoding="utf-8" ?>
<kml xmlns="http://www.opengis.net/kml/2.2">
<Document id="root_doc">
<Schema name="task_grid_v6_45.48_58.98" id="task_grid_v6_45.48_58.98">
	<SimpleField name="area_ha" type="float"></SimpleField>
	<SimpleField name="low_risk_ha" type="float"></SimpleField>
	<SimpleField name="moderate_risk_ha" type="float"></SimpleField>
	<SimpleField name="grid_cell_deg" type="string"></SimpleField>
</Schema>
<Folder><name>task_grid_v6_45.48_58.98</name>
  <Placemark id="task_grid_v6_45.48_58.98.1">
	<name>task_grid_v6_45.48_58.98</name>
	<name>0</name>
	<description>2708.4</description>
	<Style><LineStyle><color>ff0000ff</color></LineStyle><PolyStyle><fill>0</fill></PolyStyle></Style>
	<ExtendedData><SchemaData schemaUrl="#task_grid_v6_45.48_58.98">
		<SimpleData name="area_ha">2708.4</SimpleData>
		<SimpleData name="low_risk_ha">0.1</SimpleData>
	</SchemaData></ExtendedData>
      <MultiGeometry><Polygon><outerBoundaryIs><LinearRing><coordinates>58.9875138055947,45.4475668541748 58.9875138055947,45.4502618000272 58.98212391389,45.4529567458796 58.9875138055947,45.4556516917319 58.9875138055947,45.4610415834366 58.9915562243733,45.4650840022152 58.9982935890042,45.4610415834366 58.9929036972995,45.4502618000272 58.9982935890042,45.4475668541748 58.9996410619303,45.4408294895439 59.0023360077827,45.4435244353963 59.0063784265612,45.4421769624701 59.0072475603829,45.4343547580755 59.0030919649059,45.4343547580755 59.0023360077827,45.4381345436916 58.9888612785209,45.4381345436916 58.9794289680377,45.4448719083225 58.9875138055947,45.4475668541748</coordinates></LinearRing></outerBoundaryIs></Polygon><Polygon><outerBoundaryIs><LinearRing><coordinates>58.9349623614737,45.4381345436916 58.9336148885476,45.4367870707654 58.9360472012375,45.4343547580755 58.9284876300053,45.4343547580755 58.9309199426952,45.4367870707654 58.9309199426952,45.4421769624701 58.9268775239167,45.4516092729534 58.9263910613787,45.4516092729534 58.9263910613787,45.4952899071755 58.9376573073261,45.5001182982958 58.9403522531785,45.4974233524435 58.9416997261046,45.4987708253696 58.9390047802523,45.501465771222 58.9416997261046,45.5041607170744 58.9363098343999,45.5068556629267 58.9430471990308,45.5135930275576 58.9457421448832,45.5082031358529 58.9484370907355,45.51628797341 58.9497845636617,45.5095506087791 58.9578694012188,45.5041607170744 58.9551744553664,45.501465771222 58.9605643470711,45.4987708253696 58.959216874145,45.4947284065911 58.9565219282926,45.4974233524435 58.9551744553664,45.4960758795173 58.9578694012188,45.4933809336649 58.9524795095141,45.4879910419602 58.9565219282926,45.4839486231817 58.9619118199973,45.4839486231817 58.9646067658497,45.478558731477 58.9686491846282,45.4772112585508 58.9605643470711,45.4691264209937 58.9659542387759,45.4583466375843 58.9659542387759,45.4421769624701 58.9607394358461,45.4343547580755 58.9468269846469,45.4343547580755 58.9416997261046,45.4394820166178 58.944394671957,45.4421769624701 58.9430471990308,45.4435244353963 58.9376573073261,45.4354395978392 58.9349623614737,45.4381345436916</coordinates></LinearRing></outerBoundaryIs><innerBoundaryIs><LinearRing><coordinates>58.9403522531785,45.4543042188057 58.944394671957,45.4529567458796 58.9457421448832,45.448914327101 58.9538269824403,45.4543042188057 58.9565219282926,45.4516092729534 58.9578694012188,45.4529567458796 58.9524795095141,45.4610415834366 58.9551744553664,45.463736529289 58.9538269824403,45.4677789480675 58.9484370907355,45.4596941105104 58.9430471990308,45.4596941105104 58.9403522531785,45.4569991646581 58.9376573073261,45.4596941105104 58.9336148885476,45.4556516917319 58.9363098343999,45.4529567458796 58.9309199426952,45.4475668541748 58.9322674156214,45.4462193812487 58.9416997261046,45.4475668541748 58.9390047802523,45.4529567458796 58.9403522531785,45.4543042188057</coordinates></LinearRing></innerBoundaryIs><innerBoundaryIs><LinearRing><coordinates>58.9497845636617,45.4421769624701 58.9524795095141,45.4367870707654 58.9565219282926,45.4354395978392 58.9578694012188,45.4367870707654 58.9538269824403,45.4435244353963 58.9497845636617,45.4421769624701</coordinates></LinearRing></innerBoundaryIs><innerBoundaryIs><LinearRing><coordinates>58.9390047802523,45.4933809336649 58.9430471990308,45.486643569034 58.944394671957,45.4906859878126 58.9403522531785,45.4947284065911 58.9390047802523,45.4933809336649</coordinates></LinearRing></innerBoundaryIs><innerBoundaryIs><LinearRing><coordinates>58.9268775239167,45.486643569034 58.9282249968428,45.4879910419602 58.9268775239167,45.4893385148864 58.9268775239167,45.486643569034</coordinates></LinearRing></innerBoundaryIs><innerBoundaryIs><LinearRing><coordinates>58.9336148885476,45.4879910419602 58.9322674156214,45.4893385148864 58.9309199426952,45.4879910419602 58.9336148885476,45.4879910419602</coordinates></LinearRing></innerBoundaryIs><innerBoundaryIs><LinearRing><coordinates>58.9322674156214,45.4839486231817 58.9309199426952,45.4826011502555 58.9322674156214,45.4812536773293 58.9322674156214,45.4839486231817</coordinates></LinearRing></innerBoundaryIs><innerBoundaryIs><LinearRing><coordinates>58.9470896178094,45.4826011502555 58.9484370907355,45.4812536773293 58.9497845636617,45.4826011502555 58.9470896178094,45.4826011502555</coordinates></LinearRing></innerBoundaryIs><innerBoundaryIs><LinearRing><coordinates>58.9322674156214,45.4650840022152 58.9336148885476,45.4664314751413 58.9322674156214,45.4677789480675 58.9322674156214,45.4650840022152</coordinates></LinearRing></innerBoundaryIs></Polygon><Polygon><outerBoundaryIs><LinearRing><coordinates>58.996946116078,45.4974233524435 58.9982935890042,45.4933809336649 58.9942511702256,45.4893385148864 58.9929036972995,45.4933809336649 58.996946116078,45.4974233524435</coordinates></LinearRing></outerBoundaryIs></Polygon><Polygon><outerBoundaryIs><LinearRing><coordinates>58.9875138055947,45.4960758795173 58.9888612785209,45.5001182982958 58.9929036972995,45.4987708253696 58.9915562243733,45.4947284065911 58.9875138055947,45.4960758795173</coordinates></LinearRing></outerBoundaryIs></Polygon><Polygon><outerBoundaryIs><LinearRing><coordinates>58.9861663326686,45.5189829192623 58.9929036972995,45.5149405004838 58.9888612785209,45.5108980817053 58.9848188597424,45.5149405004838 58.9861663326686,45.5189829192623</coordinates></LinearRing></outerBoundaryIs></Polygon><Polygon><outerBoundaryIs><LinearRing><coordinates>58.9902087514471,45.5284152297456 58.9888612785209,45.5243728109671 58.9861663326686,45.5243728109671 58.9848188597424,45.5284152297456 58.9888612785209,45.5324576485241 58.9942511702256,45.5324576485241 58.9955986431518,45.531110175598 58.9902087514471,45.5284152297456</coordinates></LinearRing></outerBoundaryIs></Polygon><Polygon><outerBoundaryIs><LinearRing><coordinates>58.9336148885476,45.5284152297456 58.929572469769,45.5270677568194 58.9263910613787,45.5302491652098 58.9263910613787,45.5343547580755 58.9276753602176,45.5343547580755 58.9336148885476,45.5284152297456</coordinates></LinearRing></outerBoundaryIs></Polygon><Polygon><outerBoundaryIs><LinearRing><coordinates>59.0131157911921,45.448914327101 59.0185056828969,45.4516092729534 59.019853155823,45.4448719083225 59.0238955746016,45.4435244353963 59.0263910613787,45.4485154089505 59.0263910613787,45.4402311123182 59.0252430475278,45.4367870707654 59.0263910613787,45.4367870707654 59.0263910613787,45.4343547580755 59.0147258972808,45.4343547580755 59.019853155823,45.4394820166178 59.0158107370445,45.4462193812487 59.0063784265612,45.4475668541748 59.0077258994874,45.4543042188057 59.0131157911921,45.448914327101</coordinates></LinearRing></outerBoundaryIs></Polygon><Polygon><outerBoundaryIs><LinearRing><coordinates>59.0263910613787,45.4621098136575 59.0263910613787,45.4513222694906 59.019853155823,45.4529567458796 59.0263910613787,45.4621098136575</coordinates></LinearRing></outerBoundaryIs></Polygon><Polygon><outerBoundaryIs><LinearRing><coordinates>59.0158107370445,45.4596941105104 59.019853155823,45.4583466375843 59.0185056828969,45.4543042188057 59.0144632641183,45.4583466375843 59.0158107370445,45.4596941105104</coordinates></LinearRing></outerBoundaryIs></Polygon><Polygon><outerBoundaryIs><LinearRing><coordinates>59.0212006287492,45.4704738939199 59.0225481016754,45.4691264209937 59.0185056828969,45.4623890563628 59.0077258994874,45.4650840022152 58.9982935890042,45.4718213668461 59.0023360077827,45.4758637856246 59.0077258994874,45.4758637856246 59.0158107370445,45.4704738939199 59.0212006287492,45.4704738939199</coordinates></LinearRing></outerBoundaryIs></Polygon><Polygon><outerBoundaryIs><LinearRing><coordinates>59.0185056828969,45.4893385148864 59.0212006287492,45.486643569034 59.0238955746016,45.4893385148864 59.0263910613787,45.4868430281093 59.0263910613787,45.4721375517713 59.0238955746016,45.4704738939199 59.0225481016754,45.4745163126984 59.0252430475278,45.4772112585508 59.0144632641183,45.4852960961079 59.0185056828969,45.4893385148864</coordinates></LinearRing></outerBoundaryIs></Polygon><Polygon><outerBoundaryIs><LinearRing><coordinates>58.996946116078,45.5028132441482 59.0009885348565,45.501465771222 58.9996410619303,45.4974233524435 58.9955986431518,45.501465771222 58.996946116078,45.5028132441482</coordinates></LinearRing></outerBoundaryIs></Polygon></MultiGeometry>
  </Placemark>
</Folder>
</Document></kml>
