<?xml version="1.0" encoding="utf-8" ?>
<kml xmlns="http://www.opengis.net/kml/2.2">
<Document id="root_doc">
<Schema name="task_grid_v6_46.01_59.86" id="task_grid_v6_46.01_59.86">
	<SimpleField name="area_ha" type="float"></SimpleField>
	<SimpleField name="low_risk_ha" type="float"></SimpleField>
	<SimpleField name="moderate_risk_ha" type="float"></SimpleField>
	<SimpleField name="grid_cell_deg" type="string"></SimpleField>
</Schema>
<Folder><name>task_grid_v6_46.01_59.86</name>
  <Placemark id="task_grid_v6_46.01_59.86.1">
	<name>task_grid_v6_46.01_59.86</name>
	<name>1498</name>
	<description>3901.3</description>
	<Style><LineStyle><color>ff0000ff</color></LineStyle><PolyStyle><fill>0</fill></PolyStyle></Style>
	<ExtendedData><SchemaData schemaUrl="#task_grid_v6_46.01_59.86">
		<SimpleData name="area_ha">2403.3</SimpleData>
		<SimpleData name="low_risk_ha">0.1</SimpleData>
	</SchemaData></ExtendedData>
      <MultiGeometry><Polygon><outerBoundaryIs><LinearRing><coordinates>59.8189046010474,45.9717338224586 59.8215995468997,45.9690388766062 59.8242944927521,45.9717338224586 59.8269894386044,45.9663439307539 59.8296843844568,45.9690388766062 59.8323793303091,45.9663439307539 59.8337268032353,45.96769140368 59.8323793303091,45.9717338224586 59.8256419656783,45.9730812953848 59.8215995468997,45.982513605868 59.8189046010474,45.9771237141633 59.8148621822688,45.9838610787942 59.8175571281212,45.9919459163513 59.8215995468997,45.9959883351298 59.8296843844568,45.9959883351298 59.8418116407924,45.9865560246465 59.83911669494,45.9811661329418 59.8418116407924,45.9784711870895 59.83911669494,45.9757762412371 59.8404641678662,45.9744287683109 59.8458540595709,45.9798186600157 59.8512439512757,45.9771237141633 59.8566338429804,45.9852085517204 59.8593287888327,45.982513605868 59.8620237346851,45.9852085517204 59.8633712076113,45.9838610787942 59.8606762617589,45.9757762412371 59.8593287888327,45.9744287683109 59.8566338429804,45.9771237141633 59.8525914242018,45.9730812953848 59.8566338429804,45.9717338224586 59.8606762617589,45.9649964578277 59.859460105414,45.9625641451378 59.8469388993347,45.9625641451378 59.8458540595709,45.9636489849015 59.8447692198072,45.9625641451378 59.8415490076299,45.9625641451378 59.8404641678662,45.9636489849015 59.8404641678662,45.9625641451378 59.8102213862645,45.9625641451378 59.8102213862645,45.9741295796981 59.816209655195,45.9771237141633 59.8175571281212,45.9757762412371 59.8121672364165,45.9703863495324 59.8135147093426,45.9690388766062 59.8189046010474,45.9717338224586</coordinates></LinearRing></outerBoundaryIs><innerBoundaryIs><LinearRing><coordinates>59.8242944927521,45.9879034975727 59.8283369115306,45.9865560246465 59.8296843844568,45.9798186600157 59.831031857383,45.9865560246465 59.8242944927521,45.9905984434251 59.8242944927521,45.9879034975727</coordinates></LinearRing></innerBoundaryIs><innerBoundaryIs><LinearRing><coordinates>59.8350742761615,45.9744287683109 59.8364217490877,45.9757762412371 59.8364217490877,45.9784711870895 59.8337268032353,45.9784711870895 59.8350742761615,45.9744287683109</coordinates></LinearRing></innerBoundaryIs><innerBoundaryIs><LinearRing><coordinates>59.8377692220139,45.9690388766062 59.8364217490877,45.96769140368 59.8377692220139,45.9663439307539 59.8377692220139,45.9690388766062</coordinates></LinearRing></innerBoundaryIs><innerBoundaryIs><LinearRing><coordinates>59.8472015324971,45.96769140368 59.8485490054233,45.9663439307539 59.8498964783495,45.96769140368 59.8472015324971,45.96769140368</coordinates></LinearRing></innerBoundaryIs></Polygon><Polygon><outerBoundaryIs><LinearRing><coordinates>59.8485490054233,45.982513605868 59.8525914242018,45.9811661329418 59.8512439512757,45.9771237141633 59.8472015324971,45.9811661329418 59.8485490054233,45.982513605868</coordinates></LinearRing></outerBoundaryIs></Polygon><Polygon><outerBoundaryIs><LinearRing><coordinates>59.8431591137186,45.9905984434251 59.8472015324971,45.9892509704989 59.8458540595709,45.982513605868 59.8418116407924,45.9892509704989 59.8431591137186,45.9905984434251</coordinates></LinearRing></outerBoundaryIs></Polygon><Polygon><outerBoundaryIs><LinearRing><coordinates>59.8102213862645,46.0625641451378 59.8504461149747,46.0625641451378 59.8498964783495,46.0620145085126 59.853938897128,46.0606670355864 59.8552863700542,46.0620145085126 59.8536374601786,46.0625641451378 59.8738761727081,46.0625641451378 59.8741509910207,46.0620145085126 59.8606762617589,46.0566246168079 59.8714560451683,46.0539296709555 59.8633712076113,46.0512347251031 59.8701085722422,46.0525821980293 59.8781934097992,46.0579720897341 59.8943630849134,46.0606670355864 59.8957105578396,46.0593195626602 59.891668139061,46.0552771438817 59.8795408827254,46.0539296709555 59.8862782473563,46.0525821980293 59.8903206661349,46.0485397792508 59.8808883556516,46.0418024146199 59.8751134716823,46.0429573914138 59.8728035180945,46.0418024146199 59.8485490054233,46.0418024146199 59.8741509910207,46.0404549416937 59.8647186805375,46.0337175770628 59.8593287888327,46.0364125229152 59.853938897128,46.0310226312105 59.853938897128,46.0355142076311 59.8512439512757,46.0310226312105 59.853938897128,46.0256327395057 59.8593287888327,46.0256327395057 59.8633712076113,46.0215903207272 59.8579813159065,46.0188953748749 59.8566338429804,46.0148529560963 59.8242944927521,46.012158010244 59.8215995468997,46.0067681185392 59.8189046010474,46.0094630643916 59.8102213862645,46.0057416866275 59.8102213862645,46.023437190787 59.8135147093426,46.0256327395057 59.8102213862645,46.0239860779667 59.8102213862645,46.0625641451378</coordinates></LinearRing></outerBoundaryIs><innerBoundaryIs><LinearRing><coordinates>59.8148621822688,46.0215903207272 59.8202520739735,46.0188953748749 59.8175571281212,46.0162004290225 59.8189046010474,46.0148529560963 59.8269894386044,46.020242847801 59.8287044041468,46.0168129167162 59.8323793303091,46.0229377936534 59.8411379043293,46.0191841190733 59.8445065866448,46.0215903207272 59.8445065866448,46.0269802124319 59.8426201245481,46.0288666745286 59.8404641678662,46.0283276853581 59.8323793303091,46.0283276853581 59.8242944927521,46.0283276853581 59.816209655195,46.0229377936534 59.8135147093426,46.0256327395057 59.8148621822688,46.0215903207272</coordinates></LinearRing></innerBoundaryIs><innerBoundaryIs><LinearRing><coordinates>59.8350742761615,46.0148529560963 59.8290855076007,46.0160507098085 59.8296843844568,46.0148529560963 59.8350742761615,46.0148529560963</coordinates></LinearRing></innerBoundaryIs><innerBoundaryIs><LinearRing><coordinates>59.8148621822688,46.0108105373178 59.8135147093426,46.012158010244 59.8121672364165,46.0108105373178 59.8148621822688,46.0108105373178</coordinates></LinearRing></innerBoundaryIs><innerBoundaryIs><LinearRing><coordinates>59.8431591137186,46.0391074687675 59.853938897128,46.0379097150554 59.853938897128,46.0391074687675 59.8431591137186,46.0391074687675</coordinates></LinearRing></innerBoundaryIs><innerBoundaryIs><LinearRing><coordinates>59.8148621822688,46.0485397792508 59.816209655195,46.0444973604723 59.8189046010474,46.049887252177 59.8269894386044,46.049887252177 59.8296843844568,46.0471923063246 59.831031857383,46.0539296709555 59.8242944927521,46.0552771438817 59.8148621822688,46.0485397792508</coordinates></LinearRing></innerBoundaryIs><innerBoundaryIs><LinearRing><coordinates>59.8566338429804,46.0525821980293 59.8566338429804,46.0552771438817 59.853938897128,46.0552771438817 59.8525914242018,46.0539296709555 59.8566338429804,46.0525821980293</coordinates></LinearRing></innerBoundaryIs><innerBoundaryIs><LinearRing><coordinates>59.8458540595709,46.0579720897341 59.8472015324971,46.0593195626602 59.8445065866448,46.0593195626602 59.8458540595709,46.0579720897341</coordinates></LinearRing></innerBoundaryIs><innerBoundaryIs><LinearRing><coordinates>59.8148621822688,46.0377599958414 59.8135147093426,46.0391074687675 59.8135147093426,46.0364125229152 59.8148621822688,46.0377599958414</coordinates></LinearRing></innerBoundaryIs><innerBoundaryIs><LinearRing><coordinates>59.8215995468997,46.0391074687675 59.8202520739735,46.0377599958414 59.8229470198259,46.0377599958414 59.8215995468997,46.0391074687675</coordinates></LinearRing></innerBoundaryIs></Polygon><Polygon><outerBoundaryIs><LinearRing><coordinates>59.8404641678662,46.0256327395057 59.8418116407924,46.0242852665796 59.8404641678662,46.020242847801 59.8364217490877,46.0215903207272 59.8404641678662,46.0256327395057</coordinates></LinearRing></outerBoundaryIs></Polygon><Polygon><outerBoundaryIs><LinearRing><coordinates>59.8229470198259,46.0269802124319 59.8323793303091,46.0283276853581 59.8323793303091,46.0256327395057 59.8242944927521,46.0256327395057 59.8229470198259,46.0269802124319</coordinates></LinearRing></outerBoundaryIs></Polygon><Polygon><outerBoundaryIs><LinearRing><coordinates>59.9024479224705,45.9663439307539 59.9011004495443,45.9703863495324 59.9037953953966,45.9757762412371 59.9102213862645,45.9785302373234 59.9102213862645,45.9690388766062 59.9051428683228,45.9690388766062 59.9024479224705,45.9663439307539</coordinates></LinearRing></outerBoundaryIs></Polygon><Polygon><outerBoundaryIs><LinearRing><coordinates>59.8606762617589,45.9730812953848 59.8674136263898,45.9798186600157 59.8701085722422,45.9798186600157 59.8714560451683,45.9784711870895 59.868761099316,45.9730812953848 59.8781934097992,45.9690388766062 59.8795408827254,45.9730812953848 59.8741509910207,45.9730812953848 59.8741509910207,45.9784711870895 59.8781934097992,45.982513605868 59.883583301504,45.9798186600157 59.8862782473563,45.982513605868 59.891668139061,45.982513605868 59.8957105578396,45.9919459163513 59.9102213862645,46.0042243096339 59.9102213862645,46.0008592705628 59.906490341249,45.9946408622036 59.9078378141752,45.9905984434251 59.9102213862645,45.9913929674549 59.9102213862645,45.9877997063184 59.9024479224705,45.9852085517204 59.9024479224705,45.9932933892774 59.8957105578396,45.9838610787942 59.8984055036919,45.9784711870895 59.8943630849134,45.9744287683109 59.891668139061,45.9771237141633 59.8889731932087,45.9717338224586 59.883583301504,45.9744287683109 59.8822358285778,45.9730812953848 59.8862782473563,45.9663439307539 59.8943630849134,45.9717338224586 59.8957105578396,45.9649964578277 59.8932782451497,45.9625641451378 59.8692863656409,45.9625641451378 59.8741509910207,45.9649964578277 59.8701085722422,45.9690388766062 59.8647186805375,45.9636489849015 59.8606762617589,45.96769140368 59.8606762617589,45.9730812953848</coordinates></LinearRing></outerBoundaryIs></Polygon><Polygon><outerBoundaryIs><LinearRing><coordinates>59.9102213862645,45.9956769613668 59.9102213862645,45.9936047630405 59.9091852871014,45.9946408622036 59.9102213862645,45.9956769613668</coordinates></LinearRing></outerBoundaryIs></Polygon><Polygon><outerBoundaryIs><LinearRing><coordinates>59.8579813159065,45.997335808056 59.8674136263898,45.9986832809822 59.8714560451683,45.9946408622036 59.8593287888327,45.9932933892774 59.8579813159065,45.997335808056</coordinates></LinearRing></outerBoundaryIs></Polygon><Polygon><outerBoundaryIs><LinearRing><coordinates>59.9102213862645,46.0174144560502 59.9102213862645,46.0134356845405 59.9078378141752,46.0094630643916 59.9011004495443,46.0135054831701 59.9102213862645,46.0174144560502</coordinates></LinearRing></outerBoundaryIs></Polygon><Polygon><outerBoundaryIs><LinearRing><coordinates>59.9091852871014,46.0512347251031 59.9024479224705,46.049887252177 59.8997529766181,46.0471923063246 59.8997529766181,46.0525821980293 59.9091852871014,46.0512347251031</coordinates></LinearRing></outerBoundaryIs></Polygon><Polygon><outerBoundaryIs><LinearRing><coordinates>59.8741509910207,46.0620145085126 59.8768991741466,46.0625641451378 59.8808883556516,46.0625641451378 59.8808883556516,46.0606670355864 59.8754984639469,46.0606670355864 59.8741509910207,46.0620145085126</coordinates></LinearRing></outerBoundaryIs></Polygon><Polygon><outerBoundaryIs><LinearRing><coordinates>59.9014846197189,46.0625641451378 59.8970580307657,46.0606670355864 59.893263811663,46.0625641451378 59.9014846197189,46.0625641451378</coordinates></LinearRing></outerBoundaryIs></Polygon></MultiGeometry>
  </Placemark>
</Folder>
</Document></kml>
