<?xml version="1.0" encoding="utf-8" ?>
<kml xmlns="http://www.opengis.net/kml/2.2">
<Document id="root_doc">
<Schema name="task_grid_v6_45.91_59.76" id="task_grid_v6_45.91_59.76">
	<SimpleField name="area_ha" type="float"></SimpleField>
	<SimpleField name="low_risk_ha" type="float"></SimpleField>
	<SimpleField name="moderate_risk_ha" type="float"></SimpleField>
	<SimpleField name="grid_cell_deg" type="string"></SimpleField>
</Schema>
<Folder><name>task_grid_v6_45.91_59.76</name>
  <Placemark id="task_grid_v6_45.91_59.76.1">
	<name>task_grid_v6_45.91_59.76</name>
	<name>0</name>
	<description>908.2</description>
	<Style><LineStyle><color>ff0000ff</color></LineStyle><PolyStyle><fill>0</fill></PolyStyle></Style>
	<ExtendedData><SchemaData schemaUrl="#task_grid_v6_45.91_59.76">
		<SimpleData name="area_ha">908.2</SimpleData>
		<SimpleData name="low_risk_ha">0.1</SimpleData>
	</SchemaData></ExtendedData>
      <MultiGeometry><Polygon><outerBoundaryIs><LinearRing><coordinates>59.7609632652216,45.9003177573711 59.7623107381478,45.907055122002 59.7663531569264,45.9030127032234 59.7650056840002,45.8989702844449 59.7609632652216,45.9003177573711</coordinates></LinearRing></outerBoundaryIs></Polygon><Polygon><outerBoundaryIs><LinearRing><coordinates>59.7515309547384,45.9043601761496 59.748836008886,45.907055122002 59.7447935901075,45.9084025949281 59.7542259005907,45.9097500678543 59.7555733735169,45.9084025949281 59.7515309547384,45.9043601761496</coordinates></LinearRing></outerBoundaryIs></Polygon><Polygon><outerBoundaryIs><LinearRing><coordinates>59.7623107381478,45.9313096346732 59.7623107381478,45.9259197429685 59.7542259005907,45.9259197429685 59.7528784276646,45.929962161747 59.7542259005907,45.9313096346732 59.7569208464431,45.9286146888208 59.7623107381478,45.9313096346732</coordinates></LinearRing></outerBoundaryIs></Polygon><Polygon><outerBoundaryIs><LinearRing><coordinates>59.7102213862645,45.9351651007176 59.7138017128054,45.9366995263779 59.7151491857315,45.9353520534517 59.711106766953,45.9313096346732 59.7102213862645,45.9313096346732 59.7102213862645,45.9351651007176</coordinates></LinearRing></outerBoundaryIs></Polygon><Polygon><outerBoundaryIs><LinearRing><coordinates>59.7340138066981,45.9434368910088 59.7313188608457,45.9407419451565 59.7340138066981,45.9380469993041 59.7299713879195,45.9340045805256 59.7272764420672,45.9366995263779 59.7164966586577,45.9366995263779 59.7124542398792,45.9407419451565 59.7218865503624,45.9420894180826 59.7272764420672,45.9501742556397 59.7340138066981,45.9434368910088</coordinates></LinearRing></outerBoundaryIs></Polygon><Polygon><outerBoundaryIs><LinearRing><coordinates>59.7313188608457,45.9515217285659 59.7326663337719,45.9555641473444 59.7447935901075,45.9542166744182 59.7434461171813,45.9420894180826 59.7340138066981,45.9488267827135 59.7367087525504,45.9515217285659 59.7353612796242,45.9528692014921 59.7326663337719,45.9501742556397 59.7313188608457,45.9515217285659</coordinates></LinearRing></outerBoundaryIs></Polygon><Polygon><outerBoundaryIs><LinearRing><coordinates>59.7838703049667,45.9232247971161 59.778480413262,45.9205298512638 59.7771329403358,45.9245722700423 59.7865652508191,45.9259197429685 59.7892601966714,45.9286146888208 59.7946500883761,45.9259197429685 59.8000399800808,45.9313096346732 59.8054298717856,45.9286146888208 59.8102213862645,45.9286146888208 59.8102213862645,45.9205298512638 59.8081248176379,45.9205298512638 59.8027349259332,45.9124450137067 59.8000399800808,45.9178349054114 59.7892601966714,45.9178349054114 59.7838703049667,45.9232247971161</coordinates></LinearRing></outerBoundaryIs></Polygon><Polygon><outerBoundaryIs><LinearRing><coordinates>59.7650056840002,45.9420894180826 59.7677006298525,45.944784363935 59.7730905215573,45.944784363935 59.7730905215573,45.9393944722303 59.7757854674096,45.9420894180826 59.7811753591143,45.9420894180826 59.7825228320405,45.9380469993041 59.7757854674096,45.9286146888208 59.7677006298525,45.9393944722303 59.7569208464431,45.9340045805256 59.7528784276646,45.9407419451565 59.7596157922955,45.9474793097873 59.7623107381478,45.9474793097873 59.7650056840002,45.9420894180826</coordinates></LinearRing></outerBoundaryIs></Polygon><Polygon><outerBoundaryIs><LinearRing><coordinates>59.8040823988594,45.9380469993041 59.8054298717856,45.9420894180826 59.8102213862645,45.9400359118774 59.8102213862645,45.934363606861 59.8040823988594,45.9380469993041</coordinates></LinearRing></outerBoundaryIs></Polygon><Polygon><outerBoundaryIs><LinearRing><coordinates>59.7946500883761,45.9393944722303 59.7906076695976,45.9407419451565 59.8000399800808,45.9420894180826 59.801387453007,45.9407419451565 59.7973450342285,45.9366995263779 59.7946500883761,45.9393944722303</coordinates></LinearRing></outerBoundaryIs></Polygon><Polygon><outerBoundaryIs><LinearRing><coordinates>59.8040823988594,45.9625641451378 59.8102213862645,45.9625641451378 59.8102213862645,45.959606566123 59.8067773447117,45.959606566123 59.8081248176379,45.9528692014921 59.8102213862645,45.9570623387453 59.8102213862645,45.9477784984002 59.8054298717856,45.9501742556397 59.8000399800808,45.9474793097873 59.7986925071547,45.9515217285659 59.8040823988594,45.959606566123 59.8040823988594,45.9625641451378</coordinates></LinearRing></outerBoundaryIs></Polygon></MultiGeometry>
  </Placemark>
</Folder>
</Document></kml>
