<?xml version="1.0" encoding="utf-8" ?>
<kml xmlns="http://www.opengis.net/kml/2.2">
<Document id="root_doc">
<Schema name="task_grid_v6_45.78_60.68" id="task_grid_v6_45.78_60.68">
	<SimpleField name="area_ha" type="float"></SimpleField>
	<SimpleField name="low_risk_ha" type="float"></SimpleField>
	<SimpleField name="moderate_risk_ha" type="float"></SimpleField>
	<SimpleField name="grid_cell_deg" type="string"></SimpleField>
</Schema>
<Folder><name>task_grid_v6_45.78_60.68</name>
  <Placemark id="task_grid_v6_45.78_60.68.1">
	<name>task_grid_v6_45.78_60.68</name>
	<name>408.2</name>
	<description>764.9</description>
	<Style><LineStyle><color>ff0000ff</color></LineStyle><PolyStyle><fill>0</fill></PolyStyle></Style>
	<ExtendedData><SchemaData schemaUrl="#task_grid_v6_45.78_60.68">
		<SimpleData name="area_ha">356.7</SimpleData>
		<SimpleData name="low_risk_ha">0.1</SimpleData>
	</SchemaData></ExtendedData>
      <MultiGeometry><Polygon><outerBoundaryIs><LinearRing><coordinates>60.702846840621,45.7561381542699 60.7001518947686,45.7534432084175 60.6961094759901,45.7574856271961 60.7041943135471,45.7601805730484 60.7041943135471,45.7655704647531 60.7014993676948,45.7682654106055 60.7055417864733,45.772307829384 60.7082367323257,45.7696128835317 60.7041943135471,45.7736553023102 60.702846840621,45.772307829384 60.7001518947686,45.772307829384 60.6961094759901,45.7790451940149 60.702846840621,45.7830876127935 60.702846840621,45.7776977210888 60.7082367323257,45.7830876127935 60.7093005267411,45.7798962295473 60.7163215698828,45.7884775044982 60.7190165157351,45.7857825586458 60.7244064074398,45.7884775044982 60.7263910613787,45.7864928505593 60.7263910613787,45.7792575876858 60.7263910613787,45.7751751439411 60.7263910613787,45.7745849269262 60.72633973816,45.774944189457 60.7230589345137,45.7601805730484 60.7263910613787,45.7576814778997 60.7263910613787,45.7464934501157 60.725753880366,45.7467058437866 60.7249117097871,45.7509166966809 60.7190165157351,45.7426634250081 60.7095842052519,45.749400789639 60.7122791511042,45.7520957354914 60.7082367323257,45.7561381542699 60.702846840621,45.7561381542699</coordinates></LinearRing></outerBoundaryIs><innerBoundaryIs><LinearRing><coordinates>60.7244064074398,45.7534432084175 60.7192615108126,45.7556481641149 60.7217114615875,45.7507482625652 60.7244064074398,45.7534432084175</coordinates></LinearRing></innerBoundaryIs><innerBoundaryIs><LinearRing><coordinates>60.7082367323257,45.7615280459746 60.7068892593995,45.7601805730484 60.7095842052519,45.7601805730484 60.7082367323257,45.7615280459746</coordinates></LinearRing></innerBoundaryIs></Polygon><Polygon><outerBoundaryIs><LinearRing><coordinates>60.7163215698828,45.7965623420553 60.7149740969566,45.7979098149814 60.7190165157351,45.80195223376 60.7230589345137,45.7979098149814 60.7163215698828,45.7965623420553</coordinates></LinearRing></outerBoundaryIs></Polygon><Polygon><outerBoundaryIs><LinearRing><coordinates>60.7082367323257,45.7992572879076 60.7068892593995,45.8006047608338 60.7136266240304,45.80195223376 60.7136266240304,45.7992572879076 60.7082367323257,45.7992572879076</coordinates></LinearRing></outerBoundaryIs></Polygon><Polygon><outerBoundaryIs><LinearRing><coordinates>60.7263910613787,45.8052112497242 60.7263910613787,45.8030873130153 60.725753880366,45.8032997066862 60.7263910613787,45.8052112497242</coordinates></LinearRing></outerBoundaryIs></Polygon></MultiGeometry>
  </Placemark>
</Folder>
</Document></kml>
