<?xml version="1.0" encoding="utf-8" ?>
<kml xmlns="http://www.opengis.net/kml/2.2">
<Document id="root_doc">
<Schema name="task_grid_v6_45.71_59.66" id="task_grid_v6_45.71_59.66">
	<SimpleField name="area_ha" type="float"></SimpleField>
	<SimpleField name="low_risk_ha" type="float"></SimpleField>
	<SimpleField name="moderate_risk_ha" type="float"></SimpleField>
	<SimpleField name="grid_cell_deg" type="string"></SimpleField>
</Schema>
<Folder><name>task_grid_v6_45.71_59.66</name>
  <Placemark id="task_grid_v6_45.71_59.66.1">
	<name>task_grid_v6_45.71_59.66</name>
	<name>194.7</name>
	<description>556.8</description>
	<Style><LineStyle><color>ff0000ff</color></LineStyle><PolyStyle><fill>0</fill></PolyStyle></Style>
	<ExtendedData><SchemaData schemaUrl="#task_grid_v6_45.71_59.66">
		<SimpleData name="area_ha">362.1</SimpleData>
		<SimpleData name="low_risk_ha">0.1</SimpleData>
	</SchemaData></ExtendedData>
      <MultiGeometry><Polygon><outerBoundaryIs><LinearRing><coordinates>59.6181311350466,45.6658574682159 59.6214244581247,45.6625641451378 59.6102213862645,45.6625641451378 59.6102213862645,45.6677911332177 59.6113937704157,45.6672049411421 59.6140887162681,45.6725948328468 59.6181311350466,45.6712473599206 59.6181311350466,45.6658574682159</coordinates></LinearRing></outerBoundaryIs></Polygon><Polygon><outerBoundaryIs><LinearRing><coordinates>59.6102213862645,45.6728623670255 59.6102213862645,45.675832198581 59.6127412433419,45.673942305773 59.6102213862645,45.6728623670255</coordinates></LinearRing></outerBoundaryIs></Polygon><Polygon><outerBoundaryIs><LinearRing><coordinates>59.6102213862645,45.6874420477169 59.6194786079728,45.6887645079609 59.620826080899,45.6847220891824 59.6113937704157,45.6779847245515 59.6102213862645,45.6803294928539 59.6102213862645,45.6874420477169</coordinates></LinearRing></outerBoundaryIs></Polygon><Polygon><outerBoundaryIs><LinearRing><coordinates>59.6102213862645,45.7116965603881 59.6194786079728,45.7130190206322 59.620826080899,45.7089766018536 59.6140887162681,45.7022392372227 59.6102213862645,45.711263007231 59.6102213862645,45.7116965603881</coordinates></LinearRing></outerBoundaryIs></Polygon><Polygon><outerBoundaryIs><LinearRing><coordinates>59.6102213862645,45.7522708242663 59.6113937704157,45.7534432084175 59.6102213862645,45.7528570163419 59.6102213862645,45.7585155405792 59.6154361891943,45.7547906813437 59.6140887162681,45.7507482625652 59.6154361891943,45.749400789639 59.6140887162681,45.7453583708605 59.6102213862645,45.7476787688626 59.6102213862645,45.7522708242663</coordinates></LinearRing></outerBoundaryIs></Polygon><Polygon><outerBoundaryIs><LinearRing><coordinates>59.643733120644,45.7615280459746 59.6464280664964,45.7588331001222 59.6477755394226,45.7574856271961 59.6464280664964,45.7534432084175 59.6423856477179,45.7574856271961 59.643733120644,45.7615280459746</coordinates></LinearRing></outerBoundaryIs></Polygon><Polygon><outerBoundaryIs><LinearRing><coordinates>59.6989795106174,45.7224513311154 59.7003269835436,45.7399684791557 59.7070643481745,45.7332311145248 59.7097592940268,45.7251462769678 59.7102213862645,45.7249152308489 59.7102213862645,45.7139044013206 59.7102213862645,45.7109272631678 59.7084118211007,45.7103240747798 59.7043694023221,45.7143664935583 59.7084118211007,45.7157139664845 59.7016744564698,45.7170614394107 59.6989795106174,45.7224513311154</coordinates></LinearRing></outerBoundaryIs></Polygon><Polygon><outerBoundaryIs><LinearRing><coordinates>59.7102213862645,45.7249922462219 59.7097592940268,45.7251462769678 59.7102213862645,45.7260704614432 59.7102213862645,45.7249922462219</coordinates></LinearRing></outerBoundaryIs></Polygon><Polygon><outerBoundaryIs><LinearRing><coordinates>59.6976320376912,45.7399684791557 59.6989795106174,45.7251462769678 59.6895472001341,45.7237988040416 59.6814623625771,45.7184089123369 59.6774199437985,45.7224513311154 59.6814623625771,45.7264937498939 59.6841573084294,45.7237988040416 59.6895472001341,45.7291886957463 59.6949370918389,45.7291886957463 59.6976320376912,45.7399684791557</coordinates></LinearRing></outerBoundaryIs></Polygon><Polygon><outerBoundaryIs><LinearRing><coordinates>59.7097592940268,45.7359260603772 59.7102213862645,45.7357720296313 59.7102213862645,45.7316525954798 59.7070643481745,45.7332311145248 59.7084118211007,45.7426634250081 59.7102213862645,45.7418878970807 59.7102213862645,45.7360800911231 59.7097592940268,45.7359260603772</coordinates></LinearRing></outerBoundaryIs></Polygon><Polygon><outerBoundaryIs><LinearRing><coordinates>59.6456818574933,45.7625641451378 59.6512251243735,45.7625641451378 59.6464280664964,45.7588331001222 59.6456818574933,45.7625641451378</coordinates></LinearRing></outerBoundaryIs></Polygon><Polygon><outerBoundaryIs><LinearRing><coordinates>59.6568624835181,45.7625641451378 59.658243949069,45.7625641451378 59.6572078499058,45.7615280459746 59.6568624835181,45.7625641451378</coordinates></LinearRing></outerBoundaryIs></Polygon></MultiGeometry>
  </Placemark>
</Folder>
</Document></kml>
