<?xml version="1.0" encoding="utf-8" ?>
<kml xmlns="http://www.opengis.net/kml/2.2">
<Document id="root_doc">
<Schema name="task_grid_v6_45.68_59.48" id="task_grid_v6_45.68_59.48">
	<SimpleField name="area_ha" type="float"></SimpleField>
	<SimpleField name="low_risk_ha" type="float"></SimpleField>
	<SimpleField name="moderate_risk_ha" type="float"></SimpleField>
	<SimpleField name="grid_cell_deg" type="string"></SimpleField>
</Schema>
<Folder><name>task_grid_v6_45.68_59.48</name>
  <Placemark id="task_grid_v6_45.68_59.48.1">
	<name>task_grid_v6_45.68_59.48</name>
	<name>128.7</name>
	<description>210.5</description>
	<Style><LineStyle><color>ff0000ff</color></LineStyle><PolyStyle><fill>0</fill></PolyStyle></Style>
	<ExtendedData><SchemaData schemaUrl="#task_grid_v6_45.68_59.48">
		<SimpleData name="area_ha">81.8</SimpleData>
		<SimpleData name="low_risk_ha">0.1</SimpleData>
	</SchemaData></ExtendedData>
      <Polygon><outerBoundaryIs><LinearRing><coordinates>59.4470020734219,45.7076291289274 59.4429596546433,45.7089766018536 59.4470020734219,45.7130190206322 59.4456546004957,45.7143664935583 59.448349546348,45.7305361686725 59.4521681357511,45.7343547580755 59.4606457988836,45.7343547580755 59.4537394380528,45.7251462769678 59.4550869109789,45.7264937498939 59.4577818568313,45.7237988040416 59.4604768026837,45.7264937498939 59.4618242756098,45.7224513311154 59.4523919651266,45.7103240747798 59.4512517957275,45.7160249217752 59.4496970192742,45.7103240747798 59.448349546348,45.711671547706 59.4470020734219,45.7076291289274</coordinates></LinearRing></outerBoundaryIs><innerBoundaryIs><LinearRing><coordinates>59.4517182286635,45.7177351758738 59.4537394380528,45.719756385263 59.4537394380528,45.7251462769678 59.4517182286635,45.7177351758738</coordinates></LinearRing></innerBoundaryIs></Polygon>
  </Placemark>
</Folder>
</Document></kml>
