<?xml version="1.0" encoding="utf-8" ?>
<kml xmlns="http://www.opengis.net/kml/2.2">
<Document id="root_doc">
<Schema name="task_grid_v6_45.21_61.06" id="task_grid_v6_45.21_61.06">
	<SimpleField name="area_ha" type="float"></SimpleField>
	<SimpleField name="low_risk_ha" type="float"></SimpleField>
	<SimpleField name="moderate_risk_ha" type="float"></SimpleField>
	<SimpleField name="grid_cell_deg" type="string"></SimpleField>
</Schema>
<Folder><name>task_grid_v6_45.21_61.06</name>
  <Placemark id="task_grid_v6_45.21_61.06.1">
	<name>task_grid_v6_45.21_61.06</name>
	<name>65</name>
	<description>1498</description>
	<Style><LineStyle><color>ff0000ff</color></LineStyle><PolyStyle><fill>0</fill></PolyStyle></Style>
	<ExtendedData><SchemaData schemaUrl="#task_grid_v6_45.21_61.06">
		<SimpleData name="area_ha">1433</SimpleData>
		<SimpleData name="low_risk_ha">0.1</SimpleData>
	</SchemaData></ExtendedData>
      <MultiGeometry><Polygon><outerBoundaryIs><LinearRing><coordinates>61.0916049649738,45.1625641451378 61.0662529777214,45.1625641451378 61.0666645306894,45.163250066751 61.0734018953203,45.1672924855295 61.0666645306894,45.1767247960128 61.0572322202061,45.1807672147913 61.0612746389846,45.1848096335699 61.0680120036156,45.1861571064961 61.0734018953203,45.1942419440531 61.0707069494679,45.1969368899055 61.0747493682464,45.200979308684 61.0828342058035,45.1982843628317 61.0855291516559,45.200979308684 61.0963089350653,45.1955894169793 61.0990038809177,45.1982843628317 61.1102213862645,45.1982843628317 61.1102213862645,45.1625641451378 61.0969948566785,45.1625641451378 61.093613989213,45.1659450126034 61.0909190433606,45.1659450126034 61.0895715704344,45.1645975396772 61.0916049649738,45.1625641451378</coordinates></LinearRing></outerBoundaryIs><innerBoundaryIs><LinearRing><coordinates>61.0978637115186,45.1830475535895 61.0963089350653,45.1794197418652 61.0895715704344,45.1834621606437 61.0990038809177,45.1767247960128 61.1003513538438,45.178072268939 61.0978637115186,45.1830475535895</coordinates></LinearRing></innerBoundaryIs><innerBoundaryIs><LinearRing><coordinates>61.0801392599512,45.1928944711269 61.0801392599512,45.1955894169793 61.078791787025,45.1942419440531 61.0801392599512,45.1928944711269</coordinates></LinearRing></innerBoundaryIs><innerBoundaryIs><LinearRing><coordinates>61.0841816787297,45.178072268939 61.0814867328773,45.178072268939 61.0828342058035,45.1767247960128 61.0841816787297,45.178072268939</coordinates></LinearRing></innerBoundaryIs><innerBoundaryIs><LinearRing><coordinates>61.1057412455486,45.1645975396772 61.1084361914009,45.1645975396772 61.1070887184747,45.1659450126034 61.1057412455486,45.1645975396772</coordinates></LinearRing></innerBoundaryIs></Polygon><Polygon><outerBoundaryIs><LinearRing><coordinates>61.1097836643271,45.200979308684 61.1084361914009,45.2023267816102 61.1102213862645,45.2041119764738 61.1102213862645,45.200979308684 61.1097836643271,45.200979308684</coordinates></LinearRing></outerBoundaryIs></Polygon><Polygon><outerBoundaryIs><LinearRing><coordinates>61.063969584837,45.2090641462411 61.0545372743538,45.2104116191673 61.0599271660585,45.215801510872 61.0612746389846,45.2225388755029 61.0653170577632,45.215801510872 61.063969584837,45.2090641462411</coordinates></LinearRing></outerBoundaryIs></Polygon><Polygon><outerBoundaryIs><LinearRing><coordinates>61.0518423285014,45.2265812942814 61.0531898014276,45.23062371306 61.0599271660585,45.2265812942814 61.0558847472799,45.2198439296505 61.0518423285014,45.2265812942814</coordinates></LinearRing></outerBoundaryIs></Polygon><Polygon><outerBoundaryIs><LinearRing><coordinates>61.0868766245821,45.2454459152479 61.0882240975082,45.2467933881741 61.0949614621391,45.2427509693956 61.093613989213,45.238708550617 61.0868766245821,45.2454459152479</coordinates></LinearRing></outerBoundaryIs></Polygon><Polygon><outerBoundaryIs><LinearRing><coordinates>61.1102213862645,45.2436607203843 61.1102213862645,45.2425690191978 61.1043937726224,45.2414034964694 61.1003513538438,45.2481408611003 61.0949614621391,45.2508358069527 61.10169882677,45.2521832798788 61.1102213862645,45.2436607203843</coordinates></LinearRing></outerBoundaryIs></Polygon><Polygon><outerBoundaryIs><LinearRing><coordinates>61.1102213862645,45.258738694312 61.1043937726224,45.2575731715836 61.1030462996962,45.2589206445097 61.1066898003243,45.2625641451378 61.1074876366252,45.2625641451378 61.1102213862645,45.2598303954985 61.1102213862645,45.258738694312</coordinates></LinearRing></outerBoundaryIs></Polygon><Polygon><outerBoundaryIs><LinearRing><coordinates>61.0878251793577,45.2625641451378 61.0916843859279,45.2625641451378 61.0909190433606,45.2602681174359 61.0868766245821,45.2616155903621 61.0878251793577,45.2625641451378</coordinates></LinearRing></outerBoundaryIs></Polygon></MultiGeometry>
  </Placemark>
</Folder>
</Document></kml>
