<?xml version="1.0" encoding="utf-8" ?>
<kml xmlns="http://www.opengis.net/kml/2.2">
<Document id="root_doc">
<Schema name="task_grid_v6_45.88_59.48" id="task_grid_v6_45.88_59.48">
	<SimpleField name="area_ha" type="float"></SimpleField>
	<SimpleField name="low_risk_ha" type="float"></SimpleField>
	<SimpleField name="moderate_risk_ha" type="float"></SimpleField>
	<SimpleField name="grid_cell_deg" type="string"></SimpleField>
</Schema>
<Folder><name>task_grid_v6_45.88_59.48</name>
  <Placemark id="task_grid_v6_45.88_59.48.1">
	<name>task_grid_v6_45.88_59.48</name>
	<name>896.5</name>
	<description>1053.3</description>
	<Style><LineStyle><color>ff0000ff</color></LineStyle><PolyStyle><fill>0</fill></PolyStyle></Style>
	<ExtendedData><SchemaData schemaUrl="#task_grid_v6_45.88_59.48">
		<SimpleData name="area_ha">156.9</SimpleData>
		<SimpleData name="low_risk_ha">0.1</SimpleData>
	</SchemaData></ExtendedData>
      <MultiGeometry><Polygon><outerBoundaryIs><LinearRing><coordinates>59.4321798712339,45.8410289486192 59.4335273441601,45.8450713673977 59.4375697629386,45.8437238944715 59.4362222900124,45.839681475693 59.4321798712339,45.8410289486192</coordinates></LinearRing></outerBoundaryIs></Polygon><Polygon><outerBoundaryIs><LinearRing><coordinates>59.4604768026837,45.8531562049548 59.4645192214622,45.8491137861763 59.4618242756098,45.8464188403239 59.4604768026837,45.8450713673977 59.4591293297575,45.8464188403239 59.4604768026837,45.8531562049548</coordinates></LinearRing></outerBoundaryIs></Polygon><Polygon><outerBoundaryIs><LinearRing><coordinates>59.4263910613787,45.8567997055828 59.4263910613787,45.8573980828086 59.4267899795292,45.8571986237333 59.4263910613787,45.8567997055828</coordinates></LinearRing></outerBoundaryIs></Polygon><Polygon><outerBoundaryIs><LinearRing><coordinates>59.4335273441601,45.8693258800689 59.4362222900124,45.8666309342166 59.4443071275695,45.8666309342166 59.4510444922004,45.8598935695857 59.4470020734219,45.8504612591024 59.4443071275695,45.8558511508072 59.4416121817172,45.8504612591024 59.4362222900124,45.8504612591024 59.4308323983077,45.8450713673977 59.4263910613787,45.8450713673977 59.4263910613787,45.8532917127799 59.4348748170863,45.854503677881 59.4263910613787,45.8608664946617 59.4263910613787,45.8648845431399 59.4281374524554,45.8666309342166 59.4335273441601,45.8693258800689</coordinates></LinearRing></outerBoundaryIs></Polygon><Polygon><outerBoundaryIs><LinearRing><coordinates>59.4564343839051,45.8598935695857 59.4658666943884,45.8612410425119 59.4658666943884,45.8558511508072 59.4604768026837,45.8558511508072 59.4564343839051,45.8598935695857</coordinates></LinearRing></outerBoundaryIs></Polygon><Polygon><outerBoundaryIs><LinearRing><coordinates>59.4537394380528,45.8841480822569 59.4577818568313,45.8881905010355 59.4658666943884,45.8881905010355 59.4726040590193,45.8841480822569 59.4645192214622,45.8814531364046 59.4672141673146,45.8787581905522 59.4618242756098,45.8760632446998 59.4672141673146,45.8733682988475 59.4604768026837,45.8666309342166 59.4591293297575,45.8760632446998 59.4564343839051,45.8787581905522 59.4618242756098,45.8814531364046 59.4577818568313,45.8828006093307 59.4550869109789,45.8801056634784 59.4537394380528,45.8841480822569</coordinates></LinearRing></outerBoundaryIs></Polygon><Polygon><outerBoundaryIs><LinearRing><coordinates>59.4389172358648,45.8935803927402 59.4443071275695,45.8935803927402 59.4470020734219,45.8962753385925 59.448349546348,45.8949278656664 59.4456546004957,45.8868430281093 59.4510444922004,45.8841480822569 59.4510444922004,45.8814531364046 59.4470020734219,45.8801056634784 59.4416121817172,45.8881905010355 59.440264708791,45.8841480822569 59.4443071275695,45.877410717626 59.4550869109789,45.877410717626 59.4550869109789,45.8747157717737 59.4443071275695,45.8720208259213 59.4416121817172,45.8693258800689 59.4308323983077,45.8747157717737 59.4263910613787,45.8732353261307 59.4263910613787,45.8814206426709 59.4281374524554,45.8854955551831 59.4308323983077,45.8828006093307 59.4294849253815,45.8868430281093 59.4335273441601,45.8881905010355 59.4344256594442,45.8872921857513 59.4389172358648,45.8935803927402</coordinates></LinearRing></outerBoundaryIs><innerBoundaryIs><LinearRing><coordinates>59.4335273441601,45.8801056634784 59.4348748170863,45.8814531364046 59.4321798712339,45.8841480822569 59.4308323983077,45.8828006093307 59.4335273441601,45.8801056634784</coordinates></LinearRing></innerBoundaryIs><innerBoundaryIs><LinearRing><coordinates>59.4348748170863,45.8760632446998 59.4362222900124,45.8747157717737 59.4389172358648,45.8747157717737 59.4389172358648,45.877410717626 59.4348748170863,45.8760632446998</coordinates></LinearRing></innerBoundaryIs></Polygon><Polygon><outerBoundaryIs><LinearRing><coordinates>59.4658666943884,45.8477663132501 59.4672141673146,45.8464188403239 59.463171748536,45.8423764215454 59.4618242756098,45.8464188403239 59.4658666943884,45.8477663132501</coordinates></LinearRing></outerBoundaryIs></Polygon><Polygon><outerBoundaryIs><LinearRing><coordinates>59.4995535175429,45.8491137861763 59.5035959363214,45.8504612591024 59.5076383550999,45.8464188403239 59.5035959363214,45.8450713673977 59.4995535175429,45.8491137861763</coordinates></LinearRing></outerBoundaryIs></Polygon><Polygon><outerBoundaryIs><LinearRing><coordinates>59.500900990469,45.8531562049548 59.5035959363214,45.8558511508072 59.5049434092476,45.854503677881 59.5035959363214,45.8504612591024 59.4995535175429,45.8518087320286 59.500900990469,45.8531562049548</coordinates></LinearRing></outerBoundaryIs></Polygon><Polygon><outerBoundaryIs><LinearRing><coordinates>59.4739515319455,45.8612410425119 59.4806888965764,45.8571986237333 59.4793414236502,45.8531562049548 59.4726040590193,45.8598935695857 59.4739515319455,45.8612410425119</coordinates></LinearRing></outerBoundaryIs></Polygon><Polygon><outerBoundaryIs><LinearRing><coordinates>59.492816152912,45.8693258800689 59.4941636258381,45.8571986237333 59.4968585716905,45.854503677881 59.4914686799858,45.854503677881 59.492816152912,45.8693258800689</coordinates></LinearRing></outerBoundaryIs></Polygon><Polygon><outerBoundaryIs><LinearRing><coordinates>59.500900990469,45.8531562049548 59.4968585716905,45.854503677881 59.4968585716905,45.8760632446998 59.500900990469,45.8801056634784 59.5022484633952,45.8625885154381 59.5049434092476,45.8598935695857 59.500900990469,45.8531562049548</coordinates></LinearRing></outerBoundaryIs></Polygon><Polygon><outerBoundaryIs><LinearRing><coordinates>59.4793414236502,45.8962753385925 59.4833838424287,45.8949278656664 59.4820363695025,45.8908854468878 59.477993950724,45.892232919814 59.4793414236502,45.8962753385925</coordinates></LinearRing></outerBoundaryIs></Polygon></MultiGeometry>
  </Placemark>
</Folder>
</Document></kml>
