<?xml version="1.0" encoding="utf-8" ?>
<kml xmlns="http://www.opengis.net/kml/2.2">
<Document id="root_doc">
<Schema name="task_grid_v6_45.38_60.78" id="task_grid_v6_45.38_60.78">
	<SimpleField name="area_ha" type="float"></SimpleField>
	<SimpleField name="low_risk_ha" type="float"></SimpleField>
	<SimpleField name="moderate_risk_ha" type="float"></SimpleField>
	<SimpleField name="grid_cell_deg" type="string"></SimpleField>
</Schema>
<Folder><name>task_grid_v6_45.38_60.78</name>
  <Placemark id="task_grid_v6_45.38_60.78.1">
	<name>task_grid_v6_45.38_60.78</name>
	<name>0</name>
	<description>64.8</description>
	<Style><LineStyle><color>ff0000ff</color></LineStyle><PolyStyle><fill>0</fill></PolyStyle></Style>
	<ExtendedData><SchemaData schemaUrl="#task_grid_v6_45.38_60.78">
		<SimpleData name="area_ha">64.8</SimpleData>
		<SimpleData name="low_risk_ha">0.1</SimpleData>
	</SchemaData></ExtendedData>
      <MultiGeometry><Polygon><outerBoundaryIs><LinearRing><coordinates>60.7890851078964,45.3518962764161 60.7904325808226,45.3478538576376 60.7877376349703,45.3451589117852 60.793127526675,45.3397690200805 60.7890851078964,45.335726601302 60.7850426891179,45.3424639659329 60.7850426891179,45.3478538576376 60.7890851078964,45.3518962764161</coordinates></LinearRing></outerBoundaryIs></Polygon><Polygon><outerBoundaryIs><LinearRing><coordinates>60.8106446747153,45.3465063847114 60.8106446747153,45.343811438859 60.8052547830106,45.343811438859 60.8039073100844,45.3451589117852 60.8106446747153,45.3465063847114</coordinates></LinearRing></outerBoundaryIs></Polygon></MultiGeometry>
  </Placemark>
</Folder>
</Document></kml>
