<?xml version="1.0" encoding="utf-8" ?>
<kml xmlns="http://www.opengis.net/kml/2.2">
<Document id="root_doc">
<Schema name="task_grid_v6_46.01_59.06" id="task_grid_v6_46.01_59.06">
	<SimpleField name="area_ha" type="float"></SimpleField>
	<SimpleField name="low_risk_ha" type="float"></SimpleField>
	<SimpleField name="moderate_risk_ha" type="float"></SimpleField>
	<SimpleField name="grid_cell_deg" type="string"></SimpleField>
</Schema>
<Folder><name>task_grid_v6_46.01_59.06</name>
  <Placemark id="task_grid_v6_46.01_59.06.1">
	<name>task_grid_v6_46.01_59.06</name>
	<name>516.4</name>
	<description>564.8</description>
	<Style><LineStyle><color>ff0000ff</color></LineStyle><PolyStyle><fill>0</fill></PolyStyle></Style>
	<ExtendedData><SchemaData schemaUrl="#task_grid_v6_46.01_59.06">
		<SimpleData name="area_ha">48.4</SimpleData>
		<SimpleData name="low_risk_ha">0.1</SimpleData>
	</SchemaData></ExtendedData>
      <MultiGeometry><Polygon><outerBoundaryIs><LinearRing><coordinates>59.0226356460629,45.9625641451378 59.0238955746016,45.9663439307539 59.0279379933801,45.9649964578277 59.0271272224835,45.9625641451378 59.0226356460629,45.9625641451378</coordinates></LinearRing></outerBoundaryIs></Polygon><Polygon><outerBoundaryIs><LinearRing><coordinates>59.038980409952,45.9625641451378 59.0291541497251,45.9625641451378 59.0279379933801,45.9649964578277 59.0400652497157,45.9663439307539 59.0414127226419,45.9649964578277 59.038980409952,45.9625641451378</coordinates></LinearRing></outerBoundaryIs></Polygon><Polygon><outerBoundaryIs><LinearRing><coordinates>59.0468026143466,45.96769140368 59.0454551414204,45.9636489849015 59.0427601955681,45.9663439307539 59.0400652497157,45.9663439307539 59.0292854663063,45.9663439307539 59.0279379933801,45.9703863495324 59.0400652497157,45.9717338224586 59.0468026143466,45.96769140368</coordinates></LinearRing></outerBoundaryIs></Polygon><Polygon><outerBoundaryIs><LinearRing><coordinates>59.0750995457964,45.9771237141633 59.0777944916487,45.9690388766062 59.1102213862645,45.9690388766062 59.1102213862645,45.9625641451378 59.0524551392138,45.9625641451378 59.0562349248299,45.9663439307539 59.0670147082393,45.9663439307539 59.0683621811655,45.9703863495324 59.0656672353131,45.9730812953848 59.0750995457964,45.9771237141633</coordinates></LinearRing></outerBoundaryIs></Polygon><Polygon><outerBoundaryIs><LinearRing><coordinates>59.0104208453398,45.9771237141633 59.0104208453398,45.9744287683109 59.0102213862645,45.9744287683109 59.0102213862645,45.9770838223482 59.0104208453398,45.9771237141633</coordinates></LinearRing></outerBoundaryIs></Polygon><Polygon><outerBoundaryIs><LinearRing><coordinates>59.0265905204539,45.9798186600157 59.0306329392325,45.9730812953848 59.0252430475278,45.9730812953848 59.0265905204539,45.9798186600157</coordinates></LinearRing></outerBoundaryIs></Polygon><Polygon><outerBoundaryIs><LinearRing><coordinates>59.0252430475278,45.9838610787942 59.0292854663063,45.9852085517204 59.0306329392325,45.9838610787942 59.0265905204539,45.9798186600157 59.0252430475278,45.9838610787942</coordinates></LinearRing></outerBoundaryIs></Polygon><Polygon><outerBoundaryIs><LinearRing><coordinates>59.0171582099707,45.9838610787942 59.0158107370445,45.9798186600157 59.0104208453398,45.982513605868 59.0102213862645,45.982513605868 59.0102213862645,45.9879034975727 59.0131157911921,45.9879034975727 59.0171582099707,45.9838610787942</coordinates></LinearRing></outerBoundaryIs></Polygon><Polygon><outerBoundaryIs><LinearRing><coordinates>59.0697096540917,45.9798186600157 59.0656672353131,45.9865560246465 59.0670147082393,45.9879034975727 59.072404599944,45.9852085517204 59.0764470187226,45.9811661329418 59.0697096540917,45.9798186600157</coordinates></LinearRing></outerBoundaryIs></Polygon><Polygon><outerBoundaryIs><LinearRing><coordinates>59.0521925060513,45.9919459163513 59.0562349248299,45.9932933892774 59.0602773436084,45.9892509704989 59.0562349248299,45.9879034975727 59.0521925060513,45.9919459163513</coordinates></LinearRing></outerBoundaryIs></Polygon></MultiGeometry>
  </Placemark>
</Folder>
</Document></kml>
