<?xml version="1.0" encoding="utf-8" ?>
<kml xmlns="http://www.opengis.net/kml/2.2">
<Document id="root_doc">
<Schema name="task_grid_v6_45.58_59.88" id="task_grid_v6_45.58_59.88">
	<SimpleField name="area_ha" type="float"></SimpleField>
	<SimpleField name="low_risk_ha" type="float"></SimpleField>
	<SimpleField name="moderate_risk_ha" type="float"></SimpleField>
	<SimpleField name="grid_cell_deg" type="string"></SimpleField>
</Schema>
<Folder><name>task_grid_v6_45.58_59.88</name>
  <Placemark id="task_grid_v6_45.58_59.88.1">
	<name>task_grid_v6_45.58_59.88</name>
	<name>2685.8</name>
	<description>3680.4</description>
	<Style><LineStyle><color>ff0000ff</color></LineStyle><PolyStyle><fill>0</fill></PolyStyle></Style>
	<ExtendedData><SchemaData schemaUrl="#task_grid_v6_45.58_59.88">
		<SimpleData name="area_ha">994.6</SimpleData>
		<SimpleData name="low_risk_ha">0.1</SimpleData>
	</SchemaData></ExtendedData>
      <MultiGeometry><Polygon><outerBoundaryIs><LinearRing><coordinates>59.8263910613787,45.5700372961507 59.8269894386044,45.5701868904572 59.831031857383,45.5661444716786 59.8323793303091,45.5674919446048 59.8283369115306,45.5715343633833 59.8377692220139,45.5728818363095 59.8431591137186,45.5755767821619 59.8404641678662,45.5755767821619 59.83911669494,45.576924255088 59.8458540595709,45.5782717280142 59.8458540595709,45.576924255088 59.8485490054233,45.5782717280142 59.8512439512757,45.5755767821619 59.853938897128,45.5782717280142 59.8741509910207,45.576924255088 59.8674136263898,45.5782717280142 59.8674136263898,45.5809666738666 59.883583301504,45.5836616197189 59.8876257202825,45.5877040384975 59.8701085722422,45.5863565655713 59.8674136263898,45.5836616197189 59.8579813159065,45.5850090926451 59.8512439512757,45.5809666738666 59.8269894386044,45.5809666738666 59.8263910613787,45.5803682966408 59.8263910613787,45.5916926991061 59.8768459368731,45.5903989843498 59.8647186805375,45.5890515114237 59.8754984639469,45.5890515114237 59.8862782473563,45.5944414031284 59.8943630849134,45.5944414031284 59.8970580307657,45.5971363489807 59.8997529766181,45.5944414031284 59.9051428683228,45.5971363489807 59.8957105578396,45.5984838219069 59.9024479224705,45.6025262406854 59.9132277058799,45.6025262406854 59.9186175975846,45.6079161323902 59.921312543437,45.6052211865378 59.9263910613787,45.6073976942271 59.9263910613787,45.602370553804 59.9249058045735,45.6016279254013 59.9263910613787,45.6001426685961 59.9263910613787,45.5850090926451 59.9226600163632,45.5850090926451 59.9240074892893,45.5836616197189 59.9263910613787,45.5839264610622 59.9263910613787,45.5808109869851 59.921312543437,45.5782717280142 59.9186175975846,45.5809666738666 59.9078378141752,45.5755767821619 59.9024479224705,45.5782717280142 59.8997529766181,45.5755767821619 59.8862782473563,45.5755767821619 59.883583301504,45.5728818363095 59.8754984639469,45.5728818363095 59.8647186805375,45.5674919446048 59.8485490054233,45.5674919446048 59.8458540595709,45.5647969987524 59.8377692220139,45.5647969987524 59.8350742761615,45.5621020529001 59.8263910613787,45.5621020529001 59.8263910613787,45.5650165536243 59.8296843844568,45.5647969987524 59.831031857383,45.5661444716786 59.8263910613787,45.5658350852783 59.8263910613787,45.5700372961507</coordinates></LinearRing></outerBoundaryIs><innerBoundaryIs><LinearRing><coordinates>59.906490341249,45.5957888760546 59.9024479224705,45.591746457276 59.8970580307657,45.591746457276 59.8903206661349,45.5877040384975 59.8997529766181,45.5863565655713 59.9024479224705,45.5890515114237 59.9186175975846,45.5890515114237 59.9226600163632,45.5930939302022 59.921312543437,45.5944414031284 59.9132277058799,45.5944414031284 59.9105327600275,45.591746457276 59.906490341249,45.5984838219069 59.921312543437,45.5998312948331 59.9078378141752,45.5998312948331 59.9051428683228,45.5971363489807 59.906490341249,45.5957888760546</coordinates></LinearRing></innerBoundaryIs><innerBoundaryIs><LinearRing><coordinates>59.8593287888327,45.5728818363095 59.8566338429804,45.5755767821619 59.8566338429804,45.5713846441693 59.8701085722422,45.5728818363095 59.8593287888327,45.5728818363095</coordinates></LinearRing></innerBoundaryIs></Polygon><Polygon><outerBoundaryIs><LinearRing><coordinates>59.8263910613787,45.5712351747705 59.8263910613787,45.5755767821619 59.8377692220139,45.5755767821619 59.8377692220139,45.5728818363095 59.8296843844568,45.5728818363095 59.8263910613787,45.5712351747705</coordinates></LinearRing></outerBoundaryIs></Polygon><Polygon><outerBoundaryIs><LinearRing><coordinates>59.8512439512757,45.5944414031284 59.8498964783495,45.5957888760546 59.8647186805375,45.5971363489807 59.8647186805375,45.5944414031284 59.8512439512757,45.5944414031284</coordinates></LinearRing></outerBoundaryIs></Polygon><Polygon><outerBoundaryIs><LinearRing><coordinates>59.8728035180945,45.6079161323902 59.8566338429804,45.6052211865378 59.853938897128,45.6025262406854 59.8377692220139,45.6025262406854 59.8350742761615,45.6052211865378 59.8323793303091,45.6025262406854 59.8263910613787,45.6025262406854 59.8263910613787,45.6227383345781 59.831031857383,45.6227383345781 59.8296843844568,45.6267807533567 59.8263910613787,45.6234874302786 59.8263910613787,45.6343547580755 59.9263910613787,45.6343547580755 59.9263910613787,45.6254923306644 59.9105327600275,45.6186959157996 59.891668139061,45.6160009699472 59.8781934097992,45.6079161323902 59.8754984639469,45.6106110782425 59.8728035180945,45.6079161323902</coordinates></LinearRing></outerBoundaryIs><innerBoundaryIs><LinearRing><coordinates>59.8445065866448,45.6308231721352 59.8431591137186,45.6321706450614 59.8418116407924,45.6308231721352 59.8445065866448,45.6308231721352</coordinates></LinearRing></innerBoundaryIs><innerBoundaryIs><LinearRing><coordinates>59.906490341249,45.6281282262829 59.9078378141752,45.6267807533567 59.9091852871014,45.6281282262829 59.906490341249,45.6281282262829</coordinates></LinearRing></innerBoundaryIs><innerBoundaryIs><LinearRing><coordinates>59.8701085722422,45.6186959157996 59.8714560451683,45.6200433887258 59.8701085722422,45.621390861652 59.8701085722422,45.6186959157996</coordinates></LinearRing></innerBoundaryIs></Polygon></MultiGeometry>
  </Placemark>
</Folder>
</Document></kml>
