<?xml version="1.0" encoding="utf-8" ?>
<kml xmlns="http://www.opengis.net/kml/2.2">
<Document id="root_doc">
<Schema name="task_grid_v6_46.18_59.98" id="task_grid_v6_46.18_59.98">
	<SimpleField name="area_ha" type="float"></SimpleField>
	<SimpleField name="low_risk_ha" type="float"></SimpleField>
	<SimpleField name="moderate_risk_ha" type="float"></SimpleField>
	<SimpleField name="grid_cell_deg" type="string"></SimpleField>
</Schema>
<Folder><name>task_grid_v6_46.18_59.98</name>
  <Placemark id="task_grid_v6_46.18_59.98.1">
	<name>task_grid_v6_46.18_59.98</name>
	<name>4134.9</name>
	<description>4751.7</description>
	<Style><LineStyle><color>ff0000ff</color></LineStyle><PolyStyle><fill>0</fill></PolyStyle></Style>
	<ExtendedData><SchemaData schemaUrl="#task_grid_v6_46.18_59.98">
		<SimpleData name="area_ha">616.8</SimpleData>
		<SimpleData name="low_risk_ha">0.1</SimpleData>
	</SchemaData></ExtendedData>
      <MultiGeometry><Polygon><outerBoundaryIs><LinearRing><coordinates>59.9765589334103,46.140167938231 59.9806013521889,46.1415154111572 59.981948825115,46.140167938231 59.9779064063365,46.1361255194524 59.9765589334103,46.140167938231</coordinates></LinearRing></outerBoundaryIs></Polygon><Polygon><outerBoundaryIs><LinearRing><coordinates>59.9954235543768,46.1482527757881 59.9994659731554,46.1522951945666 60.0021609190077,46.1496002487142 59.9940760814507,46.1603800321237 59.9832962980412,46.1496002487142 59.9779064063365,46.1522951945666 59.9711690417056,46.1428628840833 59.9754231047095,46.1343547580755 59.9591193929439,46.1343547580755 59.9603892582962,46.1347780465263 59.95904178537,46.1388204653048 59.9568089317553,46.1343547580755 59.9347872726988,46.1343547580755 59.9347872726988,46.1361255194524 59.9334397997726,46.1347780465263 59.9338630882234,46.1343547580755 59.93060375777,46.1343547580755 59.9307448539202,46.1347780465263 59.9280499080679,46.1374729923786 59.9388296914773,46.1455578299357 59.9388296914773,46.1509477216404 59.944219583182,46.1563376133451 59.944219583182,46.1644224509022 59.9428721102558,46.1657699238284 59.9401771644035,46.163074977976 59.9374822185511,46.1657699238284 59.9293973809941,46.1657699238284 59.9263910613787,46.1642667640207 59.9263910613787,46.1762383334748 59.9267024351417,46.1765497072378 59.9374822185511,46.1792446530902 59.9401771644035,46.1846345447949 59.9455670561082,46.1819395989425 59.9496094748867,46.1859820177211 59.9455670561082,46.1873294906473 59.9428721102558,46.192719382352 59.9334397997726,46.1940668552782 59.9536518936653,46.2088890574661 59.9563468395176,46.2061941116138 59.9617367312224,46.2115840033185 59.9671266229271,46.2115840033185 59.9725165146318,46.2169738950232 59.9806013521889,46.2169738950232 59.9859912438936,46.2223637867279 59.9913811355983,46.2196688408756 59.9927286085245,46.2210163138017 59.9900336626721,46.2237112596541 59.9927286085245,46.2291011513588 60.0021609190077,46.2331435701374 60.0048558648601,46.230448624285 60.0129407024172,46.230448624285 60.0183305941219,46.2223637867279 60.0237204858266,46.2223637867279 60.0263910613787,46.2241441704293 60.0263910613787,46.2115840033185 60.0210255399742,46.2115840033185 60.0183305941219,46.2142789491708 60.0129407024172,46.2142789491708 60.0102457565648,46.2115840033185 59.996771027303,46.2115840033185 59.9940760814507,46.2088890574661 59.9832962980412,46.2061941116138 59.973863987558,46.1994567469829 59.9725165146318,46.1954143282043 59.9563468395176,46.1873294906473 59.9549993665915,46.177897180164 59.9496094748867,46.1725072884593 59.9563468395176,46.1684648696807 59.9644316770747,46.1711598155331 59.9671266229271,46.1684648696807 59.9711690417056,46.1725072884593 59.9711690417056,46.177897180164 59.981948825115,46.1859820177211 59.9792538792627,46.1886769635734 59.9859912438936,46.1954143282043 59.996771027303,46.2008042199091 60.0008134460816,46.1994567469829 59.9981185002292,46.1967618011305 59.9994659731554,46.1954143282043 60.0102457565648,46.2008042199091 60.0263910613787,46.2008042199091 60.0263910613787,46.1953997060242 60.0196780670481,46.1913719094258 60.0210255399742,46.1900244364996 60.0263910613787,46.1927071972018 60.0263910613787,46.1900000661993 60.0250679587528,46.1886769635734 60.0263910613787,46.1882359293648 60.0263910613787,46.1792933936907 60.0237204858266,46.1846345447949 60.0210255399742,46.1765497072378 60.0176568576588,46.1758759707747 60.0196780670481,46.1752022343116 60.0075508107125,46.1657699238284 60.0129407024172,46.1657699238284 60.0129407024172,46.1684648696807 60.0237204858266,46.1684648696807 60.0263910613787,46.1711354452328 60.0263910613787,46.1616787644493 60.0250679587528,46.1590325591975 60.0196780670481,46.1563376133451 60.0196780670481,46.1536426674928 60.0142881753433,46.1509477216404 60.0129407024172,46.1469053028619 60.0075508107125,46.1469053028619 60.0035083919339,46.1428628840833 60.0062033377863,46.140167938231 60.0003901576308,46.1343547580755 59.9816031442382,46.1343547580755 59.9886861897459,46.1361255194524 59.9940760814507,46.1442103570095 59.9981185002292,46.1455578299357 59.9954235543768,46.1482527757881</coordinates></LinearRing></outerBoundaryIs><innerBoundaryIs><LinearRing><coordinates>60.0075508107125,46.1738547613855 60.0129407024172,46.1738547613855 60.0142881753433,46.1752022343116 60.0075508107125,46.1738547613855</coordinates></LinearRing></innerBoundaryIs><innerBoundaryIs><LinearRing><coordinates>59.9806013521889,46.1792446530902 59.9792538792627,46.177897180164 59.981948825115,46.1752022343116 59.9711690417056,46.1671173967546 59.9846437709674,46.1671173967546 59.9859912438936,46.1711598155331 59.9981185002292,46.1725072884593 59.9900336626721,46.177897180164 59.9886861897459,46.1819395989425 59.9859912438936,46.1792446530902 59.9806013521889,46.1792446530902</coordinates></LinearRing></innerBoundaryIs><innerBoundaryIs><LinearRing><coordinates>59.9617367312224,46.154990140419 59.9603892582962,46.1536426674928 59.9603892582962,46.1509477216404 59.9630842041485,46.1509477216404 59.9617367312224,46.154990140419</coordinates></LinearRing></innerBoundaryIs><innerBoundaryIs><LinearRing><coordinates>60.0048558648601,46.2250587325803 60.0062033377863,46.2264062055065 60.0048558648601,46.2277536784326 60.0048558648601,46.2250587325803</coordinates></LinearRing></innerBoundaryIs><innerBoundaryIs><LinearRing><coordinates>60.0075508107125,46.1873294906473 60.0088982836386,46.1886769635734 60.0075508107125,46.1900244364996 60.0075508107125,46.1873294906473</coordinates></LinearRing></innerBoundaryIs><innerBoundaryIs><LinearRing><coordinates>60.0008134460816,46.1859820177211 59.9994659731554,46.1873294906473 59.9981185002292,46.1859820177211 60.0008134460816,46.1859820177211</coordinates></LinearRing></innerBoundaryIs><innerBoundaryIs><LinearRing><coordinates>59.9981185002292,46.177897180164 59.9994659731554,46.1765497072378 60.0008134460816,46.177897180164 59.9981185002292,46.177897180164</coordinates></LinearRing></innerBoundaryIs><innerBoundaryIs><LinearRing><coordinates>59.944219583182,46.1455578299357 59.9455670561082,46.1442103570095 59.9469145290344,46.1455578299357 59.944219583182,46.1455578299357</coordinates></LinearRing></innerBoundaryIs><innerBoundaryIs><LinearRing><coordinates>59.9671266229271,46.1442103570095 59.9684740958533,46.1455578299357 59.9671266229271,46.1469053028619 59.9671266229271,46.1442103570095</coordinates></LinearRing></innerBoundaryIs></Polygon><Polygon><outerBoundaryIs><LinearRing><coordinates>59.9886861897459,46.1496002487142 59.9873387168198,46.1536426674928 59.9940760814507,46.1603800321237 59.9981185002292,46.1536426674928 59.9886861897459,46.1496002487142</coordinates></LinearRing></outerBoundaryIs></Polygon><Polygon><outerBoundaryIs><LinearRing><coordinates>59.9581031674079,46.2343547580755 59.9621404605351,46.2343547580755 59.9617367312224,46.2331435701374 59.9581031674079,46.2343547580755</coordinates></LinearRing></outerBoundaryIs></Polygon><Polygon><outerBoundaryIs><LinearRing><coordinates>59.9806013521889,46.2331435701374 59.9769677883744,46.2343547580755 59.9826199987524,46.2343547580755 59.9806013521889,46.2331435701374</coordinates></LinearRing></outerBoundaryIs></Polygon><Polygon><outerBoundaryIs><LinearRing><coordinates>60.0237204858266,46.1361255194524 60.0263910613787,46.1414666705566 60.0263910613787,46.1343547580755 60.0201789630727,46.1343547580755 60.0237204858266,46.1361255194524</coordinates></LinearRing></outerBoundaryIs></Polygon><Polygon><outerBoundaryIs><LinearRing><coordinates>60.0263910613787,46.1522951945666 60.0263910613787,46.149575878414 60.0250679587528,46.1482527757881 60.0263910613787,46.1482527757881 60.0263910613787,46.1414910408569 60.0192547785973,46.1343547580755 60.0063961723191,46.1343547580755 60.0183305941219,46.1415154111572 60.0196780670481,46.1428628840833 60.0169831211957,46.1455578299357 60.0237204858266,46.1522951945666 60.0263910613787,46.1522951945666</coordinates></LinearRing></outerBoundaryIs></Polygon><Polygon><outerBoundaryIs><LinearRing><coordinates>60.0263910613787,46.1783382143726 60.0263910613787,46.1765740775381 60.0250679587528,46.177897180164 60.0263910613787,46.1783382143726</coordinates></LinearRing></outerBoundaryIs></Polygon><Polygon><outerBoundaryIs><LinearRing><coordinates>60.0144244603314,46.2343547580755 60.0210255399742,46.2343547580755 60.0210255399742,46.2331435701374 60.0156356482695,46.2331435701374 60.0144244603314,46.2343547580755</coordinates></LinearRing></outerBoundaryIs></Polygon></MultiGeometry>
  </Placemark>
</Folder>
</Document></kml>
