<?xml version="1.0" encoding="utf-8" ?>
<kml xmlns="http://www.opengis.net/kml/2.2">
<Document id="root_doc">
<Schema name="task_grid_v6_45.48_61.38" id="task_grid_v6_45.48_61.38">
	<SimpleField name="area_ha" type="float"></SimpleField>
	<SimpleField name="low_risk_ha" type="float"></SimpleField>
	<SimpleField name="moderate_risk_ha" type="float"></SimpleField>
	<SimpleField name="grid_cell_deg" type="string"></SimpleField>
</Schema>
<Folder><name>task_grid_v6_45.48_61.38</name>
  <Placemark id="task_grid_v6_45.48_61.38.1">
	<name>task_grid_v6_45.48_61.38</name>
	<name>0</name>
	<description>78.7</description>
	<Style><LineStyle><color>ff0000ff</color></LineStyle><PolyStyle><fill>0</fill></PolyStyle></Style>
	<ExtendedData><SchemaData schemaUrl="#task_grid_v6_45.48_61.38">
		<SimpleData name="area_ha">78.7</SimpleData>
		<SimpleData name="low_risk_ha">0.1</SimpleData>
	</SchemaData></ExtendedData>
      <Polygon><outerBoundaryIs><LinearRing><coordinates>61.4183549644222,45.4394820166178 61.4156600185698,45.4448719083225 61.417007491496,45.4462193812487 61.4250923290531,45.4462193812487 61.4263910613787,45.444920648923 61.4263910613787,45.4394332760172 61.4223973832007,45.4354395978392 61.4156600185698,45.4367870707654 61.4183549644222,45.4394820166178</coordinates></LinearRing></outerBoundaryIs></Polygon>
  </Placemark>
</Folder>
</Document></kml>
