<?xml version="1.0" encoding="utf-8" ?>
<kml xmlns="http://www.opengis.net/kml/2.2">
<Document id="root_doc">
<Schema name="task_grid_v6_45.28_61.18" id="task_grid_v6_45.28_61.18">
	<SimpleField name="area_ha" type="float"></SimpleField>
	<SimpleField name="low_risk_ha" type="float"></SimpleField>
	<SimpleField name="moderate_risk_ha" type="float"></SimpleField>
	<SimpleField name="grid_cell_deg" type="string"></SimpleField>
</Schema>
<Folder><name>task_grid_v6_45.28_61.18</name>
  <Placemark id="task_grid_v6_45.28_61.18.1">
	<name>task_grid_v6_45.28_61.18</name>
	<name>687.6</name>
	<description>1791.8</description>
	<Style><LineStyle><color>ff0000ff</color></LineStyle><PolyStyle><fill>0</fill></PolyStyle></Style>
	<ExtendedData><SchemaData schemaUrl="#task_grid_v6_45.28_61.18">
		<SimpleData name="area_ha">1104.2</SimpleData>
		<SimpleData name="low_risk_ha">0.1</SimpleData>
	</SchemaData></ExtendedData>
      <MultiGeometry><Polygon><outerBoundaryIs><LinearRing><coordinates>61.1555977438172,45.238708550617 61.1569452167434,45.2373610776909 61.153938897128,45.2343547580755 61.1518666988017,45.2343547580755 61.1502078521125,45.2360136047647 61.1485490054233,45.2343547580755 61.146476807097,45.2343547580755 61.1434704874816,45.2373610776909 61.1555977438172,45.238708550617</coordinates></LinearRing></outerBoundaryIs></Polygon><Polygon><outerBoundaryIs><LinearRing><coordinates>61.1326907040722,45.253530752805 61.1299957582198,45.2562256986574 61.131343231146,45.2602681174359 61.1421230145554,45.2467933881741 61.1475129062601,45.2467933881741 61.1502078521125,45.2521832798788 61.1569452167434,45.2454459152479 61.1555977438172,45.2414034964694 61.1502078521125,45.2440984423218 61.139428068703,45.238708550617 61.1353856499245,45.2427509693956 61.1380805957769,45.2481408611003 61.1367331228507,45.2494883340265 61.131343231146,45.2440984423218 61.1273008123674,45.2454459152479 61.1326907040722,45.253530752805</coordinates></LinearRing></outerBoundaryIs></Polygon><Polygon><outerBoundaryIs><LinearRing><coordinates>61.1488603791863,45.2508358069527 61.1448179604078,45.2494883340265 61.1421230145554,45.2467933881741 61.1421230145554,45.2521832798788 61.1488603791863,45.2508358069527</coordinates></LinearRing></outerBoundaryIs></Polygon><Polygon><outerBoundaryIs><LinearRing><coordinates>61.1475129062601,45.2602681174359 61.1515553250387,45.2562256986574 61.1475129062601,45.2521832798788 61.1407755416292,45.253530752805 61.1475129062601,45.2602681174359</coordinates></LinearRing></outerBoundaryIs></Polygon><Polygon><outerBoundaryIs><LinearRing><coordinates>61.1340381769983,45.2710479008453 61.1263910613787,45.2800854011231 61.1263910613787,45.2895900612526 61.1286482852936,45.2899125218119 61.1263910613787,45.2899125218119 61.1263910613787,45.3119098105682 61.1286482852936,45.3141670344831 61.139428068703,45.306082196926 61.1353856499245,45.3101246157045 61.1448179604078,45.3114720886307 61.1448179604078,45.306082196926 61.1475129062601,45.3114720886307 61.1596401625957,45.3020397781475 61.1623351084481,45.2966498864428 61.1596401625957,45.2939549405904 61.1609876355219,45.2926074676642 61.183894675267,45.2885650488857 61.1744623647837,45.2872175759595 61.1717674189314,45.2845226301071 61.1609876355219,45.2899125218119 61.1623351084481,45.2804802113286 61.1512184568071,45.2734059784662 61.1582926896696,45.2764377925501 61.1596401625957,45.2750903196239 61.1555977438172,45.268352954993 61.1492566947528,45.2721575844316 61.1475129062601,45.2710479008453 61.1488603791863,45.2697004279192 61.1448179604078,45.2602681174359 61.1421230145554,45.2602681174359 61.1340381769983,45.268352954993 61.1263910613787,45.268352954993 61.1263910613787,45.2764377925501 61.1286482852936,45.2764377925501 61.1340381769983,45.2710479008453</coordinates></LinearRing></outerBoundaryIs><innerBoundaryIs><LinearRing><coordinates>61.131343231146,45.2872175759595 61.131343231146,45.2926074676642 61.1286482852936,45.2899125218119 61.131343231146,45.2872175759595</coordinates></LinearRing></innerBoundaryIs></Polygon><Polygon><outerBoundaryIs><LinearRing><coordinates>61.2202764442738,45.2548782257312 61.2135390796429,45.2562256986574 61.2229713901262,45.2575731715836 61.2229713901262,45.2521832798788 61.2202764442738,45.2548782257312</coordinates></LinearRing></outerBoundaryIs></Polygon><Polygon><outerBoundaryIs><LinearRing><coordinates>61.2202764442738,45.2791327384024 61.2216239172,45.2777852654762 61.2202764442738,45.2737428466977 61.2162340254953,45.2750903196239 61.2202764442738,45.2791327384024</coordinates></LinearRing></outerBoundaryIs></Polygon><Polygon><outerBoundaryIs><LinearRing><coordinates>61.1798522564884,45.3195569261878 61.1811997294146,45.3182094532616 61.1798522564884,45.3141670344831 61.1758098377099,45.3155145074093 61.1798522564884,45.3195569261878</coordinates></LinearRing></outerBoundaryIs></Polygon><Polygon><outerBoundaryIs><LinearRing><coordinates>61.1785047835622,45.3235993449663 61.191979512824,45.3289892366711 61.1865896211193,45.3316841825234 61.1919307722235,45.3343547580755 61.2027227407831,45.3343547580755 61.1946744586764,45.3289892366711 61.1973694045288,45.3235993449663 61.2027592962335,45.320904399114 61.1987168774549,45.3141670344831 61.191979512824,45.3155145074093 61.191979512824,45.320904399114 61.1946744586764,45.3235993449663 61.1933269857502,45.3249468178925 61.1852421481931,45.3195569261878 61.1785047835622,45.3235993449663</coordinates></LinearRing></outerBoundaryIs></Polygon><Polygon><outerBoundaryIs><LinearRing><coordinates>61.1839190455672,45.3343547580755 61.187888353445,45.3343547580755 61.1852421481931,45.3330316554496 61.1839190455672,45.3343547580755</coordinates></LinearRing></outerBoundaryIs></Polygon></MultiGeometry>
  </Placemark>
</Folder>
</Document></kml>
