<?xml version="1.0" encoding="utf-8" ?>
<kml xmlns="http://www.opengis.net/kml/2.2">
<Document id="root_doc">
<Schema name="task_grid_v6_46.11_60.56" id="task_grid_v6_46.11_60.56">
	<SimpleField name="area_ha" type="float"></SimpleField>
	<SimpleField name="low_risk_ha" type="float"></SimpleField>
	<SimpleField name="moderate_risk_ha" type="float"></SimpleField>
	<SimpleField name="grid_cell_deg" type="string"></SimpleField>
</Schema>
<Folder><name>task_grid_v6_46.11_60.56</name>
  <Placemark id="task_grid_v6_46.11_60.56.1">
	<name>task_grid_v6_46.11_60.56</name>
	<name>3114.7</name>
	<description>5015.5</description>
	<Style><LineStyle><color>ff0000ff</color></LineStyle><PolyStyle><fill>0</fill></PolyStyle></Style>
	<ExtendedData><SchemaData schemaUrl="#task_grid_v6_46.11_60.56">
		<SimpleData name="area_ha">1900.8</SimpleData>
		<SimpleData name="low_risk_ha">0.1</SimpleData>
	</SchemaData></ExtendedData>
      <MultiGeometry><Polygon><outerBoundaryIs><LinearRing><coordinates>60.5102213862645,46.1267563830564 60.5102213862645,46.1320515136303 60.5144701255411,46.129927143992 60.5142006309559,46.1307356277477 60.5102213862645,46.1320620426448 60.5102213862645,46.1322726229355 60.5112361905183,46.1353170356967 60.5102213862645,46.1348096335699 60.5102213862645,46.1401300337787 60.5102213862645,46.1401363511874 60.5102213862645,46.140483808667 60.5115056851035,46.1469053028619 60.5182430497344,46.1428628840833 60.5168955768082,46.1361255194524 60.5150581137271,46.1372279973011 60.5121794215666,46.1357886512209 60.5168955768082,46.1334305736001 60.5222854685129,46.1361255194524 60.5276753602177,46.1280406818954 60.5330652519224,46.1280406818954 60.5344127248486,46.1266932089692 60.5290228331438,46.1213033172645 60.5371076707009,46.1293881548215 60.5371076707009,46.1347780465263 60.545192508258,46.1428628840833 60.5424975624056,46.1455578299357 60.5492349270365,46.1496002487142 60.5505823999627,46.1482527757881 60.5573197645936,46.1496002487142 60.5573197645936,46.1469053028619 60.5519298728889,46.1469053028619 60.5613621833721,46.1455578299357 60.5546248187412,46.1442103570095 60.5573197645936,46.1388204653048 60.5627096562983,46.1415154111572 60.5667520750769,46.1347780465263 60.5573197645936,46.1334305736001 60.5654046021507,46.1334305736001 60.568099548003,46.1280406818954 60.5667520750769,46.1320831006739 60.568099548003,46.1334305736001 60.5734894397077,46.1307356277477 60.5734894397077,46.1280406818954 60.5896591148219,46.1280406818954 60.5923540606743,46.125345736043 60.6004388982313,46.125345736043 60.6031338440837,46.1280406818954 60.6102213862645,46.1280406818954 60.6102213862645,46.1216534948144 60.6085237357884,46.1199558443383 60.6058287899361,46.1226507901907 60.6031338440837,46.1199558443383 60.5950490065266,46.1199558443383 60.5923540606743,46.1145659526336 60.5907370931628,46.1140269634631 60.5950490065266,46.1118710067812 60.597743952379,46.1145659526336 60.6031338440837,46.1118710067812 60.6017863711575,46.1132184797074 60.6102213862645,46.1138673270233 60.6102213862645,46.1118710067812 60.6102213862645,46.1037861692241 60.6102213862645,46.0973989821432 60.6098712087146,46.0970488045932 60.6102213862645,46.0969787690833 60.6102213862645,46.08761649411 60.6102213862645,46.0795316565529 60.6102213862645,46.0714468189958 60.6102213862645,46.0660569272911 60.6085237357884,46.0660569272911 60.6058287899361,46.0687518731435 60.5923540606743,46.0687518731435 60.5896591148219,46.0714468189958 60.5842692231172,46.0714468189958 60.5815742772648,46.0687518731435 60.5788793314125,46.0714468189958 60.5707944938554,46.0714468189958 60.5654046021507,46.0768367107006 60.5654046021507,46.0741417648482 60.560014710446,46.0741417648482 60.5573197645936,46.0768367107006 60.5546248187412,46.0741417648482 60.5411500894794,46.0741417648482 60.5384551436271,46.0768367107006 60.5276753602177,46.0768367107006 60.5222854685129,46.0822266024053 60.5102213862645,46.0822266024053 60.5102213862645,46.0988243771324 60.5115056851035,46.0983962775194 60.5115056851035,46.1010912233718 60.5102213862645,46.1010912233718 60.5102213862645,46.1091760609289 60.5102213862645,46.1267563830564</coordinates></LinearRing></outerBoundaryIs><innerBoundaryIs><LinearRing><coordinates>60.5330652519224,46.0940843641556 60.5330652519224,46.0957013316671 60.5317177789962,46.0970488045932 60.53037030607,46.0957013316671 60.5330652519224,46.0940843641556</coordinates></LinearRing></innerBoundaryIs><innerBoundaryIs><LinearRing><coordinates>60.5505823999627,46.0997437504456 60.5505823999627,46.102438696298 60.5496199193011,46.1026311924303 60.5505823999627,46.0997437504456</coordinates></LinearRing></innerBoundaryIs><innerBoundaryIs><LinearRing><coordinates>60.515548103882,46.1266932089692 60.51509894624,46.1280406818954 60.5142006309559,46.125345736043 60.515548103882,46.1266932089692</coordinates></LinearRing></innerBoundaryIs><innerBoundaryIs><LinearRing><coordinates>60.515548103882,46.1159134255598 60.5168955768082,46.1145659526336 60.5195905226606,46.1145659526336 60.5195905226606,46.1172608984859 60.515548103882,46.1159134255598</coordinates></LinearRing></innerBoundaryIs><innerBoundaryIs><LinearRing><coordinates>60.5654046021507,46.0795316565529 60.5654046021507,46.0783339028408 60.5761843855601,46.0795316565529 60.5654046021507,46.0795316565529</coordinates></LinearRing></innerBoundaryIs><innerBoundaryIs><LinearRing><coordinates>60.5869641689695,46.0795316565529 60.5804962989239,46.077375699871 60.5815742772648,46.0768367107006 60.5869641689695,46.0795316565529</coordinates></LinearRing></innerBoundaryIs><innerBoundaryIs><LinearRing><coordinates>60.6031338440837,46.0779146890415 60.6058287899361,46.0795316565529 60.6031338440837,46.0822266024053 60.5734894397077,46.0822266024053 60.6044813170099,46.0808791294791 60.6013372135155,46.0795316565529 60.6031338440837,46.0795316565529 60.6031338440837,46.0779146890415</coordinates></LinearRing></innerBoundaryIs><innerBoundaryIs><LinearRing><coordinates>60.5654046021507,46.0930063858147 60.5627096562983,46.0957013316671 60.5613621833721,46.0943538587409 60.5640571292245,46.0916589128885 60.568099548003,46.0957013316671 60.5654046021507,46.0930063858147</coordinates></LinearRing></innerBoundaryIs><innerBoundaryIs><LinearRing><coordinates>60.5950490065266,46.0957013316671 60.597743952379,46.0930063858147 60.5990914253052,46.0943538587409 60.5963964794528,46.0970488045932 60.582921750191,46.0970488045932 60.5815742772648,46.0957013316671 60.582921750191,46.0943538587409 60.5950490065266,46.0957013316671</coordinates></LinearRing></innerBoundaryIs><innerBoundaryIs><LinearRing><coordinates>60.5869641689695,46.0983962775194 60.5842692231172,46.0983962775194 60.582921750191,46.0970488045932 60.5869641689695,46.0983962775194</coordinates></LinearRing></innerBoundaryIs><innerBoundaryIs><LinearRing><coordinates>60.5842692231172,46.0930063858147 60.5963964794528,46.0909851764254 60.5923540606743,46.0930063858147 60.582921750191,46.0943538587409 60.5842692231172,46.0930063858147</coordinates></LinearRing></innerBoundaryIs><innerBoundaryIs><LinearRing><coordinates>60.5937015336004,46.1051336421503 60.590332851285,46.0995191716246 60.5910065877481,46.0997437504456 60.5937015336004,46.1051336421503</coordinates></LinearRing></innerBoundaryIs><innerBoundaryIs><LinearRing><coordinates>60.5876379054326,46.1129939008864 60.5842692231172,46.1118710067812 60.5775318584863,46.1051336421503 60.5876379054326,46.1129939008864</coordinates></LinearRing></innerBoundaryIs><innerBoundaryIs><LinearRing><coordinates>60.568099548003,46.1226507901907 60.5640571292245,46.1159134255598 60.568099548003,46.1199558443383 60.5694470209292,46.1186083714121 60.5734894397077,46.1199558443383 60.5734894397077,46.1226507901907 60.568099548003,46.1226507901907</coordinates></LinearRing></innerBoundaryIs><innerBoundaryIs><LinearRing><coordinates>60.5168955768082,46.0903114399623 60.515548103882,46.0889639670362 60.5195905226606,46.08761649411 60.5209379955868,46.0889639670362 60.5168955768082,46.0903114399623</coordinates></LinearRing></innerBoundaryIs><innerBoundaryIs><LinearRing><coordinates>60.5519298728889,46.1199558443383 60.5505823999627,46.1186083714121 60.5532773458151,46.1186083714121 60.5519298728889,46.1199558443383</coordinates></LinearRing></innerBoundaryIs></Polygon><Polygon><outerBoundaryIs><LinearRing><coordinates>60.5292606224837,46.1378693079451 60.5330652519224,46.1442103570095 60.5344127248486,46.1428628840833 60.5330652519224,46.1361255194524 60.5310440425331,46.1367992559155 60.5344127248486,46.1347780465263 60.5330652519224,46.1307356277477 60.5263278872915,46.1347780465263 60.5276753602177,46.1388204653048 60.5292606224837,46.1378693079451</coordinates></LinearRing></outerBoundaryIs></Polygon><Polygon><outerBoundaryIs><LinearRing><coordinates>60.5586672375198,46.1536426674928 60.5573197645936,46.1496002487142 60.5532773458151,46.1536426674928 60.5546248187412,46.154990140419 60.5586672375198,46.1536426674928</coordinates></LinearRing></outerBoundaryIs></Polygon><Polygon><outerBoundaryIs><LinearRing><coordinates>60.5102213862645,46.1563376133451 60.515548103882,46.1563376133451 60.5102213862645,46.1540547343662 60.5102213862645,46.1563376133451</coordinates></LinearRing></outerBoundaryIs></Polygon><Polygon><outerBoundaryIs><LinearRing><coordinates>60.5586672375198,46.072794291922 60.5654046021507,46.0741417648482 60.5654046021507,46.0714468189958 60.560014710446,46.0714468189958 60.5586672375198,46.072794291922</coordinates></LinearRing></outerBoundaryIs></Polygon></MultiGeometry>
  </Placemark>
</Folder>
</Document></kml>
