<?xml version="1.0" encoding="utf-8" ?>
<kml xmlns="http://www.opengis.net/kml/2.2">
<Document id="root_doc">
<Schema name="task_grid_v6_45.48_59.18" id="task_grid_v6_45.48_59.18">
	<SimpleField name="area_ha" type="float"></SimpleField>
	<SimpleField name="low_risk_ha" type="float"></SimpleField>
	<SimpleField name="moderate_risk_ha" type="float"></SimpleField>
	<SimpleField name="grid_cell_deg" type="string"></SimpleField>
</Schema>
<Folder><name>task_grid_v6_45.48_59.18</name>
  <Placemark id="task_grid_v6_45.48_59.18.1">
	<name>task_grid_v6_45.48_59.18</name>
	<name>2420.1</name>
	<description>5328.9</description>
	<Style><LineStyle><color>ff0000ff</color></LineStyle><PolyStyle><fill>0</fill></PolyStyle></Style>
	<ExtendedData><SchemaData schemaUrl="#task_grid_v6_45.48_59.18">
		<SimpleData name="area_ha">2908.7</SimpleData>
		<SimpleData name="low_risk_ha">0.1</SimpleData>
	</SchemaData></ExtendedData>
      <MultiGeometry><Polygon><outerBoundaryIs><LinearRing><coordinates>59.162685285998,45.4367870707654 59.1602529733081,45.4343547580755 59.1263910613787,45.4343547580755 59.1263910613787,45.4493520490385 59.1263910613787,45.4569116202706 59.1263910613787,45.5108980817053 59.1289984628436,45.5108980817053 59.1316934086959,45.5135930275576 59.1330408816221,45.5122455546314 59.1319629032812,45.5079336412677 59.1357358274745,45.5041607170744 59.1343883545483,45.4974233524435 59.1303459357697,45.501465771222 59.1330408816221,45.4960758795173 59.1276509899174,45.4960758795173 59.1303459357697,45.4933809336649 59.1316934086959,45.4947284065911 59.1343883545483,45.4920334607388 59.1370833004006,45.4947284065911 59.1424731921053,45.4947284065911 59.1438206650315,45.4879910419602 59.1424731921053,45.486643569034 59.139778246253,45.4893385148864 59.1384307733268,45.4879910419602 59.1411257191792,45.4852960961079 59.1318532783651,45.4813221929018 59.1330408816221,45.4718213668461 59.1370833004006,45.4677789480675 59.1411257191792,45.4691264209937 59.1465156108839,45.4772112585508 59.1483813426278,45.4846741855265 59.1478630838101,45.4839486231817 59.1465156108839,45.4933809336649 59.1411257191792,45.4987708253696 59.1451681379577,45.5028132441482 59.1532529755148,45.5028132441482 59.1559479213671,45.5055081900005 59.1613378130719,45.5028132441482 59.1613378130719,45.5082031358529 59.1882872715954,45.5082031358529 59.1909822174478,45.5108980817053 59.1963721091525,45.5108980817053 59.1977195820787,45.5041607170744 59.2017620008572,45.5028132441482 59.2084993654881,45.5122455546314 59.1977195820787,45.5122455546314 59.2017620008572,45.51628797341 59.207151892562,45.51628797341 59.2098468384143,45.5189829192623 59.2165842030452,45.5149405004838 59.2084993654881,45.5068556629267 59.2098468384143,45.5055081900005 59.215236730119,45.5082031358529 59.2206266218238,45.5055081900005 59.2219740947499,45.5095506087791 59.2192791488976,45.5122455546314 59.2263910613787,45.517325492118 59.2263910613787,45.506257285701 59.2260165135285,45.5055081900005 59.2263910613787,45.5055830995706 59.2263910613787,45.502438696298 59.2260165135285,45.5028132441482 59.2246690406023,45.501465771222 59.2263910613787,45.501465771222 59.2263910613787,45.4973484428734 59.2260165135285,45.4974233524435 59.2192791488976,45.4906859878126 59.2260165135285,45.4893385148864 59.2263910613787,45.4889639670362 59.2263910613787,45.4834621606437 59.2246690406023,45.4826011502555 59.2260165135285,45.4812536773293 59.2263910613787,45.4814784060394 59.2263910613787,45.4680530169346 59.2233215676761,45.4731688397722 59.2192791488976,45.4718213668461 59.2206266218238,45.4677789480675 59.2260165135285,45.4650840022152 59.2263910613787,45.4654585500654 59.2263910613787,45.4620145085126 59.2260165135285,45.4623890563628 59.2246690406023,45.4583466375843 59.2263910613787,45.4577726306588 59.2263910613787,45.4541169448806 59.2260165135285,45.4543042188057 59.2206266218238,45.4462193812487 59.2179316759714,45.4462193812487 59.2192791488976,45.4583466375843 59.2165842030452,45.4583466375843 59.215236730119,45.4543042188057 59.2111943113405,45.4583466375843 59.2125417842667,45.4623890563628 59.2165842030452,45.463736529289 59.2138892571929,45.4691264209937 59.2165842030452,45.4718213668461 59.2111943113405,45.4718213668461 59.2111943113405,45.4772112585508 59.2138892571929,45.4799062044031 59.2084993654881,45.4852960961079 59.2192791488976,45.4852960961079 59.2138892571929,45.4906859878126 59.2192791488976,45.501465771222 59.2179316759714,45.5028132441482 59.2111943113405,45.4933809336649 59.2031094737834,45.4879910419602 59.2031094737834,45.4826011502555 59.1977195820787,45.4799062044031 59.2004145279311,45.4772112585508 59.1950246362263,45.4745163126984 59.1950246362263,45.4664314751413 59.1896347445216,45.4583466375843 59.1936771633002,45.4543042188057 59.1990670550049,45.4596941105104 59.2058044196358,45.4583466375843 59.1990670550049,45.4516092729534 59.1828973798907,45.448914327101 59.1828973798907,45.4381345436916 59.177507488186,45.4381345436916 59.1748125423337,45.4354395978392 59.1727913329444,45.4361133343023 59.1757222933224,45.4343547580755 59.1676937684298,45.4343547580755 59.1675327578209,45.4343547580755 59.1605156064706,45.4343547580755 59.1653802318504,45.4367870707654 59.1599903401457,45.4394820166178 59.162685285998,45.4367870707654</coordinates></LinearRing></outerBoundaryIs><innerBoundaryIs><LinearRing><coordinates>59.1698189661955,45.4378967543517 59.1709774270822,45.4372016778196 59.1734650694075,45.4421769624701 59.1707701235551,45.4448719083225 59.1724544647128,45.4462193812487 59.1694226506289,45.4462193812487 59.1667277047766,45.4435244353963 59.1640327589242,45.4462193812487 59.1599903401457,45.4448719083225 59.1599903401457,45.4394820166178 59.1694226506289,45.4435244353963 59.1707701235551,45.4394820166178 59.1698189661955,45.4378967543517</coordinates></LinearRing></innerBoundaryIs><innerBoundaryIs><LinearRing><coordinates>59.1559479213671,45.4893385148864 59.1613378130719,45.4893385148864 59.1572953942933,45.4933809336649 59.1613378130719,45.4941894174206 59.1586428672195,45.4947284065911 59.1559479213671,45.4920334607388 59.1532529755148,45.4974233524435 59.150019040492,45.4985013307844 59.1492105567363,45.4960758795173 59.154600448441,45.4933809336649 59.1534775543358,45.4918088819177 59.1559479213671,45.4893385148864</coordinates></LinearRing></innerBoundaryIs><innerBoundaryIs><LinearRing><coordinates>59.192329690374,45.4960758795173 59.1950246362263,45.4987708253696 59.1936771633002,45.5001182982958 59.1882872715954,45.4974233524435 59.192329690374,45.4960758795173</coordinates></LinearRing></innerBoundaryIs><innerBoundaryIs><LinearRing><coordinates>59.1977195820787,45.4933809336649 59.1963721091525,45.4920334607388 59.1990670550049,45.4893385148864 59.2031094737834,45.4933809336649 59.1990670550049,45.5001182982958 59.1963721091525,45.4947284065911 59.1977195820787,45.4933809336649</coordinates></LinearRing></innerBoundaryIs><innerBoundaryIs><LinearRing><coordinates>59.1950246362263,45.4906859878126 59.1950246362263,45.4852960961079 59.1963721091525,45.4920334607388 59.1950246362263,45.4906859878126</coordinates></LinearRing></innerBoundaryIs><innerBoundaryIs><LinearRing><coordinates>59.192329690374,45.4799062044031 59.1896347445216,45.4772112585508 59.1950246362263,45.4799062044031 59.1896347445216,45.4826011502555 59.192329690374,45.4799062044031</coordinates></LinearRing></innerBoundaryIs><innerBoundaryIs><LinearRing><coordinates>59.1761600152598,45.4529567458795 59.1748125423337,45.4516092729534 59.1736575655398,45.455074203335 59.1707701235551,45.4502618000272 59.1748125423337,45.448914327101 59.1748125423337,45.4481058433453 59.1771528900475,45.4499781215164 59.1761600152598,45.4529567458795</coordinates></LinearRing></innerBoundaryIs><innerBoundaryIs><LinearRing><coordinates>59.1748125423337,45.4569991646581 59.1741388058706,45.4558762705529 59.1761600152598,45.456550007016 59.1748125423337,45.4569991646581</coordinates></LinearRing></innerBoundaryIs><innerBoundaryIs><LinearRing><coordinates>59.1572953942933,45.4718213668461 59.1519055025886,45.4691264209937 59.1559479213671,45.4704738939199 59.1572953942933,45.4691264209937 59.1586428672195,45.4704738939199 59.1640327589242,45.4704738939199 59.1572953942933,45.4718213668461</coordinates></LinearRing></innerBoundaryIs><innerBoundaryIs><LinearRing><coordinates>59.1680751777028,45.4799062044031 59.1658702220054,45.4821111601005 59.1572953942933,45.4718213668461 59.1680751777028,45.4799062044031</coordinates></LinearRing></innerBoundaryIs><innerBoundaryIs><LinearRing><coordinates>59.1505580296624,45.4569991646581 59.1599903401457,45.4610415834366 59.154600448441,45.463736529289 59.1559479213671,45.4677789480675 59.1532529755148,45.4650840022152 59.1519055025886,45.4691264209937 59.1505580296624,45.4569991646581</coordinates></LinearRing></innerBoundaryIs><innerBoundaryIs><LinearRing><coordinates>59.1707701235551,45.4852960961079 59.1707701235551,45.4879910419602 59.1669202009089,45.4833711347847 59.1707701235551,45.4852960961079</coordinates></LinearRing></innerBoundaryIs><innerBoundaryIs><LinearRing><coordinates>59.1572953942933,45.4529567458796 59.1613378130719,45.448914327101 59.1667277047766,45.448914327101 59.1680751777028,45.4556516917319 59.1734650694075,45.4610415834366 59.162685285998,45.4610415834366 59.1572953942933,45.4529567458796</coordinates></LinearRing></innerBoundaryIs><innerBoundaryIs><LinearRing><coordinates>59.1451681379577,45.4354395978392 59.1492105567363,45.4421769624701 59.1478630838101,45.4435244353963 59.1438206650315,45.4394820166178 59.1451681379577,45.4354395978392</coordinates></LinearRing></innerBoundaryIs><innerBoundaryIs><LinearRing><coordinates>59.1828973798907,45.4731688397722 59.1815499069645,45.4718213668461 59.1855923257431,45.4704738939199 59.1869397986693,45.4718213668461 59.1828973798907,45.4731688397722</coordinates></LinearRing></innerBoundaryIs><innerBoundaryIs><LinearRing><coordinates>59.1465156108839,45.4664314751413 59.1465156108839,45.463736529289 59.1492105567363,45.463736529289 59.1478630838101,45.4677789480675 59.1465156108839,45.4664314751413</coordinates></LinearRing></innerBoundaryIs><innerBoundaryIs><LinearRing><coordinates>59.1613378130719,45.4839486231817 59.162685285998,45.4852960961079 59.1599903401457,45.4852960961079 59.1613378130719,45.4839486231817</coordinates></LinearRing></innerBoundaryIs><innerBoundaryIs><LinearRing><coordinates>59.1734650694075,45.4664314751413 59.1748125423337,45.4650840022152 59.1748125423337,45.4677789480675 59.1734650694075,45.4664314751413</coordinates></LinearRing></innerBoundaryIs><innerBoundaryIs><LinearRing><coordinates>59.1478630838101,45.4462193812487 59.1492105567363,45.4475668541748 59.1465156108839,45.4475668541748 59.1478630838101,45.4462193812487</coordinates></LinearRing></innerBoundaryIs><innerBoundaryIs><LinearRing><coordinates>59.192329690374,45.5068556629267 59.1936771633002,45.5055081900005 59.1936771633002,45.5082031358529 59.192329690374,45.5068556629267</coordinates></LinearRing></innerBoundaryIs><innerBoundaryIs><LinearRing><coordinates>59.1896347445216,45.5041607170744 59.1882872715954,45.5055081900005 59.1882872715954,45.5028132441482 59.1896347445216,45.5041607170744</coordinates></LinearRing></innerBoundaryIs><innerBoundaryIs><LinearRing><coordinates>59.2031094737834,45.4987708253696 59.2044569467096,45.4974233524435 59.2044569467096,45.5001182982958 59.2031094737834,45.4987708253696</coordinates></LinearRing></innerBoundaryIs></Polygon><Polygon><outerBoundaryIs><LinearRing><coordinates>59.1492105567363,45.5068556629267 59.1424731921053,45.5028132441482 59.1384307733268,45.5041607170744 59.1384307733268,45.5095506087791 59.139778246253,45.5108980817053 59.1451681379577,45.5082031358529 59.1478630838101,45.5135930275576 59.1492105567363,45.5068556629267</coordinates></LinearRing></outerBoundaryIs></Polygon><Polygon><outerBoundaryIs><LinearRing><coordinates>59.154600448441,45.5122455546314 59.1613378130719,45.51628797341 59.1734650694075,45.5176354463362 59.1721175964813,45.5135930275576 59.1667277047766,45.5135930275576 59.1640327589242,45.5108980817053 59.154600448441,45.5122455546314</coordinates></LinearRing></outerBoundaryIs></Polygon><Polygon><outerBoundaryIs><LinearRing><coordinates>59.1384307733268,45.5284152297456 59.1384307733268,45.5149405004838 59.1370833004006,45.5135930275576 59.1289984628436,45.5189829192623 59.1263910613787,45.5174184783834 59.1263910613787,45.5217654095022 59.1303459357697,45.5257202838932 59.1289984628436,45.5270677568194 59.1263910613787,45.5270677568194 59.1263910613787,45.5343547580755 59.1348670563289,45.5343547580755 59.1384307733268,45.5284152297456</coordinates></LinearRing></outerBoundaryIs></Polygon><Polygon><outerBoundaryIs><LinearRing><coordinates>59.139778246253,45.5324576485241 59.1438206650315,45.531110175598 59.1424731921053,45.5243728109671 59.1384307733268,45.531110175598 59.139778246253,45.5324576485241</coordinates></LinearRing></outerBoundaryIs></Polygon><Polygon><outerBoundaryIs><LinearRing><coordinates>59.1837842594702,45.4343547580755 59.1855923257431,45.4354395978392 59.1866771655068,45.4343547580755 59.1837842594702,45.4343547580755</coordinates></LinearRing></outerBoundaryIs></Polygon><Polygon><outerBoundaryIs><LinearRing><coordinates>59.2138892571929,45.4367870707654 59.2206266218238,45.4381345436916 59.2206266218238,45.4354395978392 59.215236730119,45.4354395978392 59.2138892571929,45.4367870707654</coordinates></LinearRing></outerBoundaryIs></Polygon><Polygon><outerBoundaryIs><LinearRing><coordinates>59.1977195820787,45.4475668541748 59.1963721091525,45.4408294895439 59.192329690374,45.4475668541748 59.1936771633002,45.448914327101 59.1977195820787,45.4475668541748</coordinates></LinearRing></outerBoundaryIs></Polygon><Polygon><outerBoundaryIs><LinearRing><coordinates>59.2031094737834,45.4502618000272 59.2098468384143,45.4569991646581 59.2138892571929,45.4502618000272 59.2084993654881,45.4421769624701 59.2111943113405,45.4394820166178 59.2084993654881,45.4367870707654 59.2133639908679,45.4343547580755 59.2055417864733,45.4343547580755 59.2044569467096,45.4354395978392 59.2033721069459,45.4343547580755 59.1979822152412,45.4343547580755 59.2004145279311,45.4367870707654 59.2004145279311,45.4448719083225 59.2031094737834,45.4502618000272</coordinates></LinearRing></outerBoundaryIs></Polygon><Polygon><outerBoundaryIs><LinearRing><coordinates>59.1836952161917,45.5343547580755 59.1939786002496,45.5343547580755 59.192329690374,45.5338051214503 59.1936771633002,45.5297627026718 59.1977195820787,45.5284152297456 59.1963721091525,45.51628797341 59.1936771633002,45.51628797341 59.1909822174478,45.5216778651147 59.1855923257431,45.5243728109671 59.1802024340384,45.5216778651147 59.1788549611122,45.5257202838932 59.1842448528169,45.5338051214503 59.1836952161917,45.5343547580755</coordinates></LinearRing></outerBoundaryIs><innerBoundaryIs><LinearRing><coordinates>59.1882872715954,45.5297627026718 59.1869397986693,45.5284152297456 59.1896347445216,45.5284152297456 59.1882872715954,45.5297627026718</coordinates></LinearRing></innerBoundaryIs></Polygon><Polygon><outerBoundaryIs><LinearRing><coordinates>59.2263910613787,45.5296661334147 59.2263910613787,45.5254964545177 59.2246690406023,45.5203303921885 59.2206266218238,45.51628797341 59.2138892571929,45.5203303921885 59.215236730119,45.5243728109671 59.2219740947499,45.5257202838932 59.2167934102406,45.5343547580755 59.2227443533092,45.5343547580755 59.2263910613787,45.5296661334147</coordinates></LinearRing></outerBoundaryIs></Polygon><Polygon><outerBoundaryIs><LinearRing><coordinates>59.2138892571929,45.5284152297456 59.2125417842667,45.5243728109671 59.2084993654881,45.5257202838932 59.2125417842667,45.5297627026718 59.2138892571929,45.5284152297456</coordinates></LinearRing></outerBoundaryIs></Polygon><Polygon><outerBoundaryIs><LinearRing><coordinates>59.1613378130719,45.5324576485241 59.1607054432214,45.5343547580755 59.1784560429617,45.5343547580755 59.177507488186,45.5324576485241 59.1613378130719,45.5324576485241</coordinates></LinearRing></outerBoundaryIs></Polygon></MultiGeometry>
  </Placemark>
</Folder>
</Document></kml>
