<?xml version="1.0" encoding="utf-8" ?>
<kml xmlns="http://www.opengis.net/kml/2.2">
<Document id="root_doc">
<Schema name="task_grid_v6_45.88_61.48" id="task_grid_v6_45.88_61.48">
	<SimpleField name="area_ha" type="float"></SimpleField>
	<SimpleField name="low_risk_ha" type="float"></SimpleField>
	<SimpleField name="moderate_risk_ha" type="float"></SimpleField>
	<SimpleField name="grid_cell_deg" type="string"></SimpleField>
</Schema>
<Folder><name>task_grid_v6_45.88_61.48</name>
  <Placemark id="task_grid_v6_45.88_61.48.1">
	<name>task_grid_v6_45.88_61.48</name>
	<name>1069.3</name>
	<description>1199.7</description>
	<Style><LineStyle><color>ff0000ff</color></LineStyle><PolyStyle><fill>0</fill></PolyStyle></Style>
	<ExtendedData><SchemaData schemaUrl="#task_grid_v6_45.88_61.48">
		<SimpleData name="area_ha">130.4</SimpleData>
		<SimpleData name="low_risk_ha">0.1</SimpleData>
	</SchemaData></ExtendedData>
      <MultiGeometry><Polygon><outerBoundaryIs><LinearRing><coordinates>61.4484274684111,45.8343547580755 61.4466518958719,45.839681475693 61.4439569500196,45.8369865298406 61.4345246395363,45.8383340027668 61.4345246395363,45.8437238944715 61.4331771666101,45.8450713673977 61.4331771666101,45.839681475693 61.4277872749054,45.839681475693 61.4266322981115,45.8408364524869 61.4263910613787,45.8407024320797 61.4263910613787,45.8463700997234 61.4264398019792,45.8464188403239 61.4263910613787,45.8464675809244 61.4263910613787,45.8517599914281 61.4331771666101,45.8585460966595 61.4372195853887,45.8571986237333 61.4372195853887,45.8518087320286 61.439914531241,45.8491137861763 61.4372195853887,45.8464188403239 61.4385670583149,45.8423764215454 61.4412620041672,45.8477663132501 61.4439569500196,45.8450713673977 61.4493468417243,45.8477663132501 61.454736733429,45.8450713673977 61.4574316792814,45.8531562049548 61.4587791522075,45.8464188403239 61.4601266251337,45.8450713673977 61.4628215709861,45.8477663132501 61.4655165168384,45.8450713673977 61.4709064085432,45.8450713673977 61.4736013543955,45.8369865298406 61.4789912461002,45.839681475693 61.4816861919526,45.8369865298406 61.4843811378049,45.839681475693 61.4911185024358,45.8383340027668 61.4871392577445,45.8343547580755 61.4641690439123,45.8343547580755 61.4574948533686,45.8343547580755 61.4484274684111,45.8343547580755</coordinates></LinearRing></outerBoundaryIs><innerBoundaryIs><LinearRing><coordinates>61.431829693684,45.8464188403239 61.4345246395363,45.8491137861763 61.4331771666101,45.8531562049548 61.4291347478316,45.8464188403239 61.4314928254524,45.8440607627031 61.4331771666101,45.8450713673977 61.431829693684,45.8464188403239</coordinates></LinearRing></innerBoundaryIs><innerBoundaryIs><LinearRing><coordinates>61.4574316792814,45.839681475693 61.4560842063552,45.8383340027668 61.4589716483399,45.8400664679576 61.4574316792814,45.839681475693</coordinates></LinearRing></innerBoundaryIs><innerBoundaryIs><LinearRing><coordinates>61.469558935617,45.8383340027668 61.4682114626908,45.8423764215454 61.4682114626908,45.8383340027668 61.469558935617,45.8383340027668</coordinates></LinearRing></innerBoundaryIs><innerBoundaryIs><LinearRing><coordinates>61.4641690439123,45.8383340027668 61.4668639897646,45.8383340027668 61.4655165168384,45.839681475693 61.4641690439123,45.8383340027668</coordinates></LinearRing></innerBoundaryIs></Polygon><Polygon><outerBoundaryIs><LinearRing><coordinates>61.4951609212144,45.8531562049548 61.5018982858453,45.8491137861763 61.4951609212144,45.8423764215454 61.4911185024358,45.8437238944715 61.4951609212144,45.8531562049548</coordinates></LinearRing></outerBoundaryIs></Polygon><Polygon><outerBoundaryIs><LinearRing><coordinates>61.492465975362,45.8854955551831 61.4843811378049,45.8881905010355 61.4830336648788,45.892232919814 61.492465975362,45.8935803927402 61.4951609212144,45.8962753385925 61.4965083941406,45.892232919814 61.492465975362,45.8854955551831</coordinates></LinearRing></outerBoundaryIs></Polygon><Polygon><outerBoundaryIs><LinearRing><coordinates>61.454736733429,45.8935803927402 61.4466518958719,45.8935803927402 61.4453044229457,45.8949278656664 61.4493468417243,45.8989702844449 61.454736733429,45.8989702844449 61.454736733429,45.8935803927402</coordinates></LinearRing></outerBoundaryIs></Polygon><Polygon><outerBoundaryIs><LinearRing><coordinates>61.5005508129191,45.8693258800689 61.5032457587715,45.8666309342166 61.50728817755,45.8706733529951 61.50728817755,45.8760632446998 61.5045932316976,45.8787581905522 61.5059407046238,45.8801056634784 61.5086356504762,45.8801056634784 61.5099831234023,45.877410717626 61.5099831234023,45.8787581905522 61.5113305963285,45.8801056634784 61.5099831234023,45.8841480822569 61.5140255421809,45.8854955551831 61.5153730151071,45.8841480822569 61.5133518057178,45.8821268728677 61.5167204880333,45.8854955551831 61.5167204880333,45.877410717626 61.5194154338856,45.8801056634784 61.5180679609594,45.8841480822569 61.5248053255903,45.8881905010355 61.5261527985165,45.8841480822569 61.5227841162011,45.8821268728677 61.5234578526641,45.8814531364046 61.5194154338856,45.8747157717737 61.522110379738,45.8720208259213 61.5248053255903,45.8747157717737 61.5263910613787,45.8744892380896 61.5263910613787,45.8690090906837 61.522110379738,45.8666309342166 61.5167204880333,45.8693258800689 61.5126780692547,45.8598935695857 61.5059407046238,45.8558511508072 61.4978558670667,45.8558511508072 61.4978558670667,45.8639359883642 61.492465975362,45.8612410425119 61.4911185024358,45.8625885154381 61.4951609212144,45.8693258800689 61.5005508129191,45.8693258800689</coordinates></LinearRing></outerBoundaryIs><innerBoundaryIs><LinearRing><coordinates>61.5107086857472,45.8759595929363 61.5113305963285,45.8747157717737 61.5194154338856,45.8747157717737 61.5107086857472,45.8759595929363</coordinates></LinearRing></innerBoundaryIs></Polygon><Polygon><outerBoundaryIs><LinearRing><coordinates>61.5140255421809,45.8989702844449 61.5234578526641,45.8976228115187 61.5140255421809,45.8908854468878 61.5032457587715,45.8908854468878 61.4992033399929,45.8949278656664 61.5032457587715,45.8989702844449 61.5059407046238,45.8962753385925 61.5113305963285,45.8962753385925 61.5140255421809,45.8989702844449</coordinates></LinearRing></outerBoundaryIs></Polygon></MultiGeometry>
  </Placemark>
</Folder>
</Document></kml>
