<?xml version="1.0" encoding="utf-8" ?>
<kml xmlns="http://www.opengis.net/kml/2.2">
<Document id="root_doc">
<Schema name="task_grid_v6_45.38_61.08" id="task_grid_v6_45.38_61.08">
	<SimpleField name="area_ha" type="float"></SimpleField>
	<SimpleField name="low_risk_ha" type="float"></SimpleField>
	<SimpleField name="moderate_risk_ha" type="float"></SimpleField>
	<SimpleField name="grid_cell_deg" type="string"></SimpleField>
</Schema>
<Folder><name>task_grid_v6_45.38_61.08</name>
  <Placemark id="task_grid_v6_45.38_61.08.1">
	<name>task_grid_v6_45.38_61.08</name>
	<name>3550</name>
	<description>6020.9</description>
	<Style><LineStyle><color>ff0000ff</color></LineStyle><PolyStyle><fill>0</fill></PolyStyle></Style>
	<ExtendedData><SchemaData schemaUrl="#task_grid_v6_45.38_61.08">
		<SimpleData name="area_ha">2470.8</SimpleData>
		<SimpleData name="low_risk_ha">0.1</SimpleData>
	</SchemaData></ExtendedData>
      <MultiGeometry><Polygon><outerBoundaryIs><LinearRing><coordinates>61.0585796931323,45.3572861681208 61.0545372743538,45.3613285868994 61.063969584837,45.3626760598255 61.0626221119108,45.3640235327517 61.063969584837,45.3707608973826 61.0643545771016,45.3707608973826 61.0626221119108,45.3721083703088 61.0585796931323,45.3653710056779 61.0558847472799,45.3707608973826 61.0504948555752,45.3707608973826 61.0504948555752,45.3707608973826 61.0518423285014,45.3694134244564 61.0508156824624,45.3678734553979 61.0572322202061,45.3640235327517 61.049147382649,45.358633641047 61.0477999097229,45.3545912222685 61.0464524367967,45.3613285868994 61.0451049638705,45.3545912222685 61.041062545092,45.358633641047 61.0437574909443,45.3640235327517 61.0424100180181,45.3653710056779 61.0383675992396,45.3640235327517 61.0383675992396,45.358633641047 61.0356726533872,45.358633641047 61.0356726533872,45.3667184786041 61.0365388859826,45.3671997189348 61.0263910613787,45.3644321304065 61.0263910613787,45.3678421221547 61.0356726533872,45.3748033161612 61.0329777075349,45.3828881537182 61.0316302346087,45.381540680792 61.0275878158302,45.3828881537182 61.0275878158302,45.3855830995706 61.0309564981456,45.3862568360337 61.0263910613787,45.3869090412861 61.0263910613787,45.3936679371277 61.0275878158302,45.3936679371277 61.0263910613787,45.3948646915791 61.0263910613787,45.404854683038 61.0302827616825,45.3995478189874 61.0302827616825,45.4017527746847 61.0263910613787,45.4064228150493 61.0263910613787,45.4309982609102 61.0275878158302,45.4313971790607 61.0263910613787,45.4317960972112 61.0263910613787,45.4343547580755 61.0623594787484,45.4343547580755 61.0680776619062,45.4343547580755 61.0680120036156,45.434092124913 61.0747493682464,45.4327446519869 61.0760968411726,45.434092124913 61.0758342080102,45.4343547580755 61.0802705765324,45.4343547580755 61.078791787025,45.4313971790607 61.0868766245821,45.426007287356 61.0868766245821,45.4206173956512 61.0976564079915,45.4071426663895 61.0963089350653,45.4031002476109 61.0868766245821,45.4098376122418 61.0981055656336,45.4008544594006 61.0976564079915,45.4017527746847 61.1003513538438,45.4044477205371 61.1003513538438,45.4098376122418 61.0949614621391,45.4125325580942 61.0963089350653,45.4165749768727 61.0949614621391,45.4179224497989 61.093613989213,45.4165749768727 61.0922665162868,45.4206173956512 61.0963089350653,45.4219648685774 61.0976564079915,45.4206173956512 61.0963089350653,45.4192699227251 61.1003513538438,45.4179224497989 61.0992488759952,45.4146150162528 61.1043937726224,45.411185085168 61.1097836643271,45.4138800310204 61.1151735560318,45.4057951934633 61.1205634477365,45.4057951934633 61.1246058665151,45.4017527746847 61.1232583935889,45.3977103559062 61.1205634477365,45.4004053017586 61.1192159748104,45.3990578288324 61.1259533394413,45.3896255183491 61.1263910613787,45.3900632402866 61.1263910613787,45.3599811139732 61.1232583935889,45.3599811139732 61.1246058665151,45.358633641047 61.1205634477365,45.3572861681208 61.1192159748104,45.358633641047 61.1178685018842,45.3545912222685 61.1097836643271,45.3545912222685 61.1070887184747,45.3518962764161 61.10169882677,45.3518962764161 61.0990038809177,45.3545912222685 61.0976564079915,45.3559386951946 61.0963089350653,45.3545912222685 61.0949614621391,45.3572861681208 61.0949614621391,45.3532437493423 61.0855291516559,45.343811438859 61.0841816787297,45.3505488034899 61.0801392599512,45.3518962764161 61.0774443140988,45.3572861681208 61.0693594765417,45.3572861681208 61.0680120036156,45.3532437493423 61.0760968411726,45.3478538576376 61.0720544223941,45.3465063847114 61.0693594765417,45.3411164930067 61.0666645306894,45.343811438859 61.0612746389846,45.3411164930067 61.0572322202061,45.3451589117852 61.0572322202061,45.3559386951946 61.0612746389846,45.3559386951946 61.0585796931323,45.3572861681208</coordinates></LinearRing></outerBoundaryIs><innerBoundaryIs><LinearRing><coordinates>61.063969584837,45.3559386951946 61.0653170577632,45.3559386951946 61.0653170577632,45.3613285868994 61.063969584837,45.3626760598255 61.063969584837,45.3559386951946</coordinates></LinearRing></innerBoundaryIs><innerBoundaryIs><LinearRing><coordinates>61.0976564079915,45.3936679371277 61.1003513538438,45.39636288298 61.0996776173808,45.3977103559062 61.0976564079915,45.3936679371277</coordinates></LinearRing></innerBoundaryIs><innerBoundaryIs><LinearRing><coordinates>61.1106819796112,45.3819898384341 61.1111311372533,45.3828881537182 61.1102328219692,45.3837864690023 61.1106819796112,45.3819898384341</coordinates></LinearRing></innerBoundaryIs><innerBoundaryIs><LinearRing><coordinates>61.106280234719,45.3624065652403 61.1057412455486,45.3613285868994 61.1068641396537,45.3606548504363 61.106280234719,45.3624065652403</coordinates></LinearRing></innerBoundaryIs><innerBoundaryIs><LinearRing><coordinates>61.1057412455486,45.3730066855929 61.1057412455486,45.3694134244564 61.1084361914009,45.3667184786041 61.1057412455486,45.3730066855929</coordinates></LinearRing></innerBoundaryIs><innerBoundaryIs><LinearRing><coordinates>61.1043937726224,45.3761507890873 61.1033831679278,45.3755893420348 61.1048429302644,45.3751027545892 61.1043937726224,45.3761507890873</coordinates></LinearRing></innerBoundaryIs><innerBoundaryIs><LinearRing><coordinates>61.0922665162868,45.3694134244564 61.0928884268681,45.368584210348 61.0933689941355,45.3700259121501 61.0922665162868,45.3694134244564</coordinates></LinearRing></innerBoundaryIs><innerBoundaryIs><LinearRing><coordinates>61.0720544223941,45.3599811139732 61.0747493682464,45.3626760598255 61.0732334612045,45.3638550986359 61.0707069494679,45.3613285868994 61.0720544223941,45.3599811139732</coordinates></LinearRing></innerBoundaryIs><innerBoundaryIs><LinearRing><coordinates>61.093613989213,45.3599811139732 61.092536010872,45.3594421248027 61.0941529783834,45.3589031356322 61.093613989213,45.3599811139732</coordinates></LinearRing></innerBoundaryIs><innerBoundaryIs><LinearRing><coordinates>61.041062545092,45.3748033161612 61.0437574909443,45.3721083703088 61.0417362815551,45.3700871609195 61.0470649244904,45.3730475181058 61.0424100180181,45.3761507890873 61.041062545092,45.3748033161612</coordinates></LinearRing></innerBoundaryIs><innerBoundaryIs><LinearRing><coordinates>61.0316302346087,45.3977103559062 61.0424100180181,45.3869305724968 61.0316302346087,45.3977103559062 61.0316302346087,45.3977103559062</coordinates></LinearRing></innerBoundaryIs><innerBoundaryIs><LinearRing><coordinates>61.0569627256209,45.3853136049854 61.0545372743538,45.3828881537182 61.0558847472799,45.381540680792 61.0580407039618,45.3836966374739 61.0569627256209,45.3853136049854</coordinates></LinearRing></innerBoundaryIs><innerBoundaryIs><LinearRing><coordinates>61.0616115072162,45.3791826031712 61.0626221119108,45.3774982620135 61.0653170577632,45.3801932078659 61.063969584837,45.381540680792 61.0616115072162,45.3791826031712</coordinates></LinearRing></innerBoundaryIs><innerBoundaryIs><LinearRing><coordinates>61.1057412455486,45.3855830995706 61.10169882677,45.3896255183491 61.1003513538438,45.3882780454229 61.1057412455486,45.3855830995706</coordinates></LinearRing></innerBoundaryIs><innerBoundaryIs><LinearRing><coordinates>61.0329777075349,45.4206173956512 61.0316302346087,45.4219648685774 61.0302827616825,45.4206173956512 61.0329777075349,45.4206173956512</coordinates></LinearRing></innerBoundaryIs><innerBoundaryIs><LinearRing><coordinates>61.116521028958,45.3936679371277 61.1151735560318,45.3950154100538 61.1138260831056,45.3936679371277 61.116521028958,45.3936679371277</coordinates></LinearRing></innerBoundaryIs></Polygon><Polygon><outerBoundaryIs><LinearRing><coordinates>61.0263910613787,45.3547419407432 61.0343251804611,45.3626760598255 61.0356726533872,45.358633641047 61.0289352887564,45.3518962764161 61.0263910613787,45.3527443522087 61.0263910613787,45.3547419407432</coordinates></LinearRing></outerBoundaryIs></Polygon><Polygon><outerBoundaryIs><LinearRing><coordinates>61.1045967131691,45.3343547580755 61.100732864637,45.3343547580755 61.10169882677,45.3411164930067 61.1045967131691,45.3343547580755</coordinates></LinearRing></outerBoundaryIs></Polygon><Polygon><outerBoundaryIs><LinearRing><coordinates>61.0963089350653,45.3465063847114 61.0976564079915,45.3424639659329 61.0909190433606,45.3384215471543 61.0895715704344,45.3343791283758 61.0922665162868,45.3343791283758 61.093613989213,45.3384215471543 61.0976564079915,45.3343791283758 61.0976320376912,45.3343547580755 61.0841451232793,45.3343547580755 61.0841816787297,45.3343791283758 61.0814867328773,45.3397690200805 61.0828342058035,45.343811438859 61.0882240975082,45.3411164930067 61.0963089350653,45.3465063847114</coordinates></LinearRing></outerBoundaryIs></Polygon></MultiGeometry>
  </Placemark>
</Folder>
</Document></kml>
