<?xml version="1.0" encoding="utf-8" ?>
<kml xmlns="http://www.opengis.net/kml/2.2">
<Document id="root_doc">
<Schema name="task_grid_v6_46.38_60.08" id="task_grid_v6_46.38_60.08">
	<SimpleField name="area_ha" type="float"></SimpleField>
	<SimpleField name="low_risk_ha" type="float"></SimpleField>
	<SimpleField name="moderate_risk_ha" type="float"></SimpleField>
	<SimpleField name="grid_cell_deg" type="string"></SimpleField>
</Schema>
<Folder><name>task_grid_v6_46.38_60.08</name>
  <Placemark id="task_grid_v6_46.38_60.08.1">
	<name>task_grid_v6_46.38_60.08</name>
	<name>115.4</name>
	<description>115.4</description>
	<Style><LineStyle><color>ff0000ff</color></LineStyle><PolyStyle><fill>0</fill></PolyStyle></Style>
	<ExtendedData><SchemaData schemaUrl="#task_grid_v6_46.38_60.08">
		<SimpleData name="area_ha">0</SimpleData>
		<SimpleData name="low_risk_ha">0.1</SimpleData>
	</SchemaData></ExtendedData>
      <Polygon><outerBoundaryIs><LinearRing><coordinates>60.0735769840952,46.3368989854532 60.0735769840952,46.3395939313055 60.0803143487261,46.3409414042317 60.0830092945785,46.3382464583793 60.0843567675047,46.3395939313055 60.0816618216523,46.3449838230102 60.0857042404309,46.3463312959364 60.0937890779879,46.335551512527 60.0997728502453,46.3343547580755 60.0786654388506,46.3343547580755 60.0735769840952,46.3368989854532</coordinates></LinearRing></outerBoundaryIs></Polygon>
  </Placemark>
</Folder>
</Document></kml>
