<?xml version="1.0" encoding="utf-8" ?>
<kml xmlns="http://www.opengis.net/kml/2.2">
<Document id="root_doc">
<Schema name="task_grid_v6_46.11_60.66" id="task_grid_v6_46.11_60.66">
	<SimpleField name="area_ha" type="float"></SimpleField>
	<SimpleField name="low_risk_ha" type="float"></SimpleField>
	<SimpleField name="moderate_risk_ha" type="float"></SimpleField>
	<SimpleField name="grid_cell_deg" type="string"></SimpleField>
</Schema>
<Folder><name>task_grid_v6_46.11_60.66</name>
  <Placemark id="task_grid_v6_46.11_60.66.1">
	<name>task_grid_v6_46.11_60.66</name>
	<name>3047.4</name>
	<description>4351</description>
	<Style><LineStyle><color>ff0000ff</color></LineStyle><PolyStyle><fill>0</fill></PolyStyle></Style>
	<ExtendedData><SchemaData schemaUrl="#task_grid_v6_46.11_60.66">
		<SimpleData name="area_ha">1303.6</SimpleData>
		<SimpleData name="low_risk_ha">0.1</SimpleData>
	</SchemaData></ExtendedData>
      <MultiGeometry><Polygon><outerBoundaryIs><LinearRing><coordinates>60.6102213862645,46.0714468189958 60.6102213862645,46.0795316565529 60.6102213862645,46.08761649411 60.6102213862645,46.0969787690833 60.6166085733455,46.0957013316671 60.6211001497661,46.0986957159475 60.6179560462717,46.0997437504456 60.6166085733455,46.0983962775194 60.6139136274931,46.1010912233718 60.6102213862645,46.0973989821432 60.6102213862645,46.1037861692241 60.6102213862645,46.1118710067812 60.6102213862645,46.1138673270233 60.6193035191978,46.1145659526336 60.6193035191978,46.1118710067812 60.6219984650502,46.1145659526336 60.6255917261867,46.1145659526336 60.6233459379764,46.1159134255598 60.6246934109026,46.1172608984859 60.6408630860167,46.1172608984859 60.6435580318691,46.1199558443383 60.6462529777214,46.1172608984859 60.6489479235738,46.1199558443383 60.6570327611309,46.1199558443383 60.6597277069832,46.1226507901907 60.6705074903927,46.1226507901907 60.6785923279497,46.1280406818954 60.6839822196545,46.125345736043 60.6866771655068,46.1280406818954 60.6920670572115,46.125345736043 60.6947620030639,46.1280406818954 60.6961094759901,46.1266932089692 60.7095842052519,46.1347780465263 60.7068892593995,46.1374729923786 60.7102213862645,46.1390279849156 60.7102213862645,46.1246354441295 60.7095842052519,46.1239982631168 60.7102213862645,46.1239982631168 60.7102213862645,46.1134915572843 60.7102213862645,46.1128633337507 60.7102213862645,46.1128361710998 60.7101966929456,46.1128509870912 60.7082367323257,46.1118710067812 60.7001518947686,46.1118710067812 60.7085361707537,46.1106732530691 60.7102213862645,46.1115158608245 60.7102213862645,46.0964116235806 60.7102213862645,46.0964116235806 60.7102213862645,46.0922960939012 60.7102213862645,46.0922960939012 60.7102213862645,46.0905969445341 60.7095842052519,46.0916589128885 60.7082367323257,46.0903114399623 60.7082367323257,46.08761649411 60.702846840621,46.08761649411 60.7014993676948,46.0889639670362 60.6947620030639,46.0822266024053 60.6893721113592,46.0795316565529 60.6839822196545,46.0822266024053 60.6839822196545,46.0768367107006 60.6705074903927,46.0741417648482 60.6624226528356,46.0687518731435 60.6610751799094,46.0700993460697 60.6570327611309,46.0660569272911 60.6516428694261,46.0687518731435 60.6502953965,46.0647094543649 60.6381681401644,46.0633619814388 60.6327782484596,46.0660569272911 60.6273883567549,46.0633619814388 60.6273883567549,46.0660569272911 60.6246934109026,46.0633619814388 60.620650992124,46.0647094543649 60.6219984650502,46.0687518731435 60.6193035191978,46.0660569272911 60.6102213862645,46.0660569272911 60.6102213862645,46.0714468189958</coordinates></LinearRing></outerBoundaryIs><innerBoundaryIs><LinearRing><coordinates>60.702846840621,46.0903114399623 60.7014993676948,46.0889639670362 60.7082367323257,46.0903114399623 60.702846840621,46.0903114399623</coordinates></LinearRing></innerBoundaryIs><innerBoundaryIs><LinearRing><coordinates>60.6597277069832,46.0714468189958 60.6327782484596,46.0714468189958 60.6610751799094,46.0700993460697 60.6597277069832,46.0714468189958</coordinates></LinearRing></innerBoundaryIs><innerBoundaryIs><LinearRing><coordinates>60.6273883567549,46.0676738948025 60.6273883567549,46.0687518731435 60.6219984650502,46.0687518731435 60.6273883567549,46.0676738948025</coordinates></LinearRing></innerBoundaryIs><innerBoundaryIs><LinearRing><coordinates>60.6476004506476,46.0674044002173 60.6462529777214,46.0687518731435 60.6449055047953,46.0674044002173 60.6476004506476,46.0674044002173</coordinates></LinearRing></innerBoundaryIs><innerBoundaryIs><LinearRing><coordinates>60.6573696293624,46.1135553479389 60.6570327611309,46.1145659526336 60.6559547827899,46.1140269634631 60.6573696293624,46.1135553479389</coordinates></LinearRing></innerBoundaryIs><innerBoundaryIs><LinearRing><coordinates>60.6574257740677,46.1103550997393 60.658380234057,46.110523533855 60.657931076415,46.1118710067812 60.6574257740677,46.1103550997393</coordinates></LinearRing></innerBoundaryIs><innerBoundaryIs><LinearRing><coordinates>60.6462529777214,46.1091760609289 60.6452904970599,46.1082135802673 60.650744554142,46.1091760609289 60.6462529777214,46.1091760609289</coordinates></LinearRing></innerBoundaryIs><innerBoundaryIs><LinearRing><coordinates>60.635473194312,46.1118710067812 60.6300833026073,46.1064811150765 60.6246934109026,46.1064811150765 60.6223834573148,46.0995512543133 60.6246934109026,46.1010912233718 60.6300833026073,46.1010912233718 60.635473194312,46.1064811150765 60.6418658565664,46.1076092319449 60.635473194312,46.1118710067812</coordinates></LinearRing></innerBoundaryIs><innerBoundaryIs><LinearRing><coordinates>60.6866771655068,46.0930063858147 60.7025631621102,46.1066229543319 60.6974569489162,46.1037861692241 60.6866771655068,46.0930063858147</coordinates></LinearRing></innerBoundaryIs><innerBoundaryIs><LinearRing><coordinates>60.6808830319242,46.0915241655959 60.6805172892728,46.0926213935501 60.6799398008759,46.0916589128885 60.6808830319242,46.0915241655959</coordinates></LinearRing></innerBoundaryIs><innerBoundaryIs><LinearRing><coordinates>60.6368206672382,46.0970488045932 60.6381681401644,46.0957013316671 60.6395156130905,46.0970488045932 60.6368206672382,46.0970488045932</coordinates></LinearRing></innerBoundaryIs><innerBoundaryIs><LinearRing><coordinates>60.6516428694261,46.0903114399623 60.6529903423523,46.0916589128885 60.6516428694261,46.0930063858147 60.6516428694261,46.0903114399623</coordinates></LinearRing></innerBoundaryIs><innerBoundaryIs><LinearRing><coordinates>60.6799398008759,46.0808791294791 60.6785923279497,46.0822266024053 60.6772448550236,46.0808791294791 60.6799398008759,46.0808791294791</coordinates></LinearRing></innerBoundaryIs></Polygon><Polygon><outerBoundaryIs><LinearRing><coordinates>60.6112186816408,46.1226507901907 60.6102213862645,46.1216534948144 60.6102213862645,46.1280406818954 60.6139136274931,46.1280406818954 60.6166085733455,46.1307356277477 60.6233459379764,46.1293881548215 60.6166085733455,46.1226507901907 60.6112186816408,46.1226507901907</coordinates></LinearRing></outerBoundaryIs></Polygon><Polygon><outerBoundaryIs><LinearRing><coordinates>60.6489479235738,46.1334305736001 60.6637701257618,46.1320831006739 60.6570327611309,46.1280406818954 60.6516428694261,46.1280406818954 60.6489479235738,46.1307356277477 60.6462529777214,46.1280406818954 60.635473194312,46.1280406818954 60.6327782484596,46.125345736043 60.6287358296811,46.1266932089692 60.635473194312,46.1307356277477 60.6381681401644,46.1361255194524 60.6408630860167,46.1334305736001 60.6462529777214,46.1361255194524 60.6489479235738,46.1334305736001</coordinates></LinearRing></outerBoundaryIs></Polygon><Polygon><outerBoundaryIs><LinearRing><coordinates>60.7102213862645,46.1462242553087 60.7102213862645,46.1444471209807 60.7068892593995,46.1455578299357 60.7102213862645,46.1462242553087</coordinates></LinearRing></outerBoundaryIs></Polygon></MultiGeometry>
  </Placemark>
</Folder>
</Document></kml>
