<?xml version="1.0" encoding="utf-8" ?>
<kml xmlns="http://www.opengis.net/kml/2.2">
<Document id="root_doc">
<Schema name="task_grid_v6_45.88_59.88" id="task_grid_v6_45.88_59.88">
	<SimpleField name="area_ha" type="float"></SimpleField>
	<SimpleField name="low_risk_ha" type="float"></SimpleField>
	<SimpleField name="moderate_risk_ha" type="float"></SimpleField>
	<SimpleField name="grid_cell_deg" type="string"></SimpleField>
</Schema>
<Folder><name>task_grid_v6_45.88_59.88</name>
  <Placemark id="task_grid_v6_45.88_59.88.1">
	<name>task_grid_v6_45.88_59.88</name>
	<name>111.7</name>
	<description>447.3</description>
	<Style><LineStyle><color>ff0000ff</color></LineStyle><PolyStyle><fill>0</fill></PolyStyle></Style>
	<ExtendedData><SchemaData schemaUrl="#task_grid_v6_45.88_59.88">
		<SimpleData name="area_ha">335.6</SimpleData>
		<SimpleData name="low_risk_ha">0.1</SimpleData>
	</SchemaData></ExtendedData>
      <MultiGeometry><Polygon><outerBoundaryIs><LinearRing><coordinates>59.8512439512757,45.8477663132501 59.8525914242018,45.8482154708921 59.8498964783495,45.8491137861763 59.8525914242018,45.854503677881 59.8498964783495,45.8571986237333 59.8512439512757,45.8585460966595 59.8552863700542,45.8571986237333 59.8540736444206,45.8487095442984 59.8593287888327,45.8504612591024 59.8606762617589,45.8464188403239 59.8579813159065,45.8437238944715 59.8579813159065,45.8356390569145 59.8566970170676,45.8343547580755 59.8565706688932,45.8343547580755 59.853938897128,45.8369865298406 59.8495526108528,45.8343547580755 59.8418116407924,45.8343547580755 59.8418116407924,45.8356390569145 59.8472015324971,45.8410289486192 59.8445065866448,45.8464188403239 59.8485490054233,45.8504612591024 59.8512439512757,45.8477663132501</coordinates></LinearRing></outerBoundaryIs></Polygon><Polygon><outerBoundaryIs><LinearRing><coordinates>59.831031857383,45.8437238944715 59.8377692220139,45.8450713673977 59.8377692220139,45.8423764215454 59.8323793303091,45.8423764215454 59.831031857383,45.8437238944715</coordinates></LinearRing></outerBoundaryIs></Polygon><Polygon><outerBoundaryIs><LinearRing><coordinates>59.8445065866448,45.854503677881 59.8512439512757,45.8558511508072 59.8512439512757,45.8531562049548 59.8458540595709,45.8531562049548 59.8445065866448,45.854503677881</coordinates></LinearRing></outerBoundaryIs></Polygon><Polygon><outerBoundaryIs><LinearRing><coordinates>59.8350742761615,45.8693258800689 59.83911669494,45.8652834612904 59.8377692220139,45.8612410425119 59.8337268032353,45.8652834612904 59.8350742761615,45.8693258800689</coordinates></LinearRing></outerBoundaryIs></Polygon><Polygon><outerBoundaryIs><LinearRing><coordinates>59.831031857383,45.8625885154381 59.8364217490877,45.8598935695857 59.8269894386044,45.8585460966595 59.8263910613787,45.8591444738853 59.8263910613787,45.8719664279917 59.8269894386044,45.8720208259213 59.831031857383,45.8679784071428 59.831031857383,45.8625885154381</coordinates></LinearRing></outerBoundaryIs></Polygon><Polygon><outerBoundaryIs><LinearRing><coordinates>59.8296843844568,45.8881905010355 59.8337268032353,45.8868430281093 59.8323793303091,45.8828006093307 59.8283369115306,45.8841480822569 59.8296843844568,45.8881905010355</coordinates></LinearRing></outerBoundaryIs></Polygon><Polygon><outerBoundaryIs><LinearRing><coordinates>59.8606762617589,45.8868430281093 59.8674136263898,45.8881905010355 59.8674136263898,45.8854955551831 59.8620237346851,45.8854955551831 59.8606762617589,45.8868430281093</coordinates></LinearRing></outerBoundaryIs></Polygon><Polygon><outerBoundaryIs><LinearRing><coordinates>59.8269894386044,45.9205298512638 59.8283369115306,45.9191823783376 59.8263910613787,45.9159392947511 59.8263910613787,45.9209287694143 59.8269894386044,45.9205298512638</coordinates></LinearRing></outerBoundaryIs></Polygon><Polygon><outerBoundaryIs><LinearRing><coordinates>59.9199650705108,45.8383340027668 59.9263910613787,45.8392520014622 59.9263910613787,45.8369865298406 59.921312543437,45.8369865298406 59.9199650705108,45.8383340027668</coordinates></LinearRing></outerBoundaryIs></Polygon><Polygon><outerBoundaryIs><LinearRing><coordinates>59.8647186805375,45.8504612591024 59.8660661534636,45.8491137861763 59.8647186805375,45.8369865298406 59.8633712076113,45.8383340027668 59.8647186805375,45.8504612591024</coordinates></LinearRing></outerBoundaryIs></Polygon><Polygon><outerBoundaryIs><LinearRing><coordinates>59.9172701246584,45.8652834612904 59.9263910613787,45.8661126373559 59.9263910613787,45.8639359883642 59.9186175975846,45.8639359883642 59.9172701246584,45.8652834612904</coordinates></LinearRing></outerBoundaryIs></Polygon><Polygon><outerBoundaryIs><LinearRing><coordinates>59.8930156119872,45.8733682988475 59.8997529766181,45.877410717626 59.8997529766181,45.8720208259213 59.8943630849134,45.8720208259213 59.8930156119872,45.8733682988475</coordinates></LinearRing></outerBoundaryIs></Polygon><Polygon><outerBoundaryIs><LinearRing><coordinates>59.9240074892893,45.8801056634784 59.9253549622155,45.8787581905522 59.9240074892893,45.8747157717737 59.9199650705108,45.8760632446998 59.9240074892893,45.8801056634784</coordinates></LinearRing></outerBoundaryIs></Polygon><Polygon><outerBoundaryIs><LinearRing><coordinates>59.8903206661349,45.8814531364046 59.8970580307657,45.8828006093307 59.9011004495443,45.8787581905522 59.8943630849134,45.877410717626 59.8903206661349,45.8814531364046</coordinates></LinearRing></outerBoundaryIs></Polygon><Polygon><outerBoundaryIs><LinearRing><coordinates>59.868761099316,45.8976228115187 59.8674136263898,45.8935803927402 59.8633712076113,45.8949278656664 59.8674136263898,45.8989702844449 59.868761099316,45.8976228115187</coordinates></LinearRing></outerBoundaryIs></Polygon><Polygon><outerBoundaryIs><LinearRing><coordinates>59.9253549622155,45.8976228115187 59.921312543437,45.8935803927402 59.9172701246584,45.8949278656664 59.9240074892893,45.8989702844449 59.9253549622155,45.8976228115187</coordinates></LinearRing></outerBoundaryIs></Polygon></MultiGeometry>
  </Placemark>
</Folder>
</Document></kml>
