<?xml version="1.0" encoding="utf-8" ?>
<kml xmlns="http://www.opengis.net/kml/2.2">
<Document id="root_doc">
<Schema name="task_grid_v6_46.01_59.36" id="task_grid_v6_46.01_59.36">
	<SimpleField name="area_ha" type="float"></SimpleField>
	<SimpleField name="low_risk_ha" type="float"></SimpleField>
	<SimpleField name="moderate_risk_ha" type="float"></SimpleField>
	<SimpleField name="grid_cell_deg" type="string"></SimpleField>
</Schema>
<Folder><name>task_grid_v6_46.01_59.36</name>
  <Placemark id="task_grid_v6_46.01_59.36.1">
	<name>task_grid_v6_46.01_59.36</name>
	<name>2679.7</name>
	<description>3848.9</description>
	<Style><LineStyle><color>ff0000ff</color></LineStyle><PolyStyle><fill>0</fill></PolyStyle></Style>
	<ExtendedData><SchemaData schemaUrl="#task_grid_v6_46.01_59.36">
		<SimpleData name="area_ha">1169.1</SimpleData>
		<SimpleData name="low_risk_ha">0.1</SimpleData>
	</SchemaData></ExtendedData>
      <MultiGeometry><Polygon><outerBoundaryIs><LinearRing><coordinates>59.4052304127103,45.9811661329418 59.4092728314888,45.9852085517204 59.4102213862645,45.9850188407652 59.4102213862645,45.979894019253 59.4065778856365,45.9744287683109 59.4052304127103,45.9757762412371 59.4052304127103,45.9811661329418</coordinates></LinearRing></outerBoundaryIs></Polygon><Polygon><outerBoundaryIs><LinearRing><coordinates>59.3715435895558,45.9852085517204 59.3688486437035,45.9879034975727 59.3634587519988,45.9852085517204 59.3594163332202,45.9919459163513 59.3553739144417,45.9852085517204 59.349984022737,45.9879034975727 59.3378567664014,46.0027256997607 59.3311194017705,46.0067681185392 59.3297719288443,46.0054206456131 59.3405517122537,45.9946408622036 59.3338143476228,45.9932933892774 59.3284244559181,45.9959883351298 59.3257295100657,45.9932933892774 59.3243820371396,45.997335808056 59.3297719288443,46.0000307539083 59.3243820371396,46.0054206456131 59.3122547808039,46.0067681185392 59.3109073078778,46.0081155914654 59.3138717483154,46.011080031903 59.3102213862645,46.0119926224157 59.3102213862645,46.0256327395057 59.3102213862645,46.0337175770628 59.3311194017705,46.0337175770628 59.3445941310322,46.0418024146199 59.3742385354082,46.049887252177 59.3755860083344,46.0485397792508 59.3715435895558,46.0471923063246 59.3715435895558,46.0444973604723 59.38771326467,46.0444973604723 59.3931031563747,46.0310226312105 59.3984930480794,46.0337175770628 59.4102213862645,46.0235530173024 59.4102213862645,46.0078784527715 59.4038829397841,46.0094630643916 59.402535466858,46.0054206456131 59.4038829397841,46.0040731726869 59.4065778856365,46.0067681185392 59.4079253585627,46.0027256997607 59.3998405210056,45.997335808056 59.3998405210056,45.9919459163513 59.3931031563747,45.9905984434251 59.3796284271129,45.9798186600157 59.372891062482,45.9838610787942 59.3850183188176,45.9879034975727 59.3742385354082,45.9852085517204 59.3715435895558,45.9905984434251 59.3715435895558,45.9852085517204</coordinates></LinearRing></outerBoundaryIs><innerBoundaryIs><LinearRing><coordinates>59.3661536978511,45.9905984434251 59.3715435895558,45.9905984434251 59.3643570672829,45.9923950739933 59.3661536978511,45.9905984434251</coordinates></LinearRing></innerBoundaryIs><innerBoundaryIs><LinearRing><coordinates>59.3623037752049,45.9929083970128 59.3607638061464,45.9932933892774 59.3594163332202,46.0000307539083 59.3526789685893,46.0040731726869 59.3513314956631,46.0027256997607 59.3594163332202,45.9919459163513 59.3623037752049,45.9929083970128</coordinates></LinearRing></innerBoundaryIs><innerBoundaryIs><LinearRing><coordinates>59.377472470431,45.9943713676184 59.3742385354082,45.9932933892774 59.3769334812606,45.9932933892774 59.377472470431,45.9943713676184</coordinates></LinearRing></innerBoundaryIs><innerBoundaryIs><LinearRing><coordinates>59.3850183188176,45.9968866504139 59.3769334812606,46.0013782268345 59.3755860083344,46.0000307539083 59.3779440859552,45.9953145986667 59.3796284271129,45.9986832809822 59.3850183188176,45.9968866504139</coordinates></LinearRing></innerBoundaryIs><innerBoundaryIs><LinearRing><coordinates>59.3890607375962,45.9946408622036 59.3879582597475,45.9952533498973 59.3884832491992,45.9936783815421 59.3890607375962,45.9946408622036</coordinates></LinearRing></innerBoundaryIs><innerBoundaryIs><LinearRing><coordinates>59.3189921454348,46.0188953748749 59.3230345642134,46.0175479019487 59.3243820371396,46.0188953748749 59.320339618361,46.020242847801 59.3189921454348,46.0188953748749</coordinates></LinearRing></innerBoundaryIs><innerBoundaryIs><LinearRing><coordinates>59.3378567664014,46.0108105373178 59.3365092934752,46.012158010244 59.3365092934752,46.0094630643916 59.3378567664014,46.0108105373178</coordinates></LinearRing></innerBoundaryIs><innerBoundaryIs><LinearRing><coordinates>59.3823233729653,45.9932933892774 59.3809759000391,45.9919459163513 59.3836708458914,45.9919459163513 59.3823233729653,45.9932933892774</coordinates></LinearRing></innerBoundaryIs><innerBoundaryIs><LinearRing><coordinates>59.3594163332202,46.035065049989 59.3621112790726,46.035065049989 59.3607638061464,46.0364125229152 59.3594163332202,46.035065049989</coordinates></LinearRing></innerBoundaryIs></Polygon><Polygon><outerBoundaryIs><LinearRing><coordinates>59.3189921454348,46.0027256997607 59.320339618361,46.0040731726869 59.3243820371396,46.0027256997607 59.3230345642134,45.9986832809822 59.3189921454348,46.0027256997607</coordinates></LinearRing></outerBoundaryIs></Polygon></MultiGeometry>
  </Placemark>
</Folder>
</Document></kml>
