<?xml version="1.0" encoding="utf-8" ?>
<kml xmlns="http://www.opengis.net/kml/2.2">
<Document id="root_doc">
<Schema name="task_grid_v6_45.68_61.18" id="task_grid_v6_45.68_61.18">
	<SimpleField name="area_ha" type="float"></SimpleField>
	<SimpleField name="low_risk_ha" type="float"></SimpleField>
	<SimpleField name="moderate_risk_ha" type="float"></SimpleField>
	<SimpleField name="grid_cell_deg" type="string"></SimpleField>
</Schema>
<Folder><name>task_grid_v6_45.68_61.18</name>
  <Placemark id="task_grid_v6_45.68_61.18.1">
	<name>task_grid_v6_45.68_61.18</name>
	<name>0</name>
	<description>56.1</description>
	<Style><LineStyle><color>ff0000ff</color></LineStyle><PolyStyle><fill>0</fill></PolyStyle></Style>
	<ExtendedData><SchemaData schemaUrl="#task_grid_v6_45.68_61.18">
		<SimpleData name="area_ha">56.1</SimpleData>
		<SimpleData name="low_risk_ha">0.1</SimpleData>
	</SchemaData></ExtendedData>
      <MultiGeometry><Polygon><outerBoundaryIs><LinearRing><coordinates>61.2027592962335,45.6523827389541 61.1987168774549,45.6483403201755 61.1973694045288,45.6550776848064 61.2014118233073,45.6564251577326 61.2027592962335,45.6523827389541</coordinates></LinearRing></outerBoundaryIs></Polygon><Polygon><outerBoundaryIs><LinearRing><coordinates>61.1461654333339,45.6631625223635 61.139428068703,45.6618150494373 61.1380805957769,45.6631625223635 61.1421230145554,45.6672049411421 61.1461654333339,45.6631625223635</coordinates></LinearRing></outerBoundaryIs></Polygon><Polygon><outerBoundaryIs><LinearRing><coordinates>61.1555977438172,45.7318836415987 61.1461654333339,45.7332311145248 61.1472890768846,45.7343547580755 61.1566567937358,45.7343547580755 61.1555977438172,45.7318836415987</coordinates></LinearRing></outerBoundaryIs></Polygon></MultiGeometry>
  </Placemark>
</Folder>
</Document></kml>
