<?xml version="1.0" encoding="utf-8" ?>
<kml xmlns="http://www.opengis.net/kml/2.2">
<Document id="root_doc">
<Schema name="task_grid_v6_45.68_61.48" id="task_grid_v6_45.68_61.48">
	<SimpleField name="area_ha" type="float"></SimpleField>
	<SimpleField name="low_risk_ha" type="float"></SimpleField>
	<SimpleField name="moderate_risk_ha" type="float"></SimpleField>
	<SimpleField name="grid_cell_deg" type="string"></SimpleField>
</Schema>
<Folder><name>task_grid_v6_45.68_61.48</name>
  <Placemark id="task_grid_v6_45.68_61.48.1">
	<name>task_grid_v6_45.68_61.48</name>
	<name>72.5</name>
	<description>74.3</description>
	<Style><LineStyle><color>ff0000ff</color></LineStyle><PolyStyle><fill>0</fill></PolyStyle></Style>
	<ExtendedData><SchemaData schemaUrl="#task_grid_v6_45.68_61.48">
		<SimpleData name="area_ha">1.8</SimpleData>
		<SimpleData name="low_risk_ha">0.1</SimpleData>
	</SchemaData></ExtendedData>
      <MultiGeometry><Polygon><outerBoundaryIs><LinearRing><coordinates>61.4326663337719,45.6343547580755 61.4331771666101,45.6348655909138 61.4336879994484,45.6343547580755 61.4326663337719,45.6343547580755</coordinates></LinearRing></outerBoundaryIs></Polygon><Polygon><outerBoundaryIs><LinearRing><coordinates>61.4263910613787,45.6362618044405 61.4282981077437,45.6343547580755 61.4263910613787,45.6343547580755 61.4263910613787,45.6362618044405</coordinates></LinearRing></outerBoundaryIs></Polygon><Polygon><outerBoundaryIs><LinearRing><coordinates>61.4263910613787,45.638025941275 61.4263910613787,45.6425175176956 61.4291347478316,45.6416029555446 61.4277872749054,45.6375605367661 61.4263910613787,45.638025941275</coordinates></LinearRing></outerBoundaryIs></Polygon><Polygon><outerBoundaryIs><LinearRing><coordinates>61.4587791522075,45.6550776848064 61.4574316792814,45.6510352660279 61.4479993687981,45.6523827389541 61.4479993687981,45.6550776848064 61.4520417875766,45.6564251577326 61.454736733429,45.6618150494373 61.4587791522075,45.6550776848064</coordinates></LinearRing></outerBoundaryIs></Polygon><Polygon><outerBoundaryIs><LinearRing><coordinates>61.5194154338856,45.6914594538133 61.5180679609594,45.6928069267395 61.5248053255903,45.6941543996656 61.5248053255903,45.6914594538133 61.5194154338856,45.6914594538133</coordinates></LinearRing></outerBoundaryIs></Polygon></MultiGeometry>
  </Placemark>
</Folder>
</Document></kml>
