<?xml version="1.0" encoding="utf-8" ?>
<kml xmlns="http://www.opengis.net/kml/2.2">
<Document id="root_doc">
<Schema name="task_grid_v6_45.08_61.18" id="task_grid_v6_45.08_61.18">
	<SimpleField name="area_ha" type="float"></SimpleField>
	<SimpleField name="low_risk_ha" type="float"></SimpleField>
	<SimpleField name="moderate_risk_ha" type="float"></SimpleField>
	<SimpleField name="grid_cell_deg" type="string"></SimpleField>
</Schema>
<Folder><name>task_grid_v6_45.08_61.18</name>
  <Placemark id="task_grid_v6_45.08_61.18.1">
	<name>task_grid_v6_45.08_61.18</name>
	<name>0</name>
	<description>103.2</description>
	<Style><LineStyle><color>ff0000ff</color></LineStyle><PolyStyle><fill>0</fill></PolyStyle></Style>
	<ExtendedData><SchemaData schemaUrl="#task_grid_v6_45.08_61.18">
		<SimpleData name="area_ha">103.2</SimpleData>
		<SimpleData name="low_risk_ha">0.1</SimpleData>
	</SchemaData></ExtendedData>
      <MultiGeometry><Polygon><outerBoundaryIs><LinearRing><coordinates>61.1475129062601,45.0716219077708 61.1461654333339,45.0783592724017 61.1502078521125,45.0797067453279 61.1515553250387,45.0783592724017 61.1475129062601,45.0716219077708</coordinates></LinearRing></outerBoundaryIs></Polygon><Polygon><outerBoundaryIs><LinearRing><coordinates>61.1987168774549,45.0904865287373 61.1946744586764,45.0945289475159 61.1960219316026,45.095876420442 61.2000643503811,45.0945289475159 61.1987168774549,45.0904865287373</coordinates></LinearRing></outerBoundaryIs></Polygon><Polygon><outerBoundaryIs><LinearRing><coordinates>61.1960219316026,45.1012663121468 61.191979512824,45.1053087309253 61.1933269857502,45.1066562038515 61.2000643503811,45.1053087309253 61.1960219316026,45.1012663121468</coordinates></LinearRing></outerBoundaryIs></Polygon><Polygon><outerBoundaryIs><LinearRing><coordinates>61.1906320398979,45.125520824818 61.1946744586764,45.1214784060395 61.1960219316026,45.1093511497038 61.1892845669717,45.1133935684824 61.191979512824,45.1187834601871 61.1892845669717,45.1214784060395 61.1906320398979,45.125520824818</coordinates></LinearRing></outerBoundaryIs></Polygon></MultiGeometry>
  </Placemark>
</Folder>
</Document></kml>
