<?xml version="1.0" encoding="utf-8" ?>
<kml xmlns="http://www.opengis.net/kml/2.2">
<Document id="root_doc">
<Schema name="task_grid_v6_44.98_60.98" id="task_grid_v6_44.98_60.98">
	<SimpleField name="area_ha" type="float"></SimpleField>
	<SimpleField name="low_risk_ha" type="float"></SimpleField>
	<SimpleField name="moderate_risk_ha" type="float"></SimpleField>
	<SimpleField name="grid_cell_deg" type="string"></SimpleField>
</Schema>
<Folder><name>task_grid_v6_44.98_60.98</name>
  <Placemark id="task_grid_v6_44.98_60.98.1">
	<name>task_grid_v6_44.98_60.98</name>
	<name>0</name>
	<description>475</description>
	<Style><LineStyle><color>ff0000ff</color></LineStyle><PolyStyle><fill>0</fill></PolyStyle></Style>
	<ExtendedData><SchemaData schemaUrl="#task_grid_v6_44.98_60.98">
		<SimpleData name="area_ha">475</SimpleData>
		<SimpleData name="low_risk_ha">0.1</SimpleData>
	</SchemaData></ExtendedData>
      <MultiGeometry><Polygon><outerBoundaryIs><LinearRing><coordinates>60.9426970214809,44.9368746151529 60.9442089357273,44.9343547580755 60.9411851072344,44.9343547580755 60.9426970214809,44.9368746151529</coordinates></LinearRing></outerBoundaryIs></Polygon><Polygon><outerBoundaryIs><LinearRing><coordinates>60.9413495485547,44.9490018714885 60.9480869131856,44.9503493444147 60.9534768048903,44.9476543985623 60.9561717507427,44.953044290267 60.9682990070783,44.9436119797838 60.9706133125053,44.9343547580755 60.9650965406589,44.9343547580755 60.9642565882997,44.9368746151529 60.9637526168843,44.9343547580755 60.9490842085618,44.9343547580755 60.9467394402594,44.9355271422267 60.9440444944071,44.9409170339314 60.9467394402594,44.9463069256361 60.9413495485547,44.9490018714885</coordinates></LinearRing></outerBoundaryIs></Polygon><Polygon><outerBoundaryIs><LinearRing><coordinates>61.0006383573066,44.9624766007503 61.0046807760851,44.9665190195288 61.0087231948637,44.9624766007503 61.0046807760851,44.9584341819718 61.0006383573066,44.9624766007503</coordinates></LinearRing></outerBoundaryIs></Polygon><Polygon><outerBoundaryIs><LinearRing><coordinates>61.0248928699778,44.9759513300121 61.0263910613787,44.9764507271457 61.0263910613787,44.9720596297082 61.026240342904,44.9719089112335 61.0248928699778,44.9759513300121</coordinates></LinearRing></outerBoundaryIs></Polygon><Polygon><outerBoundaryIs><LinearRing><coordinates>60.9777313175615,44.982688694643 60.9844686821924,44.9813412217168 60.9804262634139,44.9799937487906 60.9777313175615,44.9772988029383 60.9777313175615,44.982688694643</coordinates></LinearRing></outerBoundaryIs></Polygon><Polygon><outerBoundaryIs><LinearRing><coordinates>60.9413495485547,44.997510896831 60.93595965685,44.9948159509786 60.9319172380714,44.9880785863477 60.9265273463667,44.9880785863477 60.9263910613787,44.9884874413118 60.9263910613787,44.9933321930644 60.9346121839238,45.0015533156095 60.9413495485547,44.997510896831</coordinates></LinearRing></outerBoundaryIs></Polygon><Polygon><outerBoundaryIs><LinearRing><coordinates>61.026240342904,44.9961634239048 61.0248928699778,44.997510896831 61.0263910613787,44.9978105351111 61.0263910613787,44.9961634239048 61.026240342904,44.9961634239048</coordinates></LinearRing></outerBoundaryIs></Polygon><Polygon><outerBoundaryIs><LinearRing><coordinates>61.0019858302328,45.0069432073142 61.0060282490113,45.0002058426833 61.0046807760851,44.9961634239048 61.0006383573066,45.0002058426833 61.0019858302328,45.0069432073142</coordinates></LinearRing></outerBoundaryIs></Polygon><Polygon><outerBoundaryIs><LinearRing><coordinates>61.0127656136422,45.0096381531666 61.0141130865684,45.0082906802404 61.0100706677898,45.0042482614619 61.0087231948637,45.0082906802404 61.0127656136422,45.0096381531666</coordinates></LinearRing></outerBoundaryIs></Polygon></MultiGeometry>
  </Placemark>
</Folder>
</Document></kml>
