<?xml version="1.0" encoding="utf-8" ?>
<kml xmlns="http://www.opengis.net/kml/2.2">
<Document id="root_doc">
<Schema name="task_grid_v6_45.41_61.36" id="task_grid_v6_45.41_61.36">
	<SimpleField name="area_ha" type="float"></SimpleField>
	<SimpleField name="low_risk_ha" type="float"></SimpleField>
	<SimpleField name="moderate_risk_ha" type="float"></SimpleField>
	<SimpleField name="grid_cell_deg" type="string"></SimpleField>
</Schema>
<Folder><name>task_grid_v6_45.41_61.36</name>
  <Placemark id="task_grid_v6_45.41_61.36.1">
	<name>task_grid_v6_45.41_61.36</name>
	<name>97.90000000000001</name>
	<description>435.4</description>
	<Style><LineStyle><color>ff0000ff</color></LineStyle><PolyStyle><fill>0</fill></PolyStyle></Style>
	<ExtendedData><SchemaData schemaUrl="#task_grid_v6_45.41_61.36">
		<SimpleData name="area_ha">337.4</SimpleData>
		<SimpleData name="low_risk_ha">0.1</SimpleData>
	</SchemaData></ExtendedData>
      <MultiGeometry><Polygon><outerBoundaryIs><LinearRing><coordinates>61.3280742783681,45.3653710056779 61.3322845691783,45.3625641451378 61.325267417828,45.3625641451378 61.3280742783681,45.3653710056779</coordinates></LinearRing></outerBoundaryIs></Polygon><Polygon><outerBoundaryIs><LinearRing><coordinates>61.3402015347038,45.4152275039465 61.3442439534823,45.4165749768727 61.3455914264085,45.4152275039465 61.3415490076299,45.4084901393156 61.3402015347038,45.4152275039465</coordinates></LinearRing></outerBoundaryIs></Polygon><Polygon><outerBoundaryIs><LinearRing><coordinates>61.3482863722608,45.4287022332083 61.3482863722608,45.426007287356 61.3388540617776,45.4219648685774 61.3375065888514,45.4287022332083 61.3402015347038,45.4313971790607 61.3375065888514,45.434092124913 61.3415490076299,45.4354395978392 61.3482863722608,45.4287022332083</coordinates></LinearRing></outerBoundaryIs></Polygon><Polygon><outerBoundaryIs><LinearRing><coordinates>61.3240318595896,45.4313971790607 61.3307692242205,45.4327446519869 61.3307692242205,45.4273547602821 61.3280742783681,45.4300497061345 61.3240318595896,45.4313971790607</coordinates></LinearRing></outerBoundaryIs></Polygon><Polygon><outerBoundaryIs><LinearRing><coordinates>61.3442439534823,45.4435244353963 61.3509813181132,45.4394820166178 61.3442439534823,45.4354395978392 61.3375065888514,45.4394820166178 61.3442439534823,45.4435244353963</coordinates></LinearRing></outerBoundaryIs></Polygon><Polygon><outerBoundaryIs><LinearRing><coordinates>61.3240318595896,45.4610415834366 61.3243363719298,45.4625641451378 61.3301627235613,45.4625641451378 61.3253793325158,45.4596941105104 61.3240318595896,45.4610415834366</coordinates></LinearRing></outerBoundaryIs></Polygon><Polygon><outerBoundaryIs><LinearRing><coordinates>61.3523287910394,45.3869305724968 61.3536762639656,45.3855830995706 61.3523287910394,45.381540680792 61.3482863722608,45.3828881537182 61.3523287910394,45.3869305724968</coordinates></LinearRing></outerBoundaryIs></Polygon><Polygon><outerBoundaryIs><LinearRing><coordinates>61.364456047375,45.3801932078659 61.3590661556703,45.3801932078659 61.3563712098179,45.3855830995706 61.3577186827441,45.3923204642015 61.3617611015226,45.3882780454229 61.3617611015226,45.3828881537182 61.364456047375,45.3801932078659</coordinates></LinearRing></outerBoundaryIs></Polygon><Polygon><outerBoundaryIs><LinearRing><coordinates>61.3428964805561,45.3909729912753 61.3428964805561,45.39636288298 61.3455914264085,45.3990578288324 61.3428964805561,45.4044477205371 61.3469388993347,45.4057951934633 61.349633845187,45.411185085168 61.3509813181132,45.4044477205371 61.3502463328807,45.4029777500722 61.3563712098179,45.4017527746847 61.3536762639656,45.3990578288324 61.3536762639656,45.3909729912753 61.3563712098179,45.3882780454229 61.3563712098179,45.3855830995706 61.3563712098179,45.3828881537182 61.3590661556703,45.3801932078659 61.3617611015226,45.3774982620135 61.3604136285965,45.3761507890873 61.3536762639656,45.3801932078659 61.3536762639656,45.3855830995706 61.3506818796852,45.3900746759912 61.349633845187,45.3869305724968 61.3428964805561,45.3909729912753</coordinates></LinearRing></outerBoundaryIs><innerBoundaryIs><LinearRing><coordinates>61.3455914264085,45.3936679371277 61.349633845187,45.3916467277384 61.3482863722608,45.3936679371277 61.3493643506018,45.4012137855143 61.3455914264085,45.3936679371277</coordinates></LinearRing></innerBoundaryIs></Polygon><Polygon><outerBoundaryIs><LinearRing><coordinates>61.3765833037106,45.4462193812487 61.3806257224891,45.4394820166178 61.379278249563,45.4381345436916 61.3725408849321,45.4421769624701 61.3765833037106,45.4462193812487</coordinates></LinearRing></outerBoundaryIs></Polygon></MultiGeometry>
  </Placemark>
</Folder>
</Document></kml>
