<?xml version="1.0" encoding="utf-8" ?>
<kml xmlns="http://www.opengis.net/kml/2.2">
<Document id="root_doc">
<Schema name="task_grid_v6_45.48_61.08" id="task_grid_v6_45.48_61.08">
	<SimpleField name="area_ha" type="float"></SimpleField>
	<SimpleField name="low_risk_ha" type="float"></SimpleField>
	<SimpleField name="moderate_risk_ha" type="float"></SimpleField>
	<SimpleField name="grid_cell_deg" type="string"></SimpleField>
</Schema>
<Folder><name>task_grid_v6_45.48_61.08</name>
  <Placemark id="task_grid_v6_45.48_61.08.1">
	<name>task_grid_v6_45.48_61.08</name>
	<name>1562.5</name>
	<description>4742</description>
	<Style><LineStyle><color>ff0000ff</color></LineStyle><PolyStyle><fill>0</fill></PolyStyle></Style>
	<ExtendedData><SchemaData schemaUrl="#task_grid_v6_45.48_61.08">
		<SimpleData name="area_ha">3179.5</SimpleData>
		<SimpleData name="low_risk_ha">0.1</SimpleData>
	</SchemaData></ExtendedData>
      <MultiGeometry><Polygon><outerBoundaryIs><LinearRing><coordinates>61.0734018953203,45.4367870707654 61.0774443140988,45.4408294895439 61.0814867328773,45.4367870707654 61.0802705765324,45.4343547580755 61.0758342080102,45.4343547580755 61.0734018953203,45.4367870707654</coordinates></LinearRing></outerBoundaryIs></Polygon><Polygon><outerBoundaryIs><LinearRing><coordinates>61.0572322202061,45.4610415834366 61.0545372743538,45.4556516917319 61.0599271660585,45.4475668541748 61.0666645306894,45.4435244353963 61.0693594765417,45.4462193812487 61.0707069494679,45.4448719083225 61.0680776619062,45.4343547580755 61.0623594787484,45.4343547580755 61.0263910613787,45.4343547580755 61.0263910613787,45.4677035888302 61.0316302346087,45.4650840022152 61.0289352887564,45.4677789480675 61.0263910613787,45.4686270238601 61.0263910613787,45.4744221136517 61.0304869242471,45.471862199359 61.0370201263134,45.4731688397722 61.0302827616825,45.4745163126984 61.0316302346087,45.4812536773293 61.0451049638705,45.4731688397722 61.0504948555752,45.4758637856246 61.0545372743538,45.4718213668461 61.0525515247783,45.4692682602491 61.0585796931323,45.4704738939199 61.0585796931323,45.4677789480675 61.0531898014276,45.4677789480675 61.0599271660585,45.4664314751413 61.0545372743538,45.463736529289 61.0572322202061,45.4610415834366</coordinates></LinearRing></outerBoundaryIs><innerBoundaryIs><LinearRing><coordinates>61.0521791967329,45.4687895527622 61.0468199294129,45.4618990662078 61.0477999097229,45.4623890563628 61.05022536099,45.4615805726071 61.049147382649,45.463736529289 61.0531898014276,45.4677789480675 61.0521791967329,45.4687895527622</coordinates></LinearRing></innerBoundaryIs><innerBoundaryIs><LinearRing><coordinates>61.0397150721658,45.4610415834366 61.0424100180181,45.4596941105104 61.0433083333023,45.4601432681525 61.0397150721658,45.4610415834366</coordinates></LinearRing></innerBoundaryIs><innerBoundaryIs><LinearRing><coordinates>61.049147382649,45.4556516917319 61.0518423285014,45.4583466375843 61.0511685920383,45.4596941105104 61.049147382649,45.4556516917319</coordinates></LinearRing></innerBoundaryIs><innerBoundaryIs><LinearRing><coordinates>61.0308602500795,45.4716288707137 61.0370201263134,45.4677789480675 61.0343251804611,45.4704738939199 61.0308602500795,45.4716288707137</coordinates></LinearRing></innerBoundaryIs></Polygon><Polygon><outerBoundaryIs><LinearRing><coordinates>61.0572322202061,45.4583466375843 61.063969584837,45.4623890563628 61.0653170577632,45.4583466375843 61.0612746389846,45.4543042188057 61.0572322202061,45.4556516917319 61.0572322202061,45.4583466375843</coordinates></LinearRing></outerBoundaryIs></Polygon><Polygon><outerBoundaryIs><LinearRing><coordinates>61.0680120036156,45.4718213668461 61.0666645306894,45.4623890563628 61.0653170577632,45.463736529289 61.0666645306894,45.4731688397722 61.0680120036156,45.4718213668461</coordinates></LinearRing></outerBoundaryIs></Polygon><Polygon><outerBoundaryIs><LinearRing><coordinates>61.0707069494679,45.4718213668461 61.0693594765417,45.4623890563628 61.0680120036156,45.463736529289 61.0693594765417,45.4731688397722 61.0707069494679,45.4718213668461</coordinates></LinearRing></outerBoundaryIs></Polygon><Polygon><outerBoundaryIs><LinearRing><coordinates>61.0653170577632,45.4718213668461 61.063969584837,45.4677789480675 61.0599271660585,45.4718213668461 61.0612746389846,45.4758637856246 61.0653170577632,45.4718213668461</coordinates></LinearRing></outerBoundaryIs></Polygon><Polygon><outerBoundaryIs><LinearRing><coordinates>61.0263910613787,45.501465771222 61.0275878158302,45.501465771222 61.0263910613787,45.5026625256735 61.0263910613787,45.5095506087791 61.0275878158302,45.5095506087791 61.0263910613787,45.5107473632306 61.0263910613787,45.5343547580755 61.0383853449975,45.5343547580755 61.0405129084668,45.5343547580755 61.0433585727938,45.5343547580755 61.0485977460238,45.5343547580755 61.0504948555752,45.5324576485241 61.0518423285014,45.5338051214503 61.0512926918762,45.5343547580755 61.0566825835809,45.5343547580755 61.0723779813072,45.5343547580755 61.0791759571996,45.5343547580755 61.1078865547757,45.5343547580755 61.1084361914009,45.5338051214503 61.1057412455486,45.531110175598 61.1070887184747,45.5297627026718 61.1205634477365,45.5270677568194 61.1219109206627,45.5230253380409 61.1097836643271,45.5243728109671 61.1070887184747,45.5189829192623 61.1097836643271,45.51628797341 61.1097836643271,45.5189829192623 61.1178685018842,45.5189829192623 61.1219109206627,45.5122455546314 61.1151735560318,45.5108980817053 61.1124786101795,45.5055081900005 61.1070887184747,45.5028132441482 61.1043937726224,45.5055081900005 61.1030462996962,45.5041607170744 61.1070887184747,45.5001182982958 61.1151735560318,45.5055081900005 61.1259533394413,45.5055081900005 61.1263910613787,45.5050704680631 61.1263910613787,45.5032509660856 61.1219109206627,45.4987708253696 61.1263910613787,45.4965307550117 61.1263910613787,45.4951661285285 61.1246058665151,45.4933809336649 61.1263910613787,45.4915957388013 61.1263910613787,45.4897762368238 61.1232583935889,45.486643569034 61.1219109206627,45.4933809336649 61.1205634477365,45.486643569034 61.1178685018842,45.4920334607388 61.1138260831056,45.4933809336649 61.1097836643271,45.4893385148864 61.1080511991363,45.4887610264895 61.1138260831056,45.4852960961079 61.1084361914009,45.4772112585508 61.1111311372533,45.4745163126984 61.1097836643271,45.4650840022152 61.1043937726224,45.4650840022152 61.1030462996962,45.4664314751413 61.1057412455486,45.4691264209937 61.10169882677,45.4731688397722 61.0949614621391,45.4745163126984 61.0922665162868,45.4799062044031 61.0949614621391,45.4826011502555 61.0909190433606,45.478558731477 61.0868766245821,45.4799062044031 61.0878872292767,45.4815905455609 61.0841816787297,45.4852960961079 61.0814867328773,45.4906859878126 61.0855291516559,45.4974233524435 61.0882240975082,45.4974233524435 61.0868766245821,45.4987708253696 61.0863713222347,45.5033185464955 61.0828342058035,45.4974233524435 61.078791787025,45.5041607170744 61.0801392599512,45.5055081900005 61.0747493682464,45.5082031358529 61.0720544223941,45.5001182982958 61.0612746389846,45.5108980817053 61.0585796931323,45.5082031358529 61.0558847472799,45.5108980817053 61.0558847472799,45.5082031358529 61.0531898014276,45.5082031358529 61.0477999097229,45.5082031358529 61.0469015944387,45.509101451137 61.0451049638705,45.5055081900005 61.0397150721658,45.5055081900005 61.0356726533872,45.501465771222 61.0383675992396,45.4987708253696 61.0343251804611,45.4947284065911 61.0316302346087,45.5001182982958 61.0302827616825,45.4987708253696 61.0302827616825,45.4933809336649 61.0329777075349,45.4906859878126 61.0290796608556,45.4815905455609 61.0302827616825,45.4799062044031 61.0289352887564,45.4731688397722 61.0263910613787,45.4764399892578 61.0263910613787,45.4850700183958 61.0263910613787,45.4853545848285 61.0263910613787,45.501465771222</coordinates></LinearRing></outerBoundaryIs><innerBoundaryIs><LinearRing><coordinates>61.0477999097229,45.5108980817053 61.0471779991415,45.5096542605426 61.0558847472799,45.5108980817053 61.0477999097229,45.5108980817053</coordinates></LinearRing></innerBoundaryIs><innerBoundaryIs><LinearRing><coordinates>61.1030462996962,45.5149405004838 61.1040087803578,45.5147480043515 61.1030462996962,45.5176354463362 61.1030462996962,45.5149405004838</coordinates></LinearRing></innerBoundaryIs><innerBoundaryIs><LinearRing><coordinates>61.1097836643271,45.5135930275576 61.1097836643271,45.5146710058986 61.1070887184747,45.5141320167281 61.1097836643271,45.5135930275576</coordinates></LinearRing></innerBoundaryIs><innerBoundaryIs><LinearRing><coordinates>61.10169882677,45.486643569034 61.10169882677,45.4947284065911 61.0990038809177,45.4920334607388 61.0963089350653,45.4974233524435 61.093613989213,45.4920334607388 61.0909190433606,45.4947284065911 61.0949614621391,45.4906859878126 61.10169882677,45.478558731477 61.1057412455486,45.4799062044031 61.1030462996962,45.4852960961079 61.1057412455486,45.4879910419602 61.10169882677,45.486643569034</coordinates></LinearRing></innerBoundaryIs><innerBoundaryIs><LinearRing><coordinates>61.0362501417842,45.521870361247 61.0343251804611,45.5189829192623 61.0329777075349,45.531110175598 61.0329777075349,45.5203303921885 61.0370201263134,45.51628797341 61.0383675992396,45.5176354463362 61.0362501417842,45.521870361247</coordinates></LinearRing></innerBoundaryIs><innerBoundaryIs><LinearRing><coordinates>61.0572322202061,45.5203303921885 61.0585796931323,45.5189829192623 61.0558847472799,45.5297627026718 61.0572322202061,45.5203303921885</coordinates></LinearRing></innerBoundaryIs><innerBoundaryIs><LinearRing><coordinates>61.063969584837,45.5216778651147 61.0651823104706,45.523699074504 61.0585796931323,45.5189829192623 61.063969584837,45.5216778651147</coordinates></LinearRing></innerBoundaryIs><innerBoundaryIs><LinearRing><coordinates>61.0922665162868,45.5203303921885 61.0909190433606,45.5210041286516 61.0909190433606,45.5200608976033 61.0922665162868,45.5203303921885</coordinates></LinearRing></innerBoundaryIs><innerBoundaryIs><LinearRing><coordinates>61.0882240975082,45.5324576485241 61.0836041903328,45.5293777104071 61.0882240975082,45.5270677568194 61.0895715704344,45.5284152297456 61.0868766245821,45.531110175598 61.093613989213,45.5324576485241 61.0882240975082,45.5324576485241</coordinates></LinearRing></innerBoundaryIs><innerBoundaryIs><LinearRing><coordinates>61.0477999097229,45.5216778651147 61.0437574909443,45.5203303921885 61.0444312274074,45.5169617098731 61.0451049638705,45.5189829192623 61.0485698942521,45.5178279424685 61.0477999097229,45.5216778651147</coordinates></LinearRing></innerBoundaryIs><innerBoundaryIs><LinearRing><coordinates>61.0451049638705,45.5135930275576 61.0464524367967,45.5140421851997 61.0449124677382,45.5145555082192 61.0451049638705,45.5135930275576</coordinates></LinearRing></innerBoundaryIs><innerBoundaryIs><LinearRing><coordinates>61.049147382649,45.5149405004838 61.0488105144175,45.5166248416415 61.0481367779544,45.5146036322523 61.049147382649,45.5149405004838</coordinates></LinearRing></innerBoundaryIs><innerBoundaryIs><LinearRing><coordinates>61.1111311372533,45.4987708253696 61.1178685018842,45.4974233524435 61.1178685018842,45.5028132441482 61.1111311372533,45.4987708253696</coordinates></LinearRing></innerBoundaryIs><innerBoundaryIs><LinearRing><coordinates>61.0612746389846,45.5135930275576 61.0626221119108,45.5149405004838 61.0585796931323,45.51628797341 61.0572322202061,45.5149405004838 61.0612746389846,45.5135930275576</coordinates></LinearRing></innerBoundaryIs><innerBoundaryIs><LinearRing><coordinates>61.0949614621391,45.5041607170744 61.0990038809177,45.5001182982958 61.1003513538438,45.501465771222 61.0963089350653,45.5055081900005 61.0949614621391,45.5041607170744</coordinates></LinearRing></innerBoundaryIs><innerBoundaryIs><LinearRing><coordinates>61.0653170577632,45.5122455546314 61.0666645306894,45.5108980817053 61.0666645306894,45.5135930275576 61.0653170577632,45.5122455546314</coordinates></LinearRing></innerBoundaryIs><innerBoundaryIs><LinearRing><coordinates>61.0801392599512,45.5108980817053 61.0814867328773,45.5122455546314 61.078791787025,45.5122455546314 61.0801392599512,45.5108980817053</coordinates></LinearRing></innerBoundaryIs><innerBoundaryIs><LinearRing><coordinates>61.0329777075349,45.5068556629267 61.0316302346087,45.5082031358529 61.0316302346087,45.5055081900005 61.0329777075349,45.5068556629267</coordinates></LinearRing></innerBoundaryIs></Polygon><Polygon><outerBoundaryIs><LinearRing><coordinates>61.041062545092,45.4933809336649 61.0370201263134,45.4893385148864 61.0356726533872,45.4933809336649 61.0397150721658,45.4947284065911 61.041062545092,45.4933809336649</coordinates></LinearRing></outerBoundaryIs></Polygon><Polygon><outerBoundaryIs><LinearRing><coordinates>61.0545372743538,45.5068556629267 61.0504948555752,45.5028132441482 61.049147382649,45.5068556629267 61.0531898014276,45.5082031358529 61.0545372743538,45.5068556629267</coordinates></LinearRing></outerBoundaryIs></Polygon><Polygon><outerBoundaryIs><LinearRing><coordinates>61.1124786101795,45.4516092729534 61.1124786101795,45.4408294895439 61.1097836643271,45.4462193812487 61.1057412455486,45.4475668541748 61.1124786101795,45.4516092729534</coordinates></LinearRing></outerBoundaryIs></Polygon><Polygon><outerBoundaryIs><LinearRing><coordinates>61.1205634477365,45.4543042188057 61.1246058665151,45.4502618000272 61.1205634477365,45.448914327101 61.1138260831056,45.4529567458796 61.1205634477365,45.4543042188057</coordinates></LinearRing></outerBoundaryIs></Polygon><Polygon><outerBoundaryIs><LinearRing><coordinates>61.1192159748104,45.4583466375843 61.1263910613787,45.4593716499512 61.1263910613787,45.4547419407432 61.1259533394413,45.4543042188057 61.1192159748104,45.4583466375843</coordinates></LinearRing></outerBoundaryIs></Polygon><Polygon><outerBoundaryIs><LinearRing><coordinates>61.0922665162868,45.463736529289 61.0882240975082,45.4596941105104 61.0841816787297,45.463736529289 61.0855291516559,45.4677789480675 61.0922665162868,45.463736529289</coordinates></LinearRing></outerBoundaryIs></Polygon><Polygon><outerBoundaryIs><LinearRing><coordinates>61.1124786101795,45.4758637856246 61.1246058665151,45.4691264209937 61.116521028958,45.463736529289 61.1192159748104,45.4610415834366 61.1111311372533,45.4610415834366 61.1124786101795,45.4758637856246</coordinates></LinearRing></outerBoundaryIs></Polygon><Polygon><outerBoundaryIs><LinearRing><coordinates>61.0801392599512,45.4731688397722 61.0841816787297,45.4691264209937 61.0747493682464,45.4677789480675 61.0707069494679,45.4718213668461 61.0801392599512,45.4731688397722</coordinates></LinearRing></outerBoundaryIs></Polygon><Polygon><outerBoundaryIs><LinearRing><coordinates>61.1151735560318,45.486643569034 61.1205634477365,45.486643569034 61.1246058665151,45.4826011502555 61.1246058665151,45.4799062044031 61.1178685018842,45.4758637856246 61.1111311372533,45.4799062044031 61.1151735560318,45.486643569034</coordinates></LinearRing></outerBoundaryIs></Polygon><Polygon><outerBoundaryIs><LinearRing><coordinates>61.1263910613787,45.5108980817053 61.1263910613787,45.5082031358529 61.1259533394413,45.5082031358529 61.1259533394413,45.5108980817053 61.1263910613787,45.5108980817053</coordinates></LinearRing></outerBoundaryIs></Polygon><Polygon><outerBoundaryIs><LinearRing><coordinates>61.1219109206627,45.5203303921885 61.1259533394413,45.5243728109671 61.1263910613787,45.5239350890296 61.1263910613787,45.5196094528203 61.1232583935889,45.5189829192623 61.1219109206627,45.5203303921885</coordinates></LinearRing></outerBoundaryIs></Polygon><Polygon><outerBoundaryIs><LinearRing><coordinates>61.1105815006281,45.5343547580755 61.1224605572879,45.5343547580755 61.1205634477365,45.5324576485241 61.1124786101795,45.5324576485241 61.1105815006281,45.5343547580755</coordinates></LinearRing></outerBoundaryIs></Polygon><Polygon><outerBoundaryIs><LinearRing><coordinates>61.1263910613787,45.5343547580755 61.1263910613787,45.5337708143364 61.1259533394413,45.5324576485241 61.1219109206627,45.5338051214503 61.1224605572879,45.5343547580755 61.1263910613787,45.5343547580755</coordinates></LinearRing></outerBoundaryIs></Polygon></MultiGeometry>
  </Placemark>
</Folder>
</Document></kml>
