<?xml version="1.0" encoding="utf-8" ?>
<kml xmlns="http://www.opengis.net/kml/2.2">
<Document id="root_doc">
<Schema name="task_grid_v6_45.88_59.98" id="task_grid_v6_45.88_59.98">
	<SimpleField name="area_ha" type="float"></SimpleField>
	<SimpleField name="low_risk_ha" type="float"></SimpleField>
	<SimpleField name="moderate_risk_ha" type="float"></SimpleField>
	<SimpleField name="grid_cell_deg" type="string"></SimpleField>
</Schema>
<Folder><name>task_grid_v6_45.88_59.98</name>
  <Placemark id="task_grid_v6_45.88_59.98.1">
	<name>task_grid_v6_45.88_59.98</name>
	<name>181.2</name>
	<description>693.5</description>
	<Style><LineStyle><color>ff0000ff</color></LineStyle><PolyStyle><fill>0</fill></PolyStyle></Style>
	<ExtendedData><SchemaData schemaUrl="#task_grid_v6_45.88_59.98">
		<SimpleData name="area_ha">512.2</SimpleData>
		<SimpleData name="low_risk_ha">0.1</SimpleData>
	</SchemaData></ExtendedData>
      <MultiGeometry><Polygon><outerBoundaryIs><LinearRing><coordinates>59.9263910613787,45.8392520014622 59.9293973809941,45.839681475693 59.9293973809941,45.8369865298406 59.9263910613787,45.8369865298406 59.9263910613787,45.8392520014622</coordinates></LinearRing></outerBoundaryIs></Polygon><Polygon><outerBoundaryIs><LinearRing><coordinates>59.9307448539202,45.8410289486192 59.9374822185511,45.8423764215454 59.9455670561082,45.8477663132501 59.9469145290344,45.8464188403239 59.9374822185511,45.8369865298406 59.9307448539202,45.8410289486192</coordinates></LinearRing></outerBoundaryIs></Polygon><Polygon><outerBoundaryIs><LinearRing><coordinates>59.9496094748867,45.8464188403239 59.9563468395176,45.8477663132501 59.9563468395176,45.8450713673977 59.9509569478129,45.8450713673977 59.9496094748867,45.8464188403239</coordinates></LinearRing></outerBoundaryIs></Polygon><Polygon><outerBoundaryIs><LinearRing><coordinates>59.9320923268464,45.8666309342166 59.9320923268464,45.8639359883642 59.9263910613787,45.8639359883642 59.9263910613787,45.8661126373559 59.9320923268464,45.8666309342166</coordinates></LinearRing></outerBoundaryIs></Polygon><Polygon><outerBoundaryIs><LinearRing><coordinates>59.9536518936653,45.8801056634784 59.9549993665915,45.8787581905522 59.9509569478129,45.8720208259213 59.9496094748867,45.8787581905522 59.9536518936653,45.8801056634784</coordinates></LinearRing></outerBoundaryIs></Polygon><Polygon><outerBoundaryIs><LinearRing><coordinates>59.9657791500009,45.8949278656664 59.9630842041485,45.8976228115187 59.9698215687794,45.8989702844449 59.9698215687794,45.8935803927402 59.9752114604841,45.8962753385925 59.981948825115,45.8868430281093 59.9806013521889,45.8828006093307 59.9779064063365,45.8828006093307 59.9765589334103,45.8868430281093 59.9698215687794,45.8908854468878 59.9644316770747,45.8881905010355 59.9630842041485,45.892232919814 59.9657791500009,45.8949278656664</coordinates></LinearRing></outerBoundaryIs></Polygon><Polygon><outerBoundaryIs><LinearRing><coordinates>59.9752114604841,45.8962753385925 59.973863987558,45.8976228115187 59.9832962980412,45.8989702844449 59.9873387168198,45.8949278656664 59.9779064063365,45.8935803927402 59.9752114604841,45.8962753385925</coordinates></LinearRing></outerBoundaryIs></Polygon><Polygon><outerBoundaryIs><LinearRing><coordinates>59.944219583182,45.9218773241899 59.9509569478129,45.9232247971161 59.9509569478129,45.9205298512638 59.9455670561082,45.9205298512638 59.944219583182,45.9218773241899</coordinates></LinearRing></outerBoundaryIs></Polygon><Polygon><outerBoundaryIs><LinearRing><coordinates>59.9940760814507,45.8801056634784 59.9846437709674,45.8868430281093 59.981948825115,45.892232919814 59.9913811355983,45.8962753385925 59.9927286085245,45.8949278656664 59.9900336626721,45.8895379739616 59.9994659731554,45.8854955551831 60.0008134460816,45.8868430281093 59.9981185002292,45.8895379739616 60.0048558648601,45.8962753385925 60.0075508107125,45.8854955551831 60.0156356482695,45.8908854468878 60.0169831211957,45.8895379739616 60.0142881753433,45.8868430281093 60.0183305941219,45.8828006093307 60.0263910613787,45.8820678395801 60.0263910613787,45.8800325525776 60.0237204858266,45.8720208259213 60.0210255399742,45.8801056634784 60.0156356482695,45.877410717626 60.0129407024172,45.8801056634784 60.0102457565648,45.877410717626 60.0021609190077,45.8828006093307 59.9940760814507,45.8801056634784</coordinates></LinearRing></outerBoundaryIs></Polygon><Polygon><outerBoundaryIs><LinearRing><coordinates>60.0088982836386,45.8949278656664 60.0129407024172,45.8962753385925 60.0088982836386,45.8976228115187 60.0156356482695,45.8989702844449 60.0156356482695,45.8935803927402 60.0183305941219,45.8962753385925 60.0263910613787,45.8855280489168 60.0263910613787,45.8824190985376 60.0237204858266,45.8828006093307 60.0183305941219,45.8908854468878 60.0156356482695,45.8908854468878 60.0129407024172,45.8908854468878 60.0088982836386,45.8949278656664</coordinates></LinearRing></outerBoundaryIs></Polygon><Polygon><outerBoundaryIs><LinearRing><coordinates>60.0210255399742,45.8935803927402 60.0196780670481,45.8976228115187 60.0263910613787,45.898139195698 60.0263910613787,45.8962631534424 60.0210255399742,45.8935803927402</coordinates></LinearRing></outerBoundaryIs></Polygon><Polygon><outerBoundaryIs><LinearRing><coordinates>59.9832962980412,45.9205298512638 59.9873387168198,45.9164874324852 59.9806013521889,45.9124450137067 59.9765589334103,45.9137924866329 59.9832962980412,45.9205298512638</coordinates></LinearRing></outerBoundaryIs></Polygon><Polygon><outerBoundaryIs><LinearRing><coordinates>60.0263910613787,45.9179080163122 60.0250679587528,45.9218773241899 60.0263910613787,45.9223183583986 60.0263910613787,45.9179080163122</coordinates></LinearRing></outerBoundaryIs></Polygon><Polygon><outerBoundaryIs><LinearRing><coordinates>59.988476083216,45.9343547580755 59.9890363672959,45.9343547580755 59.9886861897459,45.9340045805256 59.988476083216,45.9343547580755</coordinates></LinearRing></outerBoundaryIs></Polygon></MultiGeometry>
  </Placemark>
</Folder>
</Document></kml>
