<?xml version="1.0" encoding="utf-8" ?>
<kml xmlns="http://www.opengis.net/kml/2.2">
<Document id="root_doc">
<Schema name="task_grid_v6_45.58_59.28" id="task_grid_v6_45.58_59.28">
	<SimpleField name="area_ha" type="float"></SimpleField>
	<SimpleField name="low_risk_ha" type="float"></SimpleField>
	<SimpleField name="moderate_risk_ha" type="float"></SimpleField>
	<SimpleField name="grid_cell_deg" type="string"></SimpleField>
</Schema>
<Folder><name>task_grid_v6_45.58_59.28</name>
  <Placemark id="task_grid_v6_45.58_59.28.1">
	<name>task_grid_v6_45.58_59.28</name>
	<name>0.8</name>
	<description>326.4</description>
	<Style><LineStyle><color>ff0000ff</color></LineStyle><PolyStyle><fill>0</fill></PolyStyle></Style>
	<ExtendedData><SchemaData schemaUrl="#task_grid_v6_45.58_59.28">
		<SimpleData name="area_ha">325.5</SimpleData>
		<SimpleData name="low_risk_ha">0.1</SimpleData>
	</SchemaData></ExtendedData>
      <MultiGeometry><Polygon><outerBoundaryIs><LinearRing><coordinates>59.2327538781594,45.5418899590074 59.2341013510855,45.5459323777859 59.2408387157164,45.5418899590074 59.2367962969379,45.5378475402288 59.2327538781594,45.5418899590074</coordinates></LinearRing></outerBoundaryIs></Polygon><Polygon><outerBoundaryIs><LinearRing><coordinates>59.2354488240117,45.5526697424168 59.2394912427903,45.554017215343 59.2408387157164,45.5526697424168 59.2367962969379,45.5486273236383 59.2354488240117,45.5526697424168</coordinates></LinearRing></outerBoundaryIs></Polygon><Polygon><outerBoundaryIs><LinearRing><coordinates>59.2263910613787,45.5567121611954 59.2263910613787,45.5621020529001 59.2287114593808,45.5621020529001 59.2327538781594,45.5580596341215 59.2314064052332,45.5567121611954 59.2263910613787,45.5567121611954</coordinates></LinearRing></outerBoundaryIs></Polygon><Polygon><outerBoundaryIs><LinearRing><coordinates>59.2263910613787,45.5687004282344 59.2263910613787,45.5707852676829 59.2273639864546,45.568839417531 59.2263910613787,45.5687004282344</coordinates></LinearRing></outerBoundaryIs></Polygon><Polygon><outerBoundaryIs><LinearRing><coordinates>59.2381437698641,45.5742293092357 59.2475760803473,45.5701868904572 59.2475760803473,45.5674919446048 59.2394912427903,45.5674919446048 59.2327538781594,45.5742293092357 59.2327538781594,45.576924255088 59.2394912427903,45.5836616197189 59.2408387157164,45.5796192009404 59.2381437698641,45.5742293092357</coordinates></LinearRing></outerBoundaryIs></Polygon><Polygon><outerBoundaryIs><LinearRing><coordinates>59.2273639864546,45.576924255088 59.2263910613787,45.5759513300121 59.2263910613787,45.577897180164 59.2273639864546,45.576924255088</coordinates></LinearRing></outerBoundaryIs></Polygon><Polygon><outerBoundaryIs><LinearRing><coordinates>59.2569906450727,45.5343547580755 59.2548630816034,45.5343547580755 59.2556609179044,45.5351525943765 59.2569906450727,45.5343547580755</coordinates></LinearRing></outerBoundaryIs></Polygon><Polygon><outerBoundaryIs><LinearRing><coordinates>59.2782931393369,45.5343547580755 59.2758730117971,45.539195013155 59.2799154305756,45.5432374319336 59.2839578493542,45.5365000673027 59.2832427462785,45.5343547580755 59.2782931393369,45.5343547580755</coordinates></LinearRing></outerBoundaryIs></Polygon><Polygon><outerBoundaryIs><LinearRing><coordinates>59.259703336683,45.5418899590074 59.2529659720521,45.5405424860812 59.2516184991259,45.539195013155 59.2543134449782,45.5365000673027 59.2475760803473,45.5351525943765 59.24704418948,45.5343547580755 59.2410219279248,45.5343547580755 59.244881134495,45.5459323777859 59.2475760803473,45.5432374319336 59.2529659720521,45.5459323777859 59.259703336683,45.5418899590074</coordinates></LinearRing></outerBoundaryIs></Polygon><Polygon><outerBoundaryIs><LinearRing><coordinates>59.320339618361,45.5486273236383 59.3263910613787,45.5460338480593 59.3263910613787,45.5434579490379 59.3257295100657,45.5432374319336 59.320339618361,45.5378475402288 59.320339618361,45.5486273236383</coordinates></LinearRing></outerBoundaryIs></Polygon><Polygon><outerBoundaryIs><LinearRing><coordinates>59.3263910613787,45.5475668541748 59.3263910613787,45.5466101759657 59.3243820371396,45.5472798507121 59.3263910613787,45.5475668541748</coordinates></LinearRing></outerBoundaryIs></Polygon></MultiGeometry>
  </Placemark>
</Folder>
</Document></kml>
