<?xml version="1.0" encoding="utf-8" ?>
<kml xmlns="http://www.opengis.net/kml/2.2">
<Document id="root_doc">
<Schema name="task_grid_v6_45.61_59.06" id="task_grid_v6_45.61_59.06">
	<SimpleField name="area_ha" type="float"></SimpleField>
	<SimpleField name="low_risk_ha" type="float"></SimpleField>
	<SimpleField name="moderate_risk_ha" type="float"></SimpleField>
	<SimpleField name="grid_cell_deg" type="string"></SimpleField>
</Schema>
<Folder><name>task_grid_v6_45.61_59.06</name>
  <Placemark id="task_grid_v6_45.61_59.06.1">
	<name>task_grid_v6_45.61_59.06</name>
	<name>0</name>
	<description>87.09999999999999</description>
	<Style><LineStyle><color>ff0000ff</color></LineStyle><PolyStyle><fill>0</fill></PolyStyle></Style>
	<ExtendedData><SchemaData schemaUrl="#task_grid_v6_45.61_59.06">
		<SimpleData name="area_ha">87.1</SimpleData>
		<SimpleData name="low_risk_ha">0.1</SimpleData>
	</SchemaData></ExtendedData>
      <MultiGeometry><Polygon><outerBoundaryIs><LinearRing><coordinates>59.1074388960247,45.5782717280142 59.1102213862645,45.5778742294085 59.1102213862645,45.5676145067473 59.1101338418771,45.5674919446048 59.10204900432,45.5674919446048 59.0993540584676,45.5647969987524 59.0980065855414,45.568839417531 59.1047439501723,45.5728818363095 59.1074388960247,45.5782717280142</coordinates></LinearRing></outerBoundaryIs></Polygon><Polygon><outerBoundaryIs><LinearRing><coordinates>59.0980065855414,45.5903989843498 59.0939641667629,45.5863565655713 59.0926166938367,45.5903989843498 59.0966591126153,45.5944414031284 59.0980065855414,45.5903989843498</coordinates></LinearRing></outerBoundaryIs></Polygon></MultiGeometry>
  </Placemark>
</Folder>
</Document></kml>
