<?xml version="1.0" encoding="utf-8" ?>
<kml xmlns="http://www.opengis.net/kml/2.2">
<Document id="root_doc">
<Schema name="task_grid_v6_45.58_60.08" id="task_grid_v6_45.58_60.08">
	<SimpleField name="area_ha" type="float"></SimpleField>
	<SimpleField name="low_risk_ha" type="float"></SimpleField>
	<SimpleField name="moderate_risk_ha" type="float"></SimpleField>
	<SimpleField name="grid_cell_deg" type="string"></SimpleField>
</Schema>
<Folder><name>task_grid_v6_45.58_60.08</name>
  <Placemark id="task_grid_v6_45.58_60.08.1">
	<name>task_grid_v6_45.58_60.08</name>
	<name>1373.5</name>
	<description>2452.7</description>
	<Style><LineStyle><color>ff0000ff</color></LineStyle><PolyStyle><fill>0</fill></PolyStyle></Style>
	<ExtendedData><SchemaData schemaUrl="#task_grid_v6_45.58_60.08">
		<SimpleData name="area_ha">1079.2</SimpleData>
		<SimpleData name="low_risk_ha">0.1</SimpleData>
	</SchemaData></ExtendedData>
      <MultiGeometry><Polygon><outerBoundaryIs><LinearRing><coordinates>60.0263910613787,45.5924323788892 60.0304578504575,45.5903989843498 60.0291103775313,45.5890515114237 60.0263910613787,45.5890515114237 60.0263910613787,45.5924323788892</coordinates></LinearRing></outerBoundaryIs></Polygon><Polygon><outerBoundaryIs><LinearRing><coordinates>60.12478095529,45.5930939302022 60.1263910613787,45.5947040362908 60.1263910613787,45.5914838241136 60.12478095529,45.5930939302022</coordinates></LinearRing></outerBoundaryIs></Polygon><Polygon><outerBoundaryIs><LinearRing><coordinates>60.1153486448068,45.5944414031284 60.1140011718806,45.5957888760546 60.1207385365115,45.5971363489807 60.1207385365115,45.5944414031284 60.1153486448068,45.5944414031284</coordinates></LinearRing></outerBoundaryIs></Polygon><Polygon><outerBoundaryIs><LinearRing><coordinates>60.0263910613787,45.6025262406854 60.0263910613787,45.6343547580755 60.0339894363978,45.6343547580755 60.0331527963099,45.6335181179876 60.0342683164271,45.6343547580755 60.0577331162308,45.6343547580755 60.0626121750972,45.6343547580755 60.0851934075926,45.6343547580755 60.1263910613787,45.6343547580755 60.1263910613787,45.6324332782239 60.12478095529,45.6308231721352 60.1261284282162,45.629475699209 60.1263910613787,45.629475699209 60.1263910613787,45.6186959157996 60.1234334823639,45.6186959157996 60.1180435906592,45.621390861652 60.1153486448068,45.6186959157996 60.1099587531021,45.6186959157996 60.0937890779879,45.6052211865378 60.0897466592094,45.6092636053164 60.0924416050617,45.6119585511687 60.0910941321356,45.6133060240949 60.0830092945785,45.6160009699472 60.0668396194643,45.6025262406854 60.064144673612,45.6025262406854 60.0614497277596,45.5971363489807 60.0574073089811,45.6038737136116 60.0560598360549,45.6025262406854 60.0452800526455,45.5971363489807 60.0434143209015,45.5983801701434 60.0371952150884,45.5971363489807 60.0385426880146,45.5957888760546 60.034500269236,45.591746457276 60.0263910613787,45.5929049155414 60.0263910613787,45.5939759986195 60.0263910613787,45.6025262406854</coordinates></LinearRing></outerBoundaryIs><innerBoundaryIs><LinearRing><coordinates>60.0362968998043,45.5998312948331 60.0358477421622,45.5984838219069 60.0371952150884,45.5971363489807 60.0362968998043,45.5998312948331</coordinates></LinearRing></innerBoundaryIs><innerBoundaryIs><LinearRing><coordinates>60.0371952150884,45.6025262406854 60.0368583468569,45.6015156359908 60.0380935303725,45.6019273638294 60.0371952150884,45.6025262406854</coordinates></LinearRing></innerBoundaryIs></Polygon><Polygon><outerBoundaryIs><LinearRing><coordinates>60.1263910613787,45.6006363478774 60.1263910613787,45.5963312959364 60.1220860094377,45.5984838219069 60.1263910613787,45.6006363478774</coordinates></LinearRing></outerBoundaryIs></Polygon><Polygon><outerBoundaryIs><LinearRing><coordinates>60.1263910613787,45.6073946520972 60.1263910613787,45.602263607523 60.1261284282162,45.6025262406854 60.1153486448068,45.6025262406854 60.1140011718806,45.606568659464 60.1263910613787,45.6073946520972</coordinates></LinearRing></outerBoundaryIs></Polygon></MultiGeometry>
  </Placemark>
</Folder>
</Document></kml>
