<?xml version="1.0" encoding="utf-8" ?>
<kml xmlns="http://www.opengis.net/kml/2.2">
<Document id="root_doc">
<Schema name="task_grid_v6_45.78_59.48" id="task_grid_v6_45.78_59.48">
	<SimpleField name="area_ha" type="float"></SimpleField>
	<SimpleField name="low_risk_ha" type="float"></SimpleField>
	<SimpleField name="moderate_risk_ha" type="float"></SimpleField>
	<SimpleField name="grid_cell_deg" type="string"></SimpleField>
</Schema>
<Folder><name>task_grid_v6_45.78_59.48</name>
  <Placemark id="task_grid_v6_45.78_59.48.1">
	<name>task_grid_v6_45.78_59.48</name>
	<name>863</name>
	<description>1610.9</description>
	<Style><LineStyle><color>ff0000ff</color></LineStyle><PolyStyle><fill>0</fill></PolyStyle></Style>
	<ExtendedData><SchemaData schemaUrl="#task_grid_v6_45.78_59.48">
		<SimpleData name="area_ha">747.9</SimpleData>
		<SimpleData name="low_risk_ha">0.1</SimpleData>
	</SchemaData></ExtendedData>
      <MultiGeometry><Polygon><outerBoundaryIs><LinearRing><coordinates>59.4606457988836,45.7343547580755 59.4521681357511,45.7343547580755 59.4550869109789,45.7372735333034 59.4577818568313,45.7372735333034 59.4685616402407,45.7507482625652 59.4699091131669,45.7467058437866 59.4606457988836,45.7343547580755</coordinates></LinearRing></outerBoundaryIs></Polygon><Polygon><outerBoundaryIs><LinearRing><coordinates>59.4510444922004,45.7601805730484 59.4604768026837,45.7615280459746 59.4604768026837,45.7588331001222 59.4523919651266,45.7588331001222 59.4510444922004,45.7601805730484</coordinates></LinearRing></outerBoundaryIs></Polygon><Polygon><outerBoundaryIs><LinearRing><coordinates>59.4294849253815,45.7628755189008 59.4362222900124,45.764222991827 59.4362222900124,45.7615280459746 59.4308323983077,45.7615280459746 59.4294849253815,45.7628755189008</coordinates></LinearRing></outerBoundaryIs></Polygon><Polygon><outerBoundaryIs><LinearRing><coordinates>59.4510444922004,45.7628755189008 59.4577818568313,45.764222991827 59.4577818568313,45.7615280459746 59.4523919651266,45.7615280459746 59.4510444922004,45.7628755189008</coordinates></LinearRing></outerBoundaryIs></Polygon><Polygon><outerBoundaryIs><LinearRing><coordinates>59.4577818568313,45.7669179376793 59.4550869109789,45.7696128835317 59.4523919651266,45.764222991827 59.4429596546433,45.7682654106055 59.4496970192742,45.7750027752364 59.4523919651266,45.772307829384 59.4577818568313,45.7750027752364 59.4591293297575,45.7682654106055 59.4577818568313,45.7669179376793</coordinates></LinearRing></outerBoundaryIs></Polygon><Polygon><outerBoundaryIs><LinearRing><coordinates>59.4294849253815,45.7763502481626 59.4267899795292,45.7817401398673 59.4281374524554,45.7830876127935 59.4348748170863,45.7817401398673 59.4335273441601,45.7750027752364 59.4294849253815,45.7763502481626</coordinates></LinearRing></outerBoundaryIs></Polygon><Polygon><outerBoundaryIs><LinearRing><coordinates>59.4523919651266,45.7938673962029 59.4591293297575,45.7898249774244 59.4550869109789,45.7857825586458 59.4510444922004,45.7898249774244 59.4523919651266,45.7938673962029</coordinates></LinearRing></outerBoundaryIs></Polygon><Polygon><outerBoundaryIs><LinearRing><coordinates>59.4496970192742,45.8208168547265 59.4658666943884,45.8127320171694 59.4672141673146,45.816774435948 59.4739515319455,45.8208168547265 59.4806888965764,45.816774435948 59.4672141673146,45.8086895983909 59.4739515319455,45.8073421254647 59.4739515319455,45.8046471796123 59.4658666943884,45.8046471796123 59.463171748536,45.80195223376 59.4443071275695,45.80195223376 59.4416121817172,45.7965623420553 59.4362222900124,45.7965623420553 59.4281374524554,45.7911724503506 59.4263910613787,45.7911724503506 59.4263910613787,45.8189951044125 59.4281374524554,45.8181219088741 59.4308323983077,45.8208168547265 59.4362222900124,45.8181219088741 59.4389172358648,45.8208168547265 59.4496970192742,45.8208168547265</coordinates></LinearRing></outerBoundaryIs><innerBoundaryIs><LinearRing><coordinates>59.4591293297575,45.8059946525385 59.4591293297575,45.8113845442432 59.4523919651266,45.8154269630218 59.448349546348,45.8140794900956 59.4550869109789,45.8046471796123 59.4591293297575,45.8059946525385</coordinates></LinearRing></innerBoundaryIs><innerBoundaryIs><LinearRing><coordinates>59.440264708791,45.8032997066862 59.4389172358648,45.8046471796123 59.4362222900124,45.8046471796123 59.4362222900124,45.80195223376 59.440264708791,45.8032997066862</coordinates></LinearRing></innerBoundaryIs></Polygon><Polygon><outerBoundaryIs><LinearRing><coordinates>59.4658666943884,45.8289016922836 59.4658666943884,45.8208168547265 59.4604768026837,45.8235118005789 59.4550869109789,45.8208168547265 59.4510444922004,45.8221643276527 59.4577818568313,45.8289016922836 59.4604768026837,45.8262067464312 59.4658666943884,45.8289016922836</coordinates></LinearRing></outerBoundaryIs></Polygon><Polygon><outerBoundaryIs><LinearRing><coordinates>59.4739515319455,45.7453583708605 59.4752990048716,45.7413159520819 59.4685616402407,45.734578587451 59.4672141673146,45.7386210062296 59.4739515319455,45.7453583708605</coordinates></LinearRing></outerBoundaryIs></Polygon><Polygon><outerBoundaryIs><LinearRing><coordinates>59.4739515319455,45.764222991827 59.477993950724,45.7628755189008 59.4793414236502,45.7561381542699 59.4860787882811,45.7574856271961 59.4820363695025,45.7588331001222 59.4820363695025,45.7615280459746 59.4914686799858,45.7601805730484 59.4847313153549,45.7507482625652 59.4820363695025,45.7534432084175 59.4766464777978,45.7507482625652 59.4752990048716,45.7520957354914 59.4752990048716,45.7574856271961 59.4726040590193,45.7601805730484 59.4739515319455,45.764222991827</coordinates></LinearRing></outerBoundaryIs></Polygon><Polygon><outerBoundaryIs><LinearRing><coordinates>59.4955110987643,45.7615280459746 59.4914686799858,45.7628755189008 59.4941636258381,45.7655704647531 59.4941636258381,45.7709603564579 59.4982060446167,45.772307829384 59.5022484633952,45.7655704647531 59.4955110987643,45.7615280459746</coordinates></LinearRing></outerBoundaryIs></Polygon><Polygon><outerBoundaryIs><LinearRing><coordinates>59.4874262612072,45.7776977210888 59.4847313153549,45.7803926669411 59.4833838424287,45.7790451940149 59.4887737341334,45.7709603564579 59.4793414236502,45.7669179376793 59.4672141673146,45.7709603564579 59.4726040590193,45.7790451940149 59.4699091131669,45.7817401398673 59.4712565860931,45.7830876127935 59.4887737341334,45.7817401398673 59.4874262612072,45.7776977210888</coordinates></LinearRing></outerBoundaryIs></Polygon><Polygon><outerBoundaryIs><LinearRing><coordinates>59.4564343839051,45.7844350857197 59.463171748536,45.7911724503506 59.4685616402407,45.7911724503506 59.4699091131669,45.7898249774244 59.463171748536,45.7830876127935 59.4564343839051,45.7844350857197</coordinates></LinearRing></outerBoundaryIs></Polygon><Polygon><outerBoundaryIs><LinearRing><coordinates>59.5076383550999,45.7925199232767 59.5035959363214,45.7830876127935 59.4968585716905,45.787130031572 59.4995535175429,45.7898249774244 59.4968585716905,45.7925199232767 59.5035959363214,45.7992572879076 59.5062908821738,45.7992572879076 59.5076383550999,45.7925199232767</coordinates></LinearRing></outerBoundaryIs></Polygon><Polygon><outerBoundaryIs><LinearRing><coordinates>59.5076383550999,45.8032997066862 59.5062908821738,45.7992572879076 59.5022484633952,45.8032997066862 59.5035959363214,45.8046471796123 59.5076383550999,45.8032997066862</coordinates></LinearRing></outerBoundaryIs></Polygon><Polygon><outerBoundaryIs><LinearRing><coordinates>59.4833838424287,45.8032997066862 59.4874262612072,45.8073421254647 59.4941636258381,45.8032997066862 59.492816152912,45.7992572879076 59.4901212070596,45.7992572879076 59.4833838424287,45.8032997066862</coordinates></LinearRing></outerBoundaryIs></Polygon></MultiGeometry>
  </Placemark>
</Folder>
</Document></kml>
