<?xml version="1.0" encoding="utf-8" ?>
<kml xmlns="http://www.opengis.net/kml/2.2">
<Document id="root_doc">
<Schema name="task_grid_v6_45.88_59.38" id="task_grid_v6_45.88_59.38">
	<SimpleField name="area_ha" type="float"></SimpleField>
	<SimpleField name="low_risk_ha" type="float"></SimpleField>
	<SimpleField name="moderate_risk_ha" type="float"></SimpleField>
	<SimpleField name="grid_cell_deg" type="string"></SimpleField>
</Schema>
<Folder><name>task_grid_v6_45.88_59.38</name>
  <Placemark id="task_grid_v6_45.88_59.38.1">
	<name>task_grid_v6_45.88_59.38</name>
	<name>490.6</name>
	<description>490.6</description>
	<Style><LineStyle><color>ff0000ff</color></LineStyle><PolyStyle><fill>0</fill></PolyStyle></Style>
	<ExtendedData><SchemaData schemaUrl="#task_grid_v6_45.88_59.38">
		<SimpleData name="area_ha">0</SimpleData>
		<SimpleData name="low_risk_ha">0.1</SimpleData>
	</SchemaData></ExtendedData>
      <MultiGeometry><Polygon><outerBoundaryIs><LinearRing><coordinates>59.4160101961197,45.8356390569145 59.4147258972808,45.8343547580755 59.4045882632908,45.8343547580755 59.4052304127103,45.8356390569145 59.4146627231936,45.8369865298406 59.4160101961197,45.8356390569145</coordinates></LinearRing></outerBoundaryIs></Polygon><Polygon><outerBoundaryIs><LinearRing><coordinates>59.4214000878245,45.8437238944715 59.4173576690459,45.8423764215454 59.4133152502674,45.8464188403239 59.4173576690459,45.8477663132501 59.4214000878245,45.8437238944715</coordinates></LinearRing></outerBoundaryIs></Polygon><Polygon><outerBoundaryIs><LinearRing><coordinates>59.4038829397841,45.8504612591024 59.4052304127103,45.8571986237333 59.4092728314888,45.8585460966595 59.4119677773412,45.8639359883642 59.4146627231936,45.8585460966595 59.4187051419721,45.8625885154381 59.4133152502674,45.8652834612904 59.4133152502674,45.8706733529951 59.4173576690459,45.8747157717737 59.4240950336768,45.8760632446998 59.4263910613787,45.8814206426709 59.4263910613787,45.8732353261307 59.4187051419721,45.8706733529951 59.4240950336768,45.8652834612904 59.4214000878245,45.8598935695857 59.4263910613787,45.8573980828086 59.4263910613787,45.8567997055829 59.4240950336768,45.854503677881 59.425442506603,45.8531562049548 59.4263910613787,45.8532917127799 59.4263910613787,45.8450713673977 59.425442506603,45.8450713673977 59.4200526148983,45.8531562049548 59.4173576690459,45.8504612591024 59.4146627231936,45.8531562049548 59.4079253585627,45.8491137861763 59.4065778856365,45.8450713673977 59.4011879939318,45.8477663132501 59.4011879939318,45.8423764215454 59.3944506293009,45.8410289486192 59.3971455751532,45.8383340027668 59.3957981022271,45.8369865298406 59.3931031563747,45.8369865298406 59.3904082105223,45.8423764215454 59.3800946432039,45.8343547580755 59.3720098056469,45.8343547580755 59.3823233729653,45.8423764215454 59.3984930480794,45.8504612591024 59.4038829397841,45.8504612591024</coordinates></LinearRing></outerBoundaryIs></Polygon><Polygon><outerBoundaryIs><LinearRing><coordinates>59.4263910613787,45.8608664946616 59.4240950336768,45.8625885154381 59.4263910613787,45.8648845431399 59.4263910613787,45.8608664946616</coordinates></LinearRing></outerBoundaryIs></Polygon></MultiGeometry>
  </Placemark>
</Folder>
</Document></kml>
