<?xml version="1.0" encoding="utf-8" ?>
<kml xmlns="http://www.opengis.net/kml/2.2">
<Document id="root_doc">
<Schema name="task_grid_v6_45.11_61.06" id="task_grid_v6_45.11_61.06">
	<SimpleField name="area_ha" type="float"></SimpleField>
	<SimpleField name="low_risk_ha" type="float"></SimpleField>
	<SimpleField name="moderate_risk_ha" type="float"></SimpleField>
	<SimpleField name="grid_cell_deg" type="string"></SimpleField>
</Schema>
<Folder><name>task_grid_v6_45.11_61.06</name>
  <Placemark id="task_grid_v6_45.11_61.06.1">
	<name>task_grid_v6_45.11_61.06</name>
	<name>23.8</name>
	<description>1414.8</description>
	<Style><LineStyle><color>ff0000ff</color></LineStyle><PolyStyle><fill>0</fill></PolyStyle></Style>
	<ExtendedData><SchemaData schemaUrl="#task_grid_v6_45.11_61.06">
		<SimpleData name="area_ha">1390.9</SimpleData>
		<SimpleData name="low_risk_ha">0.1</SimpleData>
	</SchemaData></ExtendedData>
      <MultiGeometry><Polygon><outerBoundaryIs><LinearRing><coordinates>61.0477999097229,45.0635370702137 61.0468269846469,45.0625641451378 61.0406879972417,45.0625641451378 61.0383675992396,45.0648845431399 61.0477999097229,45.0689269619185 61.0541627265035,45.0625641451378 61.0487728347988,45.0625641451378 61.0477999097229,45.0635370702137</coordinates></LinearRing></outerBoundaryIs></Polygon><Polygon><outerBoundaryIs><LinearRing><coordinates>61.011418140716,45.0648845431399 61.0127656136422,45.0716219077708 61.0248928699778,45.0648845431399 61.0225724719757,45.0625641451378 61.016832402721,45.0625641451378 61.011418140716,45.0648845431399</coordinates></LinearRing></outerBoundaryIs></Polygon><Polygon><outerBoundaryIs><LinearRing><coordinates>61.0504948555752,45.0770117994755 61.0531898014276,45.0743168536232 61.0585796931323,45.0743168536232 61.0626221119108,45.0702744348446 61.0612746389846,45.0662320160661 61.0585796931323,45.0689269619185 61.0451049638705,45.0716219077708 61.0437574909443,45.0756643265494 61.0451049638705,45.0770117994755 61.0477999097229,45.0743168536232 61.0504948555752,45.0770117994755</coordinates></LinearRing></outerBoundaryIs></Polygon><Polygon><outerBoundaryIs><LinearRing><coordinates>61.0464524367967,45.0810542182541 61.0504948555752,45.0824016911803 61.0518423285014,45.0810542182541 61.0477999097229,45.0770117994755 61.0464524367967,45.0810542182541</coordinates></LinearRing></outerBoundaryIs></Polygon><Polygon><outerBoundaryIs><LinearRing><coordinates>61.0734018953203,45.0810542182541 61.0801392599512,45.0824016911803 61.0801392599512,45.0797067453279 61.0747493682464,45.0797067453279 61.0734018953203,45.0810542182541</coordinates></LinearRing></outerBoundaryIs></Polygon><Polygon><outerBoundaryIs><LinearRing><coordinates>61.0612746389846,45.0850966370326 61.0626221119108,45.0837491641064 61.0612746389846,45.0797067453279 61.0572322202061,45.0810542182541 61.0612746389846,45.0850966370326</coordinates></LinearRing></outerBoundaryIs></Polygon><Polygon><outerBoundaryIs><LinearRing><coordinates>61.011418140716,45.0864441099588 61.0102213862645,45.0862047590685 61.0102213862645,45.0865770826756 61.011418140716,45.0864441099588</coordinates></LinearRing></outerBoundaryIs></Polygon><Polygon><outerBoundaryIs><LinearRing><coordinates>61.0855291516559,45.0689269619185 61.0922665162868,45.072969380697 61.0841816787297,45.0783592724017 61.0814867328773,45.0837491641064 61.0841816787297,45.0864441099588 61.0828342058035,45.087791582885 61.0801392599512,45.0850966370326 61.078791787025,45.0864441099588 61.0801392599512,45.0931814745897 61.0909190433606,45.0985713662944 61.1097836643271,45.0985713662944 61.1102213862645,45.0983837711784 61.1102213862645,45.0625641451378 61.07302734747,45.0625641451378 61.0707069494679,45.0648845431399 61.0720544223941,45.0716219077708 61.0774443140988,45.0689269619185 61.0801392599512,45.0716219077708 61.0855291516559,45.0689269619185</coordinates></LinearRing></outerBoundaryIs><innerBoundaryIs><LinearRing><coordinates>61.1013619585385,45.0645476749084 61.10169882677,45.0635370702137 61.1026613074316,45.0641145586107 61.1013619585385,45.0645476749084</coordinates></LinearRing></innerBoundaryIs><innerBoundaryIs><LinearRing><coordinates>61.0949614621391,45.0675794889923 61.093613989213,45.0689269619185 61.0909190433606,45.0689269619185 61.0909190433606,45.0662320160661 61.0949614621391,45.0675794889923</coordinates></LinearRing></innerBoundaryIs></Polygon><Polygon><outerBoundaryIs><LinearRing><coordinates>61.0963089350653,45.1282157706703 61.0909190433606,45.1282157706703 61.0868766245821,45.1322581894489 61.0882240975082,45.1389955540798 61.0909190433606,45.1336056623751 61.0976564079915,45.1322581894489 61.0963089350653,45.1282157706703</coordinates></LinearRing></outerBoundaryIs></Polygon><Polygon><outerBoundaryIs><LinearRing><coordinates>61.1102213862645,45.1441802436104 61.1102213862645,45.1394332760172 61.1097836643271,45.1389955540798 61.1070887184747,45.1416904999321 61.1043937726224,45.1389955540798 61.10169882677,45.1416904999321 61.0990038809177,45.1389955540798 61.0976564079915,45.1430379728583 61.1102213862645,45.1441802436104</coordinates></LinearRing></outerBoundaryIs></Polygon><Polygon><outerBoundaryIs><LinearRing><coordinates>61.0760968411726,45.1538177562677 61.0747493682464,45.1605551208986 61.0707069494679,45.1565127021201 61.0734018953203,45.1538177562677 61.0666645306894,45.1524702833416 61.0626221119108,45.1565127021201 61.0662529777214,45.1625641451378 61.0916049649738,45.1625641451378 61.0922665162868,45.1619025938248 61.0882240975082,45.1578601750463 61.0828342058035,45.1578601750463 61.0801392599512,45.1524702833416 61.0760968411726,45.1538177562677</coordinates></LinearRing></outerBoundaryIs></Polygon><Polygon><outerBoundaryIs><LinearRing><coordinates>61.10169882677,45.1578601750463 61.0969948566785,45.1625641451378 61.1102213862645,45.1625641451378 61.1102213862645,45.1578601750463 61.10169882677,45.1578601750463</coordinates></LinearRing></outerBoundaryIs></Polygon></MultiGeometry>
  </Placemark>
</Folder>
</Document></kml>
