<?xml version="1.0" encoding="utf-8" ?>
<kml xmlns="http://www.opengis.net/kml/2.2">
<Document id="root_doc">
<Schema name="task_grid_v6_45.58_59.38" id="task_grid_v6_45.58_59.38">
	<SimpleField name="area_ha" type="float"></SimpleField>
	<SimpleField name="low_risk_ha" type="float"></SimpleField>
	<SimpleField name="moderate_risk_ha" type="float"></SimpleField>
	<SimpleField name="grid_cell_deg" type="string"></SimpleField>
</Schema>
<Folder><name>task_grid_v6_45.58_59.38</name>
  <Placemark id="task_grid_v6_45.58_59.38.1">
	<name>task_grid_v6_45.58_59.38</name>
	<name>541.1</name>
	<description>708.3</description>
	<Style><LineStyle><color>ff0000ff</color></LineStyle><PolyStyle><fill>0</fill></PolyStyle></Style>
	<ExtendedData><SchemaData schemaUrl="#task_grid_v6_45.58_59.38">
		<SimpleData name="area_ha">167.2</SimpleData>
		<SimpleData name="low_risk_ha">0.1</SimpleData>
	</SchemaData></ExtendedData>
      <MultiGeometry><Polygon><outerBoundaryIs><LinearRing><coordinates>59.3526789685893,45.5351525943765 59.3534768048903,45.5343547580755 59.3524130231557,45.5343547580755 59.3526789685893,45.5351525943765</coordinates></LinearRing></outerBoundaryIs></Polygon><Polygon><outerBoundaryIs><LinearRing><coordinates>59.3607638061464,45.5378475402288 59.3636744579408,45.5343547580755 59.3572710239931,45.5343547580755 59.3607638061464,45.5378475402288</coordinates></LinearRing></outerBoundaryIs></Polygon><Polygon><outerBoundaryIs><LinearRing><coordinates>59.3900287886121,45.5343547580755 59.3890607375962,45.539195013155 59.3931031563747,45.5405424860812 59.3944506293009,45.539195013155 59.3915464762532,45.5343547580755 59.3900287886121,45.5343547580755</coordinates></LinearRing></outerBoundaryIs></Polygon><Polygon><outerBoundaryIs><LinearRing><coordinates>59.3890607375962,45.5445849048597 59.3890607375962,45.5418899590074 59.3836708458914,45.539195013155 59.3863657917438,45.5365000673027 59.3850183188176,45.5351525943765 59.3782809541867,45.539195013155 59.3809759000391,45.5365000673027 59.3766852815848,45.5343547580755 59.3714833021659,45.5343547580755 59.3701961166296,45.5365000673027 59.372891062482,45.539195013155 59.3715435895558,45.5405424860812 59.3634587519988,45.5351525943765 59.3607638061464,45.5378475402288 59.3567213873679,45.5418899590074 59.3594163332202,45.5445849048597 59.358068860294,45.5459323777859 59.3513314956631,45.539195013155 59.3540264415155,45.5365000673027 59.3518811322883,45.5343547580755 59.3480869131856,45.5343547580755 59.3418991851799,45.5405424860812 59.3311194017705,45.5405424860812 59.3291944404473,45.5443924087274 59.3263910613787,45.5434579490379 59.3263910613787,45.5460338480593 59.3289144460731,45.544952397476 59.3284244559181,45.5459323777859 59.3263910613787,45.5466101759657 59.3263910613787,45.5475668541748 59.3338143476228,45.5486273236383 59.3365092934752,45.5432374319336 59.3418991851799,45.5486273236383 59.3607638061464,45.5513222694906 59.3688486437035,45.5432374319336 59.372891062482,45.5472798507121 59.372891062482,45.5553646882692 59.3755860083344,45.5607545799739 59.3850183188176,45.5621020529001 59.3850183188176,45.5594071070477 59.3782809541867,45.5553646882692 59.3836708458914,45.5526697424168 59.3836708458914,45.5472798507121 59.380302163576,45.5455955095544 59.3850183188176,45.5432374319336 59.38771326467,45.5459323777859 59.3890607375962,45.5445849048597</coordinates></LinearRing></outerBoundaryIs><innerBoundaryIs><LinearRing><coordinates>59.3794787078989,45.5451837817158 59.3782809541867,45.5445849048597 59.3782809541867,45.539195013155 59.3794787078989,45.5451837817158</coordinates></LinearRing></innerBoundaryIs></Polygon><Polygon><outerBoundaryIs><LinearRing><coordinates>59.4052304127103,45.5445849048597 59.4065778856365,45.554017215343 59.410620304415,45.5499747965645 59.4092728314888,45.5432374319336 59.4052304127103,45.5445849048597</coordinates></LinearRing></outerBoundaryIs></Polygon><Polygon><outerBoundaryIs><LinearRing><coordinates>59.3594163332202,45.5526697424168 59.3715435895558,45.5567121611954 59.3715435895558,45.5486273236383 59.3688486437035,45.5513222694906 59.3594163332202,45.5526697424168</coordinates></LinearRing></outerBoundaryIs></Polygon><Polygon><outerBoundaryIs><LinearRing><coordinates>59.3755860083344,45.5634495258263 59.3850183188176,45.5647969987524 59.3850183188176,45.5621020529001 59.3769334812606,45.5621020529001 59.3755860083344,45.5634495258263</coordinates></LinearRing></outerBoundaryIs></Polygon></MultiGeometry>
  </Placemark>
</Folder>
</Document></kml>
