<?xml version="1.0" encoding="utf-8" ?>
<kml xmlns="http://www.opengis.net/kml/2.2">
<Document id="root_doc">
<Schema name="task_grid_v6_45.98_58.98" id="task_grid_v6_45.98_58.98">
	<SimpleField name="area_ha" type="float"></SimpleField>
	<SimpleField name="low_risk_ha" type="float"></SimpleField>
	<SimpleField name="moderate_risk_ha" type="float"></SimpleField>
	<SimpleField name="grid_cell_deg" type="string"></SimpleField>
</Schema>
<Folder><name>task_grid_v6_45.98_58.98</name>
  <Placemark id="task_grid_v6_45.98_58.98.1">
	<name>task_grid_v6_45.98_58.98</name>
	<name>387.1</name>
	<description>443.2</description>
	<Style><LineStyle><color>ff0000ff</color></LineStyle><PolyStyle><fill>0</fill></PolyStyle></Style>
	<ExtendedData><SchemaData schemaUrl="#task_grid_v6_45.98_58.98">
		<SimpleData name="area_ha">56.1</SimpleData>
		<SimpleData name="low_risk_ha">0.1</SimpleData>
	</SchemaData></ExtendedData>
      <MultiGeometry><Polygon><outerBoundaryIs><LinearRing><coordinates>58.9619118199973,45.9366995263779 58.9605643470711,45.9380469993041 58.967301711702,45.9393944722303 58.967301711702,45.9366995263779 58.9619118199973,45.9366995263779</coordinates></LinearRing></outerBoundaryIs></Polygon><Polygon><outerBoundaryIs><LinearRing><coordinates>58.9309199426952,45.9461318368612 58.9263910613787,45.9416029555446 58.9263910613787,45.9488491656511 58.9309199426952,45.9461318368612</coordinates></LinearRing></outerBoundaryIs></Polygon><Polygon><outerBoundaryIs><LinearRing><coordinates>58.9635961611551,45.9606171708176 58.9632592929235,45.959606566123 58.9565219282926,45.9555641473444 58.9565219282926,45.9717338224586 58.959216874145,45.9717338224586 58.967301711702,45.9798186600157 58.9753865492591,45.9798186600157 58.9780814951115,45.982513605868 58.9848188597424,45.9811661329418 58.9834713868162,45.9771237141633 58.9753865492591,45.9771237141633 58.9659542387759,45.96769140368 58.9642698976181,45.9626383802069 58.967301711702,45.9636489849015 58.9686491846282,45.9623015119753 58.9646067658497,45.9555641473444 58.9635961611551,45.9606171708176</coordinates></LinearRing></outerBoundaryIs></Polygon><Polygon><outerBoundaryIs><LinearRing><coordinates>58.996946116078,45.9879034975727 59.0131157911921,45.9879034975727 59.0171582099707,45.9838610787942 59.0158107370445,45.9798186600157 59.0104208453398,45.982513605868 58.9942511702256,45.982513605868 58.9888612785209,45.9798186600157 58.9848188597424,45.9838610787942 58.9942511702256,45.9852085517204 58.996946116078,45.9879034975727</coordinates></LinearRing></outerBoundaryIs></Polygon><Polygon><outerBoundaryIs><LinearRing><coordinates>58.9996410619303,46.0094630643916 59.0036834807089,46.0027256997607 58.9982935890042,46.0027256997607 58.9996410619303,46.0094630643916</coordinates></LinearRing></outerBoundaryIs></Polygon><Polygon><outerBoundaryIs><LinearRing><coordinates>59.0238955746016,45.9663439307539 59.0263910613787,45.9655121018282 59.0263910613787,45.9610205254076 59.0225481016754,45.9623015119753 59.0238955746016,45.9663439307539</coordinates></LinearRing></outerBoundaryIs></Polygon><Polygon><outerBoundaryIs><LinearRing><coordinates>59.0036834807089,45.9757762412371 59.0104208453398,45.9771237141633 59.0104208453398,45.9744287683109 59.0050309536351,45.9744287683109 59.0036834807089,45.9757762412371</coordinates></LinearRing></outerBoundaryIs></Polygon><Polygon><outerBoundaryIs><LinearRing><coordinates>59.0263910613787,45.9788213646394 59.0263910613787,45.9730812953848 59.0252430475278,45.9730812953848 59.0263910613787,45.9788213646394</coordinates></LinearRing></outerBoundaryIs></Polygon><Polygon><outerBoundaryIs><LinearRing><coordinates>59.0263910613787,45.9804170372414 59.0252430475278,45.9838610787942 59.0263910613787,45.9842437500778 59.0263910613787,45.9804170372414</coordinates></LinearRing></outerBoundaryIs></Polygon><Polygon><outerBoundaryIs><LinearRing><coordinates>59.0090733724136,46.0296751582843 59.0158107370445,46.0310226312105 59.0158107370445,46.0256327395057 59.0131157911921,46.0283276853581 59.0090733724136,46.0296751582843</coordinates></LinearRing></outerBoundaryIs></Polygon></MultiGeometry>
  </Placemark>
</Folder>
</Document></kml>
