<?xml version="1.0" encoding="utf-8" ?>
<kml xmlns="http://www.opengis.net/kml/2.2">
<Document id="root_doc">
<Schema name="task_grid_v6_46.01_60.96" id="task_grid_v6_46.01_60.96">
	<SimpleField name="area_ha" type="float"></SimpleField>
	<SimpleField name="low_risk_ha" type="float"></SimpleField>
	<SimpleField name="moderate_risk_ha" type="float"></SimpleField>
	<SimpleField name="grid_cell_deg" type="string"></SimpleField>
</Schema>
<Folder><name>task_grid_v6_46.01_60.96</name>
  <Placemark id="task_grid_v6_46.01_60.96.1">
	<name>task_grid_v6_46.01_60.96</name>
	<name>451.8</name>
	<description>721.5</description>
	<Style><LineStyle><color>ff0000ff</color></LineStyle><PolyStyle><fill>0</fill></PolyStyle></Style>
	<ExtendedData><SchemaData schemaUrl="#task_grid_v6_46.01_60.96">
		<SimpleData name="area_ha">269.7</SimpleData>
		<SimpleData name="low_risk_ha">0.1</SimpleData>
	</SchemaData></ExtendedData>
      <MultiGeometry><Polygon><outerBoundaryIs><LinearRing><coordinates>60.9952484656019,46.0000307539083 60.9844686821924,46.0000307539083 60.9898585738972,46.0054206456131 60.9912060468233,46.012158010244 60.9925535197495,46.0027256997607 60.9952484656019,46.0000307539083</coordinates></LinearRing></outerBoundaryIs></Polygon><Polygon><outerBoundaryIs><LinearRing><coordinates>60.9858161551186,46.0148529560963 60.9871636280448,46.0135054831701 60.9844686821924,46.0108105373178 60.9844686821924,46.0054206456131 60.9777313175615,46.0013782268345 60.973688898783,46.0027256997607 60.973688898783,46.0054206456131 60.9804262634139,46.0067681185392 60.9817737363401,46.0135054831701 60.9858161551186,46.0148529560963</coordinates></LinearRing></outerBoundaryIs></Polygon><Polygon><outerBoundaryIs><LinearRing><coordinates>60.9912060468233,46.020242847801 60.9844686821924,46.0215903207272 60.9844686821924,46.0242852665796 60.9912060468233,46.0283276853581 60.9952484656019,46.0242852665796 60.9912060468233,46.020242847801</coordinates></LinearRing></outerBoundaryIs></Polygon><Polygon><outerBoundaryIs><LinearRing><coordinates>60.9682990070783,46.0377599958414 60.9696464800045,46.0391074687675 60.973688898783,46.0377599958414 60.9777313175615,46.0391074687675 60.9804262634139,46.0364125229152 60.9831212092663,46.0418024146199 60.988511100971,46.0418024146199 60.9925535197495,46.0377599958414 60.9925535197495,46.0323701041366 60.9844686821924,46.0242852665796 60.9831212092663,46.0148529560963 60.9790787904877,46.0162004290225 60.9817737363401,46.0215903207272 60.9781804752036,46.0287768430002 60.9777313175615,46.0283276853581 60.9709939529306,46.0323701041366 60.9682990070783,46.0377599958414</coordinates></LinearRing></outerBoundaryIs></Polygon><Polygon><outerBoundaryIs><LinearRing><coordinates>60.9871636280448,46.0512347251031 60.9912060468233,46.0552771438817 60.9925535197495,46.0539296709555 60.9912060468233,46.049887252177 60.9871636280448,46.0512347251031</coordinates></LinearRing></outerBoundaryIs></Polygon><Polygon><outerBoundaryIs><LinearRing><coordinates>61.0060807756438,45.9625641451378 61.0073757219375,45.9690388766062 61.0087231948637,45.9649964578277 61.0102213862645,45.9642473621272 61.0102213862645,45.9625641451378 61.0060807756438,45.9625641451378</coordinates></LinearRing></outerBoundaryIs></Polygon><Polygon><outerBoundaryIs><LinearRing><coordinates>60.9871636280448,45.9625641451378 60.9871636280448,45.96769140368 60.9912060468233,45.9744287683109 60.9952484656019,45.9730812953848 60.9952484656019,45.9784711870895 61.0019858302328,45.9852085517204 61.0060282490113,45.9811661329418 61.0087231948637,45.9730812953848 61.0046807760851,45.9663439307539 61.0019858302328,45.9690388766062 61.0006383573066,45.96769140368 61.0057656158488,45.9625641451378 60.9926848363307,45.9625641451378 60.9952484656019,45.96769140368 60.9925535197495,45.9703863495324 60.9925535197495,45.9625641451378 60.9871636280448,45.9625641451378</coordinates></LinearRing></outerBoundaryIs></Polygon><Polygon><outerBoundaryIs><LinearRing><coordinates>60.988511100971,45.9879034975727 60.9952484656019,45.9838610787942 60.9939009926757,45.9798186600157 60.9871636280448,45.9838610787942 60.988511100971,45.9879034975727</coordinates></LinearRing></outerBoundaryIs></Polygon><Polygon><outerBoundaryIs><LinearRing><coordinates>60.9939009926757,45.9932933892774 60.9925535197495,45.997335808056 60.9952484656019,46.0000307539083 60.9925535197495,46.0054206456131 60.996595938528,46.0067681185392 60.9979434114542,45.997335808056 60.9939009926757,45.9932933892774</coordinates></LinearRing></outerBoundaryIs></Polygon></MultiGeometry>
  </Placemark>
</Folder>
</Document></kml>
