<?xml version="1.0" encoding="utf-8" ?>
<kml xmlns="http://www.opengis.net/kml/2.2">
<Document id="root_doc">
<Schema name="task_grid_v6_46.01_60.06" id="task_grid_v6_46.01_60.06">
	<SimpleField name="area_ha" type="float"></SimpleField>
	<SimpleField name="low_risk_ha" type="float"></SimpleField>
	<SimpleField name="moderate_risk_ha" type="float"></SimpleField>
	<SimpleField name="grid_cell_deg" type="string"></SimpleField>
</Schema>
<Folder><name>task_grid_v6_46.01_60.06</name>
  <Placemark id="task_grid_v6_46.01_60.06.1">
	<name>task_grid_v6_46.01_60.06</name>
	<name>325.4</name>
	<description>2672.6</description>
	<Style><LineStyle><color>ff0000ff</color></LineStyle><PolyStyle><fill>0</fill></PolyStyle></Style>
	<ExtendedData><SchemaData schemaUrl="#task_grid_v6_46.01_60.06">
		<SimpleData name="area_ha">2347.2</SimpleData>
		<SimpleData name="low_risk_ha">0.1</SimpleData>
	</SchemaData></ExtendedData>
      <MultiGeometry><Polygon><outerBoundaryIs><LinearRing><coordinates>60.0466275255717,45.9649964578277 60.0479749984978,45.9663439307539 60.053644676922,45.9625641451378 60.0478436819166,45.9625641451378 60.0466275255717,45.9649964578277</coordinates></LinearRing></outerBoundaryIs></Polygon><Polygon><outerBoundaryIs><LinearRing><coordinates>60.0479749984978,45.9798186600157 60.0520174172764,45.9730812953848 60.0412376338669,45.9730812953848 60.0412376338669,45.9649964578277 60.038805321177,45.9625641451378 60.0358477421622,45.9625641451378 60.0358477421622,45.9703863495324 60.0385426880146,45.9730812953848 60.0358477421622,45.9757762412371 60.0452800526455,45.9771237141633 60.0479749984978,45.9798186600157</coordinates></LinearRing></outerBoundaryIs></Polygon><Polygon><outerBoundaryIs><LinearRing><coordinates>60.0169831211957,45.9784711870895 60.0169831211957,45.9703863495324 60.0102457565648,45.9636489849015 60.0102213862645,45.9636441108414 60.0102213862645,45.9825379761683 60.0102457565648,45.982513605868 60.0129407024172,45.9905984434251 60.0142881753433,45.9838610787942 60.0196780670481,45.9811661329418 60.0169831211957,45.9784711870895</coordinates></LinearRing></outerBoundaryIs></Polygon><Polygon><outerBoundaryIs><LinearRing><coordinates>60.0331527963099,45.9865560246465 60.0371952150884,45.9879034975727 60.0385426880146,45.9865560246465 60.0398901609408,45.9879034975727 60.0439325797193,45.9865560246465 60.0425851067931,45.982513605868 60.0412376338669,45.9838610787942 60.034500269236,45.982513605868 60.0331527963099,45.9865560246465</coordinates></LinearRing></outerBoundaryIs></Polygon><Polygon><outerBoundaryIs><LinearRing><coordinates>60.049322471424,46.0027256997607 60.049322471424,46.0135054831701 60.0439325797193,46.0162004290225 60.0466275255717,46.0188953748749 60.0452800526455,46.020242847801 60.034500269236,46.0148529560963 60.026415431679,46.0148529560963 60.0250679587528,46.0081155914654 60.0156356482695,45.9986832809822 60.0102457565648,45.9986832809822 60.0102213862645,45.9987076512824 60.0102213862645,46.0013538565342 60.011593229491,46.0027256997607 60.0102213862645,46.0040975429872 60.0102213862645,46.006743748239 60.0156356482695,46.012158010244 60.0223730129004,46.0135054831701 60.0169831211957,46.0162004290225 60.011593229491,46.0323701041366 60.0102457565648,46.0337175770628 60.0102213862645,46.0336932067625 60.0102213862645,46.0390830984673 60.011593229491,46.0404549416937 60.0129407024172,46.049887252177 60.0169831211957,46.0485397792508 60.0183305941219,46.049887252177 60.0167136266105,46.0531211871998 60.0156356482695,46.049887252177 60.0102457565648,46.0525821980293 60.0102213862645,46.0525821980293 60.0102213862645,46.0587594816206 60.0159350866976,46.0546782670256 60.0156356482695,46.0552771438817 60.0102213862645,46.058886651885 60.0102213862645,46.0625641451378 60.0283125412303,46.0625641451378 60.0277629046051,46.0620145085126 60.0318053233837,46.0552771438817 60.0371952150884,46.0552771438817 60.0425851067931,46.0606670355864 60.0466275255717,46.0566246168079 60.0439325797193,46.0539296709555 60.0452800526455,46.0471923063246 60.049322471424,46.0485397792508 60.0466275255717,46.0539296709555 60.0506699443502,46.0552771438817 60.0574073089811,46.0485397792508 60.0574073089811,46.0404549416937 60.0587547819073,46.0391074687675 60.064144673612,46.0418024146199 60.0668396194643,46.0364125229152 60.0735769840952,46.0323701041366 60.0681870923905,46.0296751582843 60.0668396194643,46.0256327395057 60.0601022548334,46.0269802124319 60.0614497277596,46.0256327395057 60.0681870923905,46.0242852665796 60.0654921465382,46.0215903207272 60.0654921465382,46.0162004290225 60.0614497277596,46.0148529560963 60.0560598360549,46.0067681185392 60.0547123631287,46.0135054831701 60.0547123631287,46.0081155914654 60.0520174172764,46.0054206456131 60.0547123631287,46.0027256997607 60.049322471424,45.997335808056 60.049322471424,45.9892509704989 60.0520174172764,45.9865560246465 60.0479749984978,45.9852085517204 60.0439325797193,45.9946408622036 60.049322471424,46.0027256997607</coordinates></LinearRing></outerBoundaryIs><innerBoundaryIs><LinearRing><coordinates>60.0627972006858,46.0296751582843 60.0614497277596,46.0310226312105 60.0587547819073,46.0283276853581 60.0560598360549,46.0310226312105 60.0601022548334,46.0269802124319 60.0627972006858,46.0296751582843</coordinates></LinearRing></innerBoundaryIs><innerBoundaryIs><LinearRing><coordinates>60.0210255399742,46.0579720897341 60.0196780670481,46.0566246168079 60.0250679587528,46.0539296709555 60.0250679587528,46.0566246168079 60.0210255399742,46.0579720897341</coordinates></LinearRing></innerBoundaryIs><innerBoundaryIs><LinearRing><coordinates>60.0331527963099,46.0323701041366 60.0291103775313,46.0337175770628 60.0291103775313,46.0310226312105 60.0318053233837,46.0310226312105 60.0331527963099,46.0323701041366</coordinates></LinearRing></innerBoundaryIs><innerBoundaryIs><LinearRing><coordinates>60.0439325797193,46.0431498875461 60.0425851067931,46.0444973604723 60.0412376338669,46.0431498875461 60.0439325797193,46.0431498875461</coordinates></LinearRing></innerBoundaryIs><innerBoundaryIs><LinearRing><coordinates>60.0506699443502,46.0418024146199 60.049322471424,46.0404549416937 60.0506699443502,46.0391074687675 60.0506699443502,46.0418024146199</coordinates></LinearRing></innerBoundaryIs><innerBoundaryIs><LinearRing><coordinates>60.0331527963099,46.0377599958414 60.034500269236,46.0364125229152 60.0358477421622,46.0377599958414 60.0331527963099,46.0377599958414</coordinates></LinearRing></innerBoundaryIs><innerBoundaryIs><LinearRing><coordinates>60.0533648902025,46.0337175770628 60.0547123631287,46.035065049989 60.0533648902025,46.0364125229152 60.0533648902025,46.0337175770628</coordinates></LinearRing></innerBoundaryIs><innerBoundaryIs><LinearRing><coordinates>60.0412376338669,46.0215903207272 60.0398901609408,46.0229377936534 60.0385426880146,46.0215903207272 60.0412376338669,46.0215903207272</coordinates></LinearRing></innerBoundaryIs></Polygon><Polygon><outerBoundaryIs><LinearRing><coordinates>60.0102457565648,46.049887252177 60.0102213862645,46.049887252177 60.0102213862645,46.0525773239693 60.0102457565648,46.0525821980293 60.0102457565648,46.049887252177</coordinates></LinearRing></outerBoundaryIs></Polygon><Polygon><outerBoundaryIs><LinearRing><coordinates>60.0574073089811,45.96769140368 60.0601022548334,45.96769140368 60.0626658841046,45.9625641451378 60.0563818572726,45.9625641451378 60.0574073089811,45.96769140368</coordinates></LinearRing></outerBoundaryIs></Polygon><Polygon><outerBoundaryIs><LinearRing><coordinates>60.1099587531021,45.9717338224586 60.1102213862645,45.9716812958261 60.1102213862645,45.96467443661 60.1086112801759,45.9649964578277 60.1099587531021,45.9717338224586</coordinates></LinearRing></outerBoundaryIs></Polygon><Polygon><outerBoundaryIs><LinearRing><coordinates>60.0601022548334,45.9730812953848 60.064144673612,45.9771237141633 60.0749244570214,45.9744287683109 60.0749244570214,45.9690388766062 60.0816618216523,45.96769140368 60.0749244570214,45.9636489849015 60.0695345653167,45.9717338224586 60.0668396194643,45.9717338224586 60.0654921465382,45.9703863495324 60.0681870923905,45.96769140368 60.064144673612,45.9663439307539 60.0601022548334,45.9730812953848</coordinates></LinearRing></outerBoundaryIs></Polygon><Polygon><outerBoundaryIs><LinearRing><coordinates>60.0964840238403,45.9717338224586 60.1032213884712,45.9703863495324 60.0937890779879,45.9690388766062 60.0910941321356,45.9636489849015 60.087051713357,45.9730812953848 60.0897466592094,45.9757762412371 60.087051713357,45.9784711870895 60.0883991862832,45.9798186600157 60.0910941321356,45.9798186600157 60.0964840238403,45.9717338224586</coordinates></LinearRing></outerBoundaryIs></Polygon><Polygon><outerBoundaryIs><LinearRing><coordinates>60.1045688613974,45.9879034975727 60.1059163343235,45.9865560246465 60.1045688613974,45.9798186600157 60.1005264426188,45.9811661329418 60.1045688613974,45.9879034975727</coordinates></LinearRing></outerBoundaryIs></Polygon><Polygon><outerBoundaryIs><LinearRing><coordinates>60.0722295111691,46.020242847801 60.0735769840952,46.0188953748749 60.0722295111691,46.0148529560963 60.0681870923905,46.0162004290225 60.0722295111691,46.020242847801</coordinates></LinearRing></outerBoundaryIs></Polygon><Polygon><outerBoundaryIs><LinearRing><coordinates>60.1099587531021,46.0337175770628 60.1102213862645,46.0334549439004 60.1102213862645,46.0312852643729 60.1072638072497,46.0283276853581 60.1059163343235,46.0323701041366 60.1099587531021,46.0337175770628</coordinates></LinearRing></outerBoundaryIs></Polygon><Polygon><outerBoundaryIs><LinearRing><coordinates>60.0614497277596,46.0625641451378 60.0614497277596,46.049887252177 60.0587547819073,46.049887252177 60.0466275255717,46.0620145085126 60.0482764354472,46.0625641451378 60.0514677806512,46.0625641451378 60.0533648902025,46.0606670355864 60.0543134449782,46.0625641451378 60.0614497277596,46.0625641451378</coordinates></LinearRing></outerBoundaryIs></Polygon></MultiGeometry>
  </Placemark>
</Folder>
</Document></kml>
