<?xml version="1.0" encoding="utf-8" ?>
<kml xmlns="http://www.opengis.net/kml/2.2">
<Document id="root_doc">
<Schema name="task_grid_v6_45.48_60.88" id="task_grid_v6_45.48_60.88">
	<SimpleField name="area_ha" type="float"></SimpleField>
	<SimpleField name="low_risk_ha" type="float"></SimpleField>
	<SimpleField name="moderate_risk_ha" type="float"></SimpleField>
	<SimpleField name="grid_cell_deg" type="string"></SimpleField>
</Schema>
<Folder><name>task_grid_v6_45.48_60.88</name>
  <Placemark id="task_grid_v6_45.48_60.88.1">
	<name>task_grid_v6_45.48_60.88</name>
	<name>0</name>
	<description>525.8</description>
	<Style><LineStyle><color>ff0000ff</color></LineStyle><PolyStyle><fill>0</fill></PolyStyle></Style>
	<ExtendedData><SchemaData schemaUrl="#task_grid_v6_45.48_60.88">
		<SimpleData name="area_ha">525.8</SimpleData>
		<SimpleData name="low_risk_ha">0.1</SimpleData>
	</SchemaData></ExtendedData>
      <MultiGeometry><Polygon><outerBoundaryIs><LinearRing><coordinates>60.8524163354269,45.5122455546314 60.8578062271316,45.5149405004838 60.8564587542054,45.51628797341 60.8483739166483,45.51628797341 60.845678970796,45.5135930275576 60.8416365520174,45.5176354463362 60.8416365520174,45.5230253380409 60.8335517144603,45.5284152297456 60.8362466603127,45.531110175598 60.8348991873865,45.5324576485241 60.8322042415342,45.5297627026718 60.8286326428868,45.5343547580755 60.8400408794155,45.5343547580755 60.8389416061651,45.5338051214503 60.8429840249436,45.5297627026718 60.8498721080492,45.5343547580755 60.8511575109786,45.5343547580755 60.8524163354269,45.5230253380409 60.8591537000578,45.5189829192623 60.8672385376148,45.5243728109671 60.8739759022457,45.5176354463362 60.8672385376148,45.5082031358529 60.8645435917625,45.5108980817053 60.853763808353,45.5108980817053 60.8524163354269,45.5122455546314</coordinates></LinearRing></outerBoundaryIs><innerBoundaryIs><LinearRing><coordinates>60.8470264437221,45.5284152297456 60.8470264437221,45.5203303921885 60.8497213895745,45.5203303921885 60.8483739166483,45.5297627026718 60.8470264437221,45.5284152297456</coordinates></LinearRing></innerBoundaryIs></Polygon><Polygon><outerBoundaryIs><LinearRing><coordinates>60.9130526171049,45.5297627026718 60.9090101983264,45.531110175598 60.9090101983264,45.5343547580755 60.9205050848115,45.5343547580755 60.921137454662,45.5324576485241 60.9263910613787,45.5324576485241 60.9263910613787,45.516424258398 60.9184425088096,45.5243728109671 60.9157475629573,45.5243728109671 60.9130526171049,45.5297627026718</coordinates></LinearRing></outerBoundaryIs><innerBoundaryIs><LinearRing><coordinates>60.9251798734405,45.5257202838932 60.9238324005144,45.5270677568194 60.9238324005144,45.5243728109671 60.9251798734405,45.5257202838932</coordinates></LinearRing></innerBoundaryIs></Polygon><Polygon><outerBoundaryIs><LinearRing><coordinates>60.8699334834672,45.5270677568194 60.8658910646887,45.5284152297456 60.8672385376148,45.5324576485241 60.8712809563934,45.531110175598 60.8699334834672,45.5270677568194</coordinates></LinearRing></outerBoundaryIs></Polygon></MultiGeometry>
  </Placemark>
</Folder>
</Document></kml>
