<?xml version="1.0" encoding="utf-8" ?>
<kml xmlns="http://www.opengis.net/kml/2.2">
<Document id="root_doc">
<Schema name="task_grid_v6_46.08_60.28" id="task_grid_v6_46.08_60.28">
	<SimpleField name="area_ha" type="float"></SimpleField>
	<SimpleField name="low_risk_ha" type="float"></SimpleField>
	<SimpleField name="moderate_risk_ha" type="float"></SimpleField>
	<SimpleField name="grid_cell_deg" type="string"></SimpleField>
</Schema>
<Folder><name>task_grid_v6_46.08_60.28</name>
  <Placemark id="task_grid_v6_46.08_60.28.1">
	<name>task_grid_v6_46.08_60.28</name>
	<name>3062.9</name>
	<description>4552.6</description>
	<Style><LineStyle><color>ff0000ff</color></LineStyle><PolyStyle><fill>0</fill></PolyStyle></Style>
	<ExtendedData><SchemaData schemaUrl="#task_grid_v6_46.08_60.28">
		<SimpleData name="area_ha">1489.7</SimpleData>
		<SimpleData name="low_risk_ha">0.1</SimpleData>
	</SchemaData></ExtendedData>
      <MultiGeometry><Polygon><outerBoundaryIs><LinearRing><coordinates>60.2366212081629,46.0364125229152 60.2366212081629,46.0343547580755 60.2305941354455,46.0343547580755 60.229883843532,46.035065049989 60.2366212081629,46.0364125229152</coordinates></LinearRing></outerBoundaryIs></Polygon><Polygon><outerBoundaryIs><LinearRing><coordinates>60.2395285476862,46.0343547580755 60.2389610080585,46.0343547580755 60.2386789730026,46.0343547580755 60.2366212081629,46.0364125229152 60.2263910613787,46.0373425362592 60.2263910613787,46.0423520512451 60.2263910613787,46.0439477238471 60.2271888976797,46.0431498875461 60.2263910613787,46.044745560148 60.2263910613787,46.0527935967313 60.2270926496135,46.0530634383601 60.2263910613787,46.0532973011051 60.2263910613787,46.0660569272911 60.2312313164582,46.0660569272911 60.2312313164582,46.0633619814388 60.2352737352368,46.0674044002173 60.2352737352368,46.0722553027516 60.2339262623106,46.0714468189958 60.229883843532,46.0781841836267 60.2312313164582,46.0795316565529 60.2406636269415,46.0754892377744 60.2361720505209,46.072794291922 60.2406636269415,46.072794291922 60.2474009915724,46.0741417648482 60.2527908832771,46.0714468189958 60.2635706666865,46.0795316565529 60.2662656125389,46.0849215482576 60.2730029771698,46.0808791294791 60.2689605583912,46.0741417648482 60.2608757208342,46.0741417648482 60.259528247908,46.072794291922 60.2581807749818,46.0714468189958 60.2649181396127,46.0647094543649 60.2586299326239,46.0629128237967 60.2649181396127,46.0620145085126 60.2592587533227,46.0595890572455 60.2689605583912,46.0606670355864 60.2689605583912,46.0579720897341 60.2581807749818,46.0579720897341 60.2573722912261,46.0587805734898 60.2554858291294,46.0579720897341 60.2460535186462,46.0593195626602 60.2568333020556,46.0566246168079 60.2527908832771,46.0552771438817 60.2487484644985,46.0485397792508 60.2487484644985,46.0431498875461 60.2460535186462,46.0404549416937 60.2487484644985,46.0377599958414 60.2433585727938,46.0377599958414 60.24470604572,46.0364125229152 60.2500959374247,46.0364125229152 60.2529768082003,46.0343547580755 60.2395285476862,46.0343547580755</coordinates></LinearRing></outerBoundaryIs><innerBoundaryIs><LinearRing><coordinates>60.2379686810891,46.0700993460697 60.2393161540153,46.0687518731435 60.2420110998676,46.0687518731435 60.2406636269415,46.072794291922 60.2379686810891,46.0700993460697</coordinates></LinearRing></innerBoundaryIs><innerBoundaryIs><LinearRing><coordinates>60.2285363706059,46.0536187156649 60.2334575760754,46.0555114869993 60.2285363706059,46.0579720897341 60.2285363706059,46.0536187156649</coordinates></LinearRing></innerBoundaryIs><innerBoundaryIs><LinearRing><coordinates>60.2323092947992,46.0612060247569 60.2312313164582,46.0615653508705 60.2312313164582,46.0606670355864 60.2323092947992,46.0612060247569</coordinates></LinearRing></innerBoundaryIs><innerBoundaryIs><LinearRing><coordinates>60.2474009915724,46.0644399597797 60.2487484644985,46.0647094543649 60.2474009915724,46.0647094543649 60.2474009915724,46.0644399597797</coordinates></LinearRing></innerBoundaryIs><innerBoundaryIs><LinearRing><coordinates>60.2339262623106,46.0525821980293 60.2325787893844,46.0512347251031 60.2352737352368,46.0512347251031 60.2339262623106,46.0525821980293</coordinates></LinearRing></innerBoundaryIs></Polygon><Polygon><outerBoundaryIs><LinearRing><coordinates>60.2662656125389,46.0633619814388 60.2649181396127,46.0647094543649 60.259528247908,46.0700993460697 60.2608757208342,46.0714468189958 60.2676130854651,46.0700993460697 60.2662656125389,46.0633619814388</coordinates></LinearRing></outerBoundaryIs></Polygon><Polygon><outerBoundaryIs><LinearRing><coordinates>60.2460535186462,46.0970488045932 60.274350450096,46.0983962775194 60.2810878147268,46.0916589128885 60.2770453959483,46.08761649411 60.2716555042436,46.0957013316671 60.2460535186462,46.0970488045932</coordinates></LinearRing></outerBoundaryIs></Polygon><Polygon><outerBoundaryIs><LinearRing><coordinates>60.2312313164582,46.0930063858147 60.2263910613787,46.0930063858147 60.2263910613787,46.0950098666557 60.2312313164582,46.0957013316671 60.2312313164582,46.0930063858147</coordinates></LinearRing></outerBoundaryIs></Polygon><Polygon><outerBoundaryIs><LinearRing><coordinates>60.2433585727938,46.0970488045932 60.2393161540153,46.0930063858147 60.2325787893844,46.0970488045932 60.2357228928788,46.0983962775194 60.2339262623106,46.0983962775194 60.2339262623106,46.1010912233718 60.2379686810891,46.102438696298 60.229883843532,46.1051336421503 60.2366212081629,46.1064811150765 60.2379686810891,46.110523533855 60.2339262623106,46.1118710067812 60.2339262623106,46.1145659526336 60.2393161540153,46.1145659526336 60.2366212081629,46.1199558443383 60.2339262623106,46.1172608984859 60.2285363706059,46.1172608984859 60.2263910613787,46.1194062077131 60.2263910613787,46.1226507901907 60.2420110998676,46.1226507901907 60.24470604572,46.1199558443383 60.2581807749818,46.1199558443383 60.2649181396127,46.1159134255598 60.2554858291294,46.1145659526336 60.2635706666865,46.1145659526336 60.2662656125389,46.1172608984859 60.2918675981363,46.1186083714121 60.2689605583912,46.1226507901907 60.2662656125389,46.1280406818954 60.2662656125389,46.1226507901907 60.2608757208342,46.1226507901907 60.259528247908,46.1239982631168 60.2620838000094,46.1255315943777 60.2527908832771,46.1266932089692 60.2527908832771,46.1226507901907 60.2474009915724,46.125345736043 60.24470604572,46.1226507901907 60.2406636269415,46.1266932089692 60.2470839391191,46.1274065769889 60.2420110998676,46.1280406818954 60.2393161540153,46.125345736043 60.2339262623106,46.125345736043 60.2312313164582,46.1280406818954 60.2285363706059,46.125345736043 60.2263910613787,46.1274910452702 60.2263910613787,46.1343547580755 60.2425345675233,46.1343547580755 60.2738495540713,46.1343547580755 60.3263910613787,46.1343547580755 60.3263910613787,46.1334305736001 60.3255544212908,46.1334305736001 60.3242069483646,46.1320831006739 60.3263910613787,46.1313550630025 60.3263910613787,46.1226507901907 60.3228594754384,46.1226507901907 60.3228594754384,46.1215728118497 60.3263910613787,46.1222791290378 60.3263910613787,46.1206621615264 60.3263910613787,46.1199558443383 60.3263910613787,46.1118710067812 60.3228594754384,46.1118710067812 60.3215120025122,46.110523533855 60.3263910613787,46.1114993456283 60.3263910613787,46.1091760609289 60.3255544212908,46.1091760609289 60.3263910613787,46.107921100797 60.3263910613787,46.1002545832839 60.3255544212908,46.1010912233718 60.3228594754384,46.0983962775194 60.312079692029,46.0957013316671 60.3103953508712,46.0967119363617 60.3066898003242,46.0930063858147 60.3039948544719,46.0957013316671 60.2999524356934,46.0970488045932 60.3079336214869,46.0981889739923 60.2986049627672,46.1037861692241 60.2986049627672,46.0983962775194 60.2959100169148,46.1010912233718 60.2918675981363,46.0997437504456 60.297257489841,46.0970488045932 60.2878251793577,46.0957013316671 60.2837827605792,46.0997437504456 60.282435287653,46.0983962775194 60.274350450096,46.0983962775194 60.24470604572,46.0983962775194 60.2420110998676,46.1010912233718 60.2433585727938,46.0970488045932</coordinates></LinearRing></outerBoundaryIs><innerBoundaryIs><LinearRing><coordinates>60.2527908832771,46.1172608984859 60.2527908832771,46.1118710067812 60.2554858291294,46.1145659526336 60.2527908832771,46.1172608984859</coordinates></LinearRing></innerBoundaryIs><innerBoundaryIs><LinearRing><coordinates>60.3228594754384,46.1091760609289 60.3215120025122,46.110523533855 60.320164529586,46.1091760609289 60.3080372732504,46.110523533855 60.3093847461766,46.1010912233718 60.3147746378813,46.1037861692241 60.320164529586,46.1010912233718 60.3242069483646,46.1051336421503 60.3215120025122,46.1078285880027 60.3255544212908,46.1091760609289 60.3228594754384,46.1091760609289</coordinates></LinearRing></innerBoundaryIs><innerBoundaryIs><LinearRing><coordinates>60.2770453959483,46.1307356277477 60.2783928688745,46.1320831006739 60.2500959374247,46.1307356277477 60.2770453959483,46.1307356277477</coordinates></LinearRing></innerBoundaryIs><innerBoundaryIs><LinearRing><coordinates>60.2878251793577,46.1010912233718 60.2905201252101,46.1037861692241 60.2851302335054,46.1037861692241 60.2878251793577,46.1010912233718</coordinates></LinearRing></innerBoundaryIs><innerBoundaryIs><LinearRing><coordinates>60.282435287653,46.1037861692241 60.2797403418007,46.1064811150765 60.274350450096,46.1064811150765 60.2703080313174,46.102438696298 60.2716555042436,46.1010912233718 60.274350450096,46.1037861692241 60.2770453959483,46.1010912233718 60.2797403418007,46.1037861692241 60.2810878147268,46.102438696298 60.2851302335054,46.1037861692241 60.282435287653,46.1037861692241</coordinates></LinearRing></innerBoundaryIs><innerBoundaryIs><LinearRing><coordinates>60.3147746378813,46.1172608984859 60.3161221108075,46.1186083714121 60.3147746378813,46.1188778659973 60.3147746378813,46.1172608984859</coordinates></LinearRing></innerBoundaryIs><innerBoundaryIs><LinearRing><coordinates>60.3080372732504,46.1186083714121 60.312079692029,46.1194168551678 60.3093847461766,46.1199558443383 60.3080372732504,46.1186083714121</coordinates></LinearRing></innerBoundaryIs><innerBoundaryIs><LinearRing><coordinates>60.2797403418007,46.1280406818954 60.2770453959483,46.1280406818954 60.2770453959483,46.125345736043 60.2810878147268,46.1266932089692 60.2797403418007,46.1280406818954</coordinates></LinearRing></innerBoundaryIs><innerBoundaryIs><LinearRing><coordinates>60.2932150710625,46.1280406818954 60.2918675981363,46.1266932089692 60.2959100169148,46.125345736043 60.297257489841,46.1266932089692 60.2932150710625,46.1280406818954</coordinates></LinearRing></innerBoundaryIs><innerBoundaryIs><LinearRing><coordinates>60.3039948544719,46.1226507901907 60.3053423273981,46.1239982631168 60.3012999086195,46.1280406818954 60.2999524356934,46.1266932089692 60.3039948544719,46.1226507901907</coordinates></LinearRing></innerBoundaryIs><innerBoundaryIs><LinearRing><coordinates>60.2878251793577,46.1334305736001 60.2864777064316,46.1320831006739 60.2891726522839,46.1320831006739 60.2878251793577,46.1334305736001</coordinates></LinearRing></innerBoundaryIs><innerBoundaryIs><LinearRing><coordinates>60.3080372732504,46.1266932089692 60.3093847461766,46.125345736043 60.3093847461766,46.1280406818954 60.3080372732504,46.1266932089692</coordinates></LinearRing></innerBoundaryIs><innerBoundaryIs><LinearRing><coordinates>60.2487484644985,46.1078285880027 60.2474009915724,46.1091760609289 60.2474009915724,46.1064811150765 60.2487484644985,46.1078285880027</coordinates></LinearRing></innerBoundaryIs><innerBoundaryIs><LinearRing><coordinates>60.2527908832771,46.1064811150765 60.2514434103509,46.1051336421503 60.2541383562033,46.1051336421503 60.2527908832771,46.1064811150765</coordinates></LinearRing></innerBoundaryIs></Polygon><Polygon><outerBoundaryIs><LinearRing><coordinates>60.2263910613787,46.0974127885936 60.2325787893844,46.0970488045932 60.2263910613787,46.096849200464 60.2263910613787,46.0974127885936</coordinates></LinearRing></outerBoundaryIs></Polygon><Polygon><outerBoundaryIs><LinearRing><coordinates>60.3263910613787,46.0361336428859 60.3263910613787,46.0343547580755 60.3248684996775,46.0343547580755 60.3255544212908,46.0364125229152 60.3263910613787,46.0361336428859</coordinates></LinearRing></outerBoundaryIs></Polygon><Polygon><outerBoundaryIs><LinearRing><coordinates>60.2999524356934,46.0566246168079 60.3026473815457,46.0539296709555 60.2986049627672,46.049887252177 60.2932150710625,46.0579720897341 60.2891726522839,46.0593195626602 60.2910591143806,46.0612060247569 60.2797403418007,46.0579720897341 60.2783928688745,46.0647094543649 60.282435287653,46.0687518731435 60.2878251793577,46.0687518731435 60.2959100169148,46.0741417648482 60.3012999086195,46.0660569272911 60.3066898003242,46.0687518731435 60.3188170566599,46.0593195626602 60.3134271649552,46.0566246168079 60.3174695837337,46.049887252177 60.3263910613787,46.0521176215882 60.3263910613787,46.0457718572787 60.3174695837337,46.0444973604723 60.3147746378813,46.0471923063246 60.3093847461766,46.0444973604723 60.3080372732504,46.0539296709555 60.3066898003242,46.049887252177 60.3026473815457,46.0512347251031 60.3039948544719,46.0525821980293 60.2999524356934,46.0566246168079</coordinates></LinearRing></outerBoundaryIs><innerBoundaryIs><LinearRing><coordinates>60.2986049627672,46.0633619814388 60.2963855955946,46.0627278765323 60.2988295415882,46.0622390873336 60.2986049627672,46.0633619814388</coordinates></LinearRing></innerBoundaryIs><innerBoundaryIs><LinearRing><coordinates>60.3093847461766,46.0606670355864 60.3080372732504,46.0593195626602 60.3107322191028,46.0593195626602 60.3093847461766,46.0606670355864</coordinates></LinearRing></innerBoundaryIs></Polygon><Polygon><outerBoundaryIs><LinearRing><coordinates>60.2851302335054,46.0579720897341 60.2851302335054,46.0552771438817 60.2797403418007,46.0552771438817 60.2783928688745,46.0566246168079 60.2851302335054,46.0579720897341</coordinates></LinearRing></outerBoundaryIs></Polygon><Polygon><outerBoundaryIs><LinearRing><coordinates>60.2689605583912,46.0741417648482 60.2689605583912,46.0714468189958 60.2608757208342,46.0714468189958 60.259528247908,46.072794291922 60.2689605583912,46.0741417648482</coordinates></LinearRing></outerBoundaryIs></Polygon><Polygon><outerBoundaryIs><LinearRing><coordinates>60.2770453959483,46.0714468189958 60.2716555042436,46.0714468189958 60.2703080313174,46.072794291922 60.2770453959483,46.0741417648482 60.2770453959483,46.0714468189958</coordinates></LinearRing></outerBoundaryIs></Polygon><Polygon><outerBoundaryIs><LinearRing><coordinates>60.2797403418007,46.0822266024053 60.2815369723689,46.0822266024053 60.2783928688745,46.0835740753315 60.2878251793577,46.0849215482576 60.2905201252101,46.08761649411 60.2986049627672,46.08761649411 60.3012999086195,46.0903114399623 60.3026473815457,46.0889639670362 60.3012999086195,46.0849215482576 60.2932150710625,46.0849215482576 60.2878251793577,46.0795316565529 60.2867154957715,46.0800072352327 60.2918675981363,46.072794291922 60.2891726522839,46.0700993460697 60.2797403418007,46.0687518731435 60.2770453959483,46.0741417648482 60.2716555042436,46.0741417648482 60.2703080313174,46.0754892377744 60.2756979230221,46.0808791294791 60.2730029771698,46.0835740753315 60.2770453959483,46.0849215482576 60.2797403418007,46.0822266024053</coordinates></LinearRing></outerBoundaryIs><innerBoundaryIs><LinearRing><coordinates>60.2810878147268,46.072794291922 60.2837827605792,46.072794291922 60.282435287653,46.0741417648482 60.2810878147268,46.072794291922</coordinates></LinearRing></innerBoundaryIs></Polygon><Polygon><outerBoundaryIs><LinearRing><coordinates>60.3263910613787,46.0911480800503 60.3263910613787,46.08761649411 60.3174695837337,46.08761649411 60.3147746378813,46.0849215482576 60.3093847461766,46.0849215482576 60.3053423273981,46.0889639670362 60.3093847461766,46.0903114399623 60.312079692029,46.08761649411 60.3147746378813,46.0903114399623 60.3255544212908,46.0903114399623 60.3263910613787,46.0911480800503</coordinates></LinearRing></outerBoundaryIs></Polygon><Polygon><outerBoundaryIs><LinearRing><coordinates>60.282435287653,46.0930063858147 60.2864777064316,46.0889639670362 60.2797403418007,46.08761649411 60.2783928688745,46.0889639670362 60.282435287653,46.0930063858147</coordinates></LinearRing></outerBoundaryIs></Polygon><Polygon><outerBoundaryIs><LinearRing><coordinates>60.3263910613787,46.0992329176074 60.3263910613787,46.0930063858147 60.3228594754384,46.0930063858147 60.3215120025122,46.0943538587409 60.3263910613787,46.0992329176074</coordinates></LinearRing></outerBoundaryIs></Polygon></MultiGeometry>
  </Placemark>
</Folder>
</Document></kml>
