<?xml version="1.0" encoding="utf-8" ?>
<kml xmlns="http://www.opengis.net/kml/2.2">
<Document id="root_doc">
<Schema name="task_grid_v6_45.48_59.38" id="task_grid_v6_45.48_59.38">
	<SimpleField name="area_ha" type="float"></SimpleField>
	<SimpleField name="low_risk_ha" type="float"></SimpleField>
	<SimpleField name="moderate_risk_ha" type="float"></SimpleField>
	<SimpleField name="grid_cell_deg" type="string"></SimpleField>
</Schema>
<Folder><name>task_grid_v6_45.48_59.38</name>
  <Placemark id="task_grid_v6_45.48_59.38.1">
	<name>task_grid_v6_45.48_59.38</name>
	<name>1916.8</name>
	<description>2942.9</description>
	<Style><LineStyle><color>ff0000ff</color></LineStyle><PolyStyle><fill>0</fill></PolyStyle></Style>
	<ExtendedData><SchemaData schemaUrl="#task_grid_v6_45.48_59.38">
		<SimpleData name="area_ha">1026.2</SimpleData>
		<SimpleData name="low_risk_ha">0.1</SimpleData>
	</SchemaData></ExtendedData>
      <MultiGeometry><Polygon><outerBoundaryIs><LinearRing><coordinates>59.3429840249436,45.4343547580755 59.3364749863613,45.4343547580755 59.3418991851799,45.4354395978392 59.3429840249436,45.4343547580755</coordinates></LinearRing></outerBoundaryIs></Polygon><Polygon><outerBoundaryIs><LinearRing><coordinates>59.372891062482,45.4475668541748 59.3634587519988,45.448914327101 59.3634587519988,45.4516092729534 59.3742385354082,45.4516092729534 59.3782809541867,45.4475668541748 59.3755860083344,45.4448719083225 59.3765421129023,45.4343547580755 59.3715435895558,45.4343547580755 59.3715435895558,45.4354395978392 59.3704587497921,45.4343547580755 59.3675011707773,45.4343547580755 59.3675011707773,45.4394820166178 59.372891062482,45.4475668541748</coordinates></LinearRing></outerBoundaryIs></Polygon><Polygon><outerBoundaryIs><LinearRing><coordinates>59.3432466581061,45.4475668541748 59.3405517122537,45.4529567458796 59.3418991851799,45.4543042188057 59.3445941310322,45.4516092729534 59.3459416039584,45.4529567458796 59.3432466581061,45.4556516917319 59.335161820549,45.4556516917319 59.3392042393275,45.4596941105104 59.3445941310322,45.4596941105104 59.3378567664014,45.4610415834366 59.3405517122537,45.463736529289 59.3378567664014,45.4664314751413 59.3405517122537,45.4691264209937 59.3405517122537,45.4745163126984 59.3418991851799,45.4758637856246 59.3445941310322,45.4731688397722 59.3517461027173,45.4779368208956 59.3486365498108,45.4826011502555 59.3594163332202,45.4906859878126 59.3594163332202,45.4933809336649 59.3634587519988,45.4974233524435 59.3621112790726,45.4987708253696 59.3634587519988,45.5055081900005 59.3607638061464,45.5028132441482 59.3594163332202,45.5041607170744 59.3594163332202,45.5149405004838 59.3540264415155,45.5230253380409 59.3553739144417,45.5270677568194 59.3513314956631,45.531110175598 59.3524130231557,45.5343547580755 59.3534768048903,45.5343547580755 59.3567213873679,45.531110175598 59.358068860294,45.5324576485241 59.3621112790726,45.531110175598 59.3567213873679,45.5338051214503 59.3572710239931,45.5343547580755 59.3636744579408,45.5343547580755 59.370388612762,45.5262977722902 59.3715435895558,45.5297627026718 59.3755860083344,45.5257202838932 59.3742385354082,45.5216778651147 59.3796284271129,45.5216778651147 59.3809759000391,45.5203303921885 59.3850183188176,45.5216778651147 59.3890607375962,45.5122455546314 59.3890607375962,45.4960758795173 59.3850183188176,45.4893385148864 59.3823233729653,45.4920334607388 59.3809759000391,45.4906859878126 59.3836708458914,45.4879910419602 59.3809759000391,45.4852960961079 59.3823233729653,45.486643569034 59.3863657917438,45.4852960961079 59.3850183188176,45.4812536773293 59.3836708458914,45.4826011502555 59.3836708458914,45.4745163126984 59.3809759000391,45.4745163126984 59.3806390318075,45.4762006538561 59.3796284271129,45.4650840022152 59.3782809541867,45.4664314751413 59.3796284271129,45.4812536773293 59.3755860083344,45.4529567458796 59.3634587519988,45.4516092729534 59.3621112790726,45.4502618000272 59.3648062249249,45.4475668541748 59.3621112790726,45.4448719083225 59.3567213873679,45.4448719083225 59.3594163332202,45.4421769624701 59.3567213873679,45.4394820166178 59.3567213873679,45.4343547580755 59.3483739166483,45.4343547580755 59.3445941310322,45.4381345436916 59.3365092934752,45.4381345436916 59.3311194017705,45.4354395978392 59.3263910613787,45.4415188926286 59.3263910613787,45.4522708242663 59.3284244559181,45.4543042188057 59.3338143476228,45.4543042188057 59.3378567664014,45.4502618000272 59.3392042393275,45.4516092729534 59.3432466581061,45.4475668541748</coordinates></LinearRing></outerBoundaryIs><innerBoundaryIs><LinearRing><coordinates>59.3477382345267,45.4646348445731 59.3486365498108,45.4691264209937 59.3459416039584,45.4664314751413 59.3477382345267,45.4646348445731</coordinates></LinearRing></innerBoundaryIs><innerBoundaryIs><LinearRing><coordinates>59.3642073480689,45.4649342830011 59.3648062249249,45.4691264209937 59.3701961166296,45.4745163126984 59.3621112790726,45.4691264209937 59.3642073480689,45.4649342830011</coordinates></LinearRing></innerBoundaryIs><innerBoundaryIs><LinearRing><coordinates>59.3634587519988,45.4596941105104 59.3639079096408,45.4628382140049 59.3614375426095,45.4603678469735 59.3634587519988,45.4596941105104</coordinates></LinearRing></innerBoundaryIs><innerBoundaryIs><LinearRing><coordinates>59.3594163332202,45.4610415834366 59.360702557377,45.460612842051 59.3594163332202,45.4799062044031 59.3594163332202,45.4610415834366</coordinates></LinearRing></innerBoundaryIs><innerBoundaryIs><LinearRing><coordinates>59.3621112790726,45.4826011502555 59.3594163332202,45.4852960961079 59.3594163332202,45.4799062044031 59.3621112790726,45.4826011502555</coordinates></LinearRing></innerBoundaryIs><innerBoundaryIs><LinearRing><coordinates>59.3769334812606,45.4974233524435 59.3742385354082,45.5028132441482 59.3675011707773,45.5041607170744 59.372891062482,45.5095506087791 59.3715435895558,45.5135930275576 59.365479961388,45.5095506087791 59.3701961166296,45.5095506087791 59.3661536978511,45.5028132441482 59.3675011707773,45.501465771222 59.3688486437035,45.5028132441482 59.3769334812606,45.4974233524435</coordinates></LinearRing></innerBoundaryIs><innerBoundaryIs><LinearRing><coordinates>59.3782809541867,45.4987708253696 59.3782809541867,45.5068556629267 59.3769334812606,45.4974233524435 59.3782809541867,45.4987708253696</coordinates></LinearRing></innerBoundaryIs><innerBoundaryIs><LinearRing><coordinates>59.3836708458914,45.5149405004838 59.3829971094284,45.51628797341 59.3782809541867,45.5068556629267 59.3836708458914,45.5149405004838</coordinates></LinearRing></innerBoundaryIs><innerBoundaryIs><LinearRing><coordinates>59.3472890768846,45.4462193812487 59.3526789685893,45.448914327101 59.3594163332202,45.4556516917319 59.358068860294,45.4569991646581 59.3459416039584,45.4475668541748 59.3472890768846,45.4462193812487</coordinates></LinearRing></innerBoundaryIs><innerBoundaryIs><LinearRing><coordinates>59.3540264415155,45.4448719083225 59.3526789685893,45.4462193812487 59.3513314956631,45.4448719083225 59.3540264415155,45.4448719083225</coordinates></LinearRing></innerBoundaryIs><innerBoundaryIs><LinearRing><coordinates>59.3755860083344,45.5176354463362 59.3755860083344,45.5122455546314 59.3782809541867,45.5122455546314 59.3769334812606,45.5189829192623 59.3755860083344,45.5176354463362</coordinates></LinearRing></innerBoundaryIs><innerBoundaryIs><LinearRing><coordinates>59.3675011707773,45.5176354463362 59.3688486437035,45.51628797341 59.3701961166296,45.5203303921885 59.3688486437035,45.5216778651147 59.3675011707773,45.5176354463362</coordinates></LinearRing></innerBoundaryIs><innerBoundaryIs><LinearRing><coordinates>59.3594163332202,45.5257202838932 59.3588773440497,45.5267982622342 59.358068860294,45.5243728109671 59.3594163332202,45.5257202838932</coordinates></LinearRing></innerBoundaryIs></Polygon><Polygon><outerBoundaryIs><LinearRing><coordinates>59.3518811322883,45.5343547580755 59.349984022737,45.5324576485241 59.3480869131856,45.5343547580755 59.3518811322883,45.5343547580755</coordinates></LinearRing></outerBoundaryIs></Polygon><Polygon><outerBoundaryIs><LinearRing><coordinates>59.3917556834485,45.4502618000272 59.3890607375962,45.4556516917319 59.3944506293009,45.463736529289 59.3917556834485,45.4691264209937 59.3984930480794,45.4731688397722 59.3971455751532,45.4610415834366 59.3944506293009,45.4583466375843 59.3944506293009,45.4475668541748 59.3931031563747,45.4462193812487 59.3931031563747,45.4462193812487 59.3971455751532,45.4394820166178 59.3931031563747,45.4354395978392 59.38771326467,45.4354395978392 59.3868996348472,45.4343547580755 59.378412270768,45.4343547580755 59.3794359309806,45.4364020785008 59.3782809541867,45.4421769624701 59.3850183188176,45.4435244353963 59.3861732956115,45.4423694586024 59.3900713422908,45.4445350400909 59.3890607375962,45.4475668541748 59.3917556834485,45.4502618000272</coordinates></LinearRing></outerBoundaryIs></Polygon><Polygon><outerBoundaryIs><LinearRing><coordinates>59.3998405210056,45.4799062044031 59.3957981022271,45.4758637856246 59.3944506293009,45.4799062044031 59.3984930480794,45.4812536773293 59.3998405210056,45.4799062044031</coordinates></LinearRing></outerBoundaryIs></Polygon><Polygon><outerBoundaryIs><LinearRing><coordinates>59.410620304415,45.4906859878126 59.4079253585627,45.4879910419602 59.4079253585627,45.4826011502555 59.4011879939318,45.4731688397722 59.3998405210056,45.4772112585508 59.402535466858,45.4826011502555 59.3998405210056,45.4852960961079 59.4052304127103,45.4879910419602 59.4052304127103,45.4960758795173 59.4092728314888,45.4974233524435 59.410620304415,45.4906859878126</coordinates></LinearRing></outerBoundaryIs></Polygon><Polygon><outerBoundaryIs><LinearRing><coordinates>59.3850183188176,45.5324576485241 59.3863657917438,45.531110175598 59.3850183188176,45.5216778651147 59.3836708458914,45.5230253380409 59.3850183188176,45.5324576485241</coordinates></LinearRing></outerBoundaryIs></Polygon><Polygon><outerBoundaryIs><LinearRing><coordinates>59.3742385354082,45.5297627026718 59.3714833021659,45.5343547580755 59.3766852815848,45.5343547580755 59.3755860083344,45.5338051214503 59.3742385354082,45.5297627026718</coordinates></LinearRing></outerBoundaryIs></Polygon><Polygon><outerBoundaryIs><LinearRing><coordinates>59.3915464762532,45.5343547580755 59.3904082105223,45.5324576485241 59.3900287886121,45.5343547580755 59.3915464762532,45.5343547580755</coordinates></LinearRing></outerBoundaryIs></Polygon></MultiGeometry>
  </Placemark>
</Folder>
</Document></kml>
