<?xml version="1.0" encoding="utf-8" ?>
<kml xmlns="http://www.opengis.net/kml/2.2">
<Document id="root_doc">
<Schema name="task_grid_v6_46.38_59.58" id="task_grid_v6_46.38_59.58">
	<SimpleField name="area_ha" type="float"></SimpleField>
	<SimpleField name="low_risk_ha" type="float"></SimpleField>
	<SimpleField name="moderate_risk_ha" type="float"></SimpleField>
	<SimpleField name="grid_cell_deg" type="string"></SimpleField>
</Schema>
<Folder><name>task_grid_v6_46.38_59.58</name>
  <Placemark id="task_grid_v6_46.38_59.58.1">
	<name>task_grid_v6_46.38_59.58</name>
	<name>1037.5</name>
	<description>1368.8</description>
	<Style><LineStyle><color>ff0000ff</color></LineStyle><PolyStyle><fill>0</fill></PolyStyle></Style>
	<ExtendedData><SchemaData schemaUrl="#task_grid_v6_46.38_59.58">
		<SimpleData name="area_ha">331.3</SimpleData>
		<SimpleData name="low_risk_ha">0.1</SimpleData>
	</SchemaData></ExtendedData>
      <MultiGeometry><Polygon><outerBoundaryIs><LinearRing><coordinates>59.530545394845,46.3463312959364 59.5263910613787,46.3431001476849 59.5263910613787,46.3557412234821 59.5332403406973,46.3571110793458 59.5413251782544,46.3625009710506 59.5467150699591,46.3598060251982 59.5574948533686,46.3598060251982 59.5588423262948,46.358458552272 59.5507574887377,46.3530686605673 59.5507574887377,46.350373714715 59.5561473804424,46.3476787688626 59.5547999075162,46.3463312959364 59.5521049616639,46.3463312959364 59.55345243459,46.3449838230102 59.5507574887377,46.3422888771579 59.5588423262948,46.3395939313055 59.55345243459,46.3368989854532 59.5576928135528,46.3343547580755 59.5263910613787,46.3343547580755 59.5263910613787,46.3430185709648 59.530545394845,46.3409414042317 59.5386302324021,46.3409414042317 59.5413251782544,46.3463312959364 59.530545394845,46.3463312959364</coordinates></LinearRing></outerBoundaryIs><innerBoundaryIs><LinearRing><coordinates>59.5426726511806,46.3368989854532 59.545367597033,46.3368989854532 59.5440201241068,46.3382464583793 59.5426726511806,46.3368989854532</coordinates></LinearRing></innerBoundaryIs></Polygon><Polygon><outerBoundaryIs><LinearRing><coordinates>59.5601897992209,46.3490262417888 59.5588423262948,46.350373714715 59.568274636778,46.3517211876411 59.568274636778,46.3490262417888 59.5601897992209,46.3490262417888</coordinates></LinearRing></outerBoundaryIs></Polygon><Polygon><outerBoundaryIs><LinearRing><coordinates>59.5588423262948,46.3557636064197 59.5655796909256,46.3571110793458 59.5696221097042,46.3530686605673 59.5601897992209,46.3517211876411 59.5588423262948,46.3557636064197</coordinates></LinearRing></outerBoundaryIs></Polygon><Polygon><outerBoundaryIs><LinearRing><coordinates>59.5857917848183,46.358458552272 59.5709695826304,46.3544161334935 59.5669271638518,46.358458552272 59.5857917848183,46.358458552272</coordinates></LinearRing></outerBoundaryIs></Polygon><Polygon><outerBoundaryIs><LinearRing><coordinates>59.5574948533686,46.3975352671312 59.5642322179995,46.396187794205 59.5601897992209,46.3948403212789 59.5574948533686,46.3921453754265 59.5574948533686,46.3975352671312</coordinates></LinearRing></outerBoundaryIs></Polygon><Polygon><outerBoundaryIs><LinearRing><coordinates>59.5763594743351,46.3463312959364 59.5750120014089,46.350373714715 59.5696221097042,46.3530686605673 59.5844443118922,46.3571110793458 59.5844443118922,46.3463312959364 59.5763594743351,46.3463312959364</coordinates></LinearRing></outerBoundaryIs></Polygon><Polygon><outerBoundaryIs><LinearRing><coordinates>59.5992665140801,46.3557636064197 59.606003878711,46.3598060251982 59.6073513516372,46.3638484439767 59.606003878711,46.3651959169029 59.597919041154,46.3598060251982 59.5965715682278,46.3611534981244 59.5992665140801,46.3638484439767 59.597919041154,46.3651959169029 59.5952240953016,46.3625009710506 59.5898342035969,46.3651959169029 59.5857917848183,46.3746282273862 59.5925291494492,46.3759757003124 59.5925291494492,46.3678908627553 59.6006139870063,46.3678908627553 59.6073513516372,46.3719332815338 59.6046564057848,46.3746282273862 59.606003878711,46.3786706461647 59.6113937704157,46.3759757003124 59.6140887162681,46.3786706461647 59.6181311350466,46.3746282273862 59.6113937704157,46.37328075446 59.6100462974896,46.3692383356815 59.6221735538252,46.3598060251982 59.6248684996775,46.3651959169029 59.6263910613787,46.3636733552018 59.6263910613787,46.358633641047 59.6235210267514,46.3557636064197 59.6248684996775,46.3544161334935 59.6263910613787,46.3544161334935 59.6263910613787,46.3432861725341 59.6248684996775,46.3463312959364 59.6221735538252,46.3436363500841 59.6140887162681,46.3436363500841 59.6033089328587,46.3490262417888 59.5992665140801,46.3557636064197</coordinates></LinearRing></outerBoundaryIs><innerBoundaryIs><LinearRing><coordinates>59.6127412433419,46.3611534981244 59.6113937704157,46.3625009710506 59.6100462974896,46.3611534981244 59.6127412433419,46.3611534981244</coordinates></LinearRing></innerBoundaryIs></Polygon><Polygon><outerBoundaryIs><LinearRing><coordinates>59.6263910613787,46.3694134244564 59.6263910613787,46.36558671162 59.6235210267514,46.3665433898291 59.6263910613787,46.3694134244564</coordinates></LinearRing></outerBoundaryIs></Polygon><Polygon><outerBoundaryIs><LinearRing><coordinates>59.6263910613787,46.3721083703088 59.6263910613787,46.3715831039839 59.6262159726037,46.3719332815338 59.6263910613787,46.3721083703088</coordinates></LinearRing></outerBoundaryIs></Polygon><Polygon><outerBoundaryIs><LinearRing><coordinates>59.5857917848183,46.3934928483527 59.5790544201874,46.3867554837218 59.5709695826304,46.3894504295742 59.5669271638518,46.396187794205 59.5763594743351,46.3975352671312 59.5790544201874,46.3948403212789 59.5844443118922,46.3948403212789 59.5857917848183,46.3934928483527</coordinates></LinearRing></outerBoundaryIs></Polygon></MultiGeometry>
  </Placemark>
</Folder>
</Document></kml>
