<?xml version="1.0" encoding="utf-8" ?>
<kml xmlns="http://www.opengis.net/kml/2.2">
<Document id="root_doc">
<Schema name="task_grid_v6_45.01_61.86" id="task_grid_v6_45.01_61.86">
	<SimpleField name="area_ha" type="float"></SimpleField>
	<SimpleField name="low_risk_ha" type="float"></SimpleField>
	<SimpleField name="moderate_risk_ha" type="float"></SimpleField>
	<SimpleField name="grid_cell_deg" type="string"></SimpleField>
</Schema>
<Folder><name>task_grid_v6_45.01_61.86</name>
  <Placemark id="task_grid_v6_45.01_61.86.1">
	<name>task_grid_v6_45.01_61.86</name>
	<name>0</name>
	<description>19.1</description>
	<Style><LineStyle><color>ff0000ff</color></LineStyle><PolyStyle><fill>0</fill></PolyStyle></Style>
	<ExtendedData><SchemaData schemaUrl="#task_grid_v6_45.01_61.86">
		<SimpleData name="area_ha">19.1</SimpleData>
		<SimpleData name="low_risk_ha">0.1</SimpleData>
	</SchemaData></ExtendedData>
      <Polygon><outerBoundaryIs><LinearRing><coordinates>61.815859477645,45.0069432073142 61.8172069505712,45.0029007885357 61.8131645317927,44.9988583697571 61.8118170588665,45.0029007885357 61.815859477645,45.0069432073142</coordinates></LinearRing></outerBoundaryIs></Polygon>
  </Placemark>
</Folder>
</Document></kml>
