<?xml version="1.0" encoding="utf-8" ?>
<kml xmlns="http://www.opengis.net/kml/2.2">
<Document id="root_doc">
<Schema name="task_grid_v6_45.31_59.06" id="task_grid_v6_45.31_59.06">
	<SimpleField name="area_ha" type="float"></SimpleField>
	<SimpleField name="low_risk_ha" type="float"></SimpleField>
	<SimpleField name="moderate_risk_ha" type="float"></SimpleField>
	<SimpleField name="grid_cell_deg" type="string"></SimpleField>
</Schema>
<Folder><name>task_grid_v6_45.31_59.06</name>
  <Placemark id="task_grid_v6_45.31_59.06.1">
	<name>task_grid_v6_45.31_59.06</name>
	<name>1311.1</name>
	<description>1522.1</description>
	<Style><LineStyle><color>ff0000ff</color></LineStyle><PolyStyle><fill>0</fill></PolyStyle></Style>
	<ExtendedData><SchemaData schemaUrl="#task_grid_v6_45.31_59.06">
		<SimpleData name="area_ha">211</SimpleData>
		<SimpleData name="low_risk_ha">0.1</SimpleData>
	</SchemaData></ExtendedData>
      <MultiGeometry><Polygon><outerBoundaryIs><LinearRing><coordinates>59.10204900432,45.3330316554496 59.1087863689509,45.3289892366711 59.1102213862645,45.3261192020437 59.1102213862645,45.317072169401 59.0965967,45.3228973 59.0679884165074,45.3379277937742 59.0710571270179,45.3397690200805 59.0670147082393,45.343811438859 59.0654908854649,45.3392399705357 59.0575823977561,45.3433950074956 59.0575823977561,45.3478538576376 59.0535399789775,45.3518962764161 59.0504985019282,45.3471168124814 59.0364201338813,45.3545134402216 59.0210968283389,45.3625641451378 59.0417872704921,45.3625641451378 59.042972589239,45.3625641451378 59.0866090230128,45.3625641451378 59.0944360071207,45.3625641451378 59.0912692209105,45.3572861681208 59.0965471979275,45.3625641451378 59.0969948566785,45.3625641451378 59.1007015313938,45.3613285868994 59.0953116396891,45.3532437493423 59.0966591126153,45.3518962764161 59.10204900432,45.3572861681208 59.1033964772462,45.3559386951946 59.1007015313938,45.3505488034899 59.1033964772462,45.3478538576376 59.1007015313938,45.3451589117852 59.1033964772462,45.3424639659329 59.1005090352615,45.3407315007421 59.1033964772462,45.3397690200805 59.0993540584676,45.3303367095972 59.10204900432,45.3330316554496</coordinates></LinearRing></outerBoundaryIs><innerBoundaryIs><LinearRing><coordinates>59.0980065855414,45.3289892366711 59.0993540584676,45.3303367095972 59.0976697173099,45.3337053919127 59.0953116396891,45.3289892366711 59.0966591126153,45.3303367095972 59.0980065855414,45.3289892366711</coordinates></LinearRing></innerBoundaryIs><innerBoundaryIs><LinearRing><coordinates>59.10204900432,45.3276417637449 59.0980065855414,45.3289892366711 59.0993540584676,45.3276417637449 59.10204900432,45.3276417637449</coordinates></LinearRing></innerBoundaryIs><innerBoundaryIs><LinearRing><coordinates>59.1060914230985,45.3262942908187 59.1047439501723,45.3267434484608 59.1047439501723,45.3261017946864 59.1060914230985,45.3262942908187</coordinates></LinearRing></innerBoundaryIs><innerBoundaryIs><LinearRing><coordinates>59.0885742750582,45.335726601302 59.0908200632685,45.3379723895123 59.0899217479844,45.3397690200805 59.087226802132,45.3370740742281 59.0885742750582,45.335726601302</coordinates></LinearRing></innerBoundaryIs><innerBoundaryIs><LinearRing><coordinates>59.0912692209105,45.343811438859 59.0885742750582,45.3465063847114 59.087226802132,45.3451589117852 59.0899217479844,45.3397690200805 59.0912692209105,45.343811438859</coordinates></LinearRing></innerBoundaryIs><innerBoundaryIs><LinearRing><coordinates>59.0926166938367,45.3424639659329 59.0953116396891,45.3451589117852 59.0939641667629,45.3465063847114 59.0912692209105,45.343811438859 59.0926166938367,45.3424639659329</coordinates></LinearRing></innerBoundaryIs><innerBoundaryIs><LinearRing><coordinates>59.0629722894608,45.3532437493423 59.0624333002903,45.3559386951946 59.0616248165346,45.3518962764161 59.0629722894608,45.3532437493423</coordinates></LinearRing></innerBoundaryIs><innerBoundaryIs><LinearRing><coordinates>59.0858793292058,45.3545912222685 59.0858793292058,45.3572861681208 59.0845318562796,45.3559386951946 59.0858793292058,45.3545912222685</coordinates></LinearRing></innerBoundaryIs><innerBoundaryIs><LinearRing><coordinates>59.0926166938367,45.3532437493423 59.0899217479844,45.3532437493423 59.0912692209105,45.3518962764161 59.0926166938367,45.3532437493423</coordinates></LinearRing></innerBoundaryIs><innerBoundaryIs><LinearRing><coordinates>59.0777944916487,45.343811438859 59.0777944916487,45.3411164930067 59.0791419645749,45.3424639659329 59.0777944916487,45.343811438859</coordinates></LinearRing></innerBoundaryIs></Polygon><Polygon><outerBoundaryIs><LinearRing><coordinates>59.1102213862645,45.350373714715 59.1060914230985,45.358633641047 59.1021609190077,45.3625641451378 59.1102213862645,45.3625641451378 59.1102213862645,45.350373714715</coordinates></LinearRing></outerBoundaryIs></Polygon></MultiGeometry>
  </Placemark>
</Folder>
</Document></kml>
