<?xml version="1.0" encoding="utf-8" ?>
<kml xmlns="http://www.opengis.net/kml/2.2">
<Document id="root_doc">
<Schema name="task_grid_v6_46.28_59.58" id="task_grid_v6_46.28_59.58">
	<SimpleField name="area_ha" type="float"></SimpleField>
	<SimpleField name="low_risk_ha" type="float"></SimpleField>
	<SimpleField name="moderate_risk_ha" type="float"></SimpleField>
	<SimpleField name="grid_cell_deg" type="string"></SimpleField>
</Schema>
<Folder><name>task_grid_v6_46.28_59.58</name>
  <Placemark id="task_grid_v6_46.28_59.58.1">
	<name>task_grid_v6_46.28_59.58</name>
	<name>62.2</name>
	<description>331.7</description>
	<Style><LineStyle><color>ff0000ff</color></LineStyle><PolyStyle><fill>0</fill></PolyStyle></Style>
	<ExtendedData><SchemaData schemaUrl="#task_grid_v6_46.28_59.58">
		<SimpleData name="area_ha">269.4</SimpleData>
		<SimpleData name="low_risk_ha">0.1</SimpleData>
	</SchemaData></ExtendedData>
      <MultiGeometry><Polygon><outerBoundaryIs><LinearRing><coordinates>59.5884867306707,46.3126444727819 59.5911816765231,46.3099495269296 59.5857917848183,46.3099495269296 59.5871392577445,46.3193818374128 59.5938766223754,46.3153394186343 59.5884867306707,46.3126444727819</coordinates></LinearRing></outerBoundaryIs></Polygon><Polygon><outerBoundaryIs><LinearRing><coordinates>59.6006139870063,46.3139919457081 59.5938766223754,46.3180343644866 59.6100462974896,46.3180343644866 59.6033089328587,46.3166868915605 59.6006139870063,46.3139919457081</coordinates></LinearRing></outerBoundaryIs></Polygon><Polygon><outerBoundaryIs><LinearRing><coordinates>59.5332403406973,46.3301616208223 59.530545394845,46.3274666749699 59.5263910613787,46.3274666749699 59.5263910613787,46.3343547580755 59.5576928135528,46.3343547580755 59.5669271638518,46.3288141478961 59.5628847450733,46.3247717291175 59.5521049616639,46.3220767832652 59.5426726511806,46.3261192020437 59.5494100158115,46.3274666749699 59.5386302324021,46.3274666749699 59.5375522540611,46.3285446533108 59.5359352865497,46.3274666749699 59.5332403406973,46.3301616208223</coordinates></LinearRing></outerBoundaryIs><innerBoundaryIs><LinearRing><coordinates>59.5547999075162,46.3285446533108 59.5561473804424,46.3288141478961 59.5547999075162,46.3296226316518 59.5547999075162,46.3285446533108</coordinates></LinearRing></innerBoundaryIs></Polygon></MultiGeometry>
  </Placemark>
</Folder>
</Document></kml>
