<?xml version="1.0" encoding="utf-8" ?>
<kml xmlns="http://www.opengis.net/kml/2.2">
<Document id="root_doc">
<Schema name="task_grid_v6_45.51_61.16" id="task_grid_v6_45.51_61.16">
	<SimpleField name="area_ha" type="float"></SimpleField>
	<SimpleField name="low_risk_ha" type="float"></SimpleField>
	<SimpleField name="moderate_risk_ha" type="float"></SimpleField>
	<SimpleField name="grid_cell_deg" type="string"></SimpleField>
</Schema>
<Folder><name>task_grid_v6_45.51_61.16</name>
  <Placemark id="task_grid_v6_45.51_61.16.1">
	<name>task_grid_v6_45.51_61.16</name>
	<name>312.4</name>
	<description>2574</description>
	<Style><LineStyle><color>ff0000ff</color></LineStyle><PolyStyle><fill>0</fill></PolyStyle></Style>
	<ExtendedData><SchemaData schemaUrl="#task_grid_v6_45.51_61.16">
		<SimpleData name="area_ha">2261.6</SimpleData>
		<SimpleData name="low_risk_ha">0.1</SimpleData>
	</SchemaData></ExtendedData>
      <MultiGeometry><Polygon><outerBoundaryIs><LinearRing><coordinates>61.1112695519534,45.4625641451378 61.1124786101795,45.4758637856246 61.1246058665151,45.4691264209937 61.116521028958,45.463736529289 61.1176934131092,45.4625641451378 61.1112695519534,45.4625641451378</coordinates></LinearRing></outerBoundaryIs></Polygon><Polygon><outerBoundaryIs><LinearRing><coordinates>61.1102213862645,45.4754260636872 61.1111311372533,45.4745163126984 61.1102213862645,45.4681480557772 61.1102213862645,45.4754260636872</coordinates></LinearRing></outerBoundaryIs></Polygon><Polygon><outerBoundaryIs><LinearRing><coordinates>61.1367331228507,45.4812536773293 61.1367331228507,45.4758637856246 61.1286482852936,45.4758637856246 61.1273008123674,45.4772112585508 61.1367331228507,45.4812536773293</coordinates></LinearRing></outerBoundaryIs></Polygon><Polygon><outerBoundaryIs><LinearRing><coordinates>61.1111311372533,45.4799062044031 61.1151735560318,45.486643569034 61.1205634477365,45.486643569034 61.1246058665151,45.4826011502555 61.1246058665151,45.4799062044031 61.1178685018842,45.4758637856246 61.1111311372533,45.4799062044031</coordinates></LinearRing></outerBoundaryIs></Polygon><Polygon><outerBoundaryIs><LinearRing><coordinates>61.1102213862645,45.4874589142125 61.1138260831056,45.4852960961079 61.1102213862645,45.4798890508462 61.1102213862645,45.4874589142125</coordinates></LinearRing></outerBoundaryIs></Polygon><Polygon><outerBoundaryIs><LinearRing><coordinates>61.1340381769983,45.4812536773293 61.1299957582198,45.4826011502555 61.131343231146,45.4839486231817 61.1273008123674,45.4879910419602 61.139428068703,45.4893385148864 61.1407755416292,45.4960758795173 61.1440094766521,45.4976928470287 61.1407755416292,45.4987708253696 61.1421230145554,45.5028132441482 61.139428068703,45.4974233524435 61.1367331228507,45.5028132441482 61.1299957582198,45.5041607170744 61.1326907040722,45.5068556629267 61.131343231146,45.5082031358529 61.1259533394413,45.5082031358529 61.1259533394413,45.5108980817053 61.1582926896696,45.5082031358529 61.1623351084481,45.501465771222 61.1609876355219,45.5001182982958 61.1555977438172,45.5001182982958 61.1529027979648,45.5028132441482 61.1488603791863,45.4987708253696 61.154250270891,45.4987708253696 61.1515553250387,45.4933809336649 61.1569452167434,45.4906859878126 61.154250270891,45.4879910419602 61.1582926896696,45.4839486231817 61.1650300543005,45.4826011502555 61.1596401625957,45.4745163126984 61.154250270891,45.4718213668461 61.1609876355219,45.4677789480675 61.1663775272266,45.4704738939199 61.169072473079,45.4650840022152 61.1744623647837,45.4650840022152 61.1757222933224,45.4625641451378 61.1503829408875,45.4625641451378 61.1515553250387,45.463736529289 61.1502078521125,45.4677789480675 61.1421230145554,45.4677789480675 61.1380805957769,45.4718213668461 61.139428068703,45.4839486231817 61.1367331228507,45.4812536773293 61.1351161553393,45.4844876123521 61.1340381769983,45.4812536773293</coordinates></LinearRing></outerBoundaryIs><innerBoundaryIs><LinearRing><coordinates>61.1461654333339,45.501465771222 61.145087454993,45.4982318361992 61.1461654333339,45.4987708253696 61.1488603791863,45.5041607170744 61.1475129062601,45.5055081900005 61.1421230145554,45.5028132441482 61.1461654333339,45.501465771222</coordinates></LinearRing></innerBoundaryIs><innerBoundaryIs><LinearRing><coordinates>61.1448179604078,45.4758637856246 61.1434704874816,45.4718213668461 61.1488603791863,45.4718213668461 61.1448179604078,45.4758637856246</coordinates></LinearRing></innerBoundaryIs><innerBoundaryIs><LinearRing><coordinates>61.1555977438172,45.4812536773293 61.1515553250387,45.4772112585508 61.1569452167434,45.4799062044031 61.1555977438172,45.4812536773293</coordinates></LinearRing></innerBoundaryIs><innerBoundaryIs><LinearRing><coordinates>61.1434704874816,45.4826011502555 61.1448179604078,45.4812536773293 61.1448179604078,45.4839486231817 61.1434704874816,45.4826011502555</coordinates></LinearRing></innerBoundaryIs></Polygon><Polygon><outerBoundaryIs><LinearRing><coordinates>61.1138260831056,45.4933809336649 61.1102213862645,45.4897762368238 61.1102213862645,45.502206743489 61.1151735560318,45.5055081900005 61.1259533394413,45.5055081900005 61.1273008123674,45.5041607170744 61.1219109206627,45.4987708253696 61.1273008123674,45.4960758795173 61.1246058665151,45.4933809336649 61.1273008123674,45.4906859878126 61.1232583935889,45.486643569034 61.1219109206627,45.4933809336649 61.1205634477365,45.486643569034 61.1178685018842,45.4920334607388 61.1138260831056,45.4933809336649</coordinates></LinearRing></outerBoundaryIs><innerBoundaryIs><LinearRing><coordinates>61.1111311372533,45.4987708253696 61.1178685018842,45.4974233524435 61.1178685018842,45.5028132441482 61.1111311372533,45.4987708253696</coordinates></LinearRing></innerBoundaryIs></Polygon><Polygon><outerBoundaryIs><LinearRing><coordinates>61.1102213862645,45.514758550286 61.1102213862645,45.5158502514725 61.1102213862645,45.5189829192623 61.1178685018842,45.5189829192623 61.1219109206627,45.5122455546314 61.1151735560318,45.5108980817053 61.1124786101795,45.5055081900005 61.1102213862645,45.5043795780431 61.1102213862645,45.514758550286</coordinates></LinearRing></outerBoundaryIs></Polygon><Polygon><outerBoundaryIs><LinearRing><coordinates>61.1259533394413,45.5243728109671 61.1299957582198,45.5203303921885 61.1232583935889,45.5189829192623 61.1219109206627,45.5203303921885 61.1259533394413,45.5243728109671</coordinates></LinearRing></outerBoundaryIs></Polygon><Polygon><outerBoundaryIs><LinearRing><coordinates>61.1219109206627,45.5230253380409 61.1102213862645,45.5243241751962 61.1102213862645,45.5291361691138 61.1205634477365,45.5270677568194 61.1219109206627,45.5230253380409</coordinates></LinearRing></outerBoundaryIs></Polygon><Polygon><outerBoundaryIs><LinearRing><coordinates>61.1205634477365,45.5324576485241 61.1124786101795,45.5324576485241 61.1102213862645,45.5347148724391 61.1102213862645,45.5470609897434 61.1124786101795,45.5459323777859 61.1178685018842,45.5378475402288 61.1273008123674,45.5445849048597 61.1219109206627,45.5472798507121 61.1259533394413,45.554017215343 61.1286482852936,45.554017215343 61.1326907040722,45.5472798507121 61.131343231146,45.5459323777859 61.1353856499245,45.5445849048597 61.1340381769983,45.5405424860812 61.1326907040722,45.5418899590074 61.1299957582198,45.539195013155 61.1326907040722,45.5365000673027 61.1286482852936,45.5324576485241 61.1270313177822,45.535691583547 61.1259533394413,45.5324576485241 61.1219109206627,45.5338051214503 61.1259533394413,45.5378475402288 61.1205634477365,45.5324576485241</coordinates></LinearRing></outerBoundaryIs></Polygon><Polygon><outerBoundaryIs><LinearRing><coordinates>61.1102213862645,45.5625397748375 61.1102457565648,45.5625641451378 61.1147114637941,45.5625641451378 61.124208052455,45.5625641451378 61.1232583935889,45.554017215343 61.116521028958,45.5553646882692 61.1102213862645,45.5515849026531 61.1102213862645,45.5625397748375</coordinates></LinearRing></outerBoundaryIs></Polygon><Polygon><outerBoundaryIs><LinearRing><coordinates>61.1650300543005,45.4933809336649 61.1636825813743,45.4893385148864 61.1596401625957,45.4933809336649 61.1609876355219,45.4947284065911 61.1650300543005,45.4933809336649</coordinates></LinearRing></outerBoundaryIs></Polygon><Polygon><outerBoundaryIs><LinearRing><coordinates>61.2102213862645,45.5035379695483 61.2102213862645,45.5002632433759 61.2094966608644,45.5001182982958 61.2081491879382,45.501465771222 61.2102213862645,45.5035379695483</coordinates></LinearRing></outerBoundaryIs></Polygon><Polygon><outerBoundaryIs><LinearRing><coordinates>61.1502078521125,45.5189829192623 61.1502078521125,45.51628797341 61.1448179604078,45.51628797341 61.1434704874816,45.5176354463362 61.1502078521125,45.5189829192623</coordinates></LinearRing></outerBoundaryIs></Polygon><Polygon><outerBoundaryIs><LinearRing><coordinates>61.2081491879382,45.5230253380409 61.206801715012,45.5189829192623 61.2041067691597,45.5216778651147 61.1987168774549,45.5216778651147 61.1987168774549,45.51628797341 61.1933269857502,45.51628797341 61.191979512824,45.5176354463362 61.1946744586764,45.5203303921885 61.1892845669717,45.5230253380409 61.1933269857502,45.5270677568194 61.2041067691597,45.5270677568194 61.2081491879382,45.5230253380409</coordinates></LinearRing></outerBoundaryIs></Polygon><Polygon><outerBoundaryIs><LinearRing><coordinates>61.1353856499245,45.5284152297456 61.131343231146,45.5243728109671 61.1299957582198,45.5284152297456 61.1340381769983,45.5297627026718 61.1353856499245,45.5284152297456</coordinates></LinearRing></outerBoundaryIs></Polygon><Polygon><outerBoundaryIs><LinearRing><coordinates>61.1475129062601,45.5405424860812 61.1515553250387,45.5365000673027 61.1421230145554,45.5351525943765 61.1407755416292,45.539195013155 61.1475129062601,45.5405424860812</coordinates></LinearRing></outerBoundaryIs></Polygon><Polygon><outerBoundaryIs><LinearRing><coordinates>61.1380805957769,45.5472798507121 61.1421230145554,45.5513222694906 61.1434704874816,45.5499747965645 61.14313361925,45.5489641918698 61.1448179604078,45.5513222694906 61.1380805957769,45.5553646882692 61.1434704874816,45.5580596341215 61.1448179604078,45.5621020529001 61.1502078521125,45.5567121611954 61.1529027979648,45.5594071070477 61.1609876355219,45.5486273236383 61.1636825813743,45.554017215343 61.1663775272266,45.5486273236383 61.1717674189314,45.5513222694906 61.1744623647837,45.5459323777859 61.1771573106361,45.5513222694906 61.1852421481931,45.5513222694906 61.1865896211193,45.5499747965645 61.183894675267,45.5472798507121 61.1865896211193,45.5445849048597 61.1785047835622,45.5418899590074 61.1879370940455,45.5405424860812 61.1906320398979,45.5432374319336 61.1946744586764,45.5365000673027 61.1933269857502,45.5351525943765 61.1906320398979,45.5378475402288 61.1879370940455,45.5351525943765 61.1852421481931,45.5378475402288 61.183894675267,45.5338051214503 61.1717674189314,45.5324576485241 61.1717674189314,45.5432374319336 61.169072473079,45.5351525943765 61.1582926896696,45.5324576485241 61.1569452167434,45.5365000673027 61.1582926896696,45.5378475402288 61.1529027979648,45.5378475402288 61.1502078521125,45.5405424860812 61.1380805957769,45.5418899590074 61.1411901486834,45.5462433330766 61.1380805957769,45.5472798507121</coordinates></LinearRing></outerBoundaryIs><innerBoundaryIs><LinearRing><coordinates>61.1475129062601,45.5472798507121 61.1475129062601,45.554017215343 61.1448179604078,45.5513222694906 61.1475129062601,45.5472798507121</coordinates></LinearRing></innerBoundaryIs><innerBoundaryIs><LinearRing><coordinates>61.1480518954306,45.5464713669564 61.1502078521125,45.5432374319336 61.1555977438172,45.5486273236383 61.1529027979648,45.5459323777859 61.1502078521125,45.5486273236383 61.1480518954306,45.5464713669564</coordinates></LinearRing></innerBoundaryIs><innerBoundaryIs><LinearRing><coordinates>61.1555977438172,45.5405424860812 61.1652995488857,45.5453933886155 61.1636825813743,45.5459323777859 61.1582926896696,45.5432374319336 61.1555977438172,45.5486273236383 61.1555977438172,45.5405424860812</coordinates></LinearRing></innerBoundaryIs><innerBoundaryIs><LinearRing><coordinates>61.1677250001528,45.5445849048597 61.1663775272266,45.5450340625018 61.1663775272266,45.5432374319336 61.1677250001528,45.5445849048597</coordinates></LinearRing></innerBoundaryIs><innerBoundaryIs><LinearRing><coordinates>61.1677250001528,45.539195013155 61.1663775272266,45.5405424860812 61.1663775272266,45.5378475402288 61.1677250001528,45.539195013155</coordinates></LinearRing></innerBoundaryIs><innerBoundaryIs><LinearRing><coordinates>61.1771573106361,45.5378475402288 61.1758098377099,45.5365000673027 61.1785047835622,45.5365000673027 61.1771573106361,45.5378475402288</coordinates></LinearRing></innerBoundaryIs></Polygon><Polygon><outerBoundaryIs><LinearRing><coordinates>61.1704199460052,45.5526697424168 61.1663775272266,45.5486273236383 61.1650300543005,45.5526697424168 61.169072473079,45.554017215343 61.1704199460052,45.5526697424168</coordinates></LinearRing></outerBoundaryIs></Polygon><Polygon><outerBoundaryIs><LinearRing><coordinates>61.1785047835622,45.5553646882692 61.1744623647837,45.5513222694906 61.1704199460052,45.5553646882692 61.1771573106361,45.5567121611954 61.1785047835622,45.5553646882692</coordinates></LinearRing></outerBoundaryIs></Polygon><Polygon><outerBoundaryIs><LinearRing><coordinates>61.1600175971433,45.5625641451378 61.1555977438172,45.5594071070477 61.1540192247722,45.5625641451378 61.1600175971433,45.5625641451378</coordinates></LinearRing></outerBoundaryIs></Polygon></MultiGeometry>
  </Placemark>
</Folder>
</Document></kml>
