<?xml version="1.0" encoding="utf-8" ?>
<kml xmlns="http://www.opengis.net/kml/2.2">
<Document id="root_doc">
<Schema name="task_grid_v6_45.78_61.28" id="task_grid_v6_45.78_61.28">
	<SimpleField name="area_ha" type="float"></SimpleField>
	<SimpleField name="low_risk_ha" type="float"></SimpleField>
	<SimpleField name="moderate_risk_ha" type="float"></SimpleField>
	<SimpleField name="grid_cell_deg" type="string"></SimpleField>
</Schema>
<Folder><name>task_grid_v6_45.78_61.28</name>
  <Placemark id="task_grid_v6_45.78_61.28.1">
	<name>task_grid_v6_45.78_61.28</name>
	<name>619.5</name>
	<description>1107.2</description>
	<Style><LineStyle><color>ff0000ff</color></LineStyle><PolyStyle><fill>0</fill></PolyStyle></Style>
	<ExtendedData><SchemaData schemaUrl="#task_grid_v6_45.78_61.28">
		<SimpleData name="area_ha">487.7</SimpleData>
		<SimpleData name="low_risk_ha">0.1</SimpleData>
	</SchemaData></ExtendedData>
      <MultiGeometry><Polygon><outerBoundaryIs><LinearRing><coordinates>61.2263910613787,45.7664831024392 61.2324037006094,45.7628755189008 61.2324037006094,45.7574856271961 61.2297087547571,45.7547906813437 61.2263910613787,45.7544220487461 61.2263910613787,45.7664831024392</coordinates></LinearRing></outerBoundaryIs></Polygon><Polygon><outerBoundaryIs><LinearRing><coordinates>61.2647430508377,45.7763502481626 61.2714804154686,45.7776977210888 61.2714804154686,45.7750027752364 61.2660905237639,45.7750027752364 61.2647430508377,45.7763502481626</coordinates></LinearRing></outerBoundaryIs></Polygon><Polygon><outerBoundaryIs><LinearRing><coordinates>61.2391410652403,45.8100370713171 61.2472259027974,45.8100370713171 61.2539632674283,45.8032997066862 61.2472259027974,45.80195223376 61.244530956945,45.8046471796123 61.2391410652403,45.80195223376 61.2324037006094,45.8032997066862 61.236446119388,45.8046471796123 61.2391410652403,45.8100370713171</coordinates></LinearRing></outerBoundaryIs></Polygon><Polygon><outerBoundaryIs><LinearRing><coordinates>61.2607006320592,45.8127320171694 61.2647430508377,45.8086895983909 61.2607006320592,45.8046471796123 61.259353159133,45.8059946525385 61.2607006320592,45.8127320171694</coordinates></LinearRing></outerBoundaryIs></Polygon><Polygon><outerBoundaryIs><LinearRing><coordinates>61.2337511735356,45.8154269630218 61.2350986464618,45.8113845442432 61.2310562276832,45.8046471796123 61.2270138089047,45.8086895983909 61.2337511735356,45.8154269630218</coordinates></LinearRing></outerBoundaryIs></Polygon><Polygon><outerBoundaryIs><LinearRing><coordinates>61.2660905237639,45.8235118005789 61.2674379966901,45.8221643276527 61.2660905237639,45.8127320171694 61.2647430508377,45.8140794900956 61.2660905237639,45.8235118005789</coordinates></LinearRing></outerBoundaryIs></Polygon><Polygon><outerBoundaryIs><LinearRing><coordinates>61.2458784298712,45.8194693818003 61.2418360110927,45.8127320171694 61.236446119388,45.8154269630218 61.2350986464618,45.824859273505 61.2431834840189,45.8275542193574 61.2431834840189,45.8329441110621 61.2445941310322,45.8343547580755 61.2525887198933,45.8343547580755 61.2526157945021,45.8342915839883 61.2620481049854,45.8329441110621 61.2609701266444,45.8264762410164 61.2633955779115,45.8289016922836 61.2647430508377,45.8275542193574 61.2633955779115,45.8235118005789 61.2606297124315,45.8244337557389 61.259353159133,45.816774435948 61.2526157945021,45.8127320171694 61.2458784298712,45.8140794900956 61.2512683215759,45.824859273505 61.2499208486498,45.8289016922836 61.2458784298712,45.824859273505 61.2458784298712,45.8194693818003</coordinates></LinearRing></outerBoundaryIs><innerBoundaryIs><LinearRing><coordinates>61.2566582132806,45.8221643276527 61.2553107403545,45.8235118005789 61.2539632674283,45.8221643276527 61.2566582132806,45.8221643276527</coordinates></LinearRing></innerBoundaryIs></Polygon><Polygon><outerBoundaryIs><LinearRing><coordinates>61.2400604385535,45.8343547580755 61.2391410652403,45.8315966381359 61.2363829453007,45.8343547580755 61.2400604385535,45.8343547580755</coordinates></LinearRing></outerBoundaryIs></Polygon><Polygon><outerBoundaryIs><LinearRing><coordinates>61.2836076718042,45.7386210062296 61.2903450364351,45.7426634250081 61.2903450364351,45.7372735333034 61.2849551447304,45.7372735333034 61.2836076718042,45.7386210062296</coordinates></LinearRing></outerBoundaryIs></Polygon><Polygon><outerBoundaryIs><LinearRing><coordinates>61.2916925093613,45.7440108979343 61.2984298739922,45.7453583708605 61.2984298739922,45.7426634250081 61.2930399822875,45.7426634250081 61.2916925093613,45.7440108979343</coordinates></LinearRing></outerBoundaryIs></Polygon><Polygon><outerBoundaryIs><LinearRing><coordinates>61.3065147115493,45.7453583708605 61.2997773469184,45.7467058437866 61.3038197656969,45.7561381542699 61.3065147115493,45.7561381542699 61.3092096574016,45.7507482625652 61.3159470220325,45.749400789639 61.3065147115493,45.7453583708605</coordinates></LinearRing></outerBoundaryIs></Polygon><Polygon><outerBoundaryIs><LinearRing><coordinates>61.282260198878,45.7561381542699 61.2863026176566,45.7520957354914 61.2795652530257,45.7480533167128 61.2755228342472,45.7520957354914 61.282260198878,45.7561381542699</coordinates></LinearRing></outerBoundaryIs></Polygon><Polygon><outerBoundaryIs><LinearRing><coordinates>61.2957349281398,45.7561381542699 61.297082401066,45.7547906813437 61.2930399822875,45.7507482625652 61.2889975635089,45.7520957354914 61.2957349281398,45.7561381542699</coordinates></LinearRing></outerBoundaryIs></Polygon><Polygon><outerBoundaryIs><LinearRing><coordinates>61.3092096574016,45.8235118005789 61.3132520761802,45.816774435948 61.3186419678849,45.8140794900956 61.3186419678849,45.8032997066862 61.3213369137373,45.8006047608338 61.3186419678849,45.7979098149814 61.3213369137373,45.7952148691291 61.3186419678849,45.7925199232767 61.3263910613787,45.7873538609475 61.3263910613787,45.7867942875087 61.3240318595896,45.7844350857197 61.3263910613787,45.7820758839306 61.3263910613787,45.781404395804 61.3226843866634,45.7776977210888 61.3159470220325,45.7817401398673 61.3105571303278,45.7898249774244 61.3105571303278,45.8032997066862 61.3132520761802,45.8059946525385 61.3078621844755,45.816774435948 61.3092096574016,45.8235118005789</coordinates></LinearRing></outerBoundaryIs></Polygon><Polygon><outerBoundaryIs><LinearRing><coordinates>61.282260198878,45.8289016922836 61.2836076718042,45.8275542193574 61.282260198878,45.8181219088741 61.2782177800995,45.8221643276527 61.282260198878,45.8289016922836</coordinates></LinearRing></outerBoundaryIs></Polygon><Polygon><outerBoundaryIs><LinearRing><coordinates>61.3024722927707,45.824859273505 61.3011248198446,45.8208168547265 61.297082401066,45.824859273505 61.2984298739922,45.8262067464312 61.3024722927707,45.824859273505</coordinates></LinearRing></outerBoundaryIs></Polygon><Polygon><outerBoundaryIs><LinearRing><coordinates>61.2916925093613,45.8343547580755 61.3037565916097,45.8343547580755 61.3051672386231,45.8329441110621 61.2984298739922,45.8289016922836 61.2916925093613,45.8329441110621 61.2916925093613,45.8343547580755</coordinates></LinearRing></outerBoundaryIs></Polygon></MultiGeometry>
  </Placemark>
</Folder>
</Document></kml>
