<?xml version="1.0" encoding="utf-8" ?>
<kml xmlns="http://www.opengis.net/kml/2.2">
<Document id="root_doc">
<Schema name="task_grid_v6_46.01_59.76" id="task_grid_v6_46.01_59.76">
	<SimpleField name="area_ha" type="float"></SimpleField>
	<SimpleField name="low_risk_ha" type="float"></SimpleField>
	<SimpleField name="moderate_risk_ha" type="float"></SimpleField>
	<SimpleField name="grid_cell_deg" type="string"></SimpleField>
</Schema>
<Folder><name>task_grid_v6_46.01_59.76</name>
  <Placemark id="task_grid_v6_46.01_59.76.1">
	<name>task_grid_v6_46.01_59.76</name>
	<name>1915.6</name>
	<description>3288.7</description>
	<Style><LineStyle><color>ff0000ff</color></LineStyle><PolyStyle><fill>0</fill></PolyStyle></Style>
	<ExtendedData><SchemaData schemaUrl="#task_grid_v6_46.01_59.76">
		<SimpleData name="area_ha">1373</SimpleData>
		<SimpleData name="low_risk_ha">0.1</SimpleData>
	</SchemaData></ExtendedData>
      <MultiGeometry><Polygon><outerBoundaryIs><LinearRing><coordinates>59.7313188608457,45.9757762412371 59.740751171329,45.9771237141633 59.740751171329,45.9690388766062 59.7326663337719,45.9690388766062 59.7313188608457,45.9757762412371</coordinates></LinearRing></outerBoundaryIs></Polygon><Polygon><outerBoundaryIs><LinearRing><coordinates>59.7138017128054,45.9771237141633 59.7102213862645,45.9807040407041 59.7102213862645,45.9812585513894 59.7164966586577,45.982513605868 59.7205390774363,45.9784711870895 59.7191916045101,45.9744287683109 59.7138017128054,45.9771237141633</coordinates></LinearRing></outerBoundaryIs></Polygon><Polygon><outerBoundaryIs><LinearRing><coordinates>59.7461410630337,46.0094630643916 59.7461410630337,45.9986832809822 59.740751171329,46.0040731726869 59.7353612796242,46.0040731726869 59.7313188608457,46.0108105373178 59.7326663337719,46.012158010244 59.7380562254766,46.0067681185392 59.7434461171813,46.0067681185392 59.7461410630337,46.0094630643916</coordinates></LinearRing></outerBoundaryIs></Polygon><Polygon><outerBoundaryIs><LinearRing><coordinates>59.7205390774363,46.0108105373178 59.7164966586577,46.0067681185392 59.7124542398792,46.0108105373178 59.7191916045101,46.012158010244 59.7205390774363,46.0108105373178</coordinates></LinearRing></outerBoundaryIs></Polygon><Polygon><outerBoundaryIs><LinearRing><coordinates>59.7232340232886,46.0323701041366 59.7245814962148,46.0364125229152 59.7294148230152,46.0324579828057 59.740751171329,46.0337175770628 59.740751171329,46.0283276853581 59.7380562254766,46.0310226312105 59.7337814837798,46.028885260362 59.7394036984028,46.0242852665796 59.7245814962148,46.020242847801 59.7245814962148,46.0256327395057 59.7191916045101,46.0229377936534 59.7164966586577,46.0175479019487 59.7138017128054,46.020242847801 59.711106766953,46.0175479019487 59.7102213862645,46.0179905922929 59.7102213862645,46.0259278664019 59.7102213862645,46.0261553015221 59.7102213862645,46.031715769567 59.7124542398792,46.035065049989 59.7124542398792,46.0404549416937 59.7164966586577,46.0471923063246 59.7218865503624,46.049887252177 59.7232340232886,46.0458448333984 59.7218865503624,46.0444973604722 59.7232340232886,46.0404549416937 59.7205390774363,46.0377599958414 59.7205390774363,46.0323701041366 59.7232340232886,46.0323701041366</coordinates></LinearRing></outerBoundaryIs><innerBoundaryIs><LinearRing><coordinates>59.7151491857315,46.0296751582843 59.7157710963129,46.0321628006095 59.7127911081107,46.0279908171266 59.7151491857315,46.0296751582843</coordinates></LinearRing></innerBoundaryIs></Polygon><Polygon><outerBoundaryIs><LinearRing><coordinates>59.7218865503624,46.0552771438817 59.7232340232886,46.0539296709555 59.7245814962148,46.0552771438817 59.725928969141,46.0539296709555 59.7245814962148,46.049887252177 59.7205390774363,46.0512347251031 59.7191916045101,46.049887252177 59.7179938507979,46.0534805133135 59.7164966586577,46.0525821980293 59.711106766953,46.0444973604723 59.7102213862645,46.0462681218492 59.7102213862645,46.0562013283571 59.711106766953,46.0579720897341 59.7102982831973,46.0587805734898 59.7102213862645,46.0587476176614 59.7102213862645,46.0588574704225 59.7102213862645,46.0594119811078 59.7102213862645,46.0625641451378 59.7168547856586,46.0625641451378 59.7178441315839,46.0620145085126 59.7131279763423,46.0599932991233 59.7164966586577,46.0606670355864 59.7164966586577,46.0579720897341 59.7218865503624,46.0579720897341 59.7232340232886,46.0566246168079 59.7198653409732,46.0546034074186 59.7218865503624,46.0552771438817</coordinates></LinearRing></outerBoundaryIs></Polygon><Polygon><outerBoundaryIs><LinearRing><coordinates>59.7361591159252,46.0625641451378 59.7404852258953,46.0625641451378 59.7405662805214,46.0625641451378 59.748836008886,46.0625641451378 59.748836008886,46.0525821980293 59.7394036984028,46.0593195626602 59.7404143030974,46.0623513767441 59.7353612796242,46.0552771438817 59.7343987989627,46.0581645858664 59.7326663337719,46.0552771438817 59.7286239149933,46.0566246168079 59.7281747573513,46.0579720897341 59.7272764420672,46.0552771438817 59.72207144117,46.0625641451378 59.7266440722167,46.0625641451378 59.7266771655068,46.0625641451378 59.7361591159252,46.0625641451378</coordinates></LinearRing></outerBoundaryIs></Polygon><Polygon><outerBoundaryIs><LinearRing><coordinates>59.7973450342285,45.9717338224586 59.8000399800808,45.9690388766062 59.8102213862645,45.9741295796981 59.8102213862645,45.9625641451378 59.8040823988594,45.9625641451378 59.8040823988594,45.9649964578277 59.8094722905641,45.9649964578277 59.8054298717856,45.9690388766062 59.8027349259332,45.9663439307539 59.7959975613023,45.96769140368 59.7973450342285,45.9717338224586</coordinates></LinearRing></outerBoundaryIs></Polygon><Polygon><outerBoundaryIs><LinearRing><coordinates>59.748836008886,45.9798186600157 59.748836008886,45.9771237141633 59.7434461171813,45.9771237141633 59.7420986442551,45.9784711870895 59.748836008886,45.9798186600157</coordinates></LinearRing></outerBoundaryIs></Polygon><Polygon><outerBoundaryIs><LinearRing><coordinates>59.8081248176379,45.9879034975727 59.8081248176379,45.982513605868 59.8027349259332,45.982513605868 59.801387453007,45.9838610787942 59.8081248176379,45.9879034975727</coordinates></LinearRing></outerBoundaryIs></Polygon><Polygon><outerBoundaryIs><LinearRing><coordinates>59.8067773447117,45.9919459163513 59.8027349259332,45.9879034975727 59.7986925071547,45.9946408622036 59.8027349259332,45.9986832809822 59.8067773447117,45.9919459163513</coordinates></LinearRing></outerBoundaryIs></Polygon><Polygon><outerBoundaryIs><LinearRing><coordinates>59.7865652508191,46.0040731726869 59.7892601966714,46.0013782268345 59.7906076695976,46.0027256997607 59.7879127237452,46.0054206456131 59.7919551425238,46.0067681185392 59.7946500883761,46.012158010244 59.7973450342285,46.012158010244 59.7986925071547,46.0108105373178 59.7933026154499,46.0027256997607 59.7959975613023,46.0000307539083 59.7959975613023,45.9946408622036 59.7906076695976,45.9946408622036 59.7906076695976,45.9865560246465 59.7959975613023,45.9865560246465 59.7933026154499,45.9811661329418 59.7959975613023,45.9784711870895 59.7919551425238,45.9771237141633 59.7852177778929,45.9838610787942 59.7852177778929,45.9919459163513 59.7825228320405,45.9946408622036 59.7852177778929,45.997335808056 59.7825228320405,46.0000307539083 59.7865652508191,46.0040731726869</coordinates></LinearRing></outerBoundaryIs></Polygon><Polygon><outerBoundaryIs><LinearRing><coordinates>59.8102213862645,46.0057416866275 59.8094722905641,46.0054206456131 59.8081248176379,46.0148529560963 59.8027349259332,46.0148529560963 59.8000399800808,46.012158010244 59.7959975613023,46.0188953748749 59.8054298717856,46.020242847801 59.8102213862645,46.023437190787 59.8102213862645,46.0057416866275</coordinates></LinearRing></outerBoundaryIs></Polygon><Polygon><outerBoundaryIs><LinearRing><coordinates>59.7865652508191,46.0148529560963 59.778480413262,46.012158010244 59.7757854674096,46.0175479019487 59.7694691880682,46.018811157817 59.7677006298525,46.0175479019487 59.7650056840002,46.0229377936534 59.7623107381478,46.0229377936534 59.7555733735169,46.0296751582843 59.7582683193693,46.0323701041366 59.7528784276646,46.0323701041366 59.7474885359599,46.0458448333984 59.7420986442551,46.0512347251031 59.7434461171813,46.0552771438817 59.7501834818122,46.0512347251031 59.7501834818122,46.0458448333984 59.7515309547384,46.0525821980293 59.7596157922955,46.0444973604723 59.7703955757049,46.0391074687675 59.7730905215573,46.0418024146199 59.778480413262,46.0391074687675 59.7811753591143,46.0418024146199 59.7906076695976,46.0431498875461 59.7650056840002,46.0471923063246 59.7555733735169,46.0566246168079 59.7555733735169,46.0620145085126 59.7561230101421,46.0625641451378 59.8102213862645,46.0625641451378 59.8102213862645,46.0239860779667 59.8081248176379,46.0229377936534 59.8054298717856,46.0256327395057 59.8054298717856,46.020242847801 59.7959975613023,46.0215903207272 59.7973450342285,46.0222640571903 59.7892601966714,46.020242847801 59.7886613198153,46.0190450940889 59.7946500883761,46.020242847801 59.7946500883761,46.0175479019487 59.7892601966714,46.0175479019487 59.7883618813873,46.0184462172328 59.7865652508191,46.0148529560963</coordinates></LinearRing></outerBoundaryIs><innerBoundaryIs><LinearRing><coordinates>59.8008484638366,46.0269802124319 59.8001896992949,46.0236863897235 59.801387453007,46.0242852665796 59.8008484638366,46.0269802124319</coordinates></LinearRing></innerBoundaryIs><innerBoundaryIs><LinearRing><coordinates>59.7811753591143,46.020242847801 59.7798278861882,46.0188953748749 59.7825228320405,46.0188953748749 59.7811753591143,46.020242847801</coordinates></LinearRing></innerBoundaryIs><innerBoundaryIs><LinearRing><coordinates>59.7730905215573,46.0283276853581 59.7730905215573,46.0269802124319 59.7744379944834,46.0269802124319 59.7730905215573,46.0283276853581</coordinates></LinearRing></innerBoundaryIs><innerBoundaryIs><LinearRing><coordinates>59.7946500883761,46.0364125229152 59.7946500883761,46.0391074687675 59.7892601966714,46.0391074687675 59.7879127237452,46.0377599958414 59.7946500883761,46.0364125229152</coordinates></LinearRing></innerBoundaryIs><innerBoundaryIs><LinearRing><coordinates>59.8081248176379,46.0337175770628 59.8054298717856,46.0337175770628 59.8054298717856,46.0310226312105 59.8094722905641,46.0323701041366 59.8081248176379,46.0337175770628</coordinates></LinearRing></innerBoundaryIs></Polygon><Polygon><outerBoundaryIs><LinearRing><coordinates>59.7596157922955,46.0148529560963 59.7555733735169,46.0162004290225 59.7555733735169,46.0215903207272 59.7569208464431,46.0229377936534 59.7596157922955,46.020242847801 59.7650056840002,46.0229377936534 59.7663531569264,46.0188953748749 59.7596157922955,46.0148529560963</coordinates></LinearRing></outerBoundaryIs></Polygon><Polygon><outerBoundaryIs><LinearRing><coordinates>59.7434461171813,46.0364125229152 59.7434461171813,46.0337175770628 59.740751171329,46.0337175770628 59.7353612796242,46.0337175770628 59.7340138066981,46.035065049989 59.7434461171813,46.0364125229152</coordinates></LinearRing></outerBoundaryIs></Polygon></MultiGeometry>
  </Placemark>
</Folder>
</Document></kml>
