<?xml version="1.0" encoding="utf-8" ?>
<kml xmlns="http://www.opengis.net/kml/2.2">
<Document id="root_doc">
<Schema name="task_grid_v6_45.91_61.06" id="task_grid_v6_45.91_61.06">
	<SimpleField name="area_ha" type="float"></SimpleField>
	<SimpleField name="low_risk_ha" type="float"></SimpleField>
	<SimpleField name="moderate_risk_ha" type="float"></SimpleField>
	<SimpleField name="grid_cell_deg" type="string"></SimpleField>
</Schema>
<Folder><name>task_grid_v6_45.91_61.06</name>
  <Placemark id="task_grid_v6_45.91_61.06.1">
	<name>task_grid_v6_45.91_61.06</name>
	<name>1435.1</name>
	<description>1848.8</description>
	<Style><LineStyle><color>ff0000ff</color></LineStyle><PolyStyle><fill>0</fill></PolyStyle></Style>
	<ExtendedData><SchemaData schemaUrl="#task_grid_v6_45.91_61.06">
		<SimpleData name="area_ha">413.6</SimpleData>
		<SimpleData name="low_risk_ha">0.1</SimpleData>
	</SchemaData></ExtendedData>
      <MultiGeometry><Polygon><outerBoundaryIs><LinearRing><coordinates>61.0662234964807,45.8625641451378 61.0653170577632,45.8652834612904 61.0599271660585,45.8679784071428 61.063969584837,45.877410717626 61.0680120036156,45.8706733529951 61.0668535453502,45.8625641451378 61.0662234964807,45.8625641451378</coordinates></LinearRing></outerBoundaryIs></Polygon><Polygon><outerBoundaryIs><LinearRing><coordinates>61.0504948555752,45.877410717626 61.0464524367967,45.8814531364046 61.0504948555752,45.8828006093307 61.0531898014276,45.8801056634784 61.0585796931323,45.8801056634784 61.0626221119108,45.8760632446998 61.0504948555752,45.877410717626</coordinates></LinearRing></outerBoundaryIs></Polygon><Polygon><outerBoundaryIs><LinearRing><coordinates>61.0612746389846,45.8962753385925 61.0585796931323,45.8935803927402 61.0531898014276,45.8962753385925 61.0504948555752,45.8935803927402 61.0477999097229,45.8962753385925 61.0397150721658,45.8962753385925 61.0370201263134,45.8935803927402 61.0343251804611,45.8962753385925 61.026240342904,45.8962753385925 61.0181555053469,45.8908854468878 61.011418140716,45.8949278656664 61.0154605594946,45.8989702844449 61.026240342904,45.8989702844449 61.0289352887564,45.9043601761496 61.0343251804611,45.9043601761496 61.0370201263134,45.907055122002 61.0424100180181,45.907055122002 61.0451049638705,45.8989702844449 61.0477999097229,45.9016652302973 61.0612746389846,45.9016652302973 61.0720544223941,45.907055122002 61.078791787025,45.9030127032234 61.0828342058035,45.8962753385925 61.0814867328773,45.9003177573711 61.0882240975082,45.9016652302973 61.0895715704344,45.892232919814 61.0850799940138,45.8895379739616 61.0895715704344,45.8895379739616 61.0830323635868,45.8853766605131 61.0895715704344,45.8814531364046 61.0882240975082,45.877410717626 61.0855291516559,45.8801056634784 61.0895715704344,45.8760632446998 61.0855291516559,45.8720208259213 61.078791787025,45.8733682988475 61.0801392599512,45.877410717626 61.0812172382921,45.8779497067965 61.078791787025,45.8787581905522 61.0825964164636,45.8850992396166 61.0747493682464,45.8801056634784 61.0666645306894,45.8881905010355 61.063969584837,45.8828006093307 61.0572322202061,45.8868430281093 61.0666645306894,45.8935803927402 61.0693594765417,45.8908854468878 61.0693594765417,45.8962753385925 61.0612746389846,45.8962753385925</coordinates></LinearRing></outerBoundaryIs><innerBoundaryIs><LinearRing><coordinates>61.0837966864651,45.8930029043432 61.0855291516559,45.8935803927402 61.0868766245821,45.8976228115187 61.0837966864651,45.8930029043432</coordinates></LinearRing></innerBoundaryIs><innerBoundaryIs><LinearRing><coordinates>61.0814867328773,45.8895379739616 61.0823850481615,45.8895379739616 61.0820856097334,45.8904362892458 61.0814867328773,45.8895379739616</coordinates></LinearRing></innerBoundaryIs></Polygon><Polygon><outerBoundaryIs><LinearRing><coordinates>61.0141130865684,45.9030127032234 61.0127656136422,45.8989702844449 61.0102213862645,45.9015145118226 61.0102213862645,45.904309936658 61.0141130865684,45.9030127032234</coordinates></LinearRing></outerBoundaryIs></Polygon><Polygon><outerBoundaryIs><LinearRing><coordinates>61.0504948555752,45.9097500678543 61.0504948555752,45.9043601761496 61.0477999097229,45.9043601761496 61.0437574909443,45.9084025949281 61.0504948555752,45.9097500678543</coordinates></LinearRing></outerBoundaryIs></Polygon><Polygon><outerBoundaryIs><LinearRing><coordinates>61.0707069494679,45.9084025949281 61.0666645306894,45.907055122002 61.063969584837,45.9097500678543 61.0558847472799,45.9097500678543 61.0531898014276,45.9124450137067 61.0424100180181,45.9124450137067 61.026240342904,45.9043601761496 61.0141130865684,45.9057076490758 61.0208504511993,45.907055122002 61.026240342904,45.9124450137067 61.0316302346087,45.9097500678543 61.0343251804611,45.915139959559 61.0666645306894,45.915139959559 61.0707069494679,45.9084025949281</coordinates></LinearRing></outerBoundaryIs></Polygon><Polygon><outerBoundaryIs><LinearRing><coordinates>61.0141130865684,45.9110975407805 61.0208504511993,45.9124450137067 61.0208504511993,45.9097500678543 61.0154605594946,45.9097500678543 61.0141130865684,45.9110975407805</coordinates></LinearRing></outerBoundaryIs></Polygon><Polygon><outerBoundaryIs><LinearRing><coordinates>61.0102213862645,45.9393944722303 61.0127656136422,45.9393944722303 61.011418140716,45.9407419451565 61.0181555053469,45.9420894180826 61.0181555053469,45.9393944722303 61.0208504511993,45.9393944722303 61.0235453970516,45.9313096346732 61.0329777075349,45.929962161747 61.0316302346087,45.9259197429685 61.026240342904,45.9259197429685 61.0235453970516,45.9286146888208 61.0208504511993,45.9232247971161 61.0193104821408,45.9263047352331 61.0181555053469,45.9205298512638 61.0141130865684,45.9218773241899 61.0154605594946,45.9286146888208 61.0186944945174,45.9275367104799 61.0181555053469,45.9286146888208 61.0127656136422,45.9313096346732 61.0102213862645,45.9313096346732 61.0102213862645,45.9393944722303</coordinates></LinearRing></outerBoundaryIs></Polygon><Polygon><outerBoundaryIs><LinearRing><coordinates>61.0102213862645,45.9564311198208 61.0102213862645,45.9566101833212 61.0102213862645,45.9625641451378 61.0135878202435,45.9625641451378 61.0141130865684,45.9623015119753 61.0127656136422,45.9528692014921 61.0105198254319,45.9560133049865 61.0141130865684,45.9488267827135 61.0102213862645,45.9471589111547 61.0102213862645,45.9564311198208</coordinates></LinearRing></outerBoundaryIs></Polygon><Polygon><outerBoundaryIs><LinearRing><coordinates>61.0224605572879,45.9625641451378 61.0240103283789,45.9625641451378 61.0275878158302,45.9542166744182 61.0235453970516,45.9501742556397 61.0195029782731,45.959606566123 61.0224605572879,45.9625641451378</coordinates></LinearRing></outerBoundaryIs></Polygon><Polygon><outerBoundaryIs><LinearRing><coordinates>61.0868766245821,45.8706733529951 61.0774443140988,45.8639359883642 61.0760968411726,45.8679784071428 61.0801392599512,45.8720208259213 61.0868766245821,45.8706733529951</coordinates></LinearRing></outerBoundaryIs></Polygon><Polygon><outerBoundaryIs><LinearRing><coordinates>61.1057412455486,45.8652834612904 61.1057412455486,45.8760632446998 61.1084361914009,45.8814531364046 61.1102213862645,45.8832383312682 61.1102213862645,45.8682587860631 61.1084361914009,45.8652834612904 61.1057412455486,45.8652834612904</coordinates></LinearRing></outerBoundaryIs></Polygon><Polygon><outerBoundaryIs><LinearRing><coordinates>61.0747493682464,45.8801056634784 61.078791787025,45.8760632446998 61.0774443140988,45.8720208259213 61.0734018953203,45.8733682988475 61.0747493682464,45.8801056634784</coordinates></LinearRing></outerBoundaryIs></Polygon><Polygon><outerBoundaryIs><LinearRing><coordinates>61.0922665162868,45.8895379739616 61.0895715704344,45.8949278656664 61.0990038809177,45.9016652302973 61.1070887184747,45.9016652302973 61.1097836643271,45.8962753385925 61.1102213862645,45.8961659081082 61.1102213862645,45.890010003013 61.1097836643271,45.8908854468878 61.1102213862645,45.8895722810755 61.1102213862645,45.8859332771205 61.1070887184747,45.8828006093307 61.1043937726224,45.8854955551831 61.10169882677,45.8828006093307 61.1003513538438,45.8868430281093 61.093613989213,45.8828006093307 61.0895715704344,45.8868430281093 61.0922665162868,45.8895379739616</coordinates></LinearRing></outerBoundaryIs><innerBoundaryIs><LinearRing><coordinates>61.1070887184747,45.8908854468878 61.1003513538439,45.8868430281093 61.1097836643271,45.8908854468878 61.1070887184747,45.8908854468878</coordinates></LinearRing></innerBoundaryIs><innerBoundaryIs><LinearRing><coordinates>61.0990038809177,45.8935803927402 61.0976564079915,45.892232919814 61.1003513538438,45.892232919814 61.0990038809177,45.8935803927402</coordinates></LinearRing></innerBoundaryIs></Polygon><Polygon><outerBoundaryIs><LinearRing><coordinates>61.1102213862645,45.89671306053 61.1097836643271,45.8962753385925 61.1084361914009,45.9003177573711 61.1102213862645,45.9009128223256 61.1102213862645,45.89671306053</coordinates></LinearRing></outerBoundaryIs></Polygon><Polygon><outerBoundaryIs><LinearRing><coordinates>61.0756476835306,45.915139959559 61.0720544223941,45.915139959559 61.0707069494679,45.9164874324852 61.0774443140988,45.9178349054114 61.0774443140988,45.9162179379 61.0801392599512,45.9178349054114 61.0801392599512,45.9124450137067 61.0747493682464,45.9124450137067 61.0734018953203,45.9137924866329 61.0756476835306,45.915139959559</coordinates></LinearRing></outerBoundaryIs></Polygon><Polygon><outerBoundaryIs><LinearRing><coordinates>61.0882240975082,45.9205298512638 61.0949614621391,45.9137924866329 61.0855291516559,45.9124450137067 61.0841816787297,45.9164874324852 61.0882240975082,45.9205298512638</coordinates></LinearRing></outerBoundaryIs></Polygon></MultiGeometry>
  </Placemark>
</Folder>
</Document></kml>
