<?xml version="1.0" encoding="utf-8" ?>
<kml xmlns="http://www.opengis.net/kml/2.2">
<Document id="root_doc">
<Schema name="task_grid_v6_46.48_59.78" id="task_grid_v6_46.48_59.78">
	<SimpleField name="area_ha" type="float"></SimpleField>
	<SimpleField name="low_risk_ha" type="float"></SimpleField>
	<SimpleField name="moderate_risk_ha" type="float"></SimpleField>
	<SimpleField name="grid_cell_deg" type="string"></SimpleField>
</Schema>
<Folder><name>task_grid_v6_46.48_59.78</name>
  <Placemark id="task_grid_v6_46.48_59.78.1">
	<name>task_grid_v6_46.48_59.78</name>
	<name>168.2</name>
	<description>211.6</description>
	<Style><LineStyle><color>ff0000ff</color></LineStyle><PolyStyle><fill>0</fill></PolyStyle></Style>
	<ExtendedData><SchemaData schemaUrl="#task_grid_v6_46.48_59.78">
		<SimpleData name="area_ha">43.4</SimpleData>
		<SimpleData name="low_risk_ha">0.1</SimpleData>
	</SchemaData></ExtendedData>
      <MultiGeometry><Polygon><outerBoundaryIs><LinearRing><coordinates>59.8081248176379,46.4918583719638 59.8040823988594,46.49320584489 59.8040823988594,46.4959007907423 59.8108197634903,46.4972482636685 59.8121672364165,46.4959007907423 59.8081248176379,46.4918583719638</coordinates></LinearRing></outerBoundaryIs></Polygon><Polygon><outerBoundaryIs><LinearRing><coordinates>59.7946500883761,46.4999432095209 59.7933026154499,46.501290682447 59.8027349259332,46.5026381553732 59.8027349259332,46.4999432095209 59.7946500883761,46.4999432095209</coordinates></LinearRing></outerBoundaryIs></Polygon><Polygon><outerBoundaryIs><LinearRing><coordinates>59.7919551425238,46.5053331012256 59.7906076695976,46.5066805741518 59.7973450342285,46.5080280470779 59.7973450342285,46.5053331012256 59.7919551425238,46.5053331012256</coordinates></LinearRing></outerBoundaryIs></Polygon><Polygon><outerBoundaryIs><LinearRing><coordinates>59.7825228320405,46.5039856282994 59.7744379944834,46.5039856282994 59.7757854674096,46.5107229929303 59.7825228320405,46.5093755200041 59.7798278861882,46.5066805741518 59.7825228320405,46.5039856282994</coordinates></LinearRing></outerBoundaryIs></Polygon><Polygon><outerBoundaryIs><LinearRing><coordinates>59.8148621822688,46.5120704658565 59.8215995468997,46.5134179387826 59.8222732833628,46.5127442023196 59.8242944927521,46.516112884635 59.8263910613787,46.5140163160084 59.8263910613787,46.5065910424015 59.8242944927521,46.5053331012256 59.8202520739735,46.5093755200041 59.8202520739735,46.5093755200041 59.8189046010474,46.5080280470779 59.8164791497802,46.5088365308336 59.8175571281212,46.5066805741518 59.8094722905641,46.5066805741518 59.8121672364165,46.5093755200041 59.8094722905641,46.5120704658565 59.8108197634903,46.5134179387826 59.8148621822688,46.5120704658565</coordinates></LinearRing></outerBoundaryIs></Polygon><Polygon><outerBoundaryIs><LinearRing><coordinates>59.7596157922955,46.516112884635 59.7528784276646,46.5174603575612 59.7623107381478,46.5188078304874 59.7663531569264,46.5147654117088 59.7650056840002,46.5134179387826 59.7596157922955,46.516112884635</coordinates></LinearRing></outerBoundaryIs></Polygon><Polygon><outerBoundaryIs><LinearRing><coordinates>59.763658211074,46.5174603575612 59.7757854674096,46.5188078304874 59.7757854674096,46.516112884635 59.7650056840002,46.516112884635 59.763658211074,46.5174603575612</coordinates></LinearRing></outerBoundaryIs></Polygon></MultiGeometry>
  </Placemark>
</Folder>
</Document></kml>
