<?xml version="1.0" encoding="utf-8" ?>
<kml xmlns="http://www.opengis.net/kml/2.2">
<Document id="root_doc">
<Schema name="task_grid_v6_46.18_60.38" id="task_grid_v6_46.18_60.38">
	<SimpleField name="area_ha" type="float"></SimpleField>
	<SimpleField name="low_risk_ha" type="float"></SimpleField>
	<SimpleField name="moderate_risk_ha" type="float"></SimpleField>
	<SimpleField name="grid_cell_deg" type="string"></SimpleField>
</Schema>
<Folder><name>task_grid_v6_46.18_60.38</name>
  <Placemark id="task_grid_v6_46.18_60.38.1">
	<name>task_grid_v6_46.18_60.38</name>
	<name>620.8</name>
	<description>919.7</description>
	<Style><LineStyle><color>ff0000ff</color></LineStyle><PolyStyle><fill>0</fill></PolyStyle></Style>
	<ExtendedData><SchemaData schemaUrl="#task_grid_v6_46.18_60.38">
		<SimpleData name="area_ha">298.9</SimpleData>
		<SimpleData name="low_risk_ha">0.1</SimpleData>
	</SchemaData></ExtendedData>
      <MultiGeometry><Polygon><outerBoundaryIs><LinearRing><coordinates>60.3363342047002,46.1442103570095 60.3471139881096,46.1442103570095 60.3430715693311,46.1482527757881 60.3444190422573,46.1496002487142 60.3525038798143,46.1522951945666 60.3605887173714,46.1442103570095 60.3686735549285,46.1442103570095 60.3713685007809,46.1469053028619 60.3754109195594,46.1455578299357 60.3619361902976,46.1347780465263 60.3623594787484,46.1343547580755 60.343828788465,46.1343547580755 60.3263910613787,46.1343547580755 60.3263910613787,46.1415154111572 60.3263910613787,46.1464007905847 60.3322917859217,46.1455578299357 60.3309443129955,46.1442103570095 60.3336392588478,46.1415154111572 60.3363342047002,46.1442103570095</coordinates></LinearRing></outerBoundaryIs></Polygon><Polygon><outerBoundaryIs><LinearRing><coordinates>60.3551988256667,46.1819395989425 60.3754109195594,46.1805921260164 60.3525038798143,46.1765497072378 60.3519050029583,46.1753519535257 60.3578937715191,46.1765497072378 60.3578937715191,46.1738547613855 60.3525038798143,46.1738547613855 60.3516055645302,46.1747530766696 60.349808933962,46.1711598155331 60.3282493671431,46.1603800321237 60.3282493671431,46.154990140419 60.3263910613787,46.1546804227916 60.3263910613787,46.1792446530902 60.3282493671431,46.1792446530902 60.3309443129955,46.1738547613855 60.3417240964049,46.1765497072378 60.3525038798143,46.1846345447949 60.3551988256667,46.1819395989425</coordinates></LinearRing></outerBoundaryIs></Polygon><Polygon><outerBoundaryIs><LinearRing><coordinates>60.3263910613787,46.1981092740567 60.3282493671431,46.1981092740567 60.3282493671431,46.192719382352 60.3376816776264,46.1913719094258 60.3363342047002,46.1792446530902 60.3336392588478,46.1846345447949 60.3295968400693,46.1859820177211 60.3295968400693,46.1886769635734 60.3263910613787,46.1908141493672 60.3263910613787,46.1981092740567</coordinates></LinearRing></outerBoundaryIs></Polygon><Polygon><outerBoundaryIs><LinearRing><coordinates>60.4263910613787,46.1558123470202 60.425267417828,46.1576850862713 60.4212249990495,46.1590325591975 60.4225724719757,46.163074977976 60.4263910613787,46.163074977976 60.4263910613787,46.1558123470202</coordinates></LinearRing></outerBoundaryIs></Polygon><Polygon><outerBoundaryIs><LinearRing><coordinates>60.4263910613787,46.1749784049361 60.4263910613787,46.1687791301411 60.4212249990495,46.1698123426069 60.4263910613787,46.1749784049361</coordinates></LinearRing></outerBoundaryIs></Polygon><Polygon><outerBoundaryIs><LinearRing><coordinates>60.3794533383379,46.1819395989425 60.3781058654118,46.1832870718687 60.3848432300426,46.1846345447949 60.3848432300426,46.1819395989425 60.3794533383379,46.1819395989425</coordinates></LinearRing></outerBoundaryIs></Polygon><Polygon><outerBoundaryIs><LinearRing><coordinates>60.3861907029688,46.1859820177211 60.3929280675997,46.1873294906473 60.3929280675997,46.1846345447949 60.387538175895,46.1846345447949 60.3861907029688,46.1859820177211</coordinates></LinearRing></outerBoundaryIs></Polygon><Polygon><outerBoundaryIs><LinearRing><coordinates>60.4185300531971,46.1967618011305 60.4225724719757,46.2008042199091 60.4263910613787,46.2000405020285 60.4263910613787,46.1977054818461 60.4225724719757,46.1954143282043 60.4185300531971,46.1967618011305</coordinates></LinearRing></outerBoundaryIs></Polygon></MultiGeometry>
  </Placemark>
</Folder>
</Document></kml>
