<?xml version="1.0" encoding="utf-8" ?>
<kml xmlns="http://www.opengis.net/kml/2.2">
<Document id="root_doc">
<Schema name="task_grid_v6_45.78_60.18" id="task_grid_v6_45.78_60.18">
	<SimpleField name="area_ha" type="float"></SimpleField>
	<SimpleField name="low_risk_ha" type="float"></SimpleField>
	<SimpleField name="moderate_risk_ha" type="float"></SimpleField>
	<SimpleField name="grid_cell_deg" type="string"></SimpleField>
</Schema>
<Folder><name>task_grid_v6_45.78_60.18</name>
  <Placemark id="task_grid_v6_45.78_60.18.1">
	<name>task_grid_v6_45.78_60.18</name>
	<name>62.7</name>
	<description>654.6</description>
	<Style><LineStyle><color>ff0000ff</color></LineStyle><PolyStyle><fill>0</fill></PolyStyle></Style>
	<ExtendedData><SchemaData schemaUrl="#task_grid_v6_45.78_60.18">
		<SimpleData name="area_ha">591.9</SimpleData>
		<SimpleData name="low_risk_ha">0.1</SimpleData>
	</SchemaData></ExtendedData>
      <MultiGeometry><Polygon><outerBoundaryIs><LinearRing><coordinates>60.1490354679613,45.8221643276527 60.154425359666,45.824859273505 60.1557728325922,45.8289016922836 60.1598152513707,45.8275542193574 60.1638576701492,45.8181219088741 60.1665526160016,45.8181219088741 60.1679000889278,45.8194693818003 60.1625101972231,45.824859273505 60.1705950347801,45.8302491652098 60.1719425077063,45.8342915839883 60.1746374535587,45.8289016922836 60.177332399411,45.8289016922836 60.177332399411,45.8343547580755 60.1831222972944,45.8343547580755 60.192154601599,45.8302491652098 60.1894596557467,45.8275542193574 60.192154601599,45.824859273505 60.1881121828205,45.8208168547265 60.1800273452634,45.8181219088741 60.1746374535587,45.8208168547265 60.1705950347801,45.816774435948 60.169247561854,45.8100370713171 60.1530778867398,45.8100370713171 60.1463405221089,45.8140794900956 60.1490354679613,45.8221643276527</coordinates></LinearRing></outerBoundaryIs><innerBoundaryIs><LinearRing><coordinates>60.1867647098943,45.8275542193574 60.1827222911158,45.8289016922836 60.1854172369681,45.8235118005789 60.1867647098943,45.8275542193574</coordinates></LinearRing></innerBoundaryIs><innerBoundaryIs><LinearRing><coordinates>60.1746374535587,45.8235118005789 60.177332399411,45.8235118005789 60.1786798723372,45.824859273505 60.1746374535587,45.8262067464312 60.1746374535587,45.8235118005789</coordinates></LinearRing></innerBoundaryIs><innerBoundaryIs><LinearRing><coordinates>60.1584677784445,45.8208168547265 60.1571203055184,45.8194693818003 60.1598152513707,45.8194693818003 60.1584677784445,45.8208168547265</coordinates></LinearRing></innerBoundaryIs></Polygon><Polygon><outerBoundaryIs><LinearRing><coordinates>60.2204515330488,45.8289016922836 60.2204515330488,45.8235118005789 60.2123666954917,45.8235118005789 60.2110192225655,45.8275542193574 60.2150616413441,45.8289016922836 60.2177565871964,45.8262067464312 60.2204515330488,45.8289016922836</coordinates></LinearRing></outerBoundaryIs></Polygon><Polygon><outerBoundaryIs><LinearRing><coordinates>60.1409506304042,45.8302491652098 60.1369082116257,45.8235118005789 60.1328657928471,45.824859273505 60.1274759011424,45.824859273505 60.1301708469948,45.8275542193574 60.1263910613787,45.8313340049735 60.1263910613787,45.8343547580755 60.1388782972968,45.8343547580755 60.1369082116257,45.8315966381359 60.135897606931,45.8312597699044 60.1409506304042,45.8302491652098</coordinates></LinearRing></outerBoundaryIs></Polygon><Polygon><outerBoundaryIs><LinearRing><coordinates>60.1571203055184,45.8302491652098 60.1611627242969,45.8342915839883 60.1652051430754,45.8329441110621 60.1638576701492,45.8262067464312 60.1571203055184,45.8302491652098</coordinates></LinearRing></outerBoundaryIs></Polygon><Polygon><outerBoundaryIs><LinearRing><coordinates>60.169247561854,45.8342915839883 60.1689948655051,45.8343547580755 60.169268619883,45.8343547580755 60.169247561854,45.8342915839883</coordinates></LinearRing></outerBoundaryIs></Polygon></MultiGeometry>
  </Placemark>
</Folder>
</Document></kml>
