<?xml version="1.0" encoding="utf-8" ?>
<kml xmlns="http://www.opengis.net/kml/2.2">
<Document id="root_doc">
<Schema name="task_grid_v6_45.48_61.28" id="task_grid_v6_45.48_61.28">
	<SimpleField name="area_ha" type="float"></SimpleField>
	<SimpleField name="low_risk_ha" type="float"></SimpleField>
	<SimpleField name="moderate_risk_ha" type="float"></SimpleField>
	<SimpleField name="grid_cell_deg" type="string"></SimpleField>
</Schema>
<Folder><name>task_grid_v6_45.48_61.28</name>
  <Placemark id="task_grid_v6_45.48_61.28.1">
	<name>task_grid_v6_45.48_61.28</name>
	<name>0</name>
	<description>51.1</description>
	<Style><LineStyle><color>ff0000ff</color></LineStyle><PolyStyle><fill>0</fill></PolyStyle></Style>
	<ExtendedData><SchemaData schemaUrl="#task_grid_v6_45.48_61.28">
		<SimpleData name="area_ha">51.1</SimpleData>
		<SimpleData name="low_risk_ha">0.1</SimpleData>
	</SchemaData></ExtendedData>
      <MultiGeometry><Polygon><outerBoundaryIs><LinearRing><coordinates>61.2458784298712,45.4852960961079 61.2418360110927,45.4812536773293 61.2404885381665,45.4852960961079 61.244530956945,45.486643569034 61.2458784298712,45.4852960961079</coordinates></LinearRing></outerBoundaryIs></Polygon><Polygon><outerBoundaryIs><LinearRing><coordinates>61.236446119388,45.4839486231817 61.2324037006094,45.4879910419602 61.2337511735356,45.4893385148864 61.2377935923141,45.4879910419602 61.236446119388,45.4839486231817</coordinates></LinearRing></outerBoundaryIs></Polygon><Polygon><outerBoundaryIs><LinearRing><coordinates>61.2283612818309,45.5135930275576 61.2337511735356,45.5108980817053 61.2337511735356,45.5082031358529 61.2283612818309,45.5082031358529 61.2263910613787,45.5101733563051 61.2263910613787,45.5129362874069 61.2283612818309,45.5135930275576</coordinates></LinearRing></outerBoundaryIs></Polygon></MultiGeometry>
  </Placemark>
</Folder>
</Document></kml>
