<?xml version="1.0" encoding="utf-8" ?>
<kml xmlns="http://www.opengis.net/kml/2.2">
<Document id="root_doc">
<Schema name="task_grid_v6_45.88_60.08" id="task_grid_v6_45.88_60.08">
	<SimpleField name="area_ha" type="float"></SimpleField>
	<SimpleField name="low_risk_ha" type="float"></SimpleField>
	<SimpleField name="moderate_risk_ha" type="float"></SimpleField>
	<SimpleField name="grid_cell_deg" type="string"></SimpleField>
</Schema>
<Folder><name>task_grid_v6_45.88_60.08</name>
  <Placemark id="task_grid_v6_45.88_60.08.1">
	<name>task_grid_v6_45.88_60.08</name>
	<name>752.7</name>
	<description>2042.9</description>
	<Style><LineStyle><color>ff0000ff</color></LineStyle><PolyStyle><fill>0</fill></PolyStyle></Style>
	<ExtendedData><SchemaData schemaUrl="#task_grid_v6_45.88_60.08">
		<SimpleData name="area_ha">1290.3</SimpleData>
		<SimpleData name="low_risk_ha">0.1</SimpleData>
	</SchemaData></ExtendedData>
      <MultiGeometry><Polygon><outerBoundaryIs><LinearRing><coordinates>60.034500269236,45.8450713673977 60.0291103775313,45.8450713673977 60.0277629046051,45.8491137861763 60.0371952150884,45.8531562049548 60.0371952150884,45.8423764215454 60.034500269236,45.8450713673977</coordinates></LinearRing></outerBoundaryIs></Polygon><Polygon><outerBoundaryIs><LinearRing><coordinates>60.0398901609408,45.8504612591024 60.0439325797193,45.8491137861763 60.0425851067931,45.8450713673977 60.0385426880146,45.8464188403239 60.0398901609408,45.8504612591024</coordinates></LinearRing></outerBoundaryIs></Polygon><Polygon><outerBoundaryIs><LinearRing><coordinates>60.0520174172764,45.8787581905522 60.0263910613787,45.8824190985376 60.0263910613787,45.8855280489168 60.026415431679,45.8854955551831 60.034500269236,45.8854955551831 60.0398901609408,45.8828006093307 60.0506699443502,45.8881905010355 60.0560598360549,45.8881905010355 60.064144673612,45.8989702844449 60.0722295111691,45.8962753385925 60.0722295111691,45.8935803927402 60.0722295111691,45.8908854468878 60.0668396194643,45.8908854468878 60.0661658830012,45.8915591833509 60.0654921465382,45.8895379739616 60.0601022548334,45.8868430281093 60.0547123631287,45.8787581905522 60.0587547819073,45.8828006093307 60.0601022548334,45.8814531364046 60.0587547819073,45.877410717626 60.0614497277596,45.8828006093307 60.064144673612,45.8801056634784 60.087051713357,45.8895379739616 60.0803143487261,45.8908854468878 60.0762719299476,45.8949278656664 60.0776194028738,45.8989702844449 60.1005264426188,45.8976228115187 60.0991789696926,45.8962753385925 60.1099587531021,45.8908854468878 60.1126536989544,45.8935803927402 60.1153486448068,45.8908854468878 60.1140011718806,45.892232919814 60.1234334823639,45.8962753385925 60.1263910613787,45.8962753385925 60.1263910613787,45.8908854468878 60.1263910613787,45.8845096955115 60.1153486448068,45.8881905010355 60.1086112801759,45.8814531364046 60.1099587531021,45.8801056634784 60.1263910613787,45.8838977346191 60.1263910613787,45.8722834590838 60.1261284282162,45.8720208259213 60.1126536989544,45.8720208259213 60.101873915545,45.8666309342166 60.0937890779879,45.8666309342166 60.0910941321356,45.8639359883642 60.0857042404309,45.8639359883642 60.0816618216523,45.8679784071428 60.0843567675047,45.8706733529951 60.0830092945785,45.8720208259213 60.0803143487261,45.8693258800689 60.0749244570214,45.8693258800689 60.0654921465382,45.8733682988475 60.0673786086348,45.8747157717737 60.0425851067931,45.8747157717737 60.0425851067931,45.877410717626 60.0398901609408,45.8747157717737 60.0331527963099,45.8787581905522 60.0520174172764,45.8787581905522</coordinates></LinearRing></outerBoundaryIs><innerBoundaryIs><LinearRing><coordinates>60.0668396194643,45.8935803927402 60.0664546271997,45.8924254159463 60.0722295111691,45.8935803927402 60.0668396194643,45.8935803927402</coordinates></LinearRing></innerBoundaryIs><innerBoundaryIs><LinearRing><coordinates>60.0964840238403,45.8935803927402 60.0991789696926,45.8908854468878 60.0991789696926,45.8962753385925 60.0964840238403,45.8935803927402</coordinates></LinearRing></innerBoundaryIs><innerBoundaryIs><LinearRing><coordinates>60.0897466592094,45.8868430281093 60.0910941321356,45.8854955551831 60.0964840238403,45.8881905010355 60.0964840238403,45.8828006093307 60.0978314967665,45.8868430281093 60.0951365509141,45.892232919814 60.0897466592094,45.8868430281093</coordinates></LinearRing></innerBoundaryIs><innerBoundaryIs><LinearRing><coordinates>60.0757536711298,45.8796910564242 60.0803143487261,45.877410717626 60.0816618216523,45.8787581905522 60.0789668758,45.8814531364046 60.0830092945785,45.8854955551831 60.0757536711298,45.8796910564242</coordinates></LinearRing></innerBoundaryIs><innerBoundaryIs><LinearRing><coordinates>60.087051713357,45.8787581905522 60.0857042404309,45.8801056634784 60.0843567675047,45.8787581905522 60.087051713357,45.8787581905522</coordinates></LinearRing></innerBoundaryIs></Polygon><Polygon><outerBoundaryIs><LinearRing><coordinates>60.026415431679,45.8801056634784 60.0263910613787,45.8800325525776 60.0263910613787,45.8820678395801 60.0331527963099,45.8814531364046 60.026415431679,45.8801056634784</coordinates></LinearRing></outerBoundaryIs></Polygon><Polygon><outerBoundaryIs><LinearRing><coordinates>60.0263910613787,45.8962631534424 60.0263910613787,45.898139195698 60.0371952150884,45.8989702844449 60.0385426880146,45.9030127032234 60.0358477421622,45.9057076490758 60.0398901609408,45.907055122002 60.0466275255717,45.8976228115187 60.0398901609408,45.8881905010355 60.0358477421622,45.8895379739616 60.0385426880146,45.892232919814 60.0371952150884,45.8935803927402 60.0291103775313,45.8935803927402 60.026415431679,45.8962753385925 60.0263910613787,45.8962631534424</coordinates></LinearRing></outerBoundaryIs></Polygon><Polygon><outerBoundaryIs><LinearRing><coordinates>60.0291103775313,45.9232247971161 60.0304578504575,45.9218773241899 60.026415431679,45.9178349054114 60.0263910613787,45.9179080163122 60.0263910613787,45.9223183583986 60.0291103775313,45.9232247971161</coordinates></LinearRing></outerBoundaryIs></Polygon><Polygon><outerBoundaryIs><LinearRing><coordinates>60.0671897970143,45.9343547580755 60.0668396194643,45.9340045805256 60.0667228936144,45.9343547580755 60.0671897970143,45.9343547580755</coordinates></LinearRing></outerBoundaryIs></Polygon><Polygon><outerBoundaryIs><LinearRing><coordinates>60.1113062260283,45.8356390569145 60.1180435906592,45.8369865298406 60.1180435906592,45.8343547580755 60.1125905248672,45.8343547580755 60.1113062260283,45.8356390569145</coordinates></LinearRing></outerBoundaryIs></Polygon><Polygon><outerBoundaryIs><LinearRing><coordinates>60.1180435906592,45.8369865298406 60.116696117733,45.8383340027668 60.1180435906592,45.8450713673977 60.1153486448068,45.8477663132501 60.1153486448068,45.8423764215454 60.1113062260283,45.8437238944715 60.1086112801759,45.8491137861763 60.1045688613974,45.8450713673977 60.101873915545,45.8450713673977 60.1005264426188,45.8491137861763 60.1099587531021,45.8531562049548 60.1113062260283,45.8518087320286 60.1153486448068,45.8558511508072 60.1173698541961,45.8551774143441 60.1140011718806,45.8571986237333 60.1263910613787,45.8571986237333 60.1263910613787,45.8558511508072 60.1263910613787,45.8555787156122 60.1263910613787,45.85019862594 60.1261284282162,45.8504612591024 60.12478095529,45.8464188403239 60.1263910613787,45.8464188403239 60.1263910613787,45.8343547580755 60.1233703082767,45.8343547580755 60.1220860094377,45.8356390569145 60.1220860094377,45.8410289486192 60.120751171329,45.8343547580755 60.1206753624243,45.8343547580755 60.1180435906592,45.8369865298406</coordinates></LinearRing></outerBoundaryIs><innerBoundaryIs><LinearRing><coordinates>60.1234334823639,45.8531562049548 60.1254546917531,45.8551774143441 60.1219175753219,45.8536615073021 60.1234334823639,45.8531562049548</coordinates></LinearRing></innerBoundaryIs></Polygon><Polygon><outerBoundaryIs><LinearRing><coordinates>60.1263910613787,45.898014179877 60.1263910613787,45.8970078040986 60.1220860094377,45.8976228115187 60.1263910613787,45.898014179877</coordinates></LinearRing></outerBoundaryIs></Polygon><Polygon><outerBoundaryIs><LinearRing><coordinates>60.1099587531021,45.9205298512638 60.1099587531021,45.9178349054114 60.1045688613974,45.9178349054114 60.1032213884712,45.9191823783376 60.1099587531021,45.9205298512638</coordinates></LinearRing></outerBoundaryIs></Polygon><Polygon><outerBoundaryIs><LinearRing><coordinates>60.0762719299476,45.9326571075994 60.0749244570214,45.9259197429685 60.0708820382429,45.9326571075994 60.0722295111691,45.9340045805256 60.0762719299476,45.9326571075994</coordinates></LinearRing></outerBoundaryIs></Polygon></MultiGeometry>
  </Placemark>
</Folder>
</Document></kml>
