<?xml version="1.0" encoding="utf-8" ?>
<kml xmlns="http://www.opengis.net/kml/2.2">
<Document id="root_doc">
<Schema name="task_grid_v6_45.68_60.98" id="task_grid_v6_45.68_60.98">
	<SimpleField name="area_ha" type="float"></SimpleField>
	<SimpleField name="low_risk_ha" type="float"></SimpleField>
	<SimpleField name="moderate_risk_ha" type="float"></SimpleField>
	<SimpleField name="grid_cell_deg" type="string"></SimpleField>
</Schema>
<Folder><name>task_grid_v6_45.68_60.98</name>
  <Placemark id="task_grid_v6_45.68_60.98.1">
	<name>task_grid_v6_45.68_60.98</name>
	<name>95.8</name>
	<description>619.4</description>
	<Style><LineStyle><color>ff0000ff</color></LineStyle><PolyStyle><fill>0</fill></PolyStyle></Style>
	<ExtendedData><SchemaData schemaUrl="#task_grid_v6_45.68_60.98">
		<SimpleData name="area_ha">523.6</SimpleData>
		<SimpleData name="low_risk_ha">0.1</SimpleData>
	</SchemaData></ExtendedData>
      <MultiGeometry><Polygon><outerBoundaryIs><LinearRing><coordinates>60.9263910613787,45.6401646259598 60.9265273463667,45.6402554826185 60.9305697651453,45.6362130638399 60.9287114593808,45.6343547580755 60.9263910613787,45.6343547580755 60.9263910613787,45.6401646259598</coordinates></LinearRing></outerBoundaryIs></Polygon><Polygon><outerBoundaryIs><LinearRing><coordinates>60.9440444944071,45.6496877931017 60.9507818590379,45.6510352660279 60.9507818590379,45.6483403201755 60.9453919673332,45.6483403201755 60.9440444944071,45.6496877931017</coordinates></LinearRing></outerBoundaryIs></Polygon><Polygon><outerBoundaryIs><LinearRing><coordinates>60.9602141695212,45.6550776848064 60.9507818590379,45.6537302118803 60.9467394402594,45.6604675765112 60.9480869131856,45.6618150494373 60.9507818590379,45.659120103585 60.9534768048903,45.6645099952897 60.9602141695212,45.6550776848064</coordinates></LinearRing></outerBoundaryIs></Polygon><Polygon><outerBoundaryIs><LinearRing><coordinates>60.9467394402594,45.6685524140682 60.9453919673332,45.6537302118803 60.9413495485547,45.6604675765112 60.9413495485547,45.6658574682159 60.9480869131856,45.6752897786991 60.9534768048903,45.6752897786991 60.9534768048903,45.6725948328468 60.9467394402594,45.6685524140682</coordinates></LinearRing></outerBoundaryIs></Polygon><Polygon><outerBoundaryIs><LinearRing><coordinates>60.9346121839238,45.6806796704038 60.9413495485547,45.6766372516253 60.9400020756285,45.6725948328468 60.9332647109976,45.6766372516253 60.9346121839238,45.6806796704038</coordinates></LinearRing></outerBoundaryIs></Polygon><Polygon><outerBoundaryIs><LinearRing><coordinates>60.9400020756285,45.6860695621086 60.93595965685,45.6874170350347 60.9332647109976,45.6928069267395 60.9346121839238,45.6941543996656 60.9400020756285,45.6941543996656 60.9467394402594,45.6901119808871 60.9400020756285,45.6860695621086</coordinates></LinearRing></outerBoundaryIs></Polygon><Polygon><outerBoundaryIs><LinearRing><coordinates>60.9467394402594,45.6928069267395 60.9534768048903,45.6941543996656 60.9534768048903,45.6914594538133 60.9480869131856,45.6914594538133 60.9467394402594,45.6928069267395</coordinates></LinearRing></outerBoundaryIs></Polygon><Polygon><outerBoundaryIs><LinearRing><coordinates>60.9332647109976,45.7089766018536 60.9400020756285,45.7103240747798 60.9413495485547,45.7089766018536 60.93595965685,45.7062816560013 60.9346121839238,45.7022392372227 60.9332647109976,45.7089766018536</coordinates></LinearRing></outerBoundaryIs></Polygon><Polygon><outerBoundaryIs><LinearRing><coordinates>60.9332647109976,45.7332311145248 60.9319172380714,45.7318836415987 60.9294461215946,45.7343547580755 60.9328901631474,45.7343547580755 60.9332647109976,45.7332311145248</coordinates></LinearRing></outerBoundaryIs></Polygon><Polygon><outerBoundaryIs><LinearRing><coordinates>61.0154605594946,45.6375605367661 61.0100706677898,45.6375605367661 61.0084677784445,45.6343547580755 60.9965034257338,45.6343547580755 61.0033333031589,45.6389080096923 61.0046807760851,45.6456453743232 61.0100706677898,45.6456453743232 61.0168080324207,45.6416029555446 61.0154605594946,45.6375605367661</coordinates></LinearRing></outerBoundaryIs></Polygon><Polygon><outerBoundaryIs><LinearRing><coordinates>60.9939009926757,45.6429504284708 60.9952484656019,45.6416029555446 60.9912060468233,45.6375605367661 60.9871636280448,45.6389080096923 60.9939009926757,45.6429504284708</coordinates></LinearRing></outerBoundaryIs></Polygon><Polygon><outerBoundaryIs><LinearRing><coordinates>60.9804262634139,45.6725948328468 60.9831212092663,45.6725948328468 60.9844686821924,45.6712473599206 60.9817737363401,45.6685524140682 60.9844686821924,45.6658574682159 60.9804262634139,45.6618150494373 60.9777313175615,45.6645099952897 60.9750363717092,45.6618150494373 60.973688898783,45.6685524140682 60.9750363717092,45.6698998869944 60.9777313175615,45.6672049411421 60.9804262634139,45.6725948328468</coordinates></LinearRing></outerBoundaryIs></Polygon><Polygon><outerBoundaryIs><LinearRing><coordinates>61.0235453970516,45.6779847245515 61.0248928699778,45.673942305773 61.0208504511993,45.6698998869944 61.0168080324207,45.673942305773 61.0235453970516,45.6779847245515</coordinates></LinearRing></outerBoundaryIs></Polygon><Polygon><outerBoundaryIs><LinearRing><coordinates>61.0263910613787,45.6876310623777 61.0263910613787,45.6865181201942 61.0248928699778,45.6874170350347 61.0263910613787,45.6876310623777</coordinates></LinearRing></outerBoundaryIs></Polygon><Polygon><outerBoundaryIs><LinearRing><coordinates>60.9656040612259,45.6901119808871 60.9723414258568,45.6914594538133 60.9723414258568,45.6887645079609 60.9669515341521,45.6887645079609 60.9656040612259,45.6901119808871</coordinates></LinearRing></outerBoundaryIs></Polygon><Polygon><outerBoundaryIs><LinearRing><coordinates>60.9723414258568,45.696849345518 60.9696464800045,45.6941543996656 60.9629091153736,45.6981968184442 60.9696464800045,45.6995442913704 60.973688898783,45.7062816560013 60.9777313175615,45.7076291289274 60.9817737363401,45.7035867101489 60.9817737363401,45.6981968184442 60.9723414258568,45.696849345518</coordinates></LinearRing></outerBoundaryIs></Polygon><Polygon><outerBoundaryIs><LinearRing><coordinates>60.9855923257431,45.7343547580755 60.9864876432452,45.7343547580755 60.9898585738972,45.7332311145248 60.988511100971,45.7291886957463 60.9844686821924,45.7332311145248 60.9855923257431,45.7343547580755</coordinates></LinearRing></outerBoundaryIs></Polygon></MultiGeometry>
  </Placemark>
</Folder>
</Document></kml>
