<?xml version="1.0" encoding="utf-8" ?>
<kml xmlns="http://www.opengis.net/kml/2.2">
<Document id="root_doc">
<Schema name="task_grid_v6_45.91_59.06" id="task_grid_v6_45.91_59.06">
	<SimpleField name="area_ha" type="float"></SimpleField>
	<SimpleField name="low_risk_ha" type="float"></SimpleField>
	<SimpleField name="moderate_risk_ha" type="float"></SimpleField>
	<SimpleField name="grid_cell_deg" type="string"></SimpleField>
</Schema>
<Folder><name>task_grid_v6_45.91_59.06</name>
  <Placemark id="task_grid_v6_45.91_59.06.1">
	<name>task_grid_v6_45.91_59.06</name>
	<name>488.2</name>
	<description>620.4</description>
	<Style><LineStyle><color>ff0000ff</color></LineStyle><PolyStyle><fill>0</fill></PolyStyle></Style>
	<ExtendedData><SchemaData schemaUrl="#task_grid_v6_45.91_59.06">
		<SimpleData name="area_ha">132.2</SimpleData>
		<SimpleData name="low_risk_ha">0.1</SimpleData>
	</SchemaData></ExtendedData>
      <MultiGeometry><Polygon><outerBoundaryIs><LinearRing><coordinates>59.0562349248299,45.9474793097873 59.0548874519037,45.9515217285659 59.0535399789775,45.9501742556397 59.0521925060513,45.9542166744182 59.0548874519037,45.9569116202706 59.0521925060513,45.9623015119753 59.0524551392138,45.9625641451378 59.1102213862645,45.9625641451378 59.1102213862645,45.9555641473444 59.1047439501723,45.9555641473444 59.10204900432,45.9528692014921 59.0858793292058,45.9528692014921 59.0831843833535,45.9501742556397 59.0804894375011,45.9528692014921 59.0777944916487,45.9501742556397 59.0750995457964,45.9528692014921 59.0589298706822,45.9528692014921 59.0602773436084,45.9515217285659 59.0562349248299,45.9474793097873</coordinates></LinearRing></outerBoundaryIs><innerBoundaryIs><LinearRing><coordinates>59.0562349248299,45.9528692014921 59.0548874519037,45.9515217285659 59.0589298706822,45.9528692014921 59.0562349248299,45.9528692014921</coordinates></LinearRing></innerBoundaryIs><innerBoundaryIs><LinearRing><coordinates>59.0885742750582,45.9593370715377 59.0899217479844,45.959606566123 59.0885742750582,45.959606566123 59.0885742750582,45.9593370715377</coordinates></LinearRing></innerBoundaryIs></Polygon><Polygon><outerBoundaryIs><LinearRing><coordinates>59.0387177767895,45.9569116202706 59.0400652497157,45.9609540390491 59.0427601955681,45.9582590931968 59.0508450331252,45.9609540390491 59.0548874519037,45.9569116202706 59.0454551414204,45.9501742556397 59.043838173909,45.9534081906625 59.0427601955681,45.9501742556397 59.0387177767895,45.9542166744182 59.0400652497157,45.9555641473444 59.0432991847386,45.9544861690035 59.0427601955681,45.9555641473444 59.0387177767895,45.9569116202706</coordinates></LinearRing></outerBoundaryIs></Polygon><Polygon><outerBoundaryIs><LinearRing><coordinates>59.0319804121587,45.9555641473444 59.0279379933801,45.9569116202706 59.0306329392325,45.959606566123 59.0291541497251,45.9625641451378 59.038980409952,45.9625641451378 59.0319804121587,45.9555641473444</coordinates></LinearRing></outerBoundaryIs></Polygon><Polygon><outerBoundaryIs><LinearRing><coordinates>59.0225481016754,45.9623015119753 59.0226356460629,45.9625641451378 59.0271272224835,45.9625641451378 59.0265905204539,45.9609540390491 59.0225481016754,45.9623015119753</coordinates></LinearRing></outerBoundaryIs></Polygon></MultiGeometry>
  </Placemark>
</Folder>
</Document></kml>
