<?xml version="1.0" encoding="utf-8" ?>
<kml xmlns="http://www.opengis.net/kml/2.2">
<Document id="root_doc">
<Schema name="task_grid_v6_45.68_61.58" id="task_grid_v6_45.68_61.58">
	<SimpleField name="area_ha" type="float"></SimpleField>
	<SimpleField name="low_risk_ha" type="float"></SimpleField>
	<SimpleField name="moderate_risk_ha" type="float"></SimpleField>
	<SimpleField name="grid_cell_deg" type="string"></SimpleField>
</Schema>
<Folder><name>task_grid_v6_45.68_61.58</name>
  <Placemark id="task_grid_v6_45.68_61.58.1">
	<name>task_grid_v6_45.68_61.58</name>
	<name>446</name>
	<description>446</description>
	<Style><LineStyle><color>ff0000ff</color></LineStyle><PolyStyle><fill>0</fill></PolyStyle></Style>
	<ExtendedData><SchemaData schemaUrl="#task_grid_v6_45.68_61.58">
		<SimpleData name="area_ha">0</SimpleData>
		<SimpleData name="low_risk_ha">0.1</SimpleData>
	</SchemaData></ExtendedData>
      <MultiGeometry><Polygon><outerBoundaryIs><LinearRing><coordinates>61.5504073111877,45.7062816560013 61.5531022570401,45.711671547706 61.5625345675233,45.7184089123369 61.5652295133757,45.7157139664845 61.5679244592281,45.7237988040416 61.5733143509328,45.7237988040416 61.574661823859,45.7224513311154 61.5692719321542,45.7170614394107 61.5733143509328,45.7130190206322 61.5787042426375,45.7157139664845 61.5800517155637,45.711671547706 61.574661823859,45.7062816560013 61.574661823859,45.7008917642965 61.5706194050804,45.6995442913704 61.5679244592281,45.7022392372227 61.5625345675233,45.6941543996656 61.559839621671,45.696849345518 61.5544497299663,45.696849345518 61.5504073111877,45.7062816560013</coordinates></LinearRing></outerBoundaryIs><innerBoundaryIs><LinearRing><coordinates>61.5638820404495,45.711671547706 61.5679244592281,45.7076291289274 61.5719668780066,45.7089766018536 61.5652295133757,45.7130190206322 61.5638820404495,45.711671547706</coordinates></LinearRing></innerBoundaryIs><innerBoundaryIs><LinearRing><coordinates>61.5611870945972,45.7062816560013 61.559839621671,45.7076291289274 61.5584921487448,45.7062816560013 61.5611870945972,45.7062816560013</coordinates></LinearRing></innerBoundaryIs></Polygon><Polygon><outerBoundaryIs><LinearRing><coordinates>61.6056537011611,45.7049341830751 61.6043062282349,45.711671547706 61.6083486470134,45.7130190206322 61.6096961199396,45.7089766018536 61.6056537011611,45.7049341830751</coordinates></LinearRing></outerBoundaryIs></Polygon><Polygon><outerBoundaryIs><LinearRing><coordinates>61.6058775305366,45.7343547580755 61.6096961199396,45.7305361686725 61.6083486470134,45.7264937498939 61.6029587553087,45.7264937498939 61.5989163365302,45.7305361686725 61.6052806522019,45.7343547580755 61.6058775305366,45.7343547580755</coordinates></LinearRing></outerBoundaryIs></Polygon></MultiGeometry>
  </Placemark>
</Folder>
</Document></kml>
