<?xml version="1.0" encoding="utf-8" ?>
<kml xmlns="http://www.opengis.net/kml/2.2">
<Document id="root_doc">
<Schema name="task_grid_v6_44.78_61.28" id="task_grid_v6_44.78_61.28">
	<SimpleField name="area_ha" type="float"></SimpleField>
	<SimpleField name="low_risk_ha" type="float"></SimpleField>
	<SimpleField name="moderate_risk_ha" type="float"></SimpleField>
	<SimpleField name="grid_cell_deg" type="string"></SimpleField>
</Schema>
<Folder><name>task_grid_v6_44.78_61.28</name>
  <Placemark id="task_grid_v6_44.78_61.28.1">
	<name>task_grid_v6_44.78_61.28</name>
	<name>0</name>
	<description>58.4</description>
	<Style><LineStyle><color>ff0000ff</color></LineStyle><PolyStyle><fill>0</fill></PolyStyle></Style>
	<ExtendedData><SchemaData schemaUrl="#task_grid_v6_44.78_61.28">
		<SimpleData name="area_ha">58.4</SimpleData>
		<SimpleData name="low_risk_ha">0.1</SimpleData>
	</SchemaData></ExtendedData>
      <MultiGeometry><Polygon><outerBoundaryIs><LinearRing><coordinates>61.2377935923141,44.8196444705753 61.2263910613787,44.8186078768539 61.2263910613787,44.8236868893538 61.2337511735356,44.8236868893538 61.2377935923141,44.8196444705753</coordinates></LinearRing></outerBoundaryIs></Polygon><Polygon><outerBoundaryIs><LinearRing><coordinates>61.2701329425424,44.82503436228 61.2714804154686,44.8317717269109 61.2755228342472,44.82503436228 61.2701329425424,44.82503436228</coordinates></LinearRing></outerBoundaryIs></Polygon><Polygon><outerBoundaryIs><LinearRing><coordinates>61.3154605594946,44.8343547580755 61.3145995491064,44.8317717269109 61.3120165179418,44.8343547580755 61.3154605594946,44.8343547580755</coordinates></LinearRing></outerBoundaryIs></Polygon></MultiGeometry>
  </Placemark>
</Folder>
</Document></kml>
