<?xml version="1.0" encoding="utf-8" ?>
<kml xmlns="http://www.opengis.net/kml/2.2">
<Document id="root_doc">
<Schema name="task_grid_v6_44.98_60.78" id="task_grid_v6_44.98_60.78">
	<SimpleField name="area_ha" type="float"></SimpleField>
	<SimpleField name="low_risk_ha" type="float"></SimpleField>
	<SimpleField name="moderate_risk_ha" type="float"></SimpleField>
	<SimpleField name="grid_cell_deg" type="string"></SimpleField>
</Schema>
<Folder><name>task_grid_v6_44.98_60.78</name>
  <Placemark id="task_grid_v6_44.98_60.78.1">
	<name>task_grid_v6_44.98_60.78</name>
	<name>0</name>
	<description>995.3</description>
	<Style><LineStyle><color>ff0000ff</color></LineStyle><PolyStyle><fill>0</fill></PolyStyle></Style>
	<ExtendedData><SchemaData schemaUrl="#task_grid_v6_44.98_60.78">
		<SimpleData name="area_ha">995.3</SimpleData>
		<SimpleData name="low_risk_ha">0.1</SimpleData>
	</SchemaData></ExtendedData>
      <MultiGeometry><Polygon><outerBoundaryIs><LinearRing><coordinates>60.7627096562983,44.9343547580755 60.7563118217626,44.9343547580755 60.7594407035205,44.9395695610052 60.763483122299,44.9382220880791 60.7627096562983,44.9343547580755</coordinates></LinearRing></outerBoundaryIs></Polygon><Polygon><outerBoundaryIs><LinearRing><coordinates>60.7500083930372,44.9490018714885 60.740576082554,44.9476543985623 60.7392286096278,44.9516968173409 60.7459659742587,44.9557392361194 60.7500083930372,44.9490018714885</coordinates></LinearRing></outerBoundaryIs></Polygon><Polygon><outerBoundaryIs><LinearRing><coordinates>60.7567457576681,44.9692139653812 60.7500083930372,44.9732563841597 60.7621356493729,44.9772988029383 60.763483122299,44.9732563841597 60.7567457576681,44.9692139653812</coordinates></LinearRing></outerBoundaryIs></Polygon><Polygon><outerBoundaryIs><LinearRing><coordinates>60.7351861908493,44.9880785863477 60.7338387179231,44.9894260592739 60.7378811367016,44.9934684780524 60.7419235554802,44.9894260592739 60.7351861908493,44.9880785863477</coordinates></LinearRing></outerBoundaryIs></Polygon><Polygon><outerBoundaryIs><LinearRing><coordinates>60.7836952161917,44.9772988029383 60.7810002703394,44.9799937487906 60.778305324487,44.9772988029383 60.7769578515608,44.9786462758644 60.778305324487,44.982688694643 60.7877376349703,44.9867311134215 60.7823477432655,44.9921210051262 60.7823477432655,45.0002058426833 60.7890851078964,45.0042482614619 60.7917800537488,44.9988583697571 60.7944749996011,45.0015533156095 60.8025598371582,45.0015533156095 60.8092972017891,45.005595734388 60.8039073100844,45.0082906802404 60.8052547830106,45.0096381531666 60.8133396205677,45.0096381531666 60.8133396205677,45.0042482614619 60.81603456642,45.0069432073142 60.8187295122724,45.0042482614619 60.8241194039771,45.0069432073142 60.8263910613787,45.0046715499126 60.8263910613787,44.9938917665032 60.8241194039771,44.9961634239048 60.8187295122724,44.9961634239048 60.8187295122724,44.9934684780524 60.8227719310509,44.9921210051262 60.8200769851986,44.9867311134215 60.8263910613787,44.9825217293014 60.8263910613787,44.9809870694414 60.8079497288629,44.9772988029383 60.8079497288629,44.982688694643 60.7971699454535,44.982688694643 60.7944749996011,44.9799937487906 60.7863901620441,44.9799937487906 60.7836952161917,44.9772988029383</coordinates></LinearRing></outerBoundaryIs><innerBoundaryIs><LinearRing><coordinates>60.8119921476415,45.0002058426833 60.8092972017891,45.0002058426833 60.8106446747153,44.9988583697571 60.8119921476415,45.0002058426833</coordinates></LinearRing></innerBoundaryIs><innerBoundaryIs><LinearRing><coordinates>60.8025598371582,44.9988583697571 60.8025598371582,44.9961634239048 60.8039073100844,44.997510896831 60.8025598371582,44.9988583697571</coordinates></LinearRing></innerBoundaryIs><innerBoundaryIs><LinearRing><coordinates>60.8066022559368,44.9867311134215 60.8092972017891,44.9867311134215 60.8079497288629,44.9880785863477 60.8066022559368,44.9867311134215</coordinates></LinearRing></innerBoundaryIs></Polygon></MultiGeometry>
  </Placemark>
</Folder>
</Document></kml>
