<?xml version="1.0" encoding="utf-8" ?>
<kml xmlns="http://www.opengis.net/kml/2.2">
<Document id="root_doc">
<Schema name="task_grid_v6_46.18_60.78" id="task_grid_v6_46.18_60.78">
	<SimpleField name="area_ha" type="float"></SimpleField>
	<SimpleField name="low_risk_ha" type="float"></SimpleField>
	<SimpleField name="moderate_risk_ha" type="float"></SimpleField>
	<SimpleField name="grid_cell_deg" type="string"></SimpleField>
</Schema>
<Folder><name>task_grid_v6_46.18_60.78</name>
  <Placemark id="task_grid_v6_46.18_60.78.1">
	<name>task_grid_v6_46.18_60.78</name>
	<name>148.6</name>
	<description>498</description>
	<Style><LineStyle><color>ff0000ff</color></LineStyle><PolyStyle><fill>0</fill></PolyStyle></Style>
	<ExtendedData><SchemaData schemaUrl="#task_grid_v6_46.18_60.78">
		<SimpleData name="area_ha">349.4</SimpleData>
		<SimpleData name="low_risk_ha">0.1</SimpleData>
	</SchemaData></ExtendedData>
      <MultiGeometry><Polygon><outerBoundaryIs><LinearRing><coordinates>60.7263910613787,46.1343547580755 60.7263910613787,46.1366216829372 60.7270084241249,46.1367760236237 60.7263910613787,46.1410975628469 60.7263910613787,46.1456157554823 60.740576082554,46.1469053028619 60.7459659742587,46.1496002487142 60.7473134471849,46.1482527757881 60.7419235554802,46.1374729923786 60.7390361134955,46.1365105117171 60.7419235554802,46.1347780465263 60.7415002670294,46.1343547580755 60.7263910613787,46.1343547580755</coordinates></LinearRing></outerBoundaryIs><innerBoundaryIs><LinearRing><coordinates>60.7324912449969,46.1388204653048 60.7297962991445,46.1374729923786 60.733389560281,46.1383713076627 60.7324912449969,46.1388204653048</coordinates></LinearRing></innerBoundaryIs><innerBoundaryIs><LinearRing><coordinates>60.7311437720707,46.1428628840833 60.7338387179231,46.1428628840833 60.7324912449969,46.1442103570095 60.7311437720707,46.1428628840833</coordinates></LinearRing></innerBoundaryIs></Polygon><Polygon><outerBoundaryIs><LinearRing><coordinates>60.7473134471849,46.140167938231 60.7513558659634,46.1442103570095 60.7527033388896,46.1428628840833 60.7513558659634,46.1388204653048 60.7473134471849,46.140167938231</coordinates></LinearRing></outerBoundaryIs></Polygon><Polygon><outerBoundaryIs><LinearRing><coordinates>60.7473134471849,46.1509477216404 60.740576082554,46.1469053028619 60.7338387179231,46.1482527757881 60.7392286096278,46.1509477216404 60.740576082554,46.1576850862713 60.7432710284063,46.1522951945666 60.7473134471849,46.1509477216404</coordinates></LinearRing></outerBoundaryIs></Polygon><Polygon><outerBoundaryIs><LinearRing><coordinates>60.7607881764467,46.1536426674928 60.7621356493729,46.1576850862713 60.7661780681514,46.1563376133451 60.7648305952252,46.1522951945666 60.7607881764467,46.1536426674928</coordinates></LinearRing></outerBoundaryIs></Polygon><Polygon><outerBoundaryIs><LinearRing><coordinates>60.8012123642321,46.1671173967546 60.8052547830106,46.1711598155331 60.8066022559368,46.1698123426069 60.8052547830106,46.1657699238284 60.8012123642321,46.1671173967546</coordinates></LinearRing></outerBoundaryIs></Polygon><Polygon><outerBoundaryIs><LinearRing><coordinates>60.8106446747153,46.1954143282043 60.8146870934938,46.1913719094258 60.8146870934938,46.1832870718687 60.8173820393462,46.1805921260164 60.81603456642,46.1765497072378 60.8133396205677,46.1792446530902 60.8106446747153,46.1738547613855 60.8066022559368,46.1752022343116 60.8066022559368,46.1859820177211 60.8092972017891,46.1886769635734 60.8066022559368,46.1913719094258 60.8106446747153,46.1954143282043</coordinates></LinearRing></outerBoundaryIs></Polygon><Polygon><outerBoundaryIs><LinearRing><coordinates>60.7756103786346,46.192719382352 60.7796527974132,46.1859820177211 60.7729154327823,46.1819395989425 60.7688730140037,46.1886769635734 60.7756103786346,46.192719382352</coordinates></LinearRing></outerBoundaryIs></Polygon><Polygon><outerBoundaryIs><LinearRing><coordinates>60.7958224725273,46.2021516928352 60.8012123642321,46.2102365303923 60.8052547830106,46.2115840033185 60.8066022559368,46.2048466386876 60.7998648913059,46.2008042199091 60.7958224725273,46.2021516928352</coordinates></LinearRing></outerBoundaryIs></Polygon></MultiGeometry>
  </Placemark>
</Folder>
</Document></kml>
