<?xml version="1.0" encoding="utf-8" ?>
<kml xmlns="http://www.opengis.net/kml/2.2">
<Document id="root_doc">
<Schema name="task_grid_v6_45.71_61.06" id="task_grid_v6_45.71_61.06">
	<SimpleField name="area_ha" type="float"></SimpleField>
	<SimpleField name="low_risk_ha" type="float"></SimpleField>
	<SimpleField name="moderate_risk_ha" type="float"></SimpleField>
	<SimpleField name="grid_cell_deg" type="string"></SimpleField>
</Schema>
<Folder><name>task_grid_v6_45.71_61.06</name>
  <Placemark id="task_grid_v6_45.71_61.06.1">
	<name>task_grid_v6_45.71_61.06</name>
	<name>42.6</name>
	<description>416</description>
	<Style><LineStyle><color>ff0000ff</color></LineStyle><PolyStyle><fill>0</fill></PolyStyle></Style>
	<ExtendedData><SchemaData schemaUrl="#task_grid_v6_45.71_61.06">
		<SimpleData name="area_ha">373.4</SimpleData>
		<SimpleData name="low_risk_ha">0.1</SimpleData>
	</SchemaData></ExtendedData>
      <MultiGeometry><Polygon><outerBoundaryIs><LinearRing><coordinates>61.0168080324207,45.673942305773 61.0235453970516,45.6779847245515 61.0248928699778,45.673942305773 61.0208504511993,45.6698998869944 61.0168080324207,45.673942305773</coordinates></LinearRing></outerBoundaryIs></Polygon><Polygon><outerBoundaryIs><LinearRing><coordinates>61.0397150721658,45.6725948328468 61.0343251804611,45.6725948328468 61.0302827616825,45.6793321974777 61.0316302346087,45.6806796704038 61.0397150721658,45.6752897786991 61.0397150721658,45.6725948328468</coordinates></LinearRing></outerBoundaryIs></Polygon><Polygon><outerBoundaryIs><LinearRing><coordinates>61.0572322202061,45.6793321974777 61.0585796931323,45.6833746162562 61.0626221119108,45.68202714333 61.0612746389846,45.6779847245515 61.0572322202061,45.6793321974777</coordinates></LinearRing></outerBoundaryIs></Polygon><Polygon><outerBoundaryIs><LinearRing><coordinates>61.0248928699778,45.6874170350347 61.0343251804611,45.6887645079609 61.0343251804611,45.6833746162562 61.0316302346087,45.6833746162562 61.0248928699778,45.6874170350347</coordinates></LinearRing></outerBoundaryIs></Polygon><Polygon><outerBoundaryIs><LinearRing><coordinates>61.0720544223941,45.7211038581892 61.0760968411726,45.719756385263 61.0747493682464,45.7157139664845 61.0707069494679,45.719756385263 61.0720544223941,45.7211038581892</coordinates></LinearRing></outerBoundaryIs></Polygon><Polygon><outerBoundaryIs><LinearRing><coordinates>61.0626221119108,45.7601805730484 61.0640522551644,45.7625641451378 61.0703955757049,45.7625641451378 61.0666645306894,45.7588331001222 61.0626221119108,45.7601805730484</coordinates></LinearRing></outerBoundaryIs></Polygon><Polygon><outerBoundaryIs><LinearRing><coordinates>61.0680120036156,45.6793321974777 61.0720544223941,45.6833746162562 61.078791787025,45.6766372516253 61.0747493682464,45.6752897786991 61.0680120036156,45.6793321974777</coordinates></LinearRing></outerBoundaryIs></Polygon><Polygon><outerBoundaryIs><LinearRing><coordinates>61.0963089350653,45.7211038581892 61.0976564079915,45.719756385263 61.0963089350653,45.7130190206322 61.0922665162868,45.7143664935583 61.0963089350653,45.7211038581892</coordinates></LinearRing></outerBoundaryIs></Polygon><Polygon><outerBoundaryIs><LinearRing><coordinates>61.1003513538438,45.7467058437866 61.0963089350653,45.7426634250081 61.0895715704344,45.7440108979343 61.0949614621391,45.7467058437866 61.0922665162868,45.749400789639 61.093613989213,45.7507482625652 61.1003513538438,45.7467058437866</coordinates></LinearRing></outerBoundaryIs></Polygon><Polygon><outerBoundaryIs><LinearRing><coordinates>61.0909190433606,45.7507482625652 61.0895715704344,45.749400789639 61.0922665162868,45.7467058437866 61.0895715704344,45.7440108979343 61.0882240975082,45.7426634250081 61.0841816787297,45.7467058437866 61.0868766245821,45.7520957354914 61.0841816787297,45.7547906813437 61.0855291516559,45.7615280459746 61.0909190433606,45.7561381542699 61.1043937726224,45.7507482625652 61.1043937726224,45.7453583708605 61.1070887184747,45.7480533167128 61.1084361914009,45.7467058437866 61.1070887184747,45.7372735333034 61.1043937726224,45.7372735333034 61.0976564079915,45.7440108979343 61.1003513538438,45.7467058437866 61.0963089350653,45.7507482625652 61.093613989213,45.7507482625652 61.0909190433606,45.7507482625652</coordinates></LinearRing></outerBoundaryIs></Polygon><Polygon><outerBoundaryIs><LinearRing><coordinates>61.0898829441974,45.7625641451378 61.0958526162223,45.7625641451378 61.093613989213,45.7588331001222 61.0898829441974,45.7625641451378</coordinates></LinearRing></outerBoundaryIs></Polygon></MultiGeometry>
  </Placemark>
</Folder>
</Document></kml>
