<?xml version="1.0" encoding="utf-8" ?>
<kml xmlns="http://www.opengis.net/kml/2.2">
<Document id="root_doc">
<Schema name="task_grid_v6_45.01_60.66" id="task_grid_v6_45.01_60.66">
	<SimpleField name="area_ha" type="float"></SimpleField>
	<SimpleField name="low_risk_ha" type="float"></SimpleField>
	<SimpleField name="moderate_risk_ha" type="float"></SimpleField>
	<SimpleField name="grid_cell_deg" type="string"></SimpleField>
</Schema>
<Folder><name>task_grid_v6_45.01_60.66</name>
  <Placemark id="task_grid_v6_45.01_60.66.1">
	<name>task_grid_v6_45.01_60.66</name>
	<name>0</name>
	<description>41.4</description>
	<Style><LineStyle><color>ff0000ff</color></LineStyle><PolyStyle><fill>0</fill></PolyStyle></Style>
	<ExtendedData><SchemaData schemaUrl="#task_grid_v6_45.01_60.66">
		<SimpleData name="area_ha">41.4</SimpleData>
		<SimpleData name="low_risk_ha">0.1</SimpleData>
	</SchemaData></ExtendedData>
      <Polygon><outerBoundaryIs><LinearRing><coordinates>60.6758973820974,44.9772988029383 60.6812872738021,44.9772988029383 60.6839822196545,44.9799937487906 60.688024638433,44.9759513300121 60.6785923279497,44.9746038570859 60.6758973820974,44.9719089112335 60.6718549633188,44.9732563841597 60.6758973820974,44.9772988029383</coordinates></LinearRing></outerBoundaryIs></Polygon>
  </Placemark>
</Folder>
</Document></kml>
