<?xml version="1.0" encoding="utf-8" ?>
<kml xmlns="http://www.opengis.net/kml/2.2">
<Document id="root_doc">
<Schema name="task_grid_v6_45.48_59.28" id="task_grid_v6_45.48_59.28">
	<SimpleField name="area_ha" type="float"></SimpleField>
	<SimpleField name="low_risk_ha" type="float"></SimpleField>
	<SimpleField name="moderate_risk_ha" type="float"></SimpleField>
	<SimpleField name="grid_cell_deg" type="string"></SimpleField>
</Schema>
<Folder><name>task_grid_v6_45.48_59.28</name>
  <Placemark id="task_grid_v6_45.48_59.28.1">
	<name>task_grid_v6_45.48_59.28</name>
	<name>64.7</name>
	<description>2351.9</description>
	<Style><LineStyle><color>ff0000ff</color></LineStyle><PolyStyle><fill>0</fill></PolyStyle></Style>
	<ExtendedData><SchemaData schemaUrl="#task_grid_v6_45.48_59.28">
		<SimpleData name="area_ha">2287.2</SimpleData>
		<SimpleData name="low_risk_ha">0.1</SimpleData>
	</SchemaData></ExtendedData>
      <MultiGeometry><Polygon><outerBoundaryIs><LinearRing><coordinates>59.244881134495,45.4408294895439 59.2529659720521,45.4462193812487 59.2556609179044,45.4516092729534 59.2570083908306,45.4394820166178 59.2518811322883,45.4343547580755 59.2486609201111,45.4343547580755 59.244881134495,45.4381345436916 59.244881134495,45.4343547580755 59.2400508162291,45.4343547580755 59.2327538781594,45.4367870707654 59.2367962969379,45.4408294895439 59.244881134495,45.4408294895439</coordinates></LinearRing></outerBoundaryIs></Polygon><Polygon><outerBoundaryIs><LinearRing><coordinates>59.2263910613787,45.4541169448806 59.2263910613787,45.4577726306588 59.2287114593808,45.4569991646581 59.2341013510855,45.4596941105104 59.2381437698641,45.4556516917319 59.2314064052332,45.4516092729534 59.2263910613787,45.4541169448806</coordinates></LinearRing></outerBoundaryIs></Polygon><Polygon><outerBoundaryIs><LinearRing><coordinates>59.2502710261997,45.4596941105104 59.259703336683,45.4556516917319 59.2529659720521,45.4516092729534 59.2489235532735,45.4529567458796 59.2502710261997,45.4596941105104</coordinates></LinearRing></outerBoundaryIs></Polygon><Polygon><outerBoundaryIs><LinearRing><coordinates>59.2543134449782,45.4718213668461 59.2489235532735,45.4707433885051 59.2516184991259,45.4691264209937 59.2421861886426,45.4623890563628 59.2354488240117,45.463736529289 59.2381437698641,45.4691264209937 59.2367962969379,45.4731688397722 59.2314064052332,45.4731688397722 59.2287114593808,45.4758637856246 59.2273639864546,45.4745163126984 59.2287114593808,45.4704738939199 59.2327538781594,45.4691264209937 59.2327538781594,45.463736529289 59.2287114593808,45.4596941105104 59.2263910613787,45.4620145085126 59.2263910613787,45.4654585500654 59.2273639864546,45.4664314751413 59.2263910613787,45.4680530169346 59.2263910613787,45.4814784060394 59.2327538781594,45.4852960961079 59.2273639864546,45.4933809336649 59.2327538781594,45.4960758795173 59.2263910613787,45.4973484428734 59.2263910613787,45.501465771222 59.2273639864546,45.501465771222 59.2263910613787,45.502438696298 59.2263910613787,45.5055830995706 59.2327538781594,45.5068556629267 59.2287114593808,45.5108980817053 59.2263910613787,45.506257285701 59.2263910613787,45.517325492118 59.2287114593808,45.5189829192623 59.2367962969379,45.5135930275576 59.2502710261997,45.5135930275576 59.2516184991259,45.5122455546314 59.2462286074212,45.5068556629267 59.2529659720521,45.5028132441482 59.2556609179044,45.5082031358529 59.2610508096091,45.5082031358529 59.2637457554615,45.5108980817053 59.2637457554615,45.4920334607388 59.2664407013138,45.4920334607388 59.2704831200924,45.4987708253696 59.26778817424,45.501465771222 59.2664407013138,45.5135930275576 59.2718305930186,45.5135930275576 59.2718305930186,45.5082031358529 59.2772204847233,45.5082031358529 59.2812629035018,45.5041607170744 59.2812629035018,45.4987708253696 59.2758730117971,45.4906859878126 59.2839578493542,45.4745163126984 59.282610376428,45.4677789480675 59.2772204847233,45.4704738939199 59.2758730117971,45.4691264209937 59.2812629035018,45.4583466375843 59.2799154305756,45.4569991646581 59.2745255388709,45.4583466375843 59.2745255388709,45.4569991646581 59.2691356471662,45.4569991646581 59.26778817424,45.4583466375843 59.2664407013138,45.4569991646581 59.259703336683,45.463736529289 59.2623982825353,45.4664314751413 59.2610508096091,45.4677789480675 59.2543134449782,45.4691264209937 59.2556609179044,45.4731688397722 59.2583558637568,45.4704738939199 59.2623982825353,45.4718213668461 59.2570083908306,45.4745163126984 59.2610508096091,45.4758637856246 59.2570083908306,45.4772112585508 59.2556609179044,45.4758637856246 59.2529659720521,45.4812536773293 59.2502710261997,45.4758637856246 59.2543134449782,45.4718213668461</coordinates></LinearRing></outerBoundaryIs><innerBoundaryIs><LinearRing><coordinates>59.2502710261997,45.4758637856246 59.244881134495,45.478558731477 59.2381437698641,45.4772112585508 59.2465654756527,45.4721582350776 59.2502710261997,45.4758637856246</coordinates></LinearRing></innerBoundaryIs><innerBoundaryIs><LinearRing><coordinates>59.26778817424,45.4583466375843 59.2715311545905,45.4590952336544 59.2691356471662,45.4596941105104 59.26778817424,45.4583466375843</coordinates></LinearRing></innerBoundaryIs><innerBoundaryIs><LinearRing><coordinates>59.2475760803473,45.4893385148864 59.2489235532735,45.4933809336649 59.2462286074212,45.4987708253696 59.2489235532735,45.501465771222 59.2475760803473,45.5028132441482 59.2421861886426,45.5001182982958 59.2394912427903,45.5028132441482 59.2381437698641,45.4960758795173 59.2394912427903,45.4947284065911 59.2421861886426,45.4974233524435 59.2475760803473,45.4893385148864</coordinates></LinearRing></innerBoundaryIs><innerBoundaryIs><LinearRing><coordinates>59.2583558637568,45.4839486231817 59.259703336683,45.4852960961079 59.2570083908306,45.4879910419602 59.259703336683,45.4906859878126 59.2583558637568,45.4920334607388 59.2556609179044,45.4893385148864 59.2529659720521,45.4920334607388 59.2516184991259,45.4906859878126 59.2583558637568,45.4839486231817</coordinates></LinearRing></innerBoundaryIs><innerBoundaryIs><LinearRing><coordinates>59.2516184991259,45.4987708253696 59.2529659720521,45.4974233524435 59.2556609179044,45.4974233524435 59.2556609179044,45.5001182982958 59.2516184991259,45.4987708253696</coordinates></LinearRing></innerBoundaryIs><innerBoundaryIs><LinearRing><coordinates>59.2354488240117,45.5068556629267 59.2367962969379,45.5055081900005 59.2381437698641,45.5068556629267 59.2354488240117,45.5068556629267</coordinates></LinearRing></innerBoundaryIs><innerBoundaryIs><LinearRing><coordinates>59.2408387157164,45.4906859878126 59.2421861886426,45.4893385148864 59.2435336615688,45.4906859878126 59.2408387157164,45.4906859878126</coordinates></LinearRing></innerBoundaryIs><innerBoundaryIs><LinearRing><coordinates>59.2367962969379,45.486643569034 59.2381437698641,45.4879910419602 59.2367962969379,45.4893385148864 59.2367962969379,45.486643569034</coordinates></LinearRing></innerBoundaryIs><innerBoundaryIs><LinearRing><coordinates>59.2758730117971,45.4852960961079 59.2745255388709,45.486643569034 59.2731780659447,45.4852960961079 59.2758730117971,45.4852960961079</coordinates></LinearRing></innerBoundaryIs><innerBoundaryIs><LinearRing><coordinates>59.2691356471662,45.4758637856246 59.26778817424,45.4745163126984 59.2691356471662,45.4731688397722 59.2691356471662,45.4758637856246</coordinates></LinearRing></innerBoundaryIs><innerBoundaryIs><LinearRing><coordinates>59.2650932283877,45.4691264209937 59.2664407013138,45.4677789480675 59.26778817424,45.4691264209937 59.2650932283877,45.4691264209937</coordinates></LinearRing></innerBoundaryIs><innerBoundaryIs><LinearRing><coordinates>59.2718305930186,45.4677789480675 59.2731780659447,45.4691264209937 59.2718305930186,45.4704738939199 59.2718305930186,45.4677789480675</coordinates></LinearRing></innerBoundaryIs><innerBoundaryIs><LinearRing><coordinates>59.2731780659447,45.463736529289 59.2718305930186,45.4650840022152 59.2704831200924,45.463736529289 59.2731780659447,45.463736529289</coordinates></LinearRing></innerBoundaryIs></Polygon><Polygon><outerBoundaryIs><LinearRing><coordinates>59.2263910613787,45.4834621606437 59.2263910613787,45.4889639670362 59.230058932307,45.4852960961079 59.2263910613787,45.4834621606437</coordinates></LinearRing></outerBoundaryIs></Polygon><Polygon><outerBoundaryIs><LinearRing><coordinates>59.244881134495,45.5216778651147 59.2435336615688,45.5257202838932 59.244881134495,45.5270677568194 59.2502710261997,45.5243728109671 59.2502710261997,45.5216778651147 59.244881134495,45.5216778651147</coordinates></LinearRing></outerBoundaryIs></Polygon><Polygon><outerBoundaryIs><LinearRing><coordinates>59.2263910613787,45.5254964545177 59.2263910613787,45.5296661334147 59.2273639864546,45.5284152297456 59.2263910613787,45.5254964545177</coordinates></LinearRing></outerBoundaryIs></Polygon><Polygon><outerBoundaryIs><LinearRing><coordinates>59.2516184991259,45.531110175598 59.2502710261997,45.5270677568194 59.2462286074212,45.5284152297456 59.2475760803473,45.5324576485241 59.2516184991259,45.531110175598</coordinates></LinearRing></outerBoundaryIs></Polygon><Polygon><outerBoundaryIs><LinearRing><coordinates>59.2421861886426,45.5270677568194 59.2394912427903,45.5297627026718 59.2367962969379,45.5270677568194 59.230058932307,45.531110175598 59.2408387157164,45.5338051214503 59.2410219279248,45.5343547580755 59.24704418948,45.5343547580755 59.2421861886426,45.5270677568194</coordinates></LinearRing></outerBoundaryIs></Polygon><Polygon><outerBoundaryIs><LinearRing><coordinates>59.3263910613787,45.4522708242663 59.3263910613787,45.4415188926286 59.3216870912872,45.4475668541748 59.3263910613787,45.4522708242663</coordinates></LinearRing></outerBoundaryIs></Polygon><Polygon><outerBoundaryIs><LinearRing><coordinates>59.2583558637568,45.5216778651147 59.259703336683,45.5176354463362 59.2556609179044,45.5135930275576 59.2543134449782,45.5176354463362 59.2583558637568,45.5216778651147</coordinates></LinearRing></outerBoundaryIs></Polygon><Polygon><outerBoundaryIs><LinearRing><coordinates>59.2799154305756,45.5243728109671 59.2839578493542,45.5230253380409 59.282610376428,45.5189829192623 59.2785679576495,45.5230253380409 59.2799154305756,45.5243728109671</coordinates></LinearRing></outerBoundaryIs></Polygon><Polygon><outerBoundaryIs><LinearRing><coordinates>59.2623982825353,45.5284152297456 59.2691356471662,45.5297627026718 59.2731780659447,45.5257202838932 59.2664407013138,45.5243728109671 59.2623982825353,45.5284152297456</coordinates></LinearRing></outerBoundaryIs></Polygon><Polygon><outerBoundaryIs><LinearRing><coordinates>59.2548630816034,45.5343547580755 59.2569906450727,45.5343547580755 59.2623982825353,45.531110175598 59.2583558637568,45.5270677568194 59.2543134449782,45.5338051214503 59.2548630816034,45.5343547580755</coordinates></LinearRing></outerBoundaryIs></Polygon><Polygon><outerBoundaryIs><LinearRing><coordinates>59.2832427462785,45.5343547580755 59.282610376428,45.5324576485241 59.2785679576495,45.5338051214503 59.2782931393369,45.5343547580755 59.2832427462785,45.5343547580755</coordinates></LinearRing></outerBoundaryIs></Polygon></MultiGeometry>
  </Placemark>
</Folder>
</Document></kml>
