<?xml version="1.0" encoding="utf-8" ?>
<kml xmlns="http://www.opengis.net/kml/2.2">
<Document id="root_doc">
<Schema name="task_grid_v6_45.71_60.06" id="task_grid_v6_45.71_60.06">
	<SimpleField name="area_ha" type="float"></SimpleField>
	<SimpleField name="low_risk_ha" type="float"></SimpleField>
	<SimpleField name="moderate_risk_ha" type="float"></SimpleField>
	<SimpleField name="grid_cell_deg" type="string"></SimpleField>
</Schema>
<Folder><name>task_grid_v6_45.71_60.06</name>
  <Placemark id="task_grid_v6_45.71_60.06.1">
	<name>task_grid_v6_45.71_60.06</name>
	<name>620.1</name>
	<description>983.3</description>
	<Style><LineStyle><color>ff0000ff</color></LineStyle><PolyStyle><fill>0</fill></PolyStyle></Style>
	<ExtendedData><SchemaData schemaUrl="#task_grid_v6_45.71_60.06">
		<SimpleData name="area_ha">363.1</SimpleData>
		<SimpleData name="low_risk_ha">0.1</SimpleData>
	</SchemaData></ExtendedData>
      <MultiGeometry><Polygon><outerBoundaryIs><LinearRing><coordinates>60.0780685605158,45.6685524140682 60.0803143487261,45.6698998869944 60.0964840238403,45.6698998869944 60.0991789696926,45.6672049411421 60.1045688613974,45.6672049411421 60.1005264426188,45.673942305773 60.1072638072497,45.6833746162562 60.1099587531021,45.6806796704038 60.1102213862645,45.6809423035663 60.1102213862645,45.6652332217988 60.1102213862645,45.6643786787085 60.1102213862645,45.6625641451378 60.1030706699965,45.6625641451378 60.0991789696926,45.6645099952897 60.0972331195407,45.6625641451378 60.0783684985742,45.6625641451378 60.0789668758,45.6631625223635 60.0735769840952,45.6658574682159 60.0758227723055,45.6672049411421 60.0533648902025,45.6672049411421 60.0506699443502,45.6645099952897 60.0385426880146,45.6658574682159 60.0479749984978,45.6698998869944 60.0560598360549,45.6698998869944 60.0587547819073,45.6725948328468 60.0789668758,45.6712473599206 60.0780685605158,45.6685524140682</coordinates></LinearRing></outerBoundaryIs><innerBoundaryIs><LinearRing><coordinates>60.1072638072497,45.6672049411421 60.109285016639,45.6658574682159 60.1072638072497,45.6698998869944 60.1045688613974,45.6672049411421 60.1072638072497,45.6672049411421</coordinates></LinearRing></innerBoundaryIs><innerBoundaryIs><LinearRing><coordinates>60.087051713357,45.6658574682159 60.0883991862832,45.6645099952897 60.0897466592094,45.6658574682159 60.087051713357,45.6658574682159</coordinates></LinearRing></innerBoundaryIs><innerBoundaryIs><LinearRing><coordinates>60.0937890779879,45.6645099952897 60.0951365509141,45.6658574682159 60.0937890779879,45.6672049411421 60.0937890779879,45.6645099952897</coordinates></LinearRing></innerBoundaryIs></Polygon><Polygon><outerBoundaryIs><LinearRing><coordinates>60.0102213862645,45.7146213659634 60.0102213862645,45.7176424092791 60.0142881753433,45.7170614394107 60.0102213862645,45.7146213659634</coordinates></LinearRing></outerBoundaryIs></Polygon><Polygon><outerBoundaryIs><LinearRing><coordinates>60.0452800526455,45.7157139664845 60.0439325797193,45.7170614394107 60.0479749984978,45.7211038581892 60.0533648902025,45.7211038581892 60.0533648902025,45.7157139664845 60.0452800526455,45.7157139664845</coordinates></LinearRing></outerBoundaryIs></Polygon><Polygon><outerBoundaryIs><LinearRing><coordinates>60.0560598360549,45.7237988040416 60.0601022548334,45.7224513311154 60.0587547819073,45.7184089123369 60.0547123631287,45.7224513311154 60.0560598360549,45.7237988040416</coordinates></LinearRing></outerBoundaryIs></Polygon><Polygon><outerBoundaryIs><LinearRing><coordinates>60.0358477421622,45.7251462769678 60.0291103775313,45.7237988040416 60.026415431679,45.7184089123369 60.0196780670481,45.719756385263 60.0250679587528,45.7224513311154 60.0223730129004,45.7251462769678 60.0318053233837,45.7264937498939 60.034500269236,45.7291886957463 60.0358477421622,45.7251462769678</coordinates></LinearRing></outerBoundaryIs></Polygon><Polygon><outerBoundaryIs><LinearRing><coordinates>60.0102213862645,45.7243231710319 60.0102213862645,45.7254206456131 60.011593229491,45.7251462769678 60.0102213862645,45.7243231710319</coordinates></LinearRing></outerBoundaryIs></Polygon><Polygon><outerBoundaryIs><LinearRing><coordinates>60.0466275255717,45.7278412228201 60.0533648902025,45.7291886957463 60.0533648902025,45.7264937498939 60.0479749984978,45.7264937498939 60.0466275255717,45.7278412228201</coordinates></LinearRing></outerBoundaryIs></Polygon><Polygon><outerBoundaryIs><LinearRing><coordinates>60.0533648902025,45.7318836415987 60.0479749984978,45.734578587451 60.0452800526455,45.7318836415987 60.0398901609408,45.7318836415987 60.0385426880146,45.7359260603772 60.0506699443502,45.7372735333034 60.0547123631287,45.7332311145248 60.0533648902025,45.7318836415987</coordinates></LinearRing></outerBoundaryIs></Polygon><Polygon><outerBoundaryIs><LinearRing><coordinates>60.0506699443502,45.7426634250081 60.0506699443502,45.7399684791557 60.0425851067931,45.7399684791557 60.0412376338669,45.7413159520819 60.0506699443502,45.7426634250081</coordinates></LinearRing></outerBoundaryIs></Polygon><Polygon><outerBoundaryIs><LinearRing><coordinates>60.0607006320592,45.6625641451378 60.0601022548334,45.6631625223635 60.0614497277596,45.6645099952897 60.0722295111691,45.6645099952897 60.0761212114729,45.6625641451378 60.0607006320592,45.6625641451378</coordinates></LinearRing></outerBoundaryIs></Polygon><Polygon><outerBoundaryIs><LinearRing><coordinates>60.0897466592094,45.6847220891824 60.0937890779879,45.6860695621086 60.0978314967665,45.68202714333 60.0937890779879,45.6806796704038 60.0897466592094,45.6847220891824</coordinates></LinearRing></outerBoundaryIs></Polygon><Polygon><outerBoundaryIs><LinearRing><coordinates>60.0910941321356,45.6860695621086 60.0897466592094,45.6874170350347 60.0964840238403,45.6887645079609 60.0964840238403,45.6860695621086 60.0937890779879,45.6860695621086 60.0910941321356,45.6860695621086</coordinates></LinearRing></outerBoundaryIs></Polygon><Polygon><outerBoundaryIs><LinearRing><coordinates>60.0816618216523,45.7062816560013 60.0830092945785,45.7076291289274 60.0857042404309,45.7049341830751 60.087051713357,45.7062816560013 60.0843567675047,45.7089766018536 60.0910941321356,45.7130190206322 60.0964840238403,45.7049341830751 60.101873915545,45.7022392372227 60.1045688613974,45.7049341830751 60.1102213862645,45.7049341830751 60.1102213862645,45.6940230830844 60.1099587531021,45.6941543996656 60.0964840238403,45.6941543996656 60.0937890779879,45.6914594538133 60.0816618216523,45.7035867101489 60.0816618216523,45.7062816560013</coordinates></LinearRing></outerBoundaryIs></Polygon><Polygon><outerBoundaryIs><LinearRing><coordinates>60.1072638072497,45.7237988040416 60.1059163343235,45.7278412228201 60.1099587531021,45.7291886957463 60.1102213862645,45.7289260625838 60.1102213862645,45.7243903198445 60.1072638072497,45.7237988040416</coordinates></LinearRing></outerBoundaryIs></Polygon><Polygon><outerBoundaryIs><LinearRing><coordinates>60.0937890779879,45.7264937498939 60.0924416050617,45.7278412228201 60.0964840238403,45.7318836415987 60.1045688613974,45.7318836415987 60.1059163343235,45.7305361686725 60.101873915545,45.7264937498939 60.0937890779879,45.7264937498939</coordinates></LinearRing></outerBoundaryIs></Polygon><Polygon><outerBoundaryIs><LinearRing><coordinates>60.0695345653167,45.7399684791557 60.0695345653167,45.7372735333034 60.064144673612,45.7372735333034 60.0627972006858,45.7386210062296 60.0695345653167,45.7399684791557</coordinates></LinearRing></outerBoundaryIs></Polygon></MultiGeometry>
  </Placemark>
</Folder>
</Document></kml>
