<?xml version="1.0" encoding="utf-8" ?>
<kml xmlns="http://www.opengis.net/kml/2.2">
<Document id="root_doc">
<Schema name="task_grid_v6_45.18_59.38" id="task_grid_v6_45.18_59.38">
	<SimpleField name="area_ha" type="float"></SimpleField>
	<SimpleField name="low_risk_ha" type="float"></SimpleField>
	<SimpleField name="moderate_risk_ha" type="float"></SimpleField>
	<SimpleField name="grid_cell_deg" type="string"></SimpleField>
</Schema>
<Folder><name>task_grid_v6_45.18_59.38</name>
  <Placemark id="task_grid_v6_45.18_59.38.1">
	<name>task_grid_v6_45.18_59.38</name>
	<name>355.9</name>
	<description>599.8</description>
	<Style><LineStyle><color>ff0000ff</color></LineStyle><PolyStyle><fill>0</fill></PolyStyle></Style>
	<ExtendedData><SchemaData schemaUrl="#task_grid_v6_45.18_59.38">
		<SimpleData name="area_ha">243.8</SimpleData>
		<SimpleData name="low_risk_ha">0.1</SimpleData>
	</SchemaData></ExtendedData>
      <MultiGeometry><Polygon><outerBoundaryIs><LinearRing><coordinates>59.410620304415,45.2050217274626 59.4133152502674,45.2023267816102 59.410620304415,45.1996318357578 59.410620304415,45.1888520523484 59.4104709938906,45.188702741824 59.4066953499351,45.1903169895732 59.4079253585627,45.1915469982008 59.4052304127103,45.1942419440531 59.4065778856365,45.2144540379458 59.410620304415,45.2104116191673 59.410620304415,45.2050217274626</coordinates></LinearRing></outerBoundaryIs></Polygon><Polygon><outerBoundaryIs><LinearRing><coordinates>59.3755860083344,45.2036175510799 59.371616796965,45.2053145570991 59.372891062482,45.2104116191673 59.3769334812606,45.2117590920935 59.3782809541867,45.2077166733149 59.3755860083344,45.2050217274626 59.3755860083344,45.2036175510799</coordinates></LinearRing></outerBoundaryIs></Polygon><Polygon><outerBoundaryIs><LinearRing><coordinates>59.3513314956631,45.2184964567244 59.3553739144417,45.2225388755029 59.3594163332202,45.2184964567244 59.358068860294,45.2144540379458 59.3513314956631,45.2184964567244</coordinates></LinearRing></outerBoundaryIs></Polygon><Polygon><outerBoundaryIs><LinearRing><coordinates>59.402535466858,45.2184964567244 59.406038896466,45.2219998863324 59.4052304127103,45.2238863484291 59.4104646175335,45.2343547580755 59.4156988223567,45.2343547580755 59.410620304415,45.2292762401338 59.410620304415,45.2265812942814 59.4160101961197,45.2238863484291 59.4092728314888,45.2144540379458 59.4072516220996,45.2191701931874 59.4065778856365,45.2171489837982 59.402535466858,45.2184964567244</coordinates></LinearRing></outerBoundaryIs></Polygon><Polygon><outerBoundaryIs><LinearRing><coordinates>59.3974569489162,45.2343547580755 59.402535466858,45.2292762401338 59.3998405210056,45.2265812942814 59.3984930480794,45.2171489837982 59.3944506293009,45.2238863484291 59.3971455751532,45.2292762401338 59.3944506293009,45.2319711859861 59.3944506293009,45.2343547580755 59.3974569489162,45.2343547580755</coordinates></LinearRing></outerBoundaryIs></Polygon><Polygon><outerBoundaryIs><LinearRing><coordinates>59.372891062482,45.2343547580755 59.372891062482,45.2238863484291 59.3688486437035,45.2225388755029 59.3661536978511,45.2279287672076 59.3553739144417,45.2252338213553 59.3526789685893,45.23062371306 59.349984022737,45.2198439296505 59.3418991851799,45.2198439296505 59.3405517122537,45.2292762401338 59.3432466581061,45.2319711859861 59.3384795139274,45.2343547580755 59.372891062482,45.2343547580755</coordinates></LinearRing></outerBoundaryIs></Polygon><Polygon><outerBoundaryIs><LinearRing><coordinates>59.3823233729653,45.23062371306 59.3815771639622,45.2343547580755 59.3845619999746,45.2343547580755 59.3823233729653,45.23062371306</coordinates></LinearRing></outerBoundaryIs></Polygon></MultiGeometry>
  </Placemark>
</Folder>
</Document></kml>
