<?xml version="1.0" encoding="utf-8" ?>
<kml xmlns="http://www.opengis.net/kml/2.2">
<Document id="root_doc">
<Schema name="task_grid_v6_45.01_60.86" id="task_grid_v6_45.01_60.86">
	<SimpleField name="area_ha" type="float"></SimpleField>
	<SimpleField name="low_risk_ha" type="float"></SimpleField>
	<SimpleField name="moderate_risk_ha" type="float"></SimpleField>
	<SimpleField name="grid_cell_deg" type="string"></SimpleField>
</Schema>
<Folder><name>task_grid_v6_45.01_60.86</name>
  <Placemark id="task_grid_v6_45.01_60.86.1">
	<name>task_grid_v6_45.01_60.86</name>
	<name>0</name>
	<description>481.5</description>
	<Style><LineStyle><color>ff0000ff</color></LineStyle><PolyStyle><fill>0</fill></PolyStyle></Style>
	<ExtendedData><SchemaData schemaUrl="#task_grid_v6_45.01_60.86">
		<SimpleData name="area_ha">481.5</SimpleData>
		<SimpleData name="low_risk_ha">0.1</SimpleData>
	</SchemaData></ExtendedData>
      <MultiGeometry><Polygon><outerBoundaryIs><LinearRing><coordinates>60.8146870934938,45.0082906802404 60.8119921476415,45.005595734388 60.8133396205677,45.0042482614619 60.81603456642,45.0069432073142 60.8187295122724,45.0042482614619 60.8241194039771,45.0069432073142 60.8268143498295,45.0042482614619 60.8322042415342,45.0042482614619 60.8375941332389,44.9988583697571 60.8402890790912,45.0015533156095 60.8470264437221,45.0002058426833 60.8429840249436,44.9934684780524 60.8402890790912,44.9961634239048 60.8295092956818,44.9961634239048 60.8268143498295,44.9934684780524 60.8241194039771,44.9961634239048 60.8187295122724,44.9961634239048 60.8187295122724,44.9934684780524 60.8227719310509,44.9921210051262 60.8200769851986,44.9867311134215 60.8281618227556,44.9813412217168 60.8102213862645,44.9777531344186 60.8102213862645,44.9992816582079 60.8106446747153,44.9988583697571 60.8119921476415,45.0002058426833 60.8102213862645,45.0002058426833 60.8102213862645,45.0120791259485 60.8106446747153,45.0123330990189 60.8146870934938,45.0082906802404</coordinates></LinearRing></outerBoundaryIs></Polygon><Polygon><outerBoundaryIs><LinearRing><coordinates>60.8968829419908,45.0042482614619 60.8914930502861,45.0042482614619 60.8874506315075,45.0082906802404 60.8968829419908,45.0096381531666 60.8968829419908,45.0042482614619</coordinates></LinearRing></outerBoundaryIs></Polygon><Polygon><outerBoundaryIs><LinearRing><coordinates>60.9049677795479,45.0096381531666 60.8995778878431,45.0096381531666 60.898230414917,45.0109856260927 60.9049677795479,45.0123330990189 60.9049677795479,45.0096381531666</coordinates></LinearRing></outerBoundaryIs></Polygon></MultiGeometry>
  </Placemark>
</Folder>
</Document></kml>
