<?xml version="1.0" encoding="utf-8" ?>
<kml xmlns="http://www.opengis.net/kml/2.2">
<Document id="root_doc">
<Schema name="task_grid_v6_45.38_61.58" id="task_grid_v6_45.38_61.58">
	<SimpleField name="area_ha" type="float"></SimpleField>
	<SimpleField name="low_risk_ha" type="float"></SimpleField>
	<SimpleField name="moderate_risk_ha" type="float"></SimpleField>
	<SimpleField name="grid_cell_deg" type="string"></SimpleField>
</Schema>
<Folder><name>task_grid_v6_45.38_61.58</name>
  <Placemark id="task_grid_v6_45.38_61.58.1">
	<name>task_grid_v6_45.38_61.58</name>
	<name>0</name>
	<description>44.2</description>
	<Style><LineStyle><color>ff0000ff</color></LineStyle><PolyStyle><fill>0</fill></PolyStyle></Style>
	<ExtendedData><SchemaData schemaUrl="#task_grid_v6_45.38_61.58">
		<SimpleData name="area_ha">44.2</SimpleData>
		<SimpleData name="low_risk_ha">0.1</SimpleData>
	</SchemaData></ExtendedData>
      <MultiGeometry><Polygon><outerBoundaryIs><LinearRing><coordinates>61.5504073111877,45.4152275039465 61.5463648924092,45.4084901393156 61.545017419483,45.4098376122418 61.5463648924092,45.4192699227251 61.5504073111877,45.4152275039465</coordinates></LinearRing></outerBoundaryIs></Polygon><Polygon><outerBoundaryIs><LinearRing><coordinates>61.5396275277783,45.4313971790607 61.5382800548521,45.4246598144298 61.5342376360736,45.426007287356 61.5382800548521,45.4327446519869 61.5396275277783,45.4313971790607</coordinates></LinearRing></outerBoundaryIs></Polygon></MultiGeometry>
  </Placemark>
</Folder>
</Document></kml>
