<?xml version="1.0" encoding="utf-8" ?>
<kml xmlns="http://www.opengis.net/kml/2.2">
<Document id="root_doc">
<Schema name="task_grid_v6_45.98_59.28" id="task_grid_v6_45.98_59.28">
	<SimpleField name="area_ha" type="float"></SimpleField>
	<SimpleField name="low_risk_ha" type="float"></SimpleField>
	<SimpleField name="moderate_risk_ha" type="float"></SimpleField>
	<SimpleField name="grid_cell_deg" type="string"></SimpleField>
</Schema>
<Folder><name>task_grid_v6_45.98_59.28</name>
  <Placemark id="task_grid_v6_45.98_59.28.1">
	<name>task_grid_v6_45.98_59.28</name>
	<name>93.2</name>
	<description>93.2</description>
	<Style><LineStyle><color>ff0000ff</color></LineStyle><PolyStyle><fill>0</fill></PolyStyle></Style>
	<ExtendedData><SchemaData schemaUrl="#task_grid_v6_45.98_59.28">
		<SimpleData name="area_ha">0</SimpleData>
		<SimpleData name="low_risk_ha">0.1</SimpleData>
	</SchemaData></ExtendedData>
      <MultiGeometry><Polygon><outerBoundaryIs><LinearRing><coordinates>59.2287114593808,46.0013782268345 59.2263910613787,46.0002180278335 59.2263910613787,46.0086895983909 59.2287114593808,46.0094630643916 59.230058932307,46.0081155914654 59.2273639864546,46.0054206456131 59.2287114593808,46.0040731726869 59.2314064052332,46.0067681185392 59.2354488240117,46.0027256997607 59.2314064052332,45.9932933892774 59.2273639864546,45.9946408622036 59.230058932307,45.997335808056 59.2287114593808,46.0013782268345</coordinates></LinearRing></outerBoundaryIs></Polygon><Polygon><outerBoundaryIs><LinearRing><coordinates>59.2772204847233,46.0175479019487 59.2731780659447,46.0188953748749 59.2772204847233,46.0229377936534 59.2785679576495,46.0215903207272 59.2772204847233,46.0175479019487</coordinates></LinearRing></outerBoundaryIs></Polygon><Polygon><outerBoundaryIs><LinearRing><coordinates>59.2718305930186,46.020242847801 59.26778817424,46.0215903207272 59.2745255388709,46.0256327395057 59.2758730117971,46.0242852665796 59.2718305930186,46.020242847801</coordinates></LinearRing></outerBoundaryIs></Polygon></MultiGeometry>
  </Placemark>
</Folder>
</Document></kml>
