<?xml version="1.0" encoding="utf-8" ?>
<kml xmlns="http://www.opengis.net/kml/2.2">
<Document id="root_doc">
<Schema name="task_grid_v6_45.28_59.28" id="task_grid_v6_45.28_59.28">
	<SimpleField name="area_ha" type="float"></SimpleField>
	<SimpleField name="low_risk_ha" type="float"></SimpleField>
	<SimpleField name="moderate_risk_ha" type="float"></SimpleField>
	<SimpleField name="grid_cell_deg" type="string"></SimpleField>
</Schema>
<Folder><name>task_grid_v6_45.28_59.28</name>
  <Placemark id="task_grid_v6_45.28_59.28.1">
	<name>task_grid_v6_45.28_59.28</name>
	<name>374.2</name>
	<description>985.7</description>
	<Style><LineStyle><color>ff0000ff</color></LineStyle><PolyStyle><fill>0</fill></PolyStyle></Style>
	<ExtendedData><SchemaData schemaUrl="#task_grid_v6_45.28_59.28">
		<SimpleData name="area_ha">611.5</SimpleData>
		<SimpleData name="low_risk_ha">0.1</SimpleData>
	</SchemaData></ExtendedData>
      <MultiGeometry><Polygon><outerBoundaryIs><LinearRing><coordinates>59.2327538781594,45.2777852654762 59.2367962969379,45.2845226301071 59.2394912427903,45.2845226301071 59.2408387157164,45.283175157181 59.2367962969379,45.2737428466977 59.2327538781594,45.2777852654762</coordinates></LinearRing></outerBoundaryIs></Polygon><Polygon><outerBoundaryIs><LinearRing><coordinates>59.2502710261997,45.2979973593689 59.2516184991259,45.291259994738 59.2475760803473,45.2872175759595 59.2435336615688,45.291259994738 59.2502710261997,45.2979973593689</coordinates></LinearRing></outerBoundaryIs></Polygon><Polygon><outerBoundaryIs><LinearRing><coordinates>59.2529659720521,45.2979973593689 59.259703336683,45.2939549405904 59.2556609179044,45.2899125218119 59.2516184991259,45.291259994738 59.2529659720521,45.2979973593689</coordinates></LinearRing></outerBoundaryIs></Polygon><Polygon><outerBoundaryIs><LinearRing><coordinates>59.2421861886426,45.3141670344831 59.2462286074212,45.3101246157045 59.2263910613787,45.2876420635231 59.2263910613787,45.3003177573711 59.2287114593808,45.2979973593689 59.230058932307,45.2993448322951 59.2273639864546,45.3020397781475 59.2287114593808,45.306082196926 59.2394912427903,45.3087771427784 59.2421861886426,45.3141670344831</coordinates></LinearRing></outerBoundaryIs></Polygon><Polygon><outerBoundaryIs><LinearRing><coordinates>59.2516184991259,45.3020397781475 59.2529659720521,45.3114720886307 59.2556609179044,45.306082196926 59.2610508096091,45.306082196926 59.2650932283877,45.3020397781475 59.2556609179044,45.2979973593689 59.2516184991259,45.3020397781475</coordinates></LinearRing></outerBoundaryIs></Polygon><Polygon><outerBoundaryIs><LinearRing><coordinates>59.2341013510855,45.3222518720402 59.2381437698641,45.320904399114 59.2367962969379,45.3141670344831 59.2314064052332,45.3141670344831 59.2287114593808,45.3168619803354 59.2263910613787,45.3145415823333 59.2263910613787,45.3291765105962 59.2287114593808,45.3303367095972 59.2341013510855,45.3222518720402</coordinates></LinearRing></outerBoundaryIs><innerBoundaryIs><LinearRing><coordinates>59.2354488240117,45.3182094532616 59.2341013510855,45.3195569261878 59.2327538781594,45.3182094532616 59.2354488240117,45.3182094532616</coordinates></LinearRing></innerBoundaryIs></Polygon><Polygon><outerBoundaryIs><LinearRing><coordinates>59.2543134449782,45.3316841825234 59.244881134495,45.3249468178925 59.2421861886426,45.3276417637449 59.2341013510855,45.3249468178925 59.2327538781594,45.3289892366711 59.2488504423727,45.3343547580755 59.2534232531275,45.3343547580755 59.2543134449782,45.3316841825234</coordinates></LinearRing></outerBoundaryIs></Polygon><Polygon><outerBoundaryIs><LinearRing><coordinates>59.2543134449782,45.3289892366711 59.2637457554615,45.3303367095972 59.2650851049542,45.3343547580755 59.2664407013138,45.3343547580755 59.2664407013138,45.3249468178925 59.2543134449782,45.3289892366711</coordinates></LinearRing></outerBoundaryIs></Polygon><Polygon><outerBoundaryIs><LinearRing><coordinates>59.2543134449782,45.3316841825234 59.2587644042317,45.3343547580755 59.2610508096091,45.3343547580755 59.2610508096091,45.3303367095972 59.2556609179044,45.3303367095972 59.2543134449782,45.3316841825234</coordinates></LinearRing></outerBoundaryIs></Polygon><Polygon><outerBoundaryIs><LinearRing><coordinates>59.2774851052485,45.3343547580755 59.2772204847233,45.3330316554496 59.2732511768456,45.3343547580755 59.2774851052485,45.3343547580755</coordinates></LinearRing></outerBoundaryIs></Polygon><Polygon><outerBoundaryIs><LinearRing><coordinates>59.3176446725087,45.2414034964694 59.3216870912872,45.2346661318385 59.3213757175242,45.2343547580755 59.316637709881,45.2343547580755 59.3176446725087,45.2414034964694</coordinates></LinearRing></outerBoundaryIs></Polygon><Polygon><outerBoundaryIs><LinearRing><coordinates>59.3001275244683,45.2400560235432 59.3001275244683,45.2358792497921 59.295313853247,45.2379372981743 59.2987800515422,45.2414034964694 59.3001275244683,45.2400560235432</coordinates></LinearRing></outerBoundaryIs></Polygon><Polygon><outerBoundaryIs><LinearRing><coordinates>59.3001275244683,45.253530752805 59.2920426869113,45.2454459152479 59.2920426869113,45.2393358603685 59.2819744831906,45.2436404440066 59.2920426869113,45.2562256986574 59.2866527952065,45.2616155903621 59.2906952139851,45.2656580091406 59.297432578616,45.2616155903621 59.297432578616,45.2562256986574 59.3001275244683,45.253530752805</coordinates></LinearRing></outerBoundaryIs></Polygon><Polygon><outerBoundaryIs><LinearRing><coordinates>59.2893477410589,45.2670054820668 59.2853053222804,45.2629630632883 59.2839578493542,45.2670054820668 59.2880002681327,45.268352954993 59.2893477410589,45.2670054820668</coordinates></LinearRing></outerBoundaryIs></Polygon><Polygon><outerBoundaryIs><LinearRing><coordinates>59.3263910613787,45.26769140368 59.3257295100657,45.268352954993 59.3230345642134,45.2656580091406 59.3216870912872,45.2670054820668 59.3230345642134,45.2710479008453 59.3263910613787,45.2721667332338 59.3263910613787,45.26769140368</coordinates></LinearRing></outerBoundaryIs></Polygon><Polygon><outerBoundaryIs><LinearRing><coordinates>59.3263910613787,45.3040488023866 59.3257295100657,45.3033872510737 59.3216870912872,45.3074296698522 59.3243820371396,45.3155145074093 59.3263910613787,45.3152912824938 59.3263910613787,45.3040488023866</coordinates></LinearRing></outerBoundaryIs></Polygon><Polygon><outerBoundaryIs><LinearRing><coordinates>59.2880002681327,45.3168619803354 59.2893477410589,45.3155145074093 59.2853053222804,45.3087771427784 59.2839578493542,45.3155145074093 59.2880002681327,45.3168619803354</coordinates></LinearRing></outerBoundaryIs></Polygon><Polygon><outerBoundaryIs><LinearRing><coordinates>59.2960851056898,45.3249468178925 59.2987800515422,45.3276417637449 59.3001275244683,45.3262942908187 59.3028224703207,45.320904399114 59.3001275244683,45.3182094532616 59.2987800515422,45.3114720886307 59.2960851056898,45.3168619803354 59.2920426869113,45.3182094532616 59.2920426869113,45.3235993449663 59.2893477410589,45.3262942908187 59.2906952139851,45.3276417637449 59.2960851056898,45.3249468178925</coordinates></LinearRing></outerBoundaryIs><innerBoundaryIs><LinearRing><coordinates>59.297432578616,45.320904399114 59.2960851056898,45.3222518720402 59.2947376327636,45.320904399114 59.297432578616,45.320904399114</coordinates></LinearRing></innerBoundaryIs></Polygon><Polygon><outerBoundaryIs><LinearRing><coordinates>59.2947376327636,45.3316841825234 59.2933901598374,45.3276417637449 59.2893477410589,45.3289892366711 59.2933901598374,45.3330316554496 59.2947376327636,45.3316841825234</coordinates></LinearRing></outerBoundaryIs></Polygon><Polygon><outerBoundaryIs><LinearRing><coordinates>59.2933901598374,45.3343547580755 59.2933901598374,45.3330316554496 59.2880002681327,45.3330316554496 59.2866771655068,45.3343547580755 59.2933901598374,45.3343547580755</coordinates></LinearRing></outerBoundaryIs></Polygon></MultiGeometry>
  </Placemark>
</Folder>
</Document></kml>
