<?xml version="1.0" encoding="utf-8" ?>
<kml xmlns="http://www.opengis.net/kml/2.2">
<Document id="root_doc">
<Schema name="task_grid_v6_45.61_61.36" id="task_grid_v6_45.61_61.36">
	<SimpleField name="area_ha" type="float"></SimpleField>
	<SimpleField name="low_risk_ha" type="float"></SimpleField>
	<SimpleField name="moderate_risk_ha" type="float"></SimpleField>
	<SimpleField name="grid_cell_deg" type="string"></SimpleField>
</Schema>
<Folder><name>task_grid_v6_45.61_61.36</name>
  <Placemark id="task_grid_v6_45.61_61.36.1">
	<name>task_grid_v6_45.61_61.36</name>
	<name>0</name>
	<description>601.1</description>
	<Style><LineStyle><color>ff0000ff</color></LineStyle><PolyStyle><fill>0</fill></PolyStyle></Style>
	<ExtendedData><SchemaData schemaUrl="#task_grid_v6_45.61_61.36">
		<SimpleData name="area_ha">601.1</SimpleData>
		<SimpleData name="low_risk_ha">0.1</SimpleData>
	</SchemaData></ExtendedData>
      <MultiGeometry><Polygon><outerBoundaryIs><LinearRing><coordinates>61.3738883578582,45.5647969987524 61.3698459390797,45.568839417531 61.3684984661535,45.5755767821619 61.3617611015226,45.576924255088 61.3658035203012,45.5836616197189 61.3711934120059,45.5863565655713 61.3765833037106,45.5782717280142 61.3860156141939,45.5715343633833 61.3833206683415,45.568839417531 61.3824242008568,45.5625641451378 61.3788161573253,45.5625641451378 61.3779307766368,45.5634495258263 61.3806257224891,45.568839417531 61.379278249563,45.5728818363095 61.3738883578582,45.5647969987524</coordinates></LinearRing></outerBoundaryIs></Polygon><Polygon><outerBoundaryIs><LinearRing><coordinates>61.3280742783681,45.5836616197189 61.3213369137373,45.5850090926451 61.3307692242205,45.5890515114237 61.3307692242205,45.5809666738666 61.3280742783681,45.5836616197189</coordinates></LinearRing></outerBoundaryIs></Polygon><Polygon><outerBoundaryIs><LinearRing><coordinates>61.3105571303278,45.5903989843498 61.311904603254,45.5971363489807 61.3159470220325,45.5957888760546 61.3186419678849,45.5903989843498 61.3105571303278,45.5903989843498</coordinates></LinearRing></outerBoundaryIs></Polygon><Polygon><outerBoundaryIs><LinearRing><coordinates>61.3455914264085,45.5984838219069 61.3442439534823,45.5971363489807 61.3307692242205,45.5944414031284 61.3294217512943,45.5984838219069 61.3321166971467,45.6011787677593 61.326726805442,45.6092636053164 61.3280742783681,45.6106110782425 61.3307692242205,45.6079161323902 61.3334641700729,45.6106110782425 61.3388540617776,45.6106110782425 61.3388540617776,45.6079161323902 61.334811642999,45.606568659464 61.3388540617776,45.5998312948331 61.3442439534823,45.6079161323902 61.349633845187,45.6052211865378 61.3617611015226,45.5930939302022 61.3523287910394,45.5863565655713 61.3482863722608,45.5903989843498 61.3509813181132,45.5957888760546 61.3469388993347,45.6025262406854 61.3428964805561,45.6011787677593 61.3455914264085,45.5984838219069</coordinates></LinearRing></outerBoundaryIs></Polygon><Polygon><outerBoundaryIs><LinearRing><coordinates>61.3226843866634,45.6025262406854 61.3226843866634,45.5998312948331 61.3145995491064,45.5998312948331 61.3132520761802,45.6038737136116 61.3145995491064,45.6052211865378 61.3172944949587,45.6025262406854 61.3226843866634,45.6025262406854</coordinates></LinearRing></outerBoundaryIs></Polygon><Polygon><outerBoundaryIs><LinearRing><coordinates>61.3294217512943,45.6227383345781 61.3307692242205,45.6240858075043 61.334811642999,45.6227383345781 61.3334641700729,45.6186959157996 61.3294217512943,45.6227383345781</coordinates></LinearRing></outerBoundaryIs></Polygon><Polygon><outerBoundaryIs><LinearRing><coordinates>61.3199894408111,45.6321706450614 61.3199894408111,45.621390861652 61.3172944949587,45.6240858075043 61.3145995491064,45.621390861652 61.3132520761802,45.6227383345781 61.3132520761802,45.6254332804305 61.3199894408111,45.6321706450614</coordinates></LinearRing></outerBoundaryIs></Polygon></MultiGeometry>
  </Placemark>
</Folder>
</Document></kml>
