<?xml version="1.0" encoding="utf-8" ?>
<kml xmlns="http://www.opengis.net/kml/2.2">
<Document id="root_doc">
<Schema name="task_grid_v6_45.81_60.96" id="task_grid_v6_45.81_60.96">
	<SimpleField name="area_ha" type="float"></SimpleField>
	<SimpleField name="low_risk_ha" type="float"></SimpleField>
	<SimpleField name="moderate_risk_ha" type="float"></SimpleField>
	<SimpleField name="grid_cell_deg" type="string"></SimpleField>
</Schema>
<Folder><name>task_grid_v6_45.81_60.96</name>
  <Placemark id="task_grid_v6_45.81_60.96.1">
	<name>task_grid_v6_45.81_60.96</name>
	<name>3712</name>
	<description>4591.9</description>
	<Style><LineStyle><color>ff0000ff</color></LineStyle><PolyStyle><fill>0</fill></PolyStyle></Style>
	<ExtendedData><SchemaData schemaUrl="#task_grid_v6_45.81_60.96">
		<SimpleData name="area_ha">879.8</SimpleData>
		<SimpleData name="low_risk_ha">0.1</SimpleData>
	</SchemaData></ExtendedData>
      <MultiGeometry><Polygon><outerBoundaryIs><LinearRing><coordinates>60.9763838446354,45.7628755189008 60.9858161551186,45.764222991827 60.9858161551186,45.7625641451378 60.9764876358897,45.7625641451378 60.9763838446354,45.7628755189008</coordinates></LinearRing></outerBoundaryIs></Polygon><Polygon><outerBoundaryIs><LinearRing><coordinates>60.9102213862645,45.7965169137259 60.9102213862645,45.8074784104527 60.9102213862645,45.8092086789358 60.9184425088096,45.8127320171694 60.9197899817358,45.8113845442432 60.9157475629573,45.8073421254647 60.9251798734405,45.8140794900956 60.9224849275882,45.816774435948 60.9251798734405,45.8194693818003 60.9251798734405,45.824859273505 60.9197899817358,45.8275542193574 60.921137454662,45.8315966381359 60.9292222922191,45.8262067464312 60.9373071297762,45.8289016922836 60.9408105593842,45.8230626429368 60.9426970214809,45.8262067464312 60.9440444944071,45.8194693818003 60.9400020756285,45.8154269630218 60.939039594967,45.8183144050064 60.9373071297762,45.8154269630218 60.9400020756285,45.8100370713171 60.9453919673332,45.8100370713171 60.9480869131856,45.8127320171694 60.9507818590379,45.8100370713171 60.9534768048903,45.8127320171694 60.958866696595,45.8073421254647 60.9615616424474,45.8100370713171 60.9642565882997,45.8073421254647 60.9750363717092,45.8073421254647 60.9750363717092,45.8100370713171 60.9858161551186,45.8100370713171 60.9844686821924,45.8140794900956 60.9898585738972,45.816774435948 60.9939009926757,45.8235118005789 60.9992908843804,45.8181219088741 61.0019858302328,45.8208168547265 61.0033333031589,45.8194693818003 61.0060282490113,45.8140794900956 61.0046807760851,45.8073421254647 61.0087231948637,45.8059946525385 61.0087231948637,45.8032997066862 61.0046807760851,45.7992572879076 61.0100706677898,45.80195223376 61.0102213862645,45.8018015152853 61.0102213862645,45.7703619792321 61.0006383573066,45.7655704647531 61.0003043217938,45.7625641451378 60.9890291505525,45.7625641451378 60.9883035184623,45.7625641451378 60.9874750018078,45.7625641451378 60.9858161551186,45.764222991827 60.9750363717092,45.764222991827 60.9750363717092,45.7625641451378 60.9102213862645,45.7625641451378 60.9102213862645,45.7937311112149 60.9102213862645,45.7943246143806 60.9102213862645,45.7959567480862 60.9102213862645,45.7965169137259</coordinates></LinearRing></outerBoundaryIs><innerBoundaryIs><LinearRing><coordinates>60.988511100971,45.8100370713171 60.9939009926757,45.8127320171694 60.9858161551186,45.8100370713171 60.988511100971,45.8100370713171</coordinates></LinearRing></innerBoundaryIs><innerBoundaryIs><LinearRing><coordinates>60.9992908843804,45.80195223376 60.9989540161489,45.8009416290653 61.0003688627213,45.8014132445895 60.9992908843804,45.80195223376</coordinates></LinearRing></innerBoundaryIs><innerBoundaryIs><LinearRing><coordinates>60.9952484656019,45.7898249774244 60.9995603789656,45.7898249774244 60.9979434114542,45.7925199232767 60.9979434114542,45.7979098149814 60.9952484656019,45.7898249774244</coordinates></LinearRing></innerBoundaryIs><innerBoundaryIs><LinearRing><coordinates>61.0033333031589,45.7736553023102 60.9939009926757,45.772307829384 60.9912060468233,45.7669179376793 60.9912060468233,45.7669179376793 60.9979434114542,45.7682654106055 60.9952484656019,45.7709603564579 60.996595938528,45.772307829384 61.0060282490113,45.7736553023102 61.0042316184431,45.7754519328785 61.0033333031589,45.7736553023102</coordinates></LinearRing></innerBoundaryIs><innerBoundaryIs><LinearRing><coordinates>60.9332647109976,45.8086895983909 60.9353607799939,45.8071924062507 60.9339996962301,45.8099145737783 60.9332647109976,45.8086895983909</coordinates></LinearRing></innerBoundaryIs><innerBoundaryIs><LinearRing><coordinates>60.9669515341521,45.8046471796123 60.9642565882997,45.80195223376 60.9615616424474,45.8046471796123 60.9602141695212,45.8032997066862 60.9656040612259,45.7979098149814 60.9645092394734,45.7924357062188 60.9709939529306,45.7952148691291 60.9656040612259,45.8032997066862 60.9750363717092,45.8046471796123 60.9669515341521,45.8046471796123</coordinates></LinearRing></innerBoundaryIs></Polygon><Polygon><outerBoundaryIs><LinearRing><coordinates>60.9878373645079,45.8403552121561 60.9871636280448,45.8437238944715 60.9841692437644,45.8482154708921 60.9831212092663,45.8450713673977 60.9790787904877,45.8464188403239 60.982851714681,45.8501917645172 60.9817737363401,45.8518087320286 60.9831212092663,45.8531562049548 60.9898585738972,45.8491137861763 60.9898585738972,45.8437238944715 60.9925535197495,45.8410289486192 60.9890500901414,45.8375255190111 60.9898585738972,45.8356390569145 60.988511100971,45.8342915839883 60.9831212092663,45.8369865298406 60.9804262634139,45.8342915839883 60.9790787904877,45.8356390569145 60.9790787904877,45.8383340027668 60.9858161551186,45.8450713673977 60.9878373645079,45.8403552121561</coordinates></LinearRing></outerBoundaryIs></Polygon><Polygon><outerBoundaryIs><LinearRing><coordinates>61.0073757219375,45.8289016922836 61.0060282490113,45.8329441110621 61.0102213862645,45.8337827385128 61.0102213862645,45.8289016922836 61.0073757219375,45.8289016922836</coordinates></LinearRing></outerBoundaryIs></Polygon><Polygon><outerBoundaryIs><LinearRing><coordinates>60.996595938528,45.8342915839883 60.9898585738972,45.8356390569145 60.9992908843804,45.8369865298406 61.0033333031589,45.8329441110621 61.0019858302328,45.8315966381359 60.996595938528,45.8342915839883</coordinates></LinearRing></outerBoundaryIs></Polygon><Polygon><outerBoundaryIs><LinearRing><coordinates>60.9912060468233,45.8558511508072 60.9979434114542,45.8518087320286 60.9939009926757,45.8477663132501 60.9898585738972,45.854503677881 60.9912060468233,45.8558511508072</coordinates></LinearRing></outerBoundaryIs></Polygon><Polygon><outerBoundaryIs><LinearRing><coordinates>61.0019858302328,45.8531562049548 60.9979434114542,45.8571986237333 61.0019858302328,45.8585460966595 61.0073757219375,45.8558511508072 61.0073757219375,45.8504612591024 61.0019858302328,45.8531562049548</coordinates></LinearRing></outerBoundaryIs></Polygon><Polygon><outerBoundaryIs><LinearRing><coordinates>60.9844930524927,45.8625641451378 60.9871392577445,45.8625641451378 60.9858161551186,45.8612410425119 60.9844930524927,45.8625641451378</coordinates></LinearRing></outerBoundaryIs></Polygon></MultiGeometry>
  </Placemark>
</Folder>
</Document></kml>
