<?xml version="1.0" encoding="utf-8" ?>
<kml xmlns="http://www.opengis.net/kml/2.2">
<Document id="root_doc">
<Schema name="task_grid_v6_45.01_60.96" id="task_grid_v6_45.01_60.96">
	<SimpleField name="area_ha" type="float"></SimpleField>
	<SimpleField name="low_risk_ha" type="float"></SimpleField>
	<SimpleField name="moderate_risk_ha" type="float"></SimpleField>
	<SimpleField name="grid_cell_deg" type="string"></SimpleField>
</Schema>
<Folder><name>task_grid_v6_45.01_60.96</name>
  <Placemark id="task_grid_v6_45.01_60.96.1">
	<name>task_grid_v6_45.01_60.96</name>
	<name>0</name>
	<description>364.4</description>
	<Style><LineStyle><color>ff0000ff</color></LineStyle><PolyStyle><fill>0</fill></PolyStyle></Style>
	<ExtendedData><SchemaData schemaUrl="#task_grid_v6_45.01_60.96">
		<SimpleData name="area_ha">364.4</SimpleData>
		<SimpleData name="low_risk_ha">0.1</SimpleData>
	</SchemaData></ExtendedData>
      <MultiGeometry><Polygon><outerBoundaryIs><LinearRing><coordinates>61.0046807760851,44.9665190195288 61.0086356504762,44.9625641451378 61.0007259016941,44.9625641451378 61.0046807760851,44.9665190195288</coordinates></LinearRing></outerBoundaryIs></Polygon><Polygon><outerBoundaryIs><LinearRing><coordinates>60.9777313175615,44.982688694643 60.9844686821924,44.9813412217168 60.9804262634139,44.9799937487906 60.9777313175615,44.9772988029383 60.9777313175615,44.982688694643</coordinates></LinearRing></outerBoundaryIs></Polygon><Polygon><outerBoundaryIs><LinearRing><coordinates>60.93595965685,44.9948159509786 60.9319172380714,44.9880785863477 60.9265273463667,44.9880785863477 60.9251798734405,44.9921210051262 60.9346121839238,45.0015533156095 60.9413495485547,44.997510896831 60.93595965685,44.9948159509786</coordinates></LinearRing></outerBoundaryIs></Polygon><Polygon><outerBoundaryIs><LinearRing><coordinates>61.0019858302328,45.0069432073142 61.0060282490113,45.0002058426833 61.0046807760851,44.9961634239048 61.0006383573066,45.0002058426833 61.0019858302328,45.0069432073142</coordinates></LinearRing></outerBoundaryIs></Polygon><Polygon><outerBoundaryIs><LinearRing><coordinates>61.0102213862645,45.0112870630421 61.0102213862645,45.0044420423579 61.0100706677898,45.0042482614619 61.0087231948637,45.0082906802404 61.0102213862645,45.0112870630421</coordinates></LinearRing></outerBoundaryIs></Polygon><Polygon><outerBoundaryIs><LinearRing><coordinates>61.0019858302328,45.0150280448713 61.0033333031589,45.0163755177975 61.0006383573066,45.0190704636498 61.0046807760851,45.0231128824284 61.0046807760851,45.0069432073142 61.0019858302328,45.0096381531666 60.996595938528,45.0069432073142 60.9898585738972,45.0109856260927 60.996595938528,45.0150280448713 61.0019858302328,45.0150280448713</coordinates></LinearRing></outerBoundaryIs></Polygon><Polygon><outerBoundaryIs><LinearRing><coordinates>60.9777313175615,45.0365876116902 60.9763838446354,45.0379350846163 60.9831212092663,45.0392825575425 60.9831212092663,45.0365876116902 60.9777313175615,45.0365876116902</coordinates></LinearRing></outerBoundaryIs></Polygon><Polygon><outerBoundaryIs><LinearRing><coordinates>61.0102213862645,45.0475181135743 61.0102213862645,45.0420679344797 61.0100706677898,45.0419775033949 61.0046807760851,45.0419775033949 61.0033333031589,45.0460199221734 61.0046807760851,45.0473673950996 61.0073757219375,45.0446724492472 61.0102213862645,45.0475181135743</coordinates></LinearRing></outerBoundaryIs></Polygon><Polygon><outerBoundaryIs><LinearRing><coordinates>60.9319172380714,45.0500623409519 60.93595965685,45.0487148680258 60.9346121839238,45.0446724492472 60.9305697651453,45.0460199221734 60.9319172380714,45.0500623409519</coordinates></LinearRing></outerBoundaryIs></Polygon><Polygon><outerBoundaryIs><LinearRing><coordinates>60.9952484656019,45.0460199221734 60.9939009926757,45.0419775033949 60.9804262634139,45.0446724492472 60.9790787904877,45.0514098138781 60.973688898783,45.0541047597305 60.9804262634139,45.0554522326567 60.9858161551186,45.0473673950996 60.9952484656019,45.0460199221734</coordinates></LinearRing></outerBoundaryIs></Polygon></MultiGeometry>
  </Placemark>
</Folder>
</Document></kml>
