<?xml version="1.0" encoding="utf-8" ?>
<kml xmlns="http://www.opengis.net/kml/2.2">
<Document id="root_doc">
<Schema name="task_grid_v6_46.08_59.98" id="task_grid_v6_46.08_59.98">
	<SimpleField name="area_ha" type="float"></SimpleField>
	<SimpleField name="low_risk_ha" type="float"></SimpleField>
	<SimpleField name="moderate_risk_ha" type="float"></SimpleField>
	<SimpleField name="grid_cell_deg" type="string"></SimpleField>
</Schema>
<Folder><name>task_grid_v6_46.08_59.98</name>
  <Placemark id="task_grid_v6_46.08_59.98.1">
	<name>task_grid_v6_46.08_59.98</name>
	<name>3738</name>
	<description>5371.6</description>
	<Style><LineStyle><color>ff0000ff</color></LineStyle><PolyStyle><fill>0</fill></PolyStyle></Style>
	<ExtendedData><SchemaData schemaUrl="#task_grid_v6_46.08_59.98">
		<SimpleData name="area_ha">1633.6</SimpleData>
		<SimpleData name="low_risk_ha">0.1</SimpleData>
	</SchemaData></ExtendedData>
      <MultiGeometry><Polygon><outerBoundaryIs><LinearRing><coordinates>60.0035083919339,46.0512347251031 60.0102457565648,46.0525821980293 60.0102457565648,46.049887252177 60.0048558648601,46.049887252177 60.0035083919339,46.0512347251031</coordinates></LinearRing></outerBoundaryIs></Polygon><Polygon><outerBoundaryIs><LinearRing><coordinates>59.9307448539202,46.0593195626602 59.9374822185511,46.0606670355864 59.9374822185511,46.0579720897341 59.9320923268464,46.0579720897341 59.9307448539202,46.0593195626602</coordinates></LinearRing></outerBoundaryIs></Polygon><Polygon><outerBoundaryIs><LinearRing><coordinates>59.9698215687794,46.0606670355864 59.9725165146318,46.0660569272911 59.9725165146318,46.0579720897341 59.9657791500009,46.0593195626602 59.9698215687794,46.0606670355864</coordinates></LinearRing></outerBoundaryIs></Polygon><Polygon><outerBoundaryIs><LinearRing><coordinates>59.9994659731554,46.0525821980293 59.9859912438936,46.0552771438817 59.9859912438936,46.0606670355864 59.9765589334103,46.0620145085126 59.9886861897459,46.0633619814388 59.9913811355983,46.0606670355864 59.9994659731554,46.0606670355864 60.0035083919339,46.0647094543649 59.9940760814507,46.0660569272911 59.9913811355983,46.0687518731435 59.973863987558,46.0700993460697 59.9832962980412,46.0741417648482 59.9886861897459,46.0714468189958 59.9886861897459,46.0822266024053 59.9994659731554,46.0822266024053 60.013416281097,46.0758855533409 60.0156356482695,46.0768367107006 60.0223730129004,46.0754892377744 60.0237204858266,46.0795316565529 60.0252752622799,46.0782878353903 60.0263910613787,46.0788457349397 60.0263910613787,46.0773951961112 60.0263910613787,46.0771551038066 60.0263910613787,46.049887252177 60.0263910613787,46.0487357568546 60.0263910613787,46.0471679360243 60.0263910613787,46.0343547580755 60.0064401017574,46.0343547580755 60.0062033377863,46.035065049989 60.011593229491,46.0404549416937 60.0129407024172,46.049887252177 60.0169831211957,46.0485397792508 60.0183305941219,46.049887252177 60.0167136266105,46.0531211871998 60.0156356482695,46.049887252177 60.0102457565648,46.0525821980293 60.0021609190077,46.0525821980293 59.9994659731554,46.0552771438817 59.9994659731554,46.0525821980293</coordinates></LinearRing></outerBoundaryIs><innerBoundaryIs><LinearRing><coordinates>59.9994659731554,46.0579720897341 59.9994659731554,46.0572021052048 60.0012626037236,46.0579720897341 59.9994659731554,46.0579720897341</coordinates></LinearRing></innerBoundaryIs><innerBoundaryIs><LinearRing><coordinates>60.0075508107125,46.0741417648482 60.0048558648601,46.0768367107006 60.0035083919339,46.0754892377744 60.0075508107125,46.0714468189958 60.0062033377863,46.072794291922 60.0109194930279,46.0748155013113 60.0075508107125,46.0741417648482</coordinates></LinearRing></innerBoundaryIs><innerBoundaryIs><LinearRing><coordinates>60.0156356482695,46.0552771438817 60.0075508107125,46.0606670355864 60.0159350866976,46.0546782670256 60.0156356482695,46.0552771438817</coordinates></LinearRing></innerBoundaryIs><innerBoundaryIs><LinearRing><coordinates>60.0210255399742,46.0579720897341 60.0196780670481,46.0566246168079 60.0250679587528,46.0539296709555 60.0250679587528,46.0566246168079 60.0210255399742,46.0579720897341</coordinates></LinearRing></innerBoundaryIs><innerBoundaryIs><LinearRing><coordinates>59.9981185002292,46.0754892377744 59.9940760814507,46.0768367107006 59.9927286085245,46.0754892377744 59.996771027303,46.0741417648482 59.9981185002292,46.0754892377744</coordinates></LinearRing></innerBoundaryIs><innerBoundaryIs><LinearRing><coordinates>59.9981185002292,46.0700993460697 59.9994659731554,46.0687518731435 60.0008134460816,46.0700993460697 59.9981185002292,46.0700993460697</coordinates></LinearRing></innerBoundaryIs><innerBoundaryIs><LinearRing><coordinates>60.0075508107125,46.0660569272911 60.0088982836386,46.0674044002173 60.0075508107125,46.0687518731435 60.0075508107125,46.0660569272911</coordinates></LinearRing></innerBoundaryIs></Polygon><Polygon><outerBoundaryIs><LinearRing><coordinates>59.9563468395176,46.0822266024053 59.9482620019606,46.0768367107006 59.9401771644035,46.0768367107006 59.9374822185511,46.0795316565529 59.9347872726988,46.0741417648482 59.9293973809941,46.0714468189958 59.9263910613787,46.0729499788035 59.9263910613787,46.0960127054301 59.9267024351417,46.0957013316671 59.9267024351417,46.0983962775194 59.9263910613787,46.0980849037564 59.9263910613787,46.1307356277477 59.9293973809941,46.1307356277477 59.93060375777,46.1343547580755 59.9338630882234,46.1343547580755 59.9347872726988,46.1334305736001 59.9347872726988,46.1343547580755 59.9568089317553,46.1343547580755 59.9563468395176,46.1334305736001 59.9591193929439,46.1343547580755 59.9754231047095,46.1343547580755 59.9765589334103,46.1320831006739 59.9752114604842,46.1280406818954 59.9779064063365,46.1334305736001 59.9816031442382,46.1343547580755 60.0003901576308,46.1343547580755 59.9954235543768,46.1293881548215 59.9981185002292,46.1266932089692 59.9994659731554,46.1280406818954 60.0062033377863,46.1293881548215 59.9981185002292,46.1293881548215 60.0063961723191,46.1343547580755 60.0192547785973,46.1343547580755 60.0183305941219,46.1334305736001 60.0201789630727,46.1343547580755 60.0263910613787,46.1343547580755 60.0263910613787,46.0906999136984 60.0102457565648,46.0930063858147 60.0075508107125,46.08761649411 60.0048558648601,46.0903114399623 60.0021609190077,46.08761649411 59.9985676578713,46.08761649411 60.0008134460816,46.0862690211838 59.9806013521889,46.0849215482576 59.9792538792627,46.0862690211838 59.9841946133253,46.08761649411 59.9752114604841,46.08761649411 59.9698215687794,46.0822266024053 59.9563468395176,46.0822266024053</coordinates></LinearRing></outerBoundaryIs><innerBoundaryIs><LinearRing><coordinates>60.0129407024172,46.1307356277477 60.0183305941219,46.1334305736001 60.0062033377863,46.1293881548216 60.0129407024172,46.1307356277477</coordinates></LinearRing></innerBoundaryIs><innerBoundaryIs><LinearRing><coordinates>59.9730065047868,46.1236307705006 59.9691478323164,46.1219770537276 59.9725165146318,46.1226507901907 59.9730065047868,46.1236307705006</coordinates></LinearRing></innerBoundaryIs><innerBoundaryIs><LinearRing><coordinates>59.9657791500009,46.1186083714121 59.9630842041485,46.1159134255598 59.9644316770747,46.1145659526336 59.9702065610441,46.1134109758397 59.9725165146318,46.1145659526336 59.9698215687794,46.1199558443383 59.9667897546955,46.1209664490329 59.9644316770747,46.1199558443383 59.95904178537,46.1226507901907 59.9657791500009,46.1186083714121</coordinates></LinearRing></innerBoundaryIs><innerBoundaryIs><LinearRing><coordinates>59.9307448539202,46.0997437504456 59.9347872726988,46.0957013316671 59.9366895874181,46.0961769103469 59.9307448539202,46.0997437504456</coordinates></LinearRing></innerBoundaryIs><innerBoundaryIs><LinearRing><coordinates>59.9399775387848,46.0969988981886 59.9455670561082,46.0983962775194 59.9487111596026,46.1015403810138 59.9399775387848,46.0969988981886</coordinates></LinearRing></innerBoundaryIs><innerBoundaryIs><LinearRing><coordinates>59.9940760814507,46.0903114399623 59.9886861897459,46.0903114399623 59.9866649803567,46.0882902305731 59.9940760814507,46.0903114399623</coordinates></LinearRing></innerBoundaryIs><innerBoundaryIs><LinearRing><coordinates>60.0102457565648,46.1199558443383 60.0088982836386,46.1186083714121 60.0102457565648,46.1172608984859 60.0102457565648,46.1199558443383</coordinates></LinearRing></innerBoundaryIs><innerBoundaryIs><LinearRing><coordinates>59.9927286085245,46.1266932089692 59.9873387168198,46.1293881548215 59.9859912438936,46.1334305736001 59.9846437709674,46.1293881548215 59.9886861897459,46.1226507901907 59.9927286085245,46.1266932089692</coordinates></LinearRing></innerBoundaryIs></Polygon><Polygon><outerBoundaryIs><LinearRing><coordinates>60.0237204858266,46.08761649411 60.0263910613787,46.0867263022593 60.0263910613787,46.0822509727056 60.0223730129004,46.0862690211838 60.0237204858266,46.08761649411</coordinates></LinearRing></outerBoundaryIs></Polygon><Polygon><outerBoundaryIs><LinearRing><coordinates>60.0102457565648,46.0930063858147 60.0169831211957,46.0889639670362 60.0129407024172,46.0849215482576 60.0088982836386,46.0889639670362 60.0102457565648,46.0930063858147</coordinates></LinearRing></outerBoundaryIs></Polygon></MultiGeometry>
  </Placemark>
</Folder>
</Document></kml>
