<?xml version="1.0" encoding="utf-8" ?>
<kml xmlns="http://www.opengis.net/kml/2.2">
<Document id="root_doc">
<Schema name="task_grid_v6_46.41_61.36" id="task_grid_v6_46.41_61.36">
	<SimpleField name="area_ha" type="float"></SimpleField>
	<SimpleField name="low_risk_ha" type="float"></SimpleField>
	<SimpleField name="moderate_risk_ha" type="float"></SimpleField>
	<SimpleField name="grid_cell_deg" type="string"></SimpleField>
</Schema>
<Folder><name>task_grid_v6_46.41_61.36</name>
  <Placemark id="task_grid_v6_46.41_61.36.1">
	<name>task_grid_v6_46.41_61.36</name>
	<name>10.9</name>
	<description>69.8</description>
	<Style><LineStyle><color>ff0000ff</color></LineStyle><PolyStyle><fill>0</fill></PolyStyle></Style>
	<ExtendedData><SchemaData schemaUrl="#task_grid_v6_46.41_61.36">
		<SimpleData name="area_ha">58.9</SimpleData>
		<SimpleData name="low_risk_ha">0.1</SimpleData>
	</SchemaData></ExtendedData>
      <MultiGeometry><Polygon><outerBoundaryIs><LinearRing><coordinates>61.349633845187,46.4163998880977 61.349633845187,46.4137049422454 61.3442439534823,46.4137049422454 61.3428964805561,46.4150524151716 61.349633845187,46.4163998880977</coordinates></LinearRing></outerBoundaryIs></Polygon><Polygon><outerBoundaryIs><LinearRing><coordinates>61.3428964805561,46.4204423068763 61.3442439534823,46.4217897798025 61.349633845187,46.4190948339501 61.3550237368917,46.4217897798025 61.3590661556703,46.4177473610239 61.3523287910394,46.4137049422454 61.349633845187,46.4163998880977 61.3442439534823,46.4163998880977 61.3428964805561,46.4204423068763</coordinates></LinearRing></outerBoundaryIs></Polygon></MultiGeometry>
  </Placemark>
</Folder>
</Document></kml>
