<?xml version="1.0" encoding="utf-8" ?>
<kml xmlns="http://www.opengis.net/kml/2.2">
<Document id="root_doc">
<Schema name="task_grid_v6_44.78_61.08" id="task_grid_v6_44.78_61.08">
	<SimpleField name="area_ha" type="float"></SimpleField>
	<SimpleField name="low_risk_ha" type="float"></SimpleField>
	<SimpleField name="moderate_risk_ha" type="float"></SimpleField>
	<SimpleField name="grid_cell_deg" type="string"></SimpleField>
</Schema>
<Folder><name>task_grid_v6_44.78_61.08</name>
  <Placemark id="task_grid_v6_44.78_61.08.1">
	<name>task_grid_v6_44.78_61.08</name>
	<name>0</name>
	<description>2407.6</description>
	<Style><LineStyle><color>ff0000ff</color></LineStyle><PolyStyle><fill>0</fill></PolyStyle></Style>
	<ExtendedData><SchemaData schemaUrl="#task_grid_v6_44.78_61.08">
		<SimpleData name="area_ha">2407.6</SimpleData>
		<SimpleData name="low_risk_ha">0.1</SimpleData>
	</SchemaData></ExtendedData>
      <MultiGeometry><Polygon><outerBoundaryIs><LinearRing><coordinates>61.0464524367967,44.7765253369376 61.0545372743538,44.7792202827899 61.049147382649,44.7819152286423 61.0531898014276,44.7859576474208 61.0666645306894,44.7886525932732 61.0720544223941,44.7967374308302 61.0774443140988,44.7913475391255 61.0855291516559,44.7913475391255 61.0882240975082,44.7886525932732 61.10169882677,44.7886525932732 61.1030462996962,44.7926950120517 61.1097836643271,44.7967374308302 61.1178685018842,44.7913475391255 61.1205634477365,44.7940424849779 61.1219109206627,44.7926950120517 61.1192159748104,44.7846101744946 61.1097836643271,44.7778728098637 61.10169882677,44.7832627015684 61.0909190433606,44.7832627015684 61.0855291516559,44.7805677557161 61.0828342058035,44.7751778640114 61.0774443140988,44.772482918159 61.0747493682464,44.7751778640114 61.0707069494679,44.7711354452328 61.0693594765417,44.7617031347496 61.0585796931323,44.7643980806019 61.0545372743538,44.7684404993805 61.0545372743538,44.7738303910852 61.0464524367967,44.7765253369376</coordinates></LinearRing></outerBoundaryIs></Polygon><Polygon><outerBoundaryIs><LinearRing><coordinates>61.0275878158302,44.7792202827899 61.0263910613787,44.7756300194355 61.0263910613787,44.7834134200431 61.0289352887564,44.7859576474208 61.0329777075349,44.7819152286423 61.0275878158302,44.7792202827899</coordinates></LinearRing></outerBoundaryIs></Polygon><Polygon><outerBoundaryIs><LinearRing><coordinates>61.1178685018842,44.8156020517968 61.1205634477365,44.8182969976491 61.1232583935889,44.8156020517968 61.1259533394413,44.8182969976491 61.1263910613787,44.8182094532616 61.1263910613787,44.8079549361771 61.1259533394413,44.8075172142397 61.1205634477365,44.810212160092 61.116521028958,44.8088646871659 61.1205634477365,44.802127322535 61.1263910613787,44.8009617998065 61.1263910613787,44.8007798496088 61.1057412455486,44.8007798496088 61.1111311372533,44.8034747954611 61.1124786101795,44.8156020517968 61.1178685018842,44.8156020517968</coordinates></LinearRing></outerBoundaryIs></Polygon><Polygon><outerBoundaryIs><LinearRing><coordinates>61.049147382649,44.8115596330182 61.0451049638705,44.8129071059444 61.0424100180181,44.8182969976491 61.0397150721658,44.8156020517968 61.0383675992396,44.8169495247229 61.0383675992396,44.8223394164276 61.0477999097229,44.8236868893538 61.0531898014276,44.8209919435015 61.0585796931323,44.8236868893538 61.0585796931323,44.8263818352062 61.0518423285014,44.8277293081324 61.0562592951301,44.8343547580755 61.0951059948338,44.8343547580755 61.0922665162868,44.8277293081324 61.0855291516559,44.8209919435015 61.0801392599512,44.8290767810585 61.0747493682464,44.8263818352062 61.0693594765417,44.8290767810585 61.0680120036156,44.8223394164276 61.0747493682464,44.8209919435015 61.0774443140988,44.8156020517968 61.0841816787297,44.8115596330182 61.0814867328773,44.8088646871659 61.0814867328773,44.8034747954611 61.0693594765417,44.802127322535 61.063969584837,44.7940424849779 61.0558847472799,44.7940424849779 61.0531898014276,44.7913475391255 61.0504948555752,44.7940424849779 61.0451049638705,44.7940424849779 61.041062545092,44.7900000661993 61.0343251804611,44.7886525932732 61.0329777075349,44.7926950120517 61.0424100180181,44.8048222683873 61.049147382649,44.8088646871659 61.049147382649,44.8115596330182</coordinates></LinearRing></outerBoundaryIs></Polygon><Polygon><outerBoundaryIs><LinearRing><coordinates>61.1038039721751,44.8343547580755 61.1263910613787,44.8343547580755 61.1263910613787,44.8270384181123 61.1259533394413,44.8263818352062 61.1178685018842,44.8317717269109 61.1097836643271,44.8263818352062 61.1038039721751,44.8343547580755</coordinates></LinearRing></outerBoundaryIs></Polygon></MultiGeometry>
  </Placemark>
</Folder>
</Document></kml>
