<?xml version="1.0" encoding="utf-8" ?>
<kml xmlns="http://www.opengis.net/kml/2.2">
<Document id="root_doc">
<Schema name="task_grid_v6_45.28_59.18" id="task_grid_v6_45.28_59.18">
	<SimpleField name="area_ha" type="float"></SimpleField>
	<SimpleField name="low_risk_ha" type="float"></SimpleField>
	<SimpleField name="moderate_risk_ha" type="float"></SimpleField>
	<SimpleField name="grid_cell_deg" type="string"></SimpleField>
</Schema>
<Folder><name>task_grid_v6_45.28_59.18</name>
  <Placemark id="task_grid_v6_45.28_59.18.1">
	<name>task_grid_v6_45.28_59.18</name>
	<name>1000.1</name>
	<description>2368.4</description>
	<Style><LineStyle><color>ff0000ff</color></LineStyle><PolyStyle><fill>0</fill></PolyStyle></Style>
	<ExtendedData><SchemaData schemaUrl="#task_grid_v6_45.28_59.18">
		<SimpleData name="area_ha">1368.3</SimpleData>
		<SimpleData name="low_risk_ha">0.1</SimpleData>
	</SchemaData></ExtendedData>
      <MultiGeometry><Polygon><outerBoundaryIs><LinearRing><coordinates>59.1707701235551,45.291259994738 59.1748125423337,45.3006923052213 59.1761600152598,45.291259994738 59.1744932466702,45.2895932261484 59.1707992691176,45.2911725580505 59.1707701235551,45.291259994738</coordinates></LinearRing></outerBoundaryIs></Polygon><Polygon><outerBoundaryIs><LinearRing><coordinates>59.192329690374,45.2939549405904 59.1869397986693,45.2939549405904 59.1869397986693,45.3020397781475 59.1909822174478,45.3114720886307 59.192819680529,45.3071846747747 59.1943508997633,45.3148407709462 59.1936771633002,45.3141670344831 59.1909822174478,45.3168619803354 59.1855923257431,45.306082196926 59.1828973798907,45.3087771427784 59.1781415930925,45.3063992493792 59.1788549611122,45.3047347239998 59.1721175964813,45.3006923052213 59.1613378130719,45.2979973593689 59.1572953942933,45.3020397781475 59.162685285998,45.3074296698522 59.154600448441,45.3020397781475 59.1599903401457,45.2993448322951 59.1575028488703,45.2968573410198 59.144540067341,45.3023994793022 59.1456172955998,45.3029380934316 59.1440250925836,45.3026196528284 59.1329611631594,45.3073499513895 59.1330408816221,45.3074296698522 59.1263910613787,45.3118628833478 59.1263910613787,45.318414455735 59.1343883545483,45.3195569261878 59.1263910613787,45.3195569261878 59.1263910613787,45.3297067453279 59.1303459357697,45.3316841825234 59.1263910613787,45.3330024739871 59.1263910613787,45.3343547580755 59.1370711152505,45.3343547580755 59.1680629925526,45.3343547580755 59.1653802318504,45.3289892366711 59.1674893199088,45.3247710605543 59.1707701235551,45.3289892366711 59.1680873628529,45.3343547580755 59.1748125423337,45.3343547580755 59.1748125423337,45.3330316554496 59.1757576156379,45.3343547580755 59.1839264597109,45.3343547580755 59.1837548626619,45.3341341332983 59.1841961122164,45.3343547580755 59.1923540606743,45.3343547580755 59.1944710248757,45.3343547580755 59.1936771633002,45.3330316554496 59.1950246362263,45.3316841825234 59.192329690374,45.3262942908187 59.1936771633002,45.3249468178925 59.1963721091525,45.3276417637449 59.2031094737834,45.3182094532616 59.2004145279311,45.3155145074093 59.2004145279311,45.3074296698522 59.2031094737834,45.3047347239998 59.2017620008572,45.2953024135166 59.2031094737834,45.2939549405904 59.2031094737834,45.283175157181 59.2098468384143,45.2818276842548 59.2111943113405,45.283175157181 59.2084993654881,45.2858701030333 59.2138892571929,45.2885650488857 59.215236730119,45.2926074676642 59.2206266218238,45.2926074676642 59.2260165135285,45.3006923052213 59.2263910613787,45.3003177573711 59.2263910613787,45.2876420635231 59.2260165135285,45.2872175759595 59.2080558418154,45.2752437948174 59.2026494529973,45.2775552550832 59.2031094737834,45.2777852654762 59.2004145279311,45.283175157181 59.1950246362263,45.283175157181 59.1950246362263,45.2858701030333 59.2004145279311,45.2885650488857 59.1977195820787,45.2939549405904 59.1990670550049,45.2979973593689 59.1950246362263,45.3020397781475 59.1896347445216,45.2993448322951 59.192329690374,45.2939549405904</coordinates></LinearRing></outerBoundaryIs><innerBoundaryIs><LinearRing><coordinates>59.1802024340384,45.3330316554496 59.1788549611122,45.3316841825234 59.1815499069646,45.3330316554496 59.1802024340384,45.3330316554496</coordinates></LinearRing></innerBoundaryIs><innerBoundaryIs><LinearRing><coordinates>59.1734650694075,45.3262942908187 59.1734650694075,45.3182094532616 59.1748125423337,45.3168619803354 59.1797878269842,45.3193496226607 59.1788549611122,45.320904399114 59.1815499069645,45.3262942908187 59.1788549611122,45.3316841825234 59.1734650694075,45.3262942908187</coordinates></LinearRing></innerBoundaryIs><innerBoundaryIs><LinearRing><coordinates>59.1788549611122,45.3155145074093 59.1828973798907,45.3141670344831 59.1808761705015,45.3175357167985 59.1788549611122,45.3155145074093</coordinates></LinearRing></innerBoundaryIs><innerBoundaryIs><LinearRing><coordinates>59.1882872715954,45.3249468178925 59.1855923257431,45.3249468178925 59.1842448528169,45.3235993449663 59.1882872715954,45.3249468178925</coordinates></LinearRing></innerBoundaryIs><innerBoundaryIs><LinearRing><coordinates>59.1640327589242,45.3141670344831 59.1637877638467,45.3129420590956 59.1748125423337,45.3141670344831 59.1640327589242,45.3141670344831</coordinates></LinearRing></innerBoundaryIs><innerBoundaryIs><LinearRing><coordinates>59.1505580296624,45.3249468178925 59.1478630838101,45.3222518720402 59.1438206650315,45.3235993449663 59.1505580296624,45.3303367095972 59.1424731921053,45.3222518720402 59.1370833004006,45.3222518720402 59.1451681379577,45.3168619803354 59.1505580296624,45.3168619803354 59.1505580296624,45.3249468178925</coordinates></LinearRing></innerBoundaryIs><innerBoundaryIs><LinearRing><coordinates>59.1586428672195,45.3276417637449 59.1572953942933,45.3316841825234 59.1559479213671,45.3276417637449 59.1544079523087,45.3284117482741 59.1613378130719,45.3168619803354 59.1572953942933,45.3262942908187 59.1586428672195,45.3276417637449</coordinates></LinearRing></innerBoundaryIs><innerBoundaryIs><LinearRing><coordinates>59.154600448441,45.3101246157045 59.1532529755148,45.3114720886307 59.1478630838101,45.3114720886307 59.154600448441,45.3101246157045</coordinates></LinearRing></innerBoundaryIs><innerBoundaryIs><LinearRing><coordinates>59.1505580296624,45.306082196926 59.1478630838101,45.3087771427784 59.1465156108839,45.3074296698522 59.1492105567363,45.3047347239998 59.1505580296624,45.306082196926</coordinates></LinearRing></innerBoundaryIs><innerBoundaryIs><LinearRing><coordinates>59.1303459357697,45.3128195615569 59.1316934086959,45.3114720886307 59.1330408816221,45.3128195615569 59.1303459357697,45.3128195615569</coordinates></LinearRing></innerBoundaryIs></Polygon><Polygon><outerBoundaryIs><LinearRing><coordinates>59.2058044196358,45.3020397781475 59.2044569467096,45.2979973593689 59.2031094737834,45.2993448322951 59.2044569467096,45.3168619803354 59.2084993654881,45.3128195615569 59.2084993654881,45.3074296698522 59.2111943113405,45.3047347239998 59.2058044196358,45.3020397781475</coordinates></LinearRing></outerBoundaryIs></Polygon><Polygon><outerBoundaryIs><LinearRing><coordinates>59.2138892571929,45.3262942908187 59.2206266218238,45.3330316554496 59.2233215676761,45.3276417637449 59.2263910613787,45.3291765105962 59.2263910613787,45.3145415823333 59.2260165135285,45.3141670344831 59.2206266218238,45.3195569261878 59.2125417842667,45.3141670344831 59.2084993654881,45.3155145074093 59.2138892571929,45.3262942908187</coordinates></LinearRing></outerBoundaryIs><innerBoundaryIs><LinearRing><coordinates>59.2179316759714,45.3222518720402 59.2192791488976,45.3235993449663 59.2179316759714,45.3249468178925 59.2179316759714,45.3222518720402</coordinates></LinearRing></innerBoundaryIs></Polygon><Polygon><outerBoundaryIs><LinearRing><coordinates>59.2179316759714,45.3330316554496 59.2192791488976,45.3316841825234 59.215236730119,45.3276417637449 59.2138892571929,45.3316841825234 59.2179316759714,45.3330316554496</coordinates></LinearRing></outerBoundaryIs></Polygon><Polygon><outerBoundaryIs><LinearRing><coordinates>59.1950490065266,45.3343547580755 59.202987622282,45.3343547580755 59.1963721091525,45.3330316554496 59.1950490065266,45.3343547580755</coordinates></LinearRing></outerBoundaryIs></Polygon><Polygon><outerBoundaryIs><LinearRing><coordinates>59.2112186816408,45.3343547580755 59.2133356458422,45.3343547580755 59.2125417842667,45.3330316554496 59.2112186816408,45.3343547580755</coordinates></LinearRing></outerBoundaryIs></Polygon></MultiGeometry>
  </Placemark>
</Folder>
</Document></kml>
