<?xml version="1.0" encoding="utf-8" ?>
<kml xmlns="http://www.opengis.net/kml/2.2">
<Document id="root_doc">
<Schema name="task_grid_v6_46.01_59.66" id="task_grid_v6_46.01_59.66">
	<SimpleField name="area_ha" type="float"></SimpleField>
	<SimpleField name="low_risk_ha" type="float"></SimpleField>
	<SimpleField name="moderate_risk_ha" type="float"></SimpleField>
	<SimpleField name="grid_cell_deg" type="string"></SimpleField>
</Schema>
<Folder><name>task_grid_v6_46.01_59.66</name>
  <Placemark id="task_grid_v6_46.01_59.66.1">
	<name>task_grid_v6_46.01_59.66</name>
	<name>81.3</name>
	<description>753.8</description>
	<Style><LineStyle><color>ff0000ff</color></LineStyle><PolyStyle><fill>0</fill></PolyStyle></Style>
	<ExtendedData><SchemaData schemaUrl="#task_grid_v6_46.01_59.66">
		<SimpleData name="area_ha">672.5</SimpleData>
		<SimpleData name="low_risk_ha">0.1</SimpleData>
	</SchemaData></ExtendedData>
      <MultiGeometry><Polygon><outerBoundaryIs><LinearRing><coordinates>59.6622757203928,45.9625641451378 59.6612502686844,45.96769140368 59.6679876333153,45.9717338224586 59.6693351062415,45.9703863495324 59.6637478173881,45.9625641451378 59.6622757203928,45.9625641451378</coordinates></LinearRing></outerBoundaryIs></Polygon><Polygon><outerBoundaryIs><LinearRing><coordinates>59.6167836621205,45.9932933892774 59.620826080899,45.9892509704989 59.6194786079728,45.9852085517204 59.6154361891943,45.9892509704989 59.6167836621205,45.9932933892774</coordinates></LinearRing></outerBoundaryIs></Polygon><Polygon><outerBoundaryIs><LinearRing><coordinates>59.6949370918389,46.0256327395057 59.6989795106174,46.0188953748749 59.6949370918389,46.0148529560963 59.6935896189127,46.0162004290225 59.6949370918389,46.0256327395057</coordinates></LinearRing></outerBoundaryIs></Polygon><Polygon><outerBoundaryIs><LinearRing><coordinates>59.688199727208,46.0539296709555 59.6908946730603,46.0593195626602 59.6895472001341,46.0606670355864 59.6841573084294,46.0579720897341 59.6810959381603,46.0625641451378 59.6968342013902,46.0625641451378 59.7014912442614,46.0625641451378 59.7016744564698,46.0620145085126 59.6976320376912,46.0579720897341 59.7003269835436,46.0606670355864 59.7057168752483,46.0579720897341 59.7084118211007,46.0525821980293 59.7102213862645,46.0562013283571 59.7102213862645,46.0462681218492 59.7084118211007,46.049887252177 59.7057168752483,46.0471923063246 59.7003269835436,46.049887252177 59.6922421459865,46.049887252177 59.688199727208,46.0539296709555</coordinates></LinearRing></outerBoundaryIs></Polygon><Polygon><outerBoundaryIs><LinearRing><coordinates>59.67337752502,46.049887252177 59.6679876333153,46.049887252177 59.6639452145367,46.0539296709555 59.6666401603891,46.0566246168079 59.6639452145367,46.0593195626602 59.6647563601561,46.0625641451378 59.67885014995,46.0625641451378 59.6828098355032,46.0566246168079 59.6828098355032,46.0485397792508 59.6760724708723,46.0471923063246 59.6760724708723,46.0525821980293 59.67337752502,46.049887252177</coordinates></LinearRing></outerBoundaryIs></Polygon><Polygon><outerBoundaryIs><LinearRing><coordinates>59.7097592940268,45.9811661329418 59.7102213862645,45.9812585513894 59.7102213862645,45.9807040407041 59.7097592940268,45.9811661329418</coordinates></LinearRing></outerBoundaryIs></Polygon><Polygon><outerBoundaryIs><LinearRing><coordinates>59.7030219293959,46.0148529560963 59.6989795106174,46.0162004290225 59.7016744564698,46.0188953748749 59.6935896189127,46.0296751582843 59.6976320376912,46.0444973604723 59.7030219293959,46.0418024146199 59.7057168752483,46.0444973604723 59.7097592940268,46.0431498875461 59.7016744564698,46.0323701041366 59.7030219293959,46.0283276853581 59.7057168752483,46.0337175770628 59.7097592940268,46.0323701041366 59.7043694023221,46.0242852665796 59.7057168752483,46.0229377936534 59.7100042891043,46.026000232122 59.7070643481745,46.0269802124319 59.7102213862645,46.031715769567 59.7102213862645,46.0261553015221 59.7102213862645,46.0259278664019 59.7102213862645,46.0179905922929 59.7093101363848,46.0184462172328 59.7057168752483,46.0148529560963 59.7046388969073,46.0180868911191 59.7030219293959,46.0148529560963</coordinates></LinearRing></outerBoundaryIs><innerBoundaryIs><LinearRing><coordinates>59.7057168752483,46.020242847801 59.7051778860778,46.0191648694601 59.7067948535892,46.0197038586306 59.7057168752483,46.020242847801</coordinates></LinearRing></innerBoundaryIs></Polygon><Polygon><outerBoundaryIs><LinearRing><coordinates>59.7016744564698,46.0620145085126 59.7020042384449,46.0625641451378 59.7102213862645,46.0625641451378 59.7102213862645,46.0594119811078 59.7102213862645,46.0588574704225 59.7102213862645,46.0587476176614 59.7084118211007,46.0579720897341 59.7016744564698,46.0620145085126</coordinates></LinearRing></outerBoundaryIs></Polygon></MultiGeometry>
  </Placemark>
</Folder>
</Document></kml>
