<?xml version="1.0" encoding="utf-8" ?>
<kml xmlns="http://www.opengis.net/kml/2.2">
<Document id="root_doc">
<Schema name="task_grid_v6_45.58_60.38" id="task_grid_v6_45.58_60.38">
	<SimpleField name="area_ha" type="float"></SimpleField>
	<SimpleField name="low_risk_ha" type="float"></SimpleField>
	<SimpleField name="moderate_risk_ha" type="float"></SimpleField>
	<SimpleField name="grid_cell_deg" type="string"></SimpleField>
</Schema>
<Folder><name>task_grid_v6_45.58_60.38</name>
  <Placemark id="task_grid_v6_45.58_60.38.1">
	<name>task_grid_v6_45.58_60.38</name>
	<name>17.8</name>
	<description>1121.2</description>
	<Style><LineStyle><color>ff0000ff</color></LineStyle><PolyStyle><fill>0</fill></PolyStyle></Style>
	<ExtendedData><SchemaData schemaUrl="#task_grid_v6_45.58_60.38">
		<SimpleData name="area_ha">1103.4</SimpleData>
		<SimpleData name="low_risk_ha">0.1</SimpleData>
	</SchemaData></ExtendedData>
      <MultiGeometry><Polygon><outerBoundaryIs><LinearRing><coordinates>60.3263910613787,45.6169116202706 60.3263910613787,45.620972541608 60.3363342047002,45.6160009699472 60.3417240964049,45.6160009699472 60.3471139881096,45.6106110782425 60.3525038798143,45.6133060240949 60.3551988256667,45.6106110782425 60.3565462985929,45.6119585511687 60.3511564068882,45.6173484428734 60.3578937715191,45.6186959157996 60.36463113615,45.6254332804305 60.3592412444452,45.6281282262829 60.3632836632238,45.6321706450614 60.3700210278547,45.6281282262829 60.3673260820023,45.6254332804305 60.3686735549285,45.621390861652 60.3767583924856,45.621390861652 60.3808008112641,45.6173484428734 60.3813061136114,45.6148219311368 60.3848432300426,45.6160009699472 60.3861907029688,45.6146534970211 60.387538175895,45.6160009699472 60.3915805946735,45.6146534970211 60.387538175895,45.6079161323902 60.3767583924856,45.6079161323902 60.3713685007809,45.6025262406854 60.3605887173714,45.6025262406854 60.3551988256667,45.5998312948331 60.349808933962,45.591746457276 60.3444190422573,45.591746457276 60.3417240964049,45.5890515114237 60.3390291505526,45.591746457276 60.3363342047002,45.5836616197189 60.3336392588478,45.5863565655713 60.3282493671431,45.5863565655713 60.3263910613787,45.5844982598069 60.3263910613787,45.5901435679307 60.3269018942169,45.5903989843498 60.3295968400693,45.5957888760546 60.3282493671431,45.5971363489807 60.3263910613787,45.5968266313533 60.3263910613787,45.6133060240949 60.3309443129955,45.6133060240949 60.3309443129955,45.6144610008888 60.3263910613787,45.6138105363721 60.3263910613787,45.6158336419297 60.3309443129955,45.6149229916063 60.3309443129955,45.6160009699472 60.3263910613787,45.6169116202706</coordinates></LinearRing></outerBoundaryIs><innerBoundaryIs><LinearRing><coordinates>60.36463113615,45.6119585511687 60.3659786090761,45.6106110782425 60.3659786090761,45.6133060240949 60.36463113615,45.6119585511687</coordinates></LinearRing></innerBoundaryIs><innerBoundaryIs><LinearRing><coordinates>60.3282493671431,45.6025262406854 60.3269018942169,45.6011787677593 60.3295968400693,45.6011787677593 60.3282493671431,45.6025262406854</coordinates></LinearRing></innerBoundaryIs></Polygon><Polygon><outerBoundaryIs><LinearRing><coordinates>60.3821482841903,45.6267807533567 60.3781058654118,45.6281282262829 60.3821482841903,45.6321706450614 60.3834957571165,45.6308231721352 60.3821482841903,45.6267807533567</coordinates></LinearRing></outerBoundaryIs></Polygon></MultiGeometry>
  </Placemark>
</Folder>
</Document></kml>
