<?xml version="1.0" encoding="utf-8" ?>
<kml xmlns="http://www.opengis.net/kml/2.2">
<Document id="root_doc">
<Schema name="task_grid_v6_45.68_59.88" id="task_grid_v6_45.68_59.88">
	<SimpleField name="area_ha" type="float"></SimpleField>
	<SimpleField name="low_risk_ha" type="float"></SimpleField>
	<SimpleField name="moderate_risk_ha" type="float"></SimpleField>
	<SimpleField name="grid_cell_deg" type="string"></SimpleField>
</Schema>
<Folder><name>task_grid_v6_45.68_59.88</name>
  <Placemark id="task_grid_v6_45.68_59.88.1">
	<name>task_grid_v6_45.68_59.88</name>
	<name>4357.8</name>
	<description>4906.2</description>
	<Style><LineStyle><color>ff0000ff</color></LineStyle><PolyStyle><fill>0</fill></PolyStyle></Style>
	<ExtendedData><SchemaData schemaUrl="#task_grid_v6_45.68_59.88">
		<SimpleData name="area_ha">548.5</SimpleData>
		<SimpleData name="low_risk_ha">0.1</SimpleData>
	</SchemaData></ExtendedData>
      <MultiGeometry><Polygon><outerBoundaryIs><LinearRing><coordinates>59.8620237346851,45.6806796704038 59.8701085722422,45.6779847245515 59.8728035180945,45.6806796704038 59.8781934097992,45.6806796704038 59.8808883556516,45.6860695621086 59.8889731932087,45.6860695621086 59.891668139061,45.6914594538133 59.8970580307657,45.6860695621086 59.9024479224705,45.6887645079609 59.9091852871014,45.6874170350347 59.9059513520785,45.6852610783529 59.906490341249,45.6847220891824 59.9051428683228,45.6779847245515 59.9105327600275,45.6779847245515 59.9132277058799,45.6806796704038 59.9145751788061,45.6793321974777 59.9091852871014,45.6685524140682 59.9132277058799,45.6752897786991 59.9226600163632,45.6631625223635 59.9145751788061,45.673942305773 59.9172701246584,45.6793321974777 59.9118802329537,45.6847220891824 59.9186175975846,45.6887645079609 59.9186175975846,45.6833746162562 59.9240074892893,45.6914594538133 59.9263910613787,45.6916297089625 59.9263910613787,45.6796639668155 59.921312543437,45.6806796704038 59.9263910613787,45.6792946200561 59.9263910613787,45.6748066284323 59.9240074892893,45.6779847245515 59.9263910613787,45.6746477236264 59.9263910613787,45.6517259988034 59.9218900318339,45.6487253124402 59.9253549622155,45.6469928472494 59.9231091740052,45.6456453743232 59.9263910613787,45.6456453743232 59.9263910613787,45.6343547580755 59.8263910613787,45.6343547580755 59.8263910613787,45.6752897786991 59.8269894386044,45.6752897786991 59.8323793303091,45.6725948328468 59.8350742761615,45.6752897786991 59.8512439512757,45.6752897786991 59.8620237346851,45.6806796704038</coordinates></LinearRing></outerBoundaryIs><innerBoundaryIs><LinearRing><coordinates>59.9186175975846,45.6537302118803 59.9199650705108,45.6496877931017 59.9208633857949,45.6492386354597 59.9186175975846,45.6537302118803</coordinates></LinearRing></innerBoundaryIs><innerBoundaryIs><LinearRing><coordinates>59.868761099316,45.6550776848064 59.8674136263898,45.6553471793917 59.8674136263898,45.651933581312 59.868761099316,45.6523827389541 59.868761099316,45.6550776848064</coordinates></LinearRing></innerBoundaryIs><innerBoundaryIs><LinearRing><coordinates>59.8606762617589,45.6550776848064 59.8647186805375,45.6558861685621 59.8620237346851,45.6564251577326 59.8606762617589,45.6550776848064</coordinates></LinearRing></innerBoundaryIs><innerBoundaryIs><LinearRing><coordinates>59.8548372124121,45.6609167341532 59.8579813159065,45.6631625223635 59.8512439512757,45.6698998869944 59.8485490054233,45.6698998869944 59.8445065866448,45.6658574682159 59.8445065866448,45.6604675765112 59.8485490054233,45.6564251577326 59.8494064881945,45.6570376454263 59.8472015324971,45.6577726306588 59.853938897128,45.6618150494373 59.8548372124121,45.6609167341532</coordinates></LinearRing></innerBoundaryIs><innerBoundaryIs><LinearRing><coordinates>59.8943630849134,45.6672049411421 59.8876257202825,45.6658574682159 59.8943630849134,45.6645099952897 59.8957105578396,45.6631625223635 59.8970580307657,45.6645099952897 59.9037953953966,45.6631625223635 59.8943630849134,45.6672049411421</coordinates></LinearRing></innerBoundaryIs><innerBoundaryIs><LinearRing><coordinates>59.8930156119872,45.68202714333 59.8930156119872,45.6766372516253 59.8903206661349,45.673942305773 59.891668139061,45.6725948328468 59.8957105578396,45.6766372516253 59.8957105578396,45.68202714333 59.8930156119872,45.68202714333</coordinates></LinearRing></innerBoundaryIs><innerBoundaryIs><LinearRing><coordinates>59.9105327600275,45.6429504284708 59.9091852871014,45.6389080096923 59.9105327600275,45.6375605367661 59.9118802329537,45.6416029555446 59.9105327600275,45.6429504284708</coordinates></LinearRing></innerBoundaryIs><innerBoundaryIs><LinearRing><coordinates>59.8781934097992,45.6564251577326 59.8768459368731,45.6550776848064 59.8781934097992,45.6537302118803 59.8781934097992,45.6564251577326</coordinates></LinearRing></innerBoundaryIs><innerBoundaryIs><LinearRing><coordinates>59.8606762617589,45.6469928472494 59.8593287888327,45.6483403201755 59.8579813159065,45.6469928472494 59.8606762617589,45.6469928472494</coordinates></LinearRing></innerBoundaryIs></Polygon><Polygon><outerBoundaryIs><LinearRing><coordinates>59.8525914242018,45.6658574682159 59.8458540595709,45.659120103585 59.8445065866448,45.6658574682159 59.8512439512757,45.6698998869944 59.8525914242018,45.6658574682159</coordinates></LinearRing></outerBoundaryIs></Polygon><Polygon><outerBoundaryIs><LinearRing><coordinates>59.8404641678662,45.6941543996656 59.8364217490877,45.6955018725918 59.8377692220139,45.696849345518 59.8431591137186,45.6995442913704 59.8512439512757,45.6995442913704 59.8525914242018,45.6981968184442 59.8445065866448,45.6901119808871 59.8458540595709,45.6887645079609 59.8485490054233,45.6914594538133 59.8512439512757,45.6887645079609 59.853938897128,45.6941543996656 59.8566338429804,45.6914594538133 59.8674136263898,45.6914594538133 59.8701085722422,45.6941543996656 59.8741509910207,45.6901119808871 59.8674136263898,45.6860695621086 59.8593287888327,45.6860695621086 59.8566338429804,45.6887645079609 59.853938897128,45.6860695621086 59.8283369115306,45.6874170350347 59.8323793303091,45.6914594538133 59.8404641678662,45.6914594538133 59.8404641678662,45.6941543996656</coordinates></LinearRing></outerBoundaryIs></Polygon><Polygon><outerBoundaryIs><LinearRing><coordinates>59.8674136263898,45.7049341830751 59.8728035180945,45.7049341830751 59.8768459368731,45.7008917642965 59.8781934097992,45.6941543996656 59.8903206661349,45.6928069267395 59.883583301504,45.6887645079609 59.8781934097992,45.6887645079609 59.8701085722422,45.6995442913704 59.8620237346851,45.6995442913704 59.8579813159065,45.7035867101489 59.8647186805375,45.7076291289274 59.8674136263898,45.7049341830751</coordinates></LinearRing></outerBoundaryIs></Polygon><Polygon><outerBoundaryIs><LinearRing><coordinates>59.9037953953966,45.711671547706 59.8997529766181,45.7076291289274 59.8970580307657,45.7103240747798 59.8943630849134,45.7022392372227 59.891668139061,45.7076291289274 59.8889731932087,45.7049341830751 59.883583301504,45.7049341830751 59.8822358285778,45.7089766018536 59.891668139061,45.7103240747798 59.8997529766181,45.7157139664845 59.9037953953966,45.711671547706</coordinates></LinearRing></outerBoundaryIs></Polygon><Polygon><outerBoundaryIs><LinearRing><coordinates>59.8728035180945,45.7157139664845 59.8701085722422,45.7130190206322 59.8633712076113,45.7143664935583 59.8674136263898,45.7184089123369 59.8701085722422,45.7184089123369 59.868761099316,45.719756385263 59.8754984639469,45.7211038581892 59.8754984639469,45.7184089123369 59.8781934097992,45.7211038581892 59.8822358285778,45.719756385263 59.8781934097992,45.7157139664845 59.8728035180945,45.7157139664845</coordinates></LinearRing></outerBoundaryIs></Polygon><Polygon><outerBoundaryIs><LinearRing><coordinates>59.8943630849134,45.7237988040416 59.8943630849134,45.7184089123369 59.891668139061,45.7184089123369 59.8876257202825,45.7224513311154 59.8943630849134,45.7237988040416</coordinates></LinearRing></outerBoundaryIs></Polygon><Polygon><outerBoundaryIs><LinearRing><coordinates>59.8862782473563,45.7237988040416 59.8862782473563,45.7211038581892 59.8781934097992,45.7211038581892 59.8768459368731,45.7224513311154 59.8862782473563,45.7237988040416</coordinates></LinearRing></outerBoundaryIs></Polygon><Polygon><outerBoundaryIs><LinearRing><coordinates>59.8377692220139,45.7291886957463 59.8263910613787,45.7291886957463 59.8263910613787,45.7318836415987 59.8263910613787,45.7343547580755 59.844394671957,45.7343547580755 59.8431591137186,45.7318836415987 59.8377692220139,45.7318836415987 59.8377692220139,45.7291886957463</coordinates></LinearRing></outerBoundaryIs></Polygon><Polygon><outerBoundaryIs><LinearRing><coordinates>59.9172701246584,45.6981968184442 59.9240074892893,45.6995442913704 59.9253549622155,45.6981968184442 59.921312543437,45.6941543996656 59.9172701246584,45.6955018725918 59.9172701246584,45.6981968184442</coordinates></LinearRing></outerBoundaryIs></Polygon><Polygon><outerBoundaryIs><LinearRing><coordinates>59.9263910613787,45.7097228108567 59.9263910613787,45.7055354469981 59.9263910613787,45.7049341830751 59.9263910613787,45.7022392372227 59.9105327600275,45.7022392372227 59.9091852871014,45.7035867101489 59.9132277058799,45.7076291289274 59.9159226517323,45.7049341830751 59.921312543437,45.7130190206322 59.9226600163632,45.7062816560013 59.9236224970247,45.7060891598689 59.9226600163632,45.7089766018536 59.9263910613787,45.7097228108567</coordinates></LinearRing></outerBoundaryIs></Polygon><Polygon><outerBoundaryIs><LinearRing><coordinates>59.9186175975846,45.7157139664845 59.9132277058799,45.7157139664845 59.9132277058799,45.7130190206322 59.9199650705108,45.711671547706 59.9105327600275,45.7076291289274 59.9037953953966,45.7089766018536 59.9091852871014,45.711671547706 59.9105327600275,45.7184089123369 59.921312543437,45.7184089123369 59.9253549622155,45.7143664935583 59.921312543437,45.7130190206322 59.9186175975846,45.7157139664845</coordinates></LinearRing></outerBoundaryIs></Polygon><Polygon><outerBoundaryIs><LinearRing><coordinates>59.9263910613787,45.7203093341594 59.9263910613787,45.7158177577388 59.9226600163632,45.7170614394107 59.9240074892893,45.7211038581892 59.9263910613787,45.7203093341594</coordinates></LinearRing></outerBoundaryIs></Polygon><Polygon><outerBoundaryIs><LinearRing><coordinates>59.9091852871014,45.7251462769678 59.9024479224705,45.7211038581892 59.9011004495443,45.7278412228201 59.9078378141752,45.7291886957463 59.9091852871014,45.7251462769678</coordinates></LinearRing></outerBoundaryIs></Polygon><Polygon><outerBoundaryIs><LinearRing><coordinates>59.9159226517323,45.7318836415987 59.9172701246584,45.7278412228201 59.9105327600275,45.7237988040416 59.9091852871014,45.7278412228201 59.9159226517323,45.7318836415987</coordinates></LinearRing></outerBoundaryIs></Polygon><Polygon><outerBoundaryIs><LinearRing><coordinates>59.9172701246584,45.7305361686725 59.9186175975846,45.7318836415987 59.9240074892893,45.7291886957463 59.9240074892893,45.7264937498939 59.9186175975846,45.7264937498939 59.9172701246584,45.7305361686725</coordinates></LinearRing></outerBoundaryIs></Polygon><Polygon><outerBoundaryIs><LinearRing><coordinates>59.9263910613787,45.7343547580755 59.9263910613787,45.7299145091746 59.9253549622155,45.7305361686725 59.9261186800961,45.7343547580755 59.9263910613787,45.7343547580755</coordinates></LinearRing></outerBoundaryIs></Polygon></MultiGeometry>
  </Placemark>
</Folder>
</Document></kml>
