<?xml version="1.0" encoding="utf-8" ?>
<kml xmlns="http://www.opengis.net/kml/2.2">
<Document id="root_doc">
<Schema name="task_grid_v6_45.38_58.88" id="task_grid_v6_45.38_58.88">
	<SimpleField name="area_ha" type="float"></SimpleField>
	<SimpleField name="low_risk_ha" type="float"></SimpleField>
	<SimpleField name="moderate_risk_ha" type="float"></SimpleField>
	<SimpleField name="grid_cell_deg" type="string"></SimpleField>
</Schema>
<Folder><name>task_grid_v6_45.38_58.88</name>
  <Placemark id="task_grid_v6_45.38_58.88.1">
	<name>task_grid_v6_45.38_58.88</name>
	<name>0</name>
	<description>55.8</description>
	<Style><LineStyle><color>ff0000ff</color></LineStyle><PolyStyle><fill>0</fill></PolyStyle></Style>
	<ExtendedData><SchemaData schemaUrl="#task_grid_v6_45.38_58.88">
		<SimpleData name="area_ha">55.8</SimpleData>
		<SimpleData name="low_risk_ha">0.1</SimpleData>
	</SchemaData></ExtendedData>
      <MultiGeometry><Polygon><outerBoundaryIs><LinearRing><coordinates>58.9201401592858,45.426007287356 58.9187926863596,45.4219648685774 58.9147502675811,45.4233123415036 58.9160977405072,45.4273547602821 58.9201401592858,45.426007287356</coordinates></LinearRing></outerBoundaryIs></Polygon><Polygon><outerBoundaryIs><LinearRing><coordinates>58.9120553217287,45.4206173956512 58.9117067995575,45.420036525366 58.9005716802465,45.4258868009173 58.9012755383193,45.4287022332083 58.9053179570978,45.4300497061345 58.9120553217287,45.4206173956512</coordinates></LinearRing></outerBoundaryIs></Polygon></MultiGeometry>
  </Placemark>
</Folder>
</Document></kml>
