<?xml version="1.0" encoding="utf-8" ?>
<kml xmlns="http://www.opengis.net/kml/2.2">
<Document id="root_doc">
<Schema name="task_grid_v6_45.81_59.36" id="task_grid_v6_45.81_59.36">
	<SimpleField name="area_ha" type="float"></SimpleField>
	<SimpleField name="low_risk_ha" type="float"></SimpleField>
	<SimpleField name="moderate_risk_ha" type="float"></SimpleField>
	<SimpleField name="grid_cell_deg" type="string"></SimpleField>
</Schema>
<Folder><name>task_grid_v6_45.81_59.36</name>
  <Placemark id="task_grid_v6_45.81_59.36.1">
	<name>task_grid_v6_45.81_59.36</name>
	<name>1315.2</name>
	<description>1358</description>
	<Style><LineStyle><color>ff0000ff</color></LineStyle><PolyStyle><fill>0</fill></PolyStyle></Style>
	<ExtendedData><SchemaData schemaUrl="#task_grid_v6_45.81_59.36">
		<SimpleData name="area_ha">42.8</SimpleData>
		<SimpleData name="low_risk_ha">0.1</SimpleData>
	</SchemaData></ExtendedData>
      <MultiGeometry><Polygon><outerBoundaryIs><LinearRing><coordinates>59.3149497266563,45.772307829384 59.3102213862645,45.772307829384 59.3102213862645,45.7817401398673 59.3136022537301,45.7817401398673 59.3109073078778,45.7763502481626 59.3164557258091,45.78348392836 59.3136022537301,45.7844350857197 59.3149497266563,45.7857825586458 59.3131530960881,45.78668087393 59.3102213862645,45.7837491641064 59.3102213862645,45.7881467288417 59.3102213862645,45.7882569873939 59.3102213862645,45.7926376113592 59.3149497266563,45.7992572879076 59.3311194017705,45.80195223376 59.3324668746966,45.8059946525385 59.3392042393275,45.8100370713171 59.3459416039584,45.8086895983909 59.3405517122537,45.8059946525385 59.3445941310322,45.8046471796123 59.3513314956631,45.8086895983909 59.3486365498108,45.8113845442432 59.3526789685893,45.8154269630218 59.358068860294,45.8154269630218 59.3607638061464,45.8181219088741 59.3648062249249,45.8140794900956 59.3621112790726,45.8113845442432 59.3634587519988,45.8046471796123 59.3715435895558,45.8046471796123 59.3769334812606,45.8073421254647 59.3796284271129,45.8046471796123 59.3984930480794,45.8046471796123 59.4102213862645,45.8101204040987 59.4102213862645,45.7929188414272 59.4038829397841,45.7992572879076 59.4011879939318,45.7965623420553 59.3931031563747,45.7965623420553 59.3904082105223,45.7938673962029 59.38771326467,45.7965623420553 59.3823233729653,45.7938673962029 59.3769334812606,45.7965623420553 59.3742385354082,45.7938673962029 59.3661536978511,45.7938673962029 59.3634587519988,45.7911724503506 59.3607638061464,45.7938673962029 59.358068860294,45.7884775044982 59.3526789685893,45.7857825586458 59.3486365498108,45.787130031572 59.3472890768846,45.7911724503506 59.3338143476228,45.7911724503506 59.3284244559181,45.7830876127935 59.3230345642134,45.7830876127935 59.3149497266563,45.7750027752364 59.3149497266563,45.772307829384</coordinates></LinearRing></outerBoundaryIs><innerBoundaryIs><LinearRing><coordinates>59.3187675666138,45.7864562951089 59.320339618361,45.7884775044982 59.3270769829919,45.7925199232767 59.3257295100657,45.7938673962029 59.320339618361,45.7911724503506 59.3176446725087,45.7884775044982 59.3189921454348,45.787130031572 59.3187675666138,45.7864562951089</coordinates></LinearRing></innerBoundaryIs><innerBoundaryIs><LinearRing><coordinates>59.3540264415155,45.8059946525385 59.358068860294,45.80195223376 59.3594163332202,45.8032997066862 59.3553739144417,45.8073421254647 59.3540264415155,45.8059946525385</coordinates></LinearRing></innerBoundaryIs><innerBoundaryIs><LinearRing><coordinates>59.3594163332202,45.8113845442432 59.3567213873679,45.8113845442432 59.358068860294,45.8100370713171 59.3594163332202,45.8113845442432</coordinates></LinearRing></innerBoundaryIs><innerBoundaryIs><LinearRing><coordinates>59.349984022737,45.8046471796123 59.349984022737,45.80195223376 59.3513314956631,45.8032997066862 59.349984022737,45.8046471796123</coordinates></LinearRing></innerBoundaryIs><innerBoundaryIs><LinearRing><coordinates>59.3432466581061,45.7979098149814 59.3459416039584,45.7979098149814 59.3445941310322,45.7992572879076 59.3432466581061,45.7979098149814</coordinates></LinearRing></innerBoundaryIs></Polygon><Polygon><outerBoundaryIs><LinearRing><coordinates>59.4092728314888,45.8342915839883 59.4079253585627,45.8329441110621 59.4102213862645,45.8306480833602 59.4102213862645,45.8298502470593 59.4065778856365,45.8262067464312 59.402535466858,45.8302491652098 59.4052304127103,45.8356390569145 59.4102213862645,45.8363520531365 59.4102213862645,45.8333430292126 59.4092728314888,45.8342915839883</coordinates></LinearRing></outerBoundaryIs></Polygon></MultiGeometry>
  </Placemark>
</Folder>
</Document></kml>
