<?xml version="1.0" encoding="utf-8" ?>
<kml xmlns="http://www.opengis.net/kml/2.2">
<Document id="root_doc">
<Schema name="task_grid_v6_46.08_59.08" id="task_grid_v6_46.08_59.08">
	<SimpleField name="area_ha" type="float"></SimpleField>
	<SimpleField name="low_risk_ha" type="float"></SimpleField>
	<SimpleField name="moderate_risk_ha" type="float"></SimpleField>
	<SimpleField name="grid_cell_deg" type="string"></SimpleField>
</Schema>
<Folder><name>task_grid_v6_46.08_59.08</name>
  <Placemark id="task_grid_v6_46.08_59.08.1">
	<name>task_grid_v6_46.08_59.08</name>
	<name>12.3</name>
	<description>31.1</description>
	<Style><LineStyle><color>ff0000ff</color></LineStyle><PolyStyle><fill>0</fill></PolyStyle></Style>
	<ExtendedData><SchemaData schemaUrl="#task_grid_v6_46.08_59.08">
		<SimpleData name="area_ha">18.8</SimpleData>
		<SimpleData name="low_risk_ha">0.1</SimpleData>
	</SchemaData></ExtendedData>
      <MultiGeometry><Polygon><outerBoundaryIs><LinearRing><coordinates>59.0387177767895,46.0377599958414 59.0353125390237,46.0343547580755 59.0344629643401,46.0343547580755 59.0333278850848,46.0377599958414 59.0373703038634,46.0391074687675 59.0387177767895,46.0377599958414</coordinates></LinearRing></outerBoundaryIs></Polygon><Polygon><outerBoundaryIs><LinearRing><coordinates>59.0575823977561,46.0593195626602 59.0562349248299,46.0525821980293 59.0521925060513,46.0593195626602 59.0535399789775,46.0606670355864 59.0575823977561,46.0593195626602</coordinates></LinearRing></outerBoundaryIs></Polygon></MultiGeometry>
  </Placemark>
</Folder>
</Document></kml>
