<?xml version="1.0" encoding="utf-8" ?>
<kml xmlns="http://www.opengis.net/kml/2.2">
<Document id="root_doc">
<Schema name="task_grid_v6_46.41_60.36" id="task_grid_v6_46.41_60.36">
	<SimpleField name="area_ha" type="float"></SimpleField>
	<SimpleField name="low_risk_ha" type="float"></SimpleField>
	<SimpleField name="moderate_risk_ha" type="float"></SimpleField>
	<SimpleField name="grid_cell_deg" type="string"></SimpleField>
</Schema>
<Folder><name>task_grid_v6_46.41_60.36</name>
  <Placemark id="task_grid_v6_46.41_60.36.1">
	<name>task_grid_v6_46.41_60.36</name>
	<name>65.40000000000001</name>
	<description>65.40000000000001</description>
	<Style><LineStyle><color>ff0000ff</color></LineStyle><PolyStyle><fill>0</fill></PolyStyle></Style>
	<ExtendedData><SchemaData schemaUrl="#task_grid_v6_46.41_60.36">
		<SimpleData name="area_ha">0</SimpleData>
		<SimpleData name="low_risk_ha">0.1</SimpleData>
	</SchemaData></ExtendedData>
      <MultiGeometry><Polygon><outerBoundaryIs><LinearRing><coordinates>60.3632836632238,46.3651959169029 60.3647457586489,46.3625641451378 60.3600974436712,46.3625641451378 60.3592412444452,46.3638484439767 60.3632836632238,46.3651959169029</coordinates></LinearRing></outerBoundaryIs></Polygon><Polygon><outerBoundaryIs><LinearRing><coordinates>60.3255544212908,46.3894504295742 60.320164529586,46.3894504295742 60.3188170566599,46.3907979025003 60.3255544212908,46.3948403212789 60.3255544212908,46.3894504295742</coordinates></LinearRing></outerBoundaryIs></Polygon><Polygon><outerBoundaryIs><LinearRing><coordinates>60.3336392588478,46.4002302129836 60.3417240964049,46.4002302129836 60.3417240964049,46.3975352671312 60.3282493671431,46.3975352671312 60.3269018942169,46.3988827400574 60.3309443129955,46.4029251588359 60.3336392588478,46.4002302129836</coordinates></LinearRing></outerBoundaryIs></Polygon></MultiGeometry>
  </Placemark>
</Folder>
</Document></kml>
