<?xml version="1.0" encoding="utf-8" ?>
<kml xmlns="http://www.opengis.net/kml/2.2">
<Document id="root_doc">
<Schema name="task_grid_v6_46.18_60.08" id="task_grid_v6_46.18_60.08">
	<SimpleField name="area_ha" type="float"></SimpleField>
	<SimpleField name="low_risk_ha" type="float"></SimpleField>
	<SimpleField name="moderate_risk_ha" type="float"></SimpleField>
	<SimpleField name="grid_cell_deg" type="string"></SimpleField>
</Schema>
<Folder><name>task_grid_v6_46.18_60.08</name>
  <Placemark id="task_grid_v6_46.18_60.08.1">
	<name>task_grid_v6_46.18_60.08</name>
	<name>2361</name>
	<description>3171.3</description>
	<Style><LineStyle><color>ff0000ff</color></LineStyle><PolyStyle><fill>0</fill></PolyStyle></Style>
	<ExtendedData><SchemaData schemaUrl="#task_grid_v6_46.18_60.08">
		<SimpleData name="area_ha">810.3</SimpleData>
		<SimpleData name="low_risk_ha">0.1</SimpleData>
	</SchemaData></ExtendedData>
      <MultiGeometry><Polygon><outerBoundaryIs><LinearRing><coordinates>60.0263910613787,46.1414910408569 60.0263910613787,46.1482527757881 60.0277629046051,46.1482527757881 60.026415431679,46.1496002487142 60.0263910613787,46.149575878414 60.0263910613787,46.1522951945666 60.0291103775313,46.1522951945666 60.0358477421622,46.1482527757881 60.0318053233837,46.1415154111572 60.0371952150884,46.1496002487142 60.0358477421622,46.1509477216404 60.0425851067931,46.1522951945666 60.0425851067931,46.1496002487142 60.0452800526455,46.1522951945666 60.0506699443502,46.1522951945666 60.0439325797193,46.1536426674928 60.0506699443502,46.1576850862713 60.0560598360549,46.1576850862713 60.0587547819073,46.154990140419 60.0614497277596,46.1603800321237 60.064144673612,46.1576850862713 60.0695345653167,46.163074977976 60.0722295111691,46.1603800321237 60.0749244570214,46.1603800321237 60.0857042404309,46.1603800321237 60.087051713357,46.1617275050499 60.0843567675047,46.1644224509022 60.0910941321356,46.1684648696807 60.0937890779879,46.1657699238284 60.0991789696926,46.1657699238284 60.1032213884712,46.1590325591975 60.0991789696926,46.1442103570095 60.101873915545,46.1469053028619 60.1059163343235,46.140167938231 60.1032213884712,46.1347780465263 60.1099587531021,46.1442103570095 60.1113062260283,46.1428628840833 60.1126536989544,46.1442103570095 60.1220860094377,46.1428628840833 60.1140011718806,46.1455578299357 60.1261284282162,46.1603800321237 60.1263910613787,46.1603508506612 60.1263910613787,46.1552527735814 60.12478095529,46.1536426674928 60.1263910613787,46.1529526220262 60.1263910613787,46.1393457316297 60.1261284282162,46.1388204653048 60.1193910635853,46.1374729923786 60.118351652151,46.1343547580755 60.1036446769219,46.1343547580755 60.0263910613787,46.1343547580755 60.0263910613787,46.1414666705566 60.026415431679,46.1415154111572 60.0263910613787,46.1414910408569</coordinates></LinearRing></outerBoundaryIs><innerBoundaryIs><LinearRing><coordinates>60.0560598360549,46.1522951945666 60.0533648902025,46.154990140419 60.0506699443502,46.1522951945666 60.0560598360549,46.1522951945666</coordinates></LinearRing></innerBoundaryIs><innerBoundaryIs><LinearRing><coordinates>60.0978314967665,46.1563376133451 60.0978314967665,46.1455578299357 60.0991789696926,46.1442103570095 60.0978314967665,46.1563376133451</coordinates></LinearRing></innerBoundaryIs><innerBoundaryIs><LinearRing><coordinates>60.0937890779879,46.1603800321237 60.0920566127971,46.1598025437267 60.0978314967665,46.1563376133451 60.0937890779879,46.1603800321237</coordinates></LinearRing></innerBoundaryIs><innerBoundaryIs><LinearRing><coordinates>60.1153486448068,46.1388204653048 60.1140011718806,46.140167938231 60.1113062260283,46.1374729923786 60.1126536989544,46.1361255194524 60.1220860094377,46.1428628840833 60.1153486448068,46.1388204653048</coordinates></LinearRing></innerBoundaryIs><innerBoundaryIs><LinearRing><coordinates>60.0910941321356,46.1594817168396 60.0897466592094,46.1590325591975 60.0910941321356,46.1576850862713 60.0910941321356,46.1594817168396</coordinates></LinearRing></innerBoundaryIs><innerBoundaryIs><LinearRing><coordinates>60.0547123631287,46.1455578299357 60.0560598360549,46.1442103570095 60.0587547819073,46.1442103570095 60.0587547819073,46.1469053028619 60.0547123631287,46.1455578299357</coordinates></LinearRing></innerBoundaryIs></Polygon><Polygon><outerBoundaryIs><LinearRing><coordinates>60.034500269236,46.1576850862713 60.0318053233837,46.1522951945666 60.0277629046051,46.1563376133451 60.0277629046051,46.1617275050499 60.0398901609408,46.1657699238284 60.0412376338669,46.1644224509022 60.0385426880146,46.1590325591975 60.034500269236,46.1576850862713</coordinates></LinearRing></outerBoundaryIs></Polygon><Polygon><outerBoundaryIs><LinearRing><coordinates>60.0263910613787,46.1711354452328 60.026415431679,46.1711598155331 60.0311315869206,46.1711598155331 60.0304578504575,46.1725072884593 60.034500269236,46.1738547613855 60.0291103775313,46.1738547613855 60.0263910613787,46.1765740775381 60.0263910613787,46.1783382143726 60.0277629046051,46.1787954954481 60.026415431679,46.1792446530902 60.0263910613787,46.1792933936907 60.0263910613787,46.1882359293648 60.0291103775313,46.1873294906473 60.0304578504575,46.1913719094258 60.026415431679,46.1954143282043 60.0263910613787,46.1953997060242 60.0263910613787,46.2008042199091 60.0291103775313,46.2008042199091 60.0318053233837,46.2034991657614 60.049322471424,46.1913719094258 60.0439325797193,46.1805921260164 60.0520174172764,46.1805921260164 60.0520174172764,46.177897180164 60.0560598360549,46.1792446530902 60.0574073089811,46.177897180164 60.0533648902025,46.1684648696807 60.049322471424,46.1698123426069 60.0479749984978,46.1684648696807 60.0479749984978,46.1657699238284 60.0425851067931,46.1657699238284 60.041686791509,46.1666682391125 60.0291103775313,46.163074977976 60.0277629046051,46.1644224509022 60.0263910613787,46.1616787644493 60.0263910613787,46.1711354452328</coordinates></LinearRing></outerBoundaryIs><innerBoundaryIs><LinearRing><coordinates>60.0304578504575,46.177897180164 60.0318053233837,46.1765497072378 60.034500269236,46.1765497072378 60.0304578504575,46.177897180164</coordinates></LinearRing></innerBoundaryIs><innerBoundaryIs><LinearRing><coordinates>60.0371952150884,46.1756513919537 60.0371952150884,46.1747530766696 60.0385426880146,46.1752022343116 60.0371952150884,46.1756513919537</coordinates></LinearRing></innerBoundaryIs><innerBoundaryIs><LinearRing><coordinates>60.0277629046051,46.1832870718687 60.0291103775313,46.1819395989425 60.0291103775313,46.1846345447949 60.0277629046051,46.1832870718687</coordinates></LinearRing></innerBoundaryIs></Polygon><Polygon><outerBoundaryIs><LinearRing><coordinates>60.0533648902025,46.1846345447949 60.0574073089811,46.1832870718687 60.0560598360549,46.1792446530902 60.0520174172764,46.1832870718687 60.0533648902025,46.1846345447949</coordinates></LinearRing></outerBoundaryIs></Polygon><Polygon><outerBoundaryIs><LinearRing><coordinates>60.0277629046051,46.1913719094258 60.0263910613787,46.1900000661993 60.0263910613787,46.1927071972018 60.026415431679,46.192719382352 60.0277629046051,46.1913719094258</coordinates></LinearRing></outerBoundaryIs></Polygon><Polygon><outerBoundaryIs><LinearRing><coordinates>60.0479749984978,46.2169738950232 60.0560598360549,46.2115840033185 60.0587547819073,46.2142789491708 60.0654921465382,46.2102365303923 60.0574073089811,46.2075415845399 60.0574073089811,46.1913719094258 60.0520174172764,46.1913719094258 60.0520174172764,46.1967618011305 60.0547123631287,46.1994567469829 60.0533648902025,46.2088890574661 60.0452800526455,46.2088890574661 60.0425851067931,46.2115840033185 60.0263910613787,46.2115840033185 60.0263910613787,46.2241441704293 60.0318053233837,46.2277536784326 60.0452800526455,46.2277536784326 60.0466275255717,46.2237112596541 60.0439325797193,46.2210163138017 60.0479749984978,46.2169738950232</coordinates></LinearRing></outerBoundaryIs></Polygon><Polygon><outerBoundaryIs><LinearRing><coordinates>60.0560598360549,46.1657699238284 60.0601022548334,46.1644224509022 60.0587547819073,46.1603800321237 60.0547123631287,46.1644224509022 60.0560598360549,46.1657699238284</coordinates></LinearRing></outerBoundaryIs></Polygon><Polygon><outerBoundaryIs><LinearRing><coordinates>60.0735769840952,46.1617275050499 60.0776194028738,46.1657699238284 60.0830092945785,46.1657699238284 60.087051713357,46.1617275050499 60.0749244570214,46.1603800321237 60.0735769840952,46.1617275050499</coordinates></LinearRing></outerBoundaryIs></Polygon><Polygon><outerBoundaryIs><LinearRing><coordinates>60.0910941321356,46.1738547613855 60.0910941321356,46.1711598155331 60.0830092945785,46.1711598155331 60.0816618216523,46.1725072884593 60.0910941321356,46.1738547613855</coordinates></LinearRing></outerBoundaryIs></Polygon><Polygon><outerBoundaryIs><LinearRing><coordinates>60.0762719299476,46.1752022343116 60.0803143487261,46.1792446530902 60.0830092945785,46.1792446530902 60.0816618216523,46.1805921260164 60.0883991862832,46.1819395989425 60.0883991862832,46.1792446530902 60.0937890779879,46.1792446530902 60.0964840238403,46.1765497072378 60.101873915545,46.1792446530902 60.1086112801759,46.1752022343116 60.1113062260283,46.1725072884593 60.101873915545,46.1711598155331 60.0991789696926,46.1738547613855 60.0910941321356,46.1738547613855 60.0830092945785,46.1738547613855 60.0816618216523,46.1725072884593 60.0803143487261,46.1711598155331 60.0762719299476,46.1752022343116</coordinates></LinearRing></outerBoundaryIs></Polygon><Polygon><outerBoundaryIs><LinearRing><coordinates>60.0776194028738,46.2142789491708 60.0776194028738,46.2115840033185 60.0722295111691,46.2115840033185 60.0708820382429,46.2129314762447 60.0776194028738,46.2142789491708</coordinates></LinearRing></outerBoundaryIs></Polygon></MultiGeometry>
  </Placemark>
</Folder>
</Document></kml>
