<?xml version="1.0" encoding="utf-8" ?>
<kml xmlns="http://www.opengis.net/kml/2.2">
<Document id="root_doc">
<Schema name="task_grid_v6_45.41_61.16" id="task_grid_v6_45.41_61.16">
	<SimpleField name="area_ha" type="float"></SimpleField>
	<SimpleField name="low_risk_ha" type="float"></SimpleField>
	<SimpleField name="moderate_risk_ha" type="float"></SimpleField>
	<SimpleField name="grid_cell_deg" type="string"></SimpleField>
</Schema>
<Folder><name>task_grid_v6_45.41_61.16</name>
  <Placemark id="task_grid_v6_45.41_61.16.1">
	<name>task_grid_v6_45.41_61.16</name>
	<name>291.8</name>
	<description>2409.7</description>
	<Style><LineStyle><color>ff0000ff</color></LineStyle><PolyStyle><fill>0</fill></PolyStyle></Style>
	<ExtendedData><SchemaData schemaUrl="#task_grid_v6_45.41_61.16">
		<SimpleData name="area_ha">2117.8</SimpleData>
		<SimpleData name="low_risk_ha">0.1</SimpleData>
	</SchemaData></ExtendedData>
      <MultiGeometry><Polygon><outerBoundaryIs><LinearRing><coordinates>61.1475129062601,45.3680659515303 61.1502078521125,45.3653710056779 61.1555977438172,45.3680659515303 61.1610995502097,45.3625641451378 61.155709658505,45.3625641451378 61.1555977438172,45.3626760598255 61.1552619997539,45.3625641451378 61.1468951271409,45.3625641451378 61.1461654333339,45.3640235327517 61.1475129062601,45.3680659515303</coordinates></LinearRing></outerBoundaryIs></Polygon><Polygon><outerBoundaryIs><LinearRing><coordinates>61.1102213862645,45.3810686517407 61.1102213862645,45.383797904707 61.1102213862645,45.3838322118209 61.1102213862645,45.4132234481142 61.1151735560318,45.4057951934633 61.1205634477365,45.4057951934633 61.1246058665151,45.4017527746847 61.1232583935889,45.3977103559062 61.1205634477365,45.4004053017586 61.1192159748104,45.3990578288324 61.1259533394413,45.3896255183491 61.1286482852936,45.3923204642015 61.1326907040722,45.3909729912753 61.1299957582198,45.3882780454229 61.131343231146,45.3788457349397 61.1367331228507,45.3842356266444 61.1407755416292,45.3828881537182 61.1340381769983,45.373455843235 61.131343231146,45.3761507890873 61.1273008123674,45.3721083703088 61.1273008123674,45.3667184786041 61.1299957582198,45.3640235327517 61.1295092956818,45.3625641451378 61.1206753624243,45.3625641451378 61.1102213862645,45.3625641451378 61.1102213862645,45.3739278722863 61.1102213862645,45.3792834568771 61.1102213862645,45.3810686517407</coordinates></LinearRing></outerBoundaryIs><innerBoundaryIs><LinearRing><coordinates>61.1106819796112,45.3819898384341 61.1111311372533,45.3828881537182 61.1102328219692,45.3837864690023 61.1106819796112,45.3819898384341</coordinates></LinearRing></innerBoundaryIs><innerBoundaryIs><LinearRing><coordinates>61.1151735560318,45.3950154100538 61.1138260831056,45.3936679371277 61.1178685018842,45.3896255183491 61.1205634477365,45.3896255183491 61.1205634477365,45.3923204642015 61.1151735560318,45.3950154100538</coordinates></LinearRing></innerBoundaryIs></Polygon><Polygon><outerBoundaryIs><LinearRing><coordinates>61.1502078521125,45.381540680792 61.1502078521125,45.3788457349397 61.1421230145554,45.3788457349397 61.1407755416292,45.3801932078659 61.1502078521125,45.381540680792</coordinates></LinearRing></outerBoundaryIs></Polygon><Polygon><outerBoundaryIs><LinearRing><coordinates>61.1219109206627,45.4448719083225 61.1286482852936,45.4462193812487 61.1286482852936,45.4435244353963 61.1326907040722,45.4367870707654 61.1178685018842,45.4354395978392 61.116521028958,45.4394820166178 61.1178685018842,45.4408294895439 61.1232583935889,45.4381345436916 61.1232583935889,45.4435244353963 61.1219109206627,45.4448719083225</coordinates></LinearRing></outerBoundaryIs></Polygon><Polygon><outerBoundaryIs><LinearRing><coordinates>61.1367331228507,45.448914327101 61.1353856499245,45.4421769624701 61.1326907040722,45.4421769624701 61.1326907040722,45.4502618000272 61.1353856499245,45.4556516917319 61.1286482852936,45.4569991646581 61.1259533394413,45.4543042188057 61.1192159748104,45.4583466375843 61.1286482852936,45.4596941105104 61.131343231146,45.4623890563628 61.1475129062601,45.4596941105104 61.1503829408875,45.4625641451378 61.1757222933224,45.4625641451378 61.1771573106361,45.4596941105104 61.1852421481931,45.4543042188057 61.1879370940455,45.4569991646581 61.1892845669717,45.4556516917319 61.1852421481931,45.4462193812487 61.1771573106361,45.4462193812487 61.1717674189314,45.4516092729534 61.1636825813743,45.4516092729534 61.1609876355219,45.4596941105104 61.1623351084481,45.4529567458796 61.1609876355219,45.4516092729534 61.1623351084481,45.4502618000272 61.1650300543005,45.4394820166178 61.1677250001528,45.4367870707654 61.1623351084481,45.434092124913 61.1623351084481,45.4313971790607 61.1677250001528,45.4287022332083 61.1677250001528,45.426007287356 61.1636825813743,45.4246598144298 61.1650300543005,45.4233123415036 61.1582926896696,45.4219648685774 61.1623351084481,45.4179224497989 61.1609876355219,45.4138800310204 61.1555977438172,45.4138800310204 61.1515553250387,45.4179224497989 61.1529027979648,45.4246598144298 61.1502078521125,45.4192699227251 61.1461654333339,45.4233123415036 61.1475129062601,45.4273547602821 61.1448179604078,45.4219648685774 61.1407755416292,45.4313971790607 61.1353856499245,45.434092124913 61.1407755416292,45.4394820166178 61.1367331228507,45.448914327101</coordinates></LinearRing></outerBoundaryIs><innerBoundaryIs><LinearRing><coordinates>61.1515553250387,45.4475668541748 61.1527530787508,45.4475668541748 61.1515553250387,45.4583466375843 61.1515553250387,45.4475668541748</coordinates></LinearRing></innerBoundaryIs><innerBoundaryIs><LinearRing><coordinates>61.154250270891,45.4475668541748 61.154250270891,45.4502618000272 61.1533519556069,45.4475668541748 61.154250270891,45.4475668541748</coordinates></LinearRing></innerBoundaryIs><innerBoundaryIs><LinearRing><coordinates>61.1566757221581,45.4537652296353 61.1555977438172,45.4543042188057 61.1552608755857,45.4532936141111 61.1566757221581,45.4537652296353</coordinates></LinearRing></innerBoundaryIs><innerBoundaryIs><LinearRing><coordinates>61.1434704874816,45.4394820166178 61.1475129062601,45.4381345436916 61.1488603791863,45.4421769624701 61.1475129062601,45.4435244353963 61.1434704874816,45.4394820166178</coordinates></LinearRing></innerBoundaryIs><innerBoundaryIs><LinearRing><coordinates>61.1461654333339,45.4529567458796 61.1475129062601,45.4516092729534 61.1488603791863,45.4556516917319 61.1475129062601,45.4569991646581 61.1461654333339,45.4529567458796</coordinates></LinearRing></innerBoundaryIs><innerBoundaryIs><LinearRing><coordinates>61.1744623647837,45.4543042188057 61.1758098377099,45.4556516917319 61.1717674189314,45.4569991646581 61.1704199460052,45.4556516917319 61.1744623647837,45.4543042188057</coordinates></LinearRing></innerBoundaryIs><innerBoundaryIs><LinearRing><coordinates>61.1582926896696,45.4327446519869 61.1582926896696,45.4354395978392 61.1555977438172,45.4354395978392 61.154250270891,45.434092124913 61.1582926896696,45.4327446519869</coordinates></LinearRing></innerBoundaryIs><innerBoundaryIs><LinearRing><coordinates>61.1448179604078,45.4462193812487 61.1461654333339,45.4475668541748 61.1434704874816,45.4475668541748 61.1448179604078,45.4462193812487</coordinates></LinearRing></innerBoundaryIs><innerBoundaryIs><LinearRing><coordinates>61.1569452167434,45.4394820166178 61.1555977438172,45.4408294895439 61.1555977438172,45.4381345436916 61.1569452167434,45.4394820166178</coordinates></LinearRing></innerBoundaryIs><innerBoundaryIs><LinearRing><coordinates>61.1448179604078,45.4327446519869 61.1434704874816,45.4313971790607 61.1461654333339,45.4313971790607 61.1448179604078,45.4327446519869</coordinates></LinearRing></innerBoundaryIs></Polygon><Polygon><outerBoundaryIs><LinearRing><coordinates>61.1124786101795,45.4516092729534 61.1124786101795,45.4408294895439 61.1102213862645,45.4453439373738 61.1102213862645,45.4502549386044 61.1124786101795,45.4516092729534</coordinates></LinearRing></outerBoundaryIs></Polygon><Polygon><outerBoundaryIs><LinearRing><coordinates>61.1205634477365,45.4543042188057 61.1246058665151,45.4502618000272 61.1205634477365,45.448914327101 61.1138260831056,45.4529567458796 61.1205634477365,45.4543042188057</coordinates></LinearRing></outerBoundaryIs></Polygon><Polygon><outerBoundaryIs><LinearRing><coordinates>61.1176934131092,45.4625641451378 61.1192159748104,45.4610415834366 61.1111311372533,45.4610415834366 61.1112695519534,45.4625641451378 61.1176934131092,45.4625641451378</coordinates></LinearRing></outerBoundaryIs></Polygon><Polygon><outerBoundaryIs><LinearRing><coordinates>61.1937279658274,45.3625641451378 61.1916428694261,45.3625641451378 61.1933269857502,45.3653710056779 61.1937279658274,45.3625641451378</coordinates></LinearRing></outerBoundaryIs></Polygon><Polygon><outerBoundaryIs><LinearRing><coordinates>61.206801715012,45.373455843235 61.2081491879382,45.3721083703088 61.2027592962335,45.3667184786041 61.2048364629666,45.3625641451378 61.1982450370971,45.3625641451378 61.1973694045288,45.3640235327517 61.2000643503811,45.3667184786041 61.1973694045288,45.3721083703088 61.1987168774549,45.3761507890873 61.2014118233073,45.3761507890873 61.2041067691597,45.3761507890873 61.206801715012,45.373455843235</coordinates></LinearRing></outerBoundaryIs></Polygon><Polygon><outerBoundaryIs><LinearRing><coordinates>61.1704199460052,45.3667184786041 61.1679273459254,45.3625641451378 61.163794496062,45.3625641451378 61.1623351084481,45.3640235327517 61.1650300543005,45.3694134244564 61.1569452167434,45.3748033161612 61.1636825813743,45.3788457349397 61.1677250001528,45.3748033161612 61.1677250001528,45.3694134244564 61.1704199460052,45.3667184786041</coordinates></LinearRing></outerBoundaryIs></Polygon><Polygon><outerBoundaryIs><LinearRing><coordinates>61.2014118233073,45.3869305724968 61.2050692498212,45.3832731459828 61.206801715012,45.3842356266444 61.2102213862645,45.3808159553919 61.2102213862645,45.3791552953225 61.206801715012,45.373455843235 61.2041067691597,45.3788457349397 61.2014118233073,45.3761507890873 61.1946744586764,45.3774982620135 61.1977062727603,45.3791826031712 61.1946744586764,45.3801932078659 61.2014118233073,45.3869305724968</coordinates></LinearRing></outerBoundaryIs></Polygon><Polygon><outerBoundaryIs><LinearRing><coordinates>61.2041067691597,45.3923204642015 61.2102213862645,45.3862058470966 61.2102213862645,45.3849603520446 61.2094966608644,45.3842356266444 61.2027592962335,45.3882780454229 61.2041067691597,45.3923204642015</coordinates></LinearRing></outerBoundaryIs></Polygon><Polygon><outerBoundaryIs><LinearRing><coordinates>61.2102213862645,45.4037569877616 61.2081491879382,45.4044477205371 61.2102213862645,45.4065199188634 61.2102213862645,45.4037569877616</coordinates></LinearRing></outerBoundaryIs></Polygon><Polygon><outerBoundaryIs><LinearRing><coordinates>61.2094966608644,45.4165749768727 61.2102213862645,45.4158502514725 61.2102213862645,45.4146047564205 61.206801715012,45.411185085168 61.2054542420858,45.4152275039465 61.2094966608644,45.4165749768727</coordinates></LinearRing></outerBoundaryIs></Polygon><Polygon><outerBoundaryIs><LinearRing><coordinates>61.1731148918575,45.4421769624701 61.1717674189314,45.4381345436916 61.1677250001528,45.4394820166178 61.169072473079,45.4435244353963 61.1731148918575,45.4421769624701</coordinates></LinearRing></outerBoundaryIs></Polygon></MultiGeometry>
  </Placemark>
</Folder>
</Document></kml>
