<?xml version="1.0" encoding="utf-8" ?>
<kml xmlns="http://www.opengis.net/kml/2.2">
<Document id="root_doc">
<Schema name="task_grid_v6_46.08_59.68" id="task_grid_v6_46.08_59.68">
	<SimpleField name="area_ha" type="float"></SimpleField>
	<SimpleField name="low_risk_ha" type="float"></SimpleField>
	<SimpleField name="moderate_risk_ha" type="float"></SimpleField>
	<SimpleField name="grid_cell_deg" type="string"></SimpleField>
</Schema>
<Folder><name>task_grid_v6_46.08_59.68</name>
  <Placemark id="task_grid_v6_46.08_59.68.1">
	<name>task_grid_v6_46.08_59.68</name>
	<name>154.6</name>
	<description>509.1</description>
	<Style><LineStyle><color>ff0000ff</color></LineStyle><PolyStyle><fill>0</fill></PolyStyle></Style>
	<ExtendedData><SchemaData schemaUrl="#task_grid_v6_46.08_59.68">
		<SimpleData name="area_ha">354.5</SimpleData>
		<SimpleData name="low_risk_ha">0.1</SimpleData>
	</SchemaData></ExtendedData>
      <MultiGeometry><Polygon><outerBoundaryIs><LinearRing><coordinates>59.6599027957582,46.0741417648482 59.6558603769797,46.0808791294791 59.6572078499058,46.0822266024053 59.6612502686844,46.0808791294791 59.6599027957582,46.0741417648482</coordinates></LinearRing></outerBoundaryIs></Polygon><Polygon><outerBoundaryIs><LinearRing><coordinates>59.6855047813556,46.1132184797074 59.6868522542818,46.1145659526336 59.6949370918389,46.1118710067812 59.696284564765,46.1078285880027 59.7003269835436,46.1145659526336 59.7043694023221,46.1132184797074 59.7016744564698,46.110523533855 59.7043694023221,46.1051336421503 59.711106766953,46.1037861692241 59.7151491857315,46.0997437504456 59.711106766953,46.0930063858147 59.7070643481745,46.0943538587409 59.7097592940268,46.0916589128885 59.7084118211007,46.08761649411 59.7029974298882,46.0936678725239 59.6989795106174,46.0916589128885 59.7070643481745,46.0889639670362 59.7057168752483,46.0849215482576 59.7030219293959,46.08761649411 59.6976320376912,46.0795316565529 59.6935896189127,46.0835740753315 59.696284564765,46.0889639670362 59.6908946730603,46.0970488045932 59.6945385435086,46.103121922007 59.6855047813556,46.1132184797074</coordinates></LinearRing></outerBoundaryIs><innerBoundaryIs><LinearRing><coordinates>59.7010755796137,46.1042353268662 59.7003269835436,46.1064811150765 59.696284564765,46.1078285880027 59.7010755796137,46.1042353268662</coordinates></LinearRing></innerBoundaryIs></Polygon><Polygon><outerBoundaryIs><LinearRing><coordinates>59.696284564765,46.1132184797074 59.6949370918389,46.1118710067812 59.6895472001341,46.1145659526336 59.6868522542818,46.1145659526336 59.6814623625771,46.1145659526336 59.6774199437985,46.1213033172645 59.6814623625771,46.1226507901907 59.6868522542818,46.1172608984859 59.6895472001341,46.1226507901907 59.6940387765547,46.1163625832018 59.6949370918389,46.1172608984859 59.6989795106174,46.1159134255598 59.6976320376912,46.1118710067812 59.696284564765,46.1132184797074</coordinates></LinearRing></outerBoundaryIs></Polygon></MultiGeometry>
  </Placemark>
</Folder>
</Document></kml>
