<?xml version="1.0" encoding="utf-8" ?>
<kml xmlns="http://www.opengis.net/kml/2.2">
<Document id="root_doc">
<Schema name="task_grid_v6_46.28_60.18" id="task_grid_v6_46.28_60.18">
	<SimpleField name="area_ha" type="float"></SimpleField>
	<SimpleField name="low_risk_ha" type="float"></SimpleField>
	<SimpleField name="moderate_risk_ha" type="float"></SimpleField>
	<SimpleField name="grid_cell_deg" type="string"></SimpleField>
</Schema>
<Folder><name>task_grid_v6_46.28_60.18</name>
  <Placemark id="task_grid_v6_46.28_60.18.1">
	<name>task_grid_v6_46.28_60.18</name>
	<name>394.6</name>
	<description>424.1</description>
	<Style><LineStyle><color>ff0000ff</color></LineStyle><PolyStyle><fill>0</fill></PolyStyle></Style>
	<ExtendedData><SchemaData schemaUrl="#task_grid_v6_46.28_60.18">
		<SimpleData name="area_ha">29.5</SimpleData>
		<SimpleData name="low_risk_ha">0.1</SimpleData>
	</SchemaData></ExtendedData>
      <MultiGeometry><Polygon><outerBoundaryIs><LinearRing><coordinates>60.1719425077063,46.2493132452515 60.1705950347801,46.25335566403 60.1746374535587,46.2573980828086 60.1759849264849,46.25335566403 60.1719425077063,46.2493132452515</coordinates></LinearRing></outerBoundaryIs></Polygon><Polygon><outerBoundaryIs><LinearRing><coordinates>60.169247561854,46.2654829203657 60.1705950347801,46.2641354474395 60.1679000889278,46.2479657723253 60.1638576701492,46.2412284076944 60.1571203055184,46.2506607181777 60.1584677784445,46.268177866218 60.1665526160016,46.2627879745133 60.169247561854,46.2654829203657</coordinates></LinearRing></outerBoundaryIs></Polygon><Polygon><outerBoundaryIs><LinearRing><coordinates>60.2204515330488,46.305907108151 60.2231464789011,46.3086020540034 60.2263910613787,46.3053574715258 60.2263910613787,46.3029639626229 60.2244939518273,46.2991697435201 60.2164091142702,46.2937798518154 60.2150616413441,46.2897374330369 60.2083242767132,46.2910849059631 60.2083242767132,46.3018646893725 60.2123666954917,46.305907108151 60.2204515330488,46.305907108151</coordinates></LinearRing></outerBoundaryIs></Polygon><Polygon><outerBoundaryIs><LinearRing><coordinates>60.1274759011424,46.3099495269296 60.1263910613787,46.3066950076384 60.1263910613787,46.3103111401841 60.1274759011424,46.3099495269296</coordinates></LinearRing></outerBoundaryIs></Polygon><Polygon><outerBoundaryIs><LinearRing><coordinates>60.1800273452634,46.3086020540034 60.1759849264849,46.3099495269296 60.1759849264849,46.3126444727819 60.1827222911158,46.3166868915605 60.1840697640419,46.3153394186343 60.1800273452634,46.3086020540034</coordinates></LinearRing></outerBoundaryIs></Polygon></MultiGeometry>
  </Placemark>
</Folder>
</Document></kml>
