<?xml version="1.0" encoding="utf-8" ?>
<kml xmlns="http://www.opengis.net/kml/2.2">
<Document id="root_doc">
<Schema name="task_grid_v6_45.98_58.88" id="task_grid_v6_45.98_58.88">
	<SimpleField name="area_ha" type="float"></SimpleField>
	<SimpleField name="low_risk_ha" type="float"></SimpleField>
	<SimpleField name="moderate_risk_ha" type="float"></SimpleField>
	<SimpleField name="grid_cell_deg" type="string"></SimpleField>
</Schema>
<Folder><name>task_grid_v6_45.98_58.88</name>
  <Placemark id="task_grid_v6_45.98_58.88.1">
	<name>task_grid_v6_45.98_58.88</name>
	<name>169.2</name>
	<description>211.5</description>
	<Style><LineStyle><color>ff0000ff</color></LineStyle><PolyStyle><fill>0</fill></PolyStyle></Style>
	<ExtendedData><SchemaData schemaUrl="#task_grid_v6_45.98_58.88">
		<SimpleData name="area_ha">42.2</SimpleData>
		<SimpleData name="low_risk_ha">0.1</SimpleData>
	</SchemaData></ExtendedData>
      <MultiGeometry><Polygon><outerBoundaryIs><LinearRing><coordinates>58.8784852244242,45.9343547580755 58.8780183210243,45.9343547580755 58.8743260797957,45.9380469993041 58.8756735527219,45.9393944722303 58.8797159715004,45.9380469993041 58.8784852244242,45.9343547580755</coordinates></LinearRing></outerBoundaryIs></Polygon><Polygon><outerBoundaryIs><LinearRing><coordinates>58.9241825780643,45.9501742556397 58.9263910613787,45.9488491656511 58.9263910613787,45.9416029555447 58.9241825780643,45.9393944722303 58.9187926863596,45.9393944722303 58.9160977405072,45.9366995263779 58.9080129029502,45.9366995263779 58.9039704841716,45.9407419451565 58.9187926863596,45.9501742556397 58.9241825780643,45.9501742556397</coordinates></LinearRing></outerBoundaryIs></Polygon><Polygon><outerBoundaryIs><LinearRing><coordinates>58.8702836610171,45.9528692014921 58.8648937693124,45.9528692014921 58.8635462963862,45.9542166744182 58.8702836610171,45.9555641473444 58.8702836610171,45.9528692014921</coordinates></LinearRing></outerBoundaryIs></Polygon><Polygon><outerBoundaryIs><LinearRing><coordinates>58.8783684985742,45.9555641473444 58.8729786068695,45.9555641473444 58.8716311339433,45.9569116202706 58.8783684985742,45.9609540390491 58.8783684985742,45.9555641473444</coordinates></LinearRing></outerBoundaryIs></Polygon></MultiGeometry>
  </Placemark>
</Folder>
</Document></kml>
