<?xml version="1.0" encoding="utf-8" ?>
<kml xmlns="http://www.opengis.net/kml/2.2">
<Document id="root_doc">
<Schema name="task_grid_v6_45.28_59.08" id="task_grid_v6_45.28_59.08">
	<SimpleField name="area_ha" type="float"></SimpleField>
	<SimpleField name="low_risk_ha" type="float"></SimpleField>
	<SimpleField name="moderate_risk_ha" type="float"></SimpleField>
	<SimpleField name="grid_cell_deg" type="string"></SimpleField>
</Schema>
<Folder><name>task_grid_v6_45.28_59.08</name>
  <Placemark id="task_grid_v6_45.28_59.08.1">
	<name>task_grid_v6_45.28_59.08</name>
	<name>274.7</name>
	<description>331.5</description>
	<Style><LineStyle><color>ff0000ff</color></LineStyle><PolyStyle><fill>0</fill></PolyStyle></Style>
	<ExtendedData><SchemaData schemaUrl="#task_grid_v6_45.28_59.08">
		<SimpleData name="area_ha">56.8</SimpleData>
		<SimpleData name="low_risk_ha">0.1</SimpleData>
	</SchemaData></ExtendedData>
      <MultiGeometry><Polygon><outerBoundaryIs><LinearRing><coordinates>59.1263910613787,45.3118628833478 59.124956044065,45.3128195615569 59.124956044065,45.3182094532616 59.1263910613787,45.318414455735 59.1263910613787,45.3118628833478</coordinates></LinearRing></outerBoundaryIs></Polygon><Polygon><outerBoundaryIs><LinearRing><coordinates>59.1263910613787,45.3297067453279 59.1263910613787,45.3195569261878 59.1263035169912,45.3195569261878 59.124956044065,45.320904399114 59.1236085711388,45.3195569261878 59.1168712065079,45.3235993449663 59.1141762606556,45.3289892366711 59.1182186794341,45.3330316554496 59.1195661523603,45.3262942908187 59.1222610982127,45.3235993449663 59.124956044065,45.3289892366711 59.1263910613787,45.3297067453279</coordinates></LinearRing></outerBoundaryIs></Polygon><Polygon><outerBoundaryIs><LinearRing><coordinates>59.1033721069459,45.3343547580755 59.1087619986506,45.3343547580755 59.1060914230985,45.3316841825234 59.1114813148032,45.3235993449663 59.1114813148032,45.3165334965729 59.0965967,45.3228973 59.0747891523803,45.3343547580755 59.092641064137,45.3343547580755 59.09330261545,45.3343547580755 59.0952872693888,45.3343547580755 59.0973450342285,45.3343547580755 59.0979944003913,45.3343547580755 59.101076079244,45.3343547580755 59.0993540584676,45.3303367095972 59.1033721069459,45.3343547580755</coordinates></LinearRing></outerBoundaryIs><innerBoundaryIs><LinearRing><coordinates>59.0953116396891,45.3289892366711 59.0966591126153,45.3303367095972 59.0980065855414,45.3289892366711 59.0993540584676,45.3303367095972 59.0976697173099,45.3337053919127 59.0953116396891,45.3289892366711</coordinates></LinearRing></innerBoundaryIs><innerBoundaryIs><LinearRing><coordinates>59.0980065855414,45.3289892366711 59.0993540584676,45.3276417637449 59.1047439501723,45.3276417637449 59.0980065855414,45.3289892366711</coordinates></LinearRing></innerBoundaryIs></Polygon><Polygon><outerBoundaryIs><LinearRing><coordinates>59.1223342091135,45.3343547580755 59.1263910613787,45.3343547580755 59.1263910613787,45.3330024739871 59.1223342091135,45.3343547580755</coordinates></LinearRing></outerBoundaryIs></Polygon><Polygon><outerBoundaryIs><LinearRing><coordinates>59.1201197637109,45.3343547580755 59.1214428663368,45.3343547580755 59.1209136252865,45.3330316554496 59.1201197637109,45.3343547580755</coordinates></LinearRing></outerBoundaryIs></Polygon></MultiGeometry>
  </Placemark>
</Folder>
</Document></kml>
