<?xml version="1.0" encoding="utf-8" ?>
<kml xmlns="http://www.opengis.net/kml/2.2">
<Document id="root_doc">
<Schema name="task_grid_v6_45.98_59.08" id="task_grid_v6_45.98_59.08">
	<SimpleField name="area_ha" type="float"></SimpleField>
	<SimpleField name="low_risk_ha" type="float"></SimpleField>
	<SimpleField name="moderate_risk_ha" type="float"></SimpleField>
	<SimpleField name="grid_cell_deg" type="string"></SimpleField>
</Schema>
<Folder><name>task_grid_v6_45.98_59.08</name>
  <Placemark id="task_grid_v6_45.98_59.08.1">
	<name>task_grid_v6_45.98_59.08</name>
	<name>1056</name>
	<description>1220.8</description>
	<Style><LineStyle><color>ff0000ff</color></LineStyle><PolyStyle><fill>0</fill></PolyStyle></Style>
	<ExtendedData><SchemaData schemaUrl="#task_grid_v6_45.98_59.08">
		<SimpleData name="area_ha">164.8</SimpleData>
		<SimpleData name="low_risk_ha">0.1</SimpleData>
	</SchemaData></ExtendedData>
      <MultiGeometry><Polygon><outerBoundaryIs><LinearRing><coordinates>59.0387177767895,45.9542166744182 59.0400652497157,45.9555641473444 59.0432991847386,45.9544861690035 59.0427601955681,45.9555641473444 59.0387177767895,45.9569116202706 59.0400652497157,45.9609540390491 59.0427601955681,45.9582590931968 59.0508450331252,45.9609540390491 59.0548874519037,45.9569116202706 59.0454551414204,45.9501742556397 59.043838173909,45.9534081906625 59.0427601955681,45.9501742556397 59.0387177767895,45.9542166744182</coordinates></LinearRing></outerBoundaryIs></Polygon><Polygon><outerBoundaryIs><LinearRing><coordinates>59.0319804121587,45.9555641473444 59.0279379933801,45.9569116202706 59.0306329392325,45.959606566123 59.0279379933801,45.9649964578277 59.0400652497157,45.9663439307539 59.0414127226419,45.9649964578277 59.0319804121587,45.9555641473444</coordinates></LinearRing></outerBoundaryIs></Polygon><Polygon><outerBoundaryIs><LinearRing><coordinates>59.0279379933801,45.9649964578277 59.0265905204539,45.9609540390491 59.0263910613787,45.9610205254076 59.0263910613787,45.9655121018282 59.0279379933801,45.9649964578277</coordinates></LinearRing></outerBoundaryIs></Polygon><Polygon><outerBoundaryIs><LinearRing><coordinates>59.0454551414204,45.9636489849015 59.0427601955681,45.9663439307539 59.0400652497157,45.9663439307539 59.0292854663063,45.9663439307539 59.0279379933801,45.9703863495324 59.0400652497157,45.9717338224586 59.0468026143466,45.96769140368 59.0454551414204,45.9636489849015</coordinates></LinearRing></outerBoundaryIs></Polygon><Polygon><outerBoundaryIs><LinearRing><coordinates>59.0265905204539,45.9798186600157 59.0306329392325,45.9730812953848 59.0263910613787,45.9730812953848 59.0263910613787,45.9788213646394 59.0265905204539,45.9798186600157</coordinates></LinearRing></outerBoundaryIs></Polygon><Polygon><outerBoundaryIs><LinearRing><coordinates>59.0263910613787,45.9842437500778 59.0292854663063,45.9852085517204 59.0306329392325,45.9838610787942 59.0265905204539,45.9798186600157 59.0263910613787,45.9804170372414 59.0263910613787,45.9842437500778</coordinates></LinearRing></outerBoundaryIs></Polygon><Polygon><outerBoundaryIs><LinearRing><coordinates>59.0387177767895,46.0108105373178 59.0454551414204,46.012158010244 59.0454551414204,46.0094630643916 59.0400652497157,46.0094630643916 59.0387177767895,46.0108105373178</coordinates></LinearRing></outerBoundaryIs></Polygon><Polygon><outerBoundaryIs><LinearRing><coordinates>59.0344629643401,46.0343547580755 59.0353125390237,46.0343547580755 59.034675358011,46.0337175770628 59.0344629643401,46.0343547580755</coordinates></LinearRing></outerBoundaryIs></Polygon><Polygon><outerBoundaryIs><LinearRing><coordinates>59.064319762387,45.9582590931968 59.0616248165346,45.9555641473444 59.0589298706822,45.9582590931968 59.0562349248299,45.9528692014921 59.0521925060513,45.9542166744182 59.0548874519037,45.9569116202706 59.0521925060513,45.9623015119753 59.0548874519037,45.9649964578277 59.0670147082393,45.9663439307539 59.0683621811655,45.9703863495324 59.0656672353131,45.9730812953848 59.0750995457964,45.9771237141633 59.0791419645749,45.9757762412371 59.0831843833535,45.9690388766062 59.1155237335818,45.9690388766062 59.1182186794341,45.9717338224586 59.1222610982127,45.9649964578277 59.1209136252865,45.9609540390491 59.1182186794341,45.9636489849015 59.1168712065079,45.9623015119753 59.1195661523603,45.959606566123 59.1182186794341,45.9555641473444 59.1128287877294,45.9582590931968 59.1101338418771,45.9555641473444 59.1047439501723,45.9555641473444 59.1033964772462,45.9569116202706 59.1060914230985,45.959606566123 59.1033964772462,45.959606566123 59.0993540584676,45.9528692014921 59.0858793292058,45.9528692014921 59.0831843833535,45.9555641473444 59.0804894375011,45.9528692014921 59.064319762387,45.9528692014921 59.064319762387,45.9582590931968</coordinates></LinearRing></outerBoundaryIs><innerBoundaryIs><LinearRing><coordinates>59.0885742750582,45.9636489849015 59.0818369104273,45.959606566123 59.0885742750582,45.9609540390491 59.0885742750582,45.9582590931968 59.0899217479844,45.9623015119753 59.0885742750582,45.9636489849015</coordinates></LinearRing></innerBoundaryIs><innerBoundaryIs><LinearRing><coordinates>59.0764470187226,45.9623015119753 59.072404599944,45.9636489849015 59.0710571270179,45.9623015119753 59.0750995457964,45.9609540390491 59.0764470187226,45.9623015119753</coordinates></LinearRing></innerBoundaryIs><innerBoundaryIs><LinearRing><coordinates>59.0750995457964,45.9690388766062 59.0764470187226,45.9703863495324 59.0750995457964,45.9717338224586 59.0750995457964,45.9690388766062</coordinates></LinearRing></innerBoundaryIs><innerBoundaryIs><LinearRing><coordinates>59.1114813148032,45.9623015119753 59.1101338418771,45.9636489849015 59.1087863689509,45.9623015119753 59.1114813148032,45.9623015119753</coordinates></LinearRing></innerBoundaryIs></Polygon><Polygon><outerBoundaryIs><LinearRing><coordinates>59.0697096540917,45.9798186600157 59.0656672353131,45.9865560246465 59.0670147082393,45.9879034975727 59.072404599944,45.9852085517204 59.0764470187226,45.9811661329418 59.0697096540917,45.9798186600157</coordinates></LinearRing></outerBoundaryIs></Polygon><Polygon><outerBoundaryIs><LinearRing><coordinates>59.0521925060513,45.9919459163513 59.0562349248299,45.9932933892774 59.0602773436084,45.9892509704989 59.0562349248299,45.9879034975727 59.0521925060513,45.9919459163513</coordinates></LinearRing></outerBoundaryIs></Polygon><Polygon><outerBoundaryIs><LinearRing><coordinates>59.0791419645749,46.0135054831701 59.0885742750582,46.0148529560963 59.0885742750582,46.012158010244 59.0804894375011,46.012158010244 59.0791419645749,46.0135054831701</coordinates></LinearRing></outerBoundaryIs></Polygon><Polygon><outerBoundaryIs><LinearRing><coordinates>59.0441076684943,46.0269802124319 59.0468026143466,46.0242852665796 59.0387177767895,46.0242852665796 59.0414127226419,46.0269802124319 59.0387177767895,46.0296751582843 59.0400652497157,46.0310226312105 59.0468026143466,46.0296751582843 59.0441076684943,46.0269802124319</coordinates></LinearRing></outerBoundaryIs></Polygon></MultiGeometry>
  </Placemark>
</Folder>
</Document></kml>
