<?xml version="1.0" encoding="utf-8" ?>
<kml xmlns="http://www.opengis.net/kml/2.2">
<Document id="root_doc">
<Schema name="task_grid_v6_44.88_60.88" id="task_grid_v6_44.88_60.88">
	<SimpleField name="area_ha" type="float"></SimpleField>
	<SimpleField name="low_risk_ha" type="float"></SimpleField>
	<SimpleField name="moderate_risk_ha" type="float"></SimpleField>
	<SimpleField name="grid_cell_deg" type="string"></SimpleField>
</Schema>
<Folder><name>task_grid_v6_44.88_60.88</name>
  <Placemark id="task_grid_v6_44.88_60.88.1">
	<name>task_grid_v6_44.88_60.88</name>
	<name>63.8</name>
	<description>613.5</description>
	<Style><LineStyle><color>ff0000ff</color></LineStyle><PolyStyle><fill>0</fill></PolyStyle></Style>
	<ExtendedData><SchemaData schemaUrl="#task_grid_v6_44.88_60.88">
		<SimpleData name="area_ha">549.7</SimpleData>
		<SimpleData name="low_risk_ha">0.1</SimpleData>
	</SchemaData></ExtendedData>
      <MultiGeometry><Polygon><outerBoundaryIs><LinearRing><coordinates>60.8322042415342,44.8344666727633 60.8321296317423,44.8343547580755 60.8263910613787,44.8343547580755 60.8263910613787,44.8367383301649 60.8268143498295,44.8371616186156 60.8348991873865,44.8371616186156 60.8362466603127,44.8358141456894 60.8322042415342,44.8344666727633</coordinates></LinearRing></outerBoundaryIs></Polygon><Polygon><outerBoundaryIs><LinearRing><coordinates>60.8362466603127,44.8385090915418 60.8402890790912,44.8452464561727 60.8443314978698,44.8412040373942 60.8402890790912,44.8371616186156 60.8362466603127,44.8385090915418</coordinates></LinearRing></outerBoundaryIs></Polygon><Polygon><outerBoundaryIs><LinearRing><coordinates>60.9170950358835,44.8385090915418 60.921137454662,44.8452464561727 60.9251798734405,44.8438989832465 60.9238324005144,44.8371616186156 60.9170950358835,44.8385090915418</coordinates></LinearRing></outerBoundaryIs></Polygon><Polygon><outerBoundaryIs><LinearRing><coordinates>60.9036203066217,44.862763604213 60.9036203066217,44.8708484417701 60.9076627254002,44.877585806401 60.9144000900311,44.8735433876225 60.9117051441788,44.8708484417701 60.9130526171049,44.8695009688439 60.9263910613787,44.8682883830009 60.9263910613787,44.8666697380035 60.9251798734405,44.8654585500654 60.9263910613787,44.8642473621272 60.9263910613787,44.8612798462988 60.9238324005144,44.8587211854345 60.9157475629573,44.8587211854345 60.9022728336955,44.8479414020251 60.8968829419908,44.8506363478774 60.8955354690646,44.8573737125083 60.8995778878431,44.8641110771392 60.9022728336955,44.8614161312868 60.9036203066217,44.862763604213</coordinates></LinearRing></outerBoundaryIs><innerBoundaryIs><LinearRing><coordinates>60.906315252474,44.8681534959177 60.9090101983264,44.8681534959177 60.9076627254002,44.8695009688439 60.906315252474,44.8681534959177</coordinates></LinearRing></innerBoundaryIs></Polygon><Polygon><outerBoundaryIs><LinearRing><coordinates>60.8263910613787,44.8615572274371 60.8263910613787,44.8649350824097 60.8295092956818,44.8668060229916 60.830856768608,44.8654585500654 60.8268143498295,44.8614161312868 60.8263910613787,44.8615572274371</coordinates></LinearRing></outerBoundaryIs></Polygon><Polygon><outerBoundaryIs><LinearRing><coordinates>60.9251798734405,44.8735433876225 60.9263910613787,44.8742701003854 60.9263910613787,44.8723321996843 60.9251798734405,44.8735433876225</coordinates></LinearRing></outerBoundaryIs></Polygon><Polygon><outerBoundaryIs><LinearRing><coordinates>60.8631961188363,44.8762383334748 60.8645435917625,44.8748908605486 60.8726284293195,44.8748908605486 60.8780183210243,44.877585806401 60.8793657939504,44.8762383334748 60.8753233751719,44.8721959146963 60.8618486459101,44.8721959146963 60.8578062271316,44.8762383334748 60.8618486459101,44.8802807522534 60.8658910646887,44.8789332793272 60.8631961188363,44.8762383334748</coordinates></LinearRing></outerBoundaryIs></Polygon><Polygon><outerBoundaryIs><LinearRing><coordinates>60.845678970796,44.877585806401 60.8443314978698,44.8816282251795 60.845678970796,44.8829756981057 60.8510688625007,44.8802807522534 60.8510688625007,44.877585806401 60.845678970796,44.877585806401</coordinates></LinearRing></outerBoundaryIs></Polygon><Polygon><outerBoundaryIs><LinearRing><coordinates>60.9263910613787,44.8963141423795 60.9263910613787,44.8885018747985 60.9238324005144,44.8910605356628 60.9184425088096,44.8883655898104 60.9170950358835,44.8951029544413 60.9184425088096,44.8964504273675 60.9238324005144,44.8937554815152 60.9263910613787,44.8963141423795</coordinates></LinearRing></outerBoundaryIs></Polygon></MultiGeometry>
  </Placemark>
</Folder>
</Document></kml>
