<?xml version="1.0" encoding="utf-8" ?>
<kml xmlns="http://www.opengis.net/kml/2.2">
<Document id="root_doc">
<Schema name="task_grid_v6_45.68_59.68" id="task_grid_v6_45.68_59.68">
	<SimpleField name="area_ha" type="float"></SimpleField>
	<SimpleField name="low_risk_ha" type="float"></SimpleField>
	<SimpleField name="moderate_risk_ha" type="float"></SimpleField>
	<SimpleField name="grid_cell_deg" type="string"></SimpleField>
</Schema>
<Folder><name>task_grid_v6_45.68_59.68</name>
  <Placemark id="task_grid_v6_45.68_59.68.1">
	<name>task_grid_v6_45.68_59.68</name>
	<name>321.6</name>
	<description>772.4</description>
	<Style><LineStyle><color>ff0000ff</color></LineStyle><PolyStyle><fill>0</fill></PolyStyle></Style>
	<ExtendedData><SchemaData schemaUrl="#task_grid_v6_45.68_59.68">
		<SimpleData name="area_ha">450.9</SimpleData>
		<SimpleData name="low_risk_ha">0.1</SimpleData>
	</SchemaData></ExtendedData>
      <MultiGeometry><Polygon><outerBoundaryIs><LinearRing><coordinates>59.6383432289393,45.6510352660279 59.6450805935702,45.6496877931017 59.6410381747917,45.6456453743232 59.6329533372346,45.6456453743232 59.6275634455299,45.6402554826185 59.6263910613787,45.6404899594487 59.6263910613787,45.6510352660279 59.6302583913823,45.6510352660279 59.635648283087,45.6537302118803 59.635648283087,45.6483403201755 59.6383432289393,45.6510352660279</coordinates></LinearRing></outerBoundaryIs></Polygon><Polygon><outerBoundaryIs><LinearRing><coordinates>59.6477755394226,45.6496877931017 59.6545129040535,45.6510352660279 59.6545129040535,45.6456453743232 59.6518179582011,45.6483403201755 59.6477755394226,45.6496877931017</coordinates></LinearRing></outerBoundaryIs></Polygon><Polygon><outerBoundaryIs><LinearRing><coordinates>59.7043694023221,45.7143664935583 59.7084118211007,45.7157139664845 59.7016744564698,45.7170614394107 59.6989795106174,45.7224513311154 59.6998951588451,45.7343547580755 59.7059407046238,45.7343547580755 59.7070643481745,45.7332311145248 59.7072248686817,45.7343547580755 59.7144732009319,45.7343547580755 59.7178441315839,45.7332311145248 59.7178441315839,45.7314344839566 59.7190956776349,45.7343547580755 59.7194154338856,45.7343547580755 59.7218865503624,45.7318836415987 59.7255932250777,45.7343547580755 59.7263910613787,45.7343547580755 59.7263910613787,45.719756385263 59.7263910613787,45.7192942930253 59.7263910613787,45.7139189527407 59.7191916045101,45.7130190206322 59.7263910613787,45.7130190206322 59.7263910613787,45.7103240747798 59.7191916045101,45.7103240747798 59.7164966586577,45.7076291289274 59.7124542398792,45.711671547706 59.7084118211007,45.7103240747798 59.7043694023221,45.7143664935583</coordinates></LinearRing></outerBoundaryIs><innerBoundaryIs><LinearRing><coordinates>59.7097592940268,45.7251462769678 59.7124542398792,45.7305361686725 59.7070643481745,45.7332311145248 59.7097592940268,45.7251462769678</coordinates></LinearRing></innerBoundaryIs><innerBoundaryIs><LinearRing><coordinates>59.7151491857315,45.7224513311154 59.7156544880789,45.721272292305 59.7164966586577,45.7237988040416 59.7173949739418,45.7243976808977 59.7151491857315,45.7251462769678 59.7138017128054,45.7237988040416 59.7097592940268,45.7251462769678 59.7151491857315,45.7224513311154</coordinates></LinearRing></innerBoundaryIs><innerBoundaryIs><LinearRing><coordinates>59.7205390774363,45.719756385263 59.725928969141,45.719756385263 59.7232340232886,45.7224513311154 59.7205390774363,45.719756385263</coordinates></LinearRing></innerBoundaryIs></Polygon><Polygon><outerBoundaryIs><LinearRing><coordinates>59.6962286074212,45.7343547580755 59.6981423759712,45.7343547580755 59.6989795106174,45.7251462769678 59.6895472001341,45.7237988040416 59.6814623625771,45.7184089123369 59.6774199437985,45.7224513311154 59.6814623625771,45.7264937498939 59.6841573084294,45.7237988040416 59.6895472001341,45.7291886957463 59.6949370918389,45.7291886957463 59.6962286074212,45.7343547580755</coordinates></LinearRing></outerBoundaryIs></Polygon><Polygon><outerBoundaryIs><LinearRing><coordinates>59.7178441315839,45.6343547580755 59.7178441315839,45.6362130638399 59.7245814962148,45.6402554826185 59.7254244568638,45.6343547580755 59.7178441315839,45.6343547580755</coordinates></LinearRing></outerBoundaryIs></Polygon><Polygon><outerBoundaryIs><LinearRing><coordinates>59.725928969141,45.6416029555446 59.7263910613787,45.6422960939012 59.7263910613787,45.6343547580755 59.725928969141,45.6343547580755 59.725928969141,45.6416029555446</coordinates></LinearRing></outerBoundaryIs></Polygon><Polygon><outerBoundaryIs><LinearRing><coordinates>59.7263910613787,45.643245555367 59.7232340232886,45.644297901397 59.7263910613787,45.6495596315471 59.7263910613787,45.643245555367</coordinates></LinearRing></outerBoundaryIs></Polygon><Polygon><outerBoundaryIs><LinearRing><coordinates>59.7178441315839,45.7089766018536 59.7263910613787,45.7089766018536 59.7263910613787,45.7031246179112 59.7245814962148,45.7049341830751 59.7191916045101,45.7022392372227 59.7178441315839,45.7035867101489 59.7205390774363,45.7062816560013 59.7178441315839,45.7089766018536</coordinates></LinearRing></outerBoundaryIs></Polygon></MultiGeometry>
  </Placemark>
</Folder>
</Document></kml>
