<?xml version="1.0" encoding="utf-8" ?>
<kml xmlns="http://www.opengis.net/kml/2.2">
<Document id="root_doc">
<Schema name="task_grid_v6_45.88_61.28" id="task_grid_v6_45.88_61.28">
	<SimpleField name="area_ha" type="float"></SimpleField>
	<SimpleField name="low_risk_ha" type="float"></SimpleField>
	<SimpleField name="moderate_risk_ha" type="float"></SimpleField>
	<SimpleField name="grid_cell_deg" type="string"></SimpleField>
</Schema>
<Folder><name>task_grid_v6_45.88_61.28</name>
  <Placemark id="task_grid_v6_45.88_61.28.1">
	<name>task_grid_v6_45.88_61.28</name>
	<name>1076.6</name>
	<description>1661.8</description>
	<Style><LineStyle><color>ff0000ff</color></LineStyle><PolyStyle><fill>0</fill></PolyStyle></Style>
	<ExtendedData><SchemaData schemaUrl="#task_grid_v6_45.88_61.28">
		<SimpleData name="area_ha">585.2</SimpleData>
		<SimpleData name="low_risk_ha">0.1</SimpleData>
	</SchemaData></ExtendedData>
      <MultiGeometry><Polygon><outerBoundaryIs><LinearRing><coordinates>61.2525887198933,45.8343547580755 61.2445941310322,45.8343547580755 61.2458784298712,45.8356390569145 61.2418360110927,45.839681475693 61.2400604385535,45.8343547580755 61.2363829453007,45.8343547580755 61.2324037006094,45.8383340027668 61.2350986464618,45.8410289486192 61.2320668323779,45.8481031814816 61.2310562276832,45.8450713673977 61.2297087547571,45.8464188403239 61.2283612818309,45.8423764215454 61.2263910613787,45.8430331616961 61.2263910613787,45.8531562049548 61.2283612818309,45.8531562049548 61.2310562276832,45.8558511508072 61.2310562276832,45.8585460966595 61.2283612818309,45.8558511508072 61.2263910613787,45.8565078909579 61.2263910613787,45.8580962136654 61.2263910613787,45.8588563823944 61.2263910613787,45.8666309342166 61.2283612818309,45.8666309342166 61.230786733098,45.8714818367508 61.2270138089047,45.8733682988475 61.2270138089047,45.8787581905522 61.2337511735356,45.8801056634784 61.236446119388,45.8854955551831 61.2350986464618,45.8895379739616 61.244530956945,45.8962753385925 61.2485733757236,45.8895379739616 61.2418360110927,45.8828006093307 61.2404885381665,45.8834743457938 61.2404885381665,45.8787581905522 61.2431834840189,45.8760632446998 61.2404885381665,45.8733682988475 61.2404885381665,45.8625885154381 61.2435980910731,45.858442444896 61.244530956945,45.8612410425119 61.2485733757236,45.8598935695857 61.2512683215759,45.854503677881 61.2499208486498,45.8531562049548 61.2456334347937,45.8557286532684 61.2485733757236,45.8518087320286 61.2472259027974,45.8477663132501 61.2485733757236,45.8464188403239 61.2458784298712,45.8437238944715 61.2485733757236,45.8437238944715 61.2525887198933,45.8343547580755</coordinates></LinearRing></outerBoundaryIs><innerBoundaryIs><LinearRing><coordinates>61.2431834840189,45.8437238944715 61.244530956945,45.8504612591024 61.2431834840189,45.8491137861763 61.2431834840189,45.8437238944715</coordinates></LinearRing></innerBoundaryIs><innerBoundaryIs><LinearRing><coordinates>61.2297087547571,45.8500121014604 61.2315053853253,45.8494132246043 61.2310562276832,45.8504612591024 61.2297087547571,45.8500121014604</coordinates></LinearRing></innerBoundaryIs><innerBoundaryIs><LinearRing><coordinates>61.236446119388,45.8612410425119 61.2350986464618,45.8598935695857 61.236446119388,45.8585460966595 61.236446119388,45.8612410425119</coordinates></LinearRing></innerBoundaryIs><innerBoundaryIs><LinearRing><coordinates>61.2350986464618,45.854503677881 61.236446119388,45.8531562049548 61.2377935923141,45.854503677881 61.2350986464618,45.854503677881</coordinates></LinearRing></innerBoundaryIs><innerBoundaryIs><LinearRing><coordinates>61.236446119388,45.8477663132501 61.2377935923141,45.8491137861763 61.236446119388,45.8504612591024 61.236446119388,45.8477663132501</coordinates></LinearRing></innerBoundaryIs></Polygon><Polygon><outerBoundaryIs><LinearRing><coordinates>61.2337511735356,45.8854955551831 61.2350986464618,45.8841480822569 61.2337511735356,45.8801056634784 61.2297087547571,45.8814531364046 61.2337511735356,45.8854955551831</coordinates></LinearRing></outerBoundaryIs></Polygon><Polygon><outerBoundaryIs><LinearRing><coordinates>61.2283612818309,45.8881905010355 61.2270138089047,45.8895379739616 61.2283612818309,45.8908854468878 61.2324037006094,45.8895379739616 61.2310562276832,45.8854955551831 61.2297087547571,45.8868430281093 61.2263910613787,45.8835253347309 61.2263910613787,45.8870083687641 61.2283612818309,45.8881905010355</coordinates></LinearRing></outerBoundaryIs></Polygon><Polygon><outerBoundaryIs><LinearRing><coordinates>61.2263910613787,45.8955506131924 61.2270138089047,45.8949278656664 61.2263910613787,45.8943051181403 61.2263910613787,45.8955506131924</coordinates></LinearRing></outerBoundaryIs></Polygon><Polygon><outerBoundaryIs><LinearRing><coordinates>61.3263910613787,45.8402425480228 61.3240318595896,45.8410289486192 61.3263910613787,45.8433881504083 61.3263910613787,45.8402425480228</coordinates></LinearRing></outerBoundaryIs></Polygon><Polygon><outerBoundaryIs><LinearRing><coordinates>61.2849551447304,45.8369865298406 61.2728278883948,45.8518087320286 61.2849551447304,45.8531562049548 61.2876500905828,45.8558511508072 61.2930399822875,45.8450713673977 61.2943874552137,45.8491137861763 61.2916925093613,45.8518087320286 61.2984298739922,45.8558511508072 61.2997773469184,45.854503677881 61.297082401066,45.8518087320286 61.297082401066,45.8464188403239 61.3024722927707,45.8410289486192 61.3024722927707,45.8356390569145 61.3037565916097,45.8343547580755 61.2916925093613,45.8343547580755 61.2916925093613,45.8383340027668 61.2943874552137,45.8410289486192 61.2930399822875,45.8423764215454 61.2876500905828,45.8450713673977 61.2849551447304,45.8369865298406</coordinates></LinearRing></outerBoundaryIs></Polygon><Polygon><outerBoundaryIs><LinearRing><coordinates>61.2647430508377,45.854503677881 61.2647430508377,45.8464188403239 61.259353159133,45.8410289486192 61.2647430508377,45.8383340027668 61.2580056862068,45.8369865298406 61.2539632674283,45.8410289486192 61.2566582132806,45.8464188403239 61.2539632674283,45.8518087320286 61.2580056862068,45.8558511508072 61.2647430508377,45.854503677881</coordinates></LinearRing></outerBoundaryIs></Polygon><Polygon><outerBoundaryIs><LinearRing><coordinates>61.2768703071733,45.8693258800689 61.2809127259519,45.8679784071428 61.2795652530257,45.8639359883642 61.2755228342472,45.8652834612904 61.2768703071733,45.8693258800689</coordinates></LinearRing></outerBoundaryIs></Polygon><Polygon><outerBoundaryIs><LinearRing><coordinates>61.3226843866634,45.8639359883642 61.3213369137373,45.8598935695857 61.3263910613787,45.8598935695857 61.3263910613787,45.8522823710557 61.3253793325158,45.8504612591024 61.3172944949587,45.8558511508072 61.3132520761802,45.8598935695857 61.3132520761802,45.8652834612904 61.3078621844755,45.8706733529951 61.3092096574016,45.8747157717737 61.3145995491064,45.8720208259213 61.3213369137373,45.8760632446998 61.3199894408111,45.8801056634784 61.3159470220325,45.8787581905522 61.3145995491064,45.8747157717737 61.3105571303278,45.8787581905522 61.3159470220325,45.8895379739616 61.3105571303278,45.892232919814 61.311904603254,45.8962753385925 61.3172944949587,45.8935803927402 61.3159470220325,45.8949278656664 61.3253793325158,45.8962753385925 61.3253793325158,45.8935803927402 61.3263910613787,45.895603850466 61.3263910613787,45.8892022298984 61.3240318595896,45.8868430281093 61.3263910613787,45.8844838263202 61.3263910613787,45.8707405018078 61.3263910613787,45.8703376089318 61.3263910613787,45.860229313649 61.3226843866634,45.8639359883642</coordinates></LinearRing></outerBoundaryIs></Polygon><Polygon><outerBoundaryIs><LinearRing><coordinates>61.2566582132806,45.8895379739616 61.2553107403545,45.8854955551831 61.2512683215759,45.8895379739616 61.2526157945021,45.8935803927402 61.2566582132806,45.8895379739616</coordinates></LinearRing></outerBoundaryIs></Polygon></MultiGeometry>
  </Placemark>
</Folder>
</Document></kml>
