<?xml version="1.0" encoding="utf-8" ?>
<kml xmlns="http://www.opengis.net/kml/2.2">
<Document id="root_doc">
<Schema name="task_grid_v6_46.28_60.48" id="task_grid_v6_46.28_60.48">
	<SimpleField name="area_ha" type="float"></SimpleField>
	<SimpleField name="low_risk_ha" type="float"></SimpleField>
	<SimpleField name="moderate_risk_ha" type="float"></SimpleField>
	<SimpleField name="grid_cell_deg" type="string"></SimpleField>
</Schema>
<Folder><name>task_grid_v6_46.28_60.48</name>
  <Placemark id="task_grid_v6_46.28_60.48.1">
	<name>task_grid_v6_46.28_60.48</name>
	<name>36.6</name>
	<description>64.59999999999999</description>
	<Style><LineStyle><color>ff0000ff</color></LineStyle><PolyStyle><fill>0</fill></PolyStyle></Style>
	<ExtendedData><SchemaData schemaUrl="#task_grid_v6_46.28_60.48">
		<SimpleData name="area_ha">28</SimpleData>
		<SimpleData name="low_risk_ha">0.1</SimpleData>
	</SchemaData></ExtendedData>
      <MultiGeometry><Polygon><outerBoundaryIs><LinearRing><coordinates>60.440089620016,46.283000068406 60.4387421470898,46.2762627037751 60.4320047824589,46.2803051225536 60.4387421470898,46.2843475413322 60.440089620016,46.283000068406</coordinates></LinearRing></outerBoundaryIs></Polygon><Polygon><outerBoundaryIs><LinearRing><coordinates>60.4306573095327,46.3139919457081 60.4293098366066,46.320729310339 60.4333522553851,46.3220767832652 60.4373946741636,46.3180343644866 60.4306573095327,46.3139919457081</coordinates></LinearRing></outerBoundaryIs></Polygon><Polygon><outerBoundaryIs><LinearRing><coordinates>60.4263910613787,46.3343547580755 60.4306573095327,46.3343547580755 60.4306573095327,46.3328565666746 60.4263910613787,46.3328565666746 60.4263910613787,46.3343547580755</coordinates></LinearRing></outerBoundaryIs></Polygon></MultiGeometry>
  </Placemark>
</Folder>
</Document></kml>
