<?xml version="1.0" encoding="utf-8" ?>
<kml xmlns="http://www.opengis.net/kml/2.2">
<Document id="root_doc">
<Schema name="task_grid_v6_46.31_60.76" id="task_grid_v6_46.31_60.76">
	<SimpleField name="area_ha" type="float"></SimpleField>
	<SimpleField name="low_risk_ha" type="float"></SimpleField>
	<SimpleField name="moderate_risk_ha" type="float"></SimpleField>
	<SimpleField name="grid_cell_deg" type="string"></SimpleField>
</Schema>
<Folder><name>task_grid_v6_46.31_60.76</name>
  <Placemark id="task_grid_v6_46.31_60.76.1">
	<name>task_grid_v6_46.31_60.76</name>
	<name>108.8</name>
	<description>108.8</description>
	<Style><LineStyle><color>ff0000ff</color></LineStyle><PolyStyle><fill>0</fill></PolyStyle></Style>
	<ExtendedData><SchemaData schemaUrl="#task_grid_v6_46.31_60.76">
		<SimpleData name="area_ha">0</SimpleData>
		<SimpleData name="low_risk_ha">0.1</SimpleData>
	</SchemaData></ExtendedData>
      <MultiGeometry><Polygon><outerBoundaryIs><LinearRing><coordinates>60.7230589345137,46.3288141478961 60.7217114615875,46.3247717291175 60.7176690428089,46.3288141478961 60.7190165157351,46.3301616208223 60.7230589345137,46.3288141478961</coordinates></LinearRing></outerBoundaryIs></Polygon><Polygon><outerBoundaryIs><LinearRing><coordinates>60.7190165157351,46.3382464583793 60.7217114615875,46.3463312959364 60.725753880366,46.3422888771579 60.725753880366,46.3368989854532 60.7284488262184,46.3342040396008 60.7271013532922,46.3301616208223 60.7122791511042,46.3368989854532 60.7163215698828,46.3409414042317 60.7190165157351,46.3382464583793</coordinates></LinearRing></outerBoundaryIs></Polygon></MultiGeometry>
  </Placemark>
</Folder>
</Document></kml>
