<?xml version="1.0" encoding="utf-8" ?>
<kml xmlns="http://www.opengis.net/kml/2.2">
<Document id="root_doc">
<Schema name="task_grid_v6_45.91_59.96" id="task_grid_v6_45.91_59.96">
	<SimpleField name="area_ha" type="float"></SimpleField>
	<SimpleField name="low_risk_ha" type="float"></SimpleField>
	<SimpleField name="moderate_risk_ha" type="float"></SimpleField>
	<SimpleField name="grid_cell_deg" type="string"></SimpleField>
</Schema>
<Folder><name>task_grid_v6_45.91_59.96</name>
  <Placemark id="task_grid_v6_45.91_59.96.1">
	<name>task_grid_v6_45.91_59.96</name>
	<name>246.7</name>
	<description>1861.1</description>
	<Style><LineStyle><color>ff0000ff</color></LineStyle><PolyStyle><fill>0</fill></PolyStyle></Style>
	<ExtendedData><SchemaData schemaUrl="#task_grid_v6_45.91_59.96">
		<SimpleData name="area_ha">1614.4</SimpleData>
		<SimpleData name="low_risk_ha">0.1</SimpleData>
	</SchemaData></ExtendedData>
      <MultiGeometry><Polygon><outerBoundaryIs><LinearRing><coordinates>59.9172701246584,45.8652834612904 59.9320923268464,45.8666309342166 59.9320923268464,45.8639359883642 59.9186175975846,45.8639359883642 59.9172701246584,45.8652834612904</coordinates></LinearRing></outerBoundaryIs></Polygon><Polygon><outerBoundaryIs><LinearRing><coordinates>59.9536518936653,45.8801056634784 59.9549993665915,45.8787581905522 59.9509569478129,45.8720208259213 59.9496094748867,45.8787581905522 59.9536518936653,45.8801056634784</coordinates></LinearRing></outerBoundaryIs></Polygon><Polygon><outerBoundaryIs><LinearRing><coordinates>59.9240074892893,45.8801056634784 59.9253549622155,45.8787581905522 59.9240074892893,45.8747157717737 59.9199650705108,45.8760632446998 59.9240074892893,45.8801056634784</coordinates></LinearRing></outerBoundaryIs></Polygon><Polygon><outerBoundaryIs><LinearRing><coordinates>59.9226600163632,45.9030127032234 59.9267024351417,45.9043601761496 59.9280499080679,45.9003177573711 59.921312543437,45.8935803927402 59.9172701246584,45.8949278656664 59.9226600163632,45.9030127032234</coordinates></LinearRing></outerBoundaryIs></Polygon><Polygon><outerBoundaryIs><LinearRing><coordinates>59.9320923268464,45.9097500678543 59.9226600163632,45.9110975407805 59.9293973809941,45.915139959559 59.9469145290344,45.9110975407805 59.9374822185511,45.9097500678543 59.9347872726988,45.907055122002 59.9320923268464,45.9097500678543</coordinates></LinearRing></outerBoundaryIs></Polygon><Polygon><outerBoundaryIs><LinearRing><coordinates>59.9159226517323,45.9178349054114 59.9132277058799,45.915139959559 59.9102213862645,45.915139959559 59.9102213862645,45.9191045348968 59.9159226517323,45.9205298512638 59.9186175975846,45.9232247971161 59.9280499080679,45.9218773241899 59.9186175975846,45.915139959559 59.9159226517323,45.9178349054114</coordinates></LinearRing></outerBoundaryIs></Polygon><Polygon><outerBoundaryIs><LinearRing><coordinates>59.9455670561082,45.9232247971161 59.9536518936653,45.9313096346732 59.9617367312224,45.9313096346732 59.9617367312224,45.9178349054114 59.9482620019606,45.9178349054114 59.9455670561082,45.9205298512638 59.9428721102558,45.9178349054114 59.9374822185511,45.9232247971161 59.9307448539202,45.9245722700423 59.9428721102558,45.9259197429685 59.9455670561082,45.9232247971161</coordinates></LinearRing></outerBoundaryIs></Polygon><Polygon><outerBoundaryIs><LinearRing><coordinates>59.9240074892893,45.9609540390491 59.9248125423337,45.9625641451378 59.9285923279497,45.9625641451378 59.9293973809941,45.9609540390491 59.9310074870827,45.9625641451378 59.9360472012375,45.9625641451378 59.9361347456249,45.9623015119753 59.921312543437,45.9501742556397 59.9320923268464,45.9582590931968 59.9388296914773,45.9542166744182 59.9320923268464,45.9528692014921 59.9240074892893,45.9420894180826 59.9186175975846,45.9420894180826 59.9159226517323,45.9393944722303 59.9102213862645,45.9405347253238 59.9102213862645,45.9417780443196 59.9132277058799,45.944784363935 59.9199650705108,45.9461318368612 59.9172701246584,45.9488267827135 59.918482850292,45.9548904108813 59.9172701246584,45.9569116202706 59.9240074892893,45.9609540390491</coordinates></LinearRing></outerBoundaryIs></Polygon><Polygon><outerBoundaryIs><LinearRing><coordinates>59.9428721102558,45.9528692014921 59.9417948942952,45.9625641451378 59.9471771621968,45.9625641451378 59.944219583182,45.959606566123 59.9428721102558,45.9528692014921</coordinates></LinearRing></outerBoundaryIs></Polygon><Polygon><outerBoundaryIs><LinearRing><coordinates>59.9363973787874,45.9625641451378 59.9385670583149,45.9625641451378 59.9388296914773,45.9623015119753 59.9374822185511,45.9582590931968 59.9334397997726,45.959606566123 59.9363973787874,45.9625641451378</coordinates></LinearRing></outerBoundaryIs></Polygon><Polygon><outerBoundaryIs><LinearRing><coordinates>59.9288606789645,45.9625641451378 59.9304707850531,45.9625641451378 59.9293973809941,45.9609540390491 59.9288606789645,45.9625641451378</coordinates></LinearRing></outerBoundaryIs></Polygon><Polygon><outerBoundaryIs><LinearRing><coordinates>59.9927286085245,45.8949278656664 59.9900336626721,45.8895379739616 59.9994659731554,45.8854955551831 60.0008134460816,45.8868430281093 59.9981185002292,45.8895379739616 60.0048558648601,45.8962753385925 60.0075508107125,45.8854955551831 60.0102213862645,45.8872759388845 60.0102213862645,45.8774269644929 60.0021609190077,45.8828006093307 59.9940760814507,45.8801056634784 59.9846437709674,45.8868430281093 59.981948825115,45.892232919814 59.9913811355983,45.8962753385925 59.9927286085245,45.8949278656664</coordinates></LinearRing></outerBoundaryIs></Polygon><Polygon><outerBoundaryIs><LinearRing><coordinates>59.9630842041485,45.8976228115187 59.9698215687794,45.8989702844449 59.9630842041485,45.9003177573711 59.9671266229271,45.9043601761496 59.9779064063365,45.8989702844449 59.9832962980412,45.8989702844449 59.9873387168198,45.8949278656664 59.9779064063365,45.8935803927402 59.9764364358716,45.8945603730501 59.981948825115,45.8868430281093 59.9806013521889,45.8828006093307 59.9779064063365,45.8828006093307 59.9765589334103,45.8868430281093 59.9698215687794,45.8908854468878 59.9644316770747,45.8881905010355 59.9630842041485,45.892232919814 59.9657791500009,45.8949278656664 59.9630842041485,45.8976228115187</coordinates></LinearRing></outerBoundaryIs><innerBoundaryIs><LinearRing><coordinates>59.9698215687794,45.8935803927402 59.9744414759549,45.8958903463279 59.9698215687794,45.8989702844449 59.9698215687794,45.8935803927402</coordinates></LinearRing></innerBoundaryIs></Polygon><Polygon><outerBoundaryIs><LinearRing><coordinates>60.0102213862645,45.895368899875 60.0102213862645,45.8936047630405 60.0088982836386,45.8949278656664 60.0102213862645,45.895368899875</coordinates></LinearRing></outerBoundaryIs></Polygon><Polygon><outerBoundaryIs><LinearRing><coordinates>59.9859912438936,45.907055122002 59.9913811355983,45.907055122002 59.9927286085245,45.9057076490758 59.9886861897459,45.9043601761496 59.9886861897459,45.9016652302973 60.0048558648601,45.9016652302973 60.0075508107125,45.9043601761496 60.0102213862645,45.9016896005975 60.0102213862645,45.8971899007435 60.0075508107125,45.8989702844449 60.0021609190077,45.8962753385925 59.9994659731554,45.8989702844449 59.9859912438936,45.8989702844449 59.981948825115,45.9030127032234 59.9859912438936,45.907055122002</coordinates></LinearRing></outerBoundaryIs></Polygon><Polygon><outerBoundaryIs><LinearRing><coordinates>59.9509569478129,45.915139959559 59.9549993665915,45.9110975407805 59.9536518936653,45.907055122002 59.9496094748867,45.9110975407805 59.9509569478129,45.915139959559</coordinates></LinearRing></outerBoundaryIs></Polygon><Polygon><outerBoundaryIs><LinearRing><coordinates>60.0102213862645,45.9098231787552 60.0088982836386,45.9137924866329 60.0102213862645,45.9144540379458 60.0102213862645,45.9098231787552</coordinates></LinearRing></outerBoundaryIs></Polygon><Polygon><outerBoundaryIs><LinearRing><coordinates>59.9684740958533,45.9272672158947 59.9698215687794,45.9286146888208 59.9765589334103,45.9272672158947 59.973863987558,45.9245722700423 59.9752114604841,45.9232247971161 59.9779064063365,45.9259197429685 59.9806013521889,45.9178349054114 59.9832962980412,45.9232247971161 59.9859912438936,45.9178349054114 59.9886861897459,45.9205298512638 59.9900336626721,45.9191823783376 59.9859912438936,45.9124450137067 59.9806013521889,45.9124450137067 59.9779064063365,45.9097500678543 59.9752114604841,45.915139959559 59.9698215687794,45.915139959559 59.9698215687794,45.9124450137067 59.973863987558,45.9110975407805 59.9698215687794,45.907055122002 59.9671266229271,45.9097500678543 59.9576943124438,45.9110975407805 59.95904178537,45.915139959559 59.9644316770747,45.915139959559 59.9657791500009,45.9191823783376 59.9711690417056,45.9218773241899 59.9684740958533,45.9272672158947</coordinates></LinearRing></outerBoundaryIs></Polygon><Polygon><outerBoundaryIs><LinearRing><coordinates>59.9832962980412,45.9313096346732 59.9846437709674,45.929962161747 59.9806013521889,45.9259197429685 59.9765589334103,45.929962161747 59.9832962980412,45.9313096346732</coordinates></LinearRing></outerBoundaryIs></Polygon><Polygon><outerBoundaryIs><LinearRing><coordinates>60.0048215577462,45.9625641451378 60.0035083919339,45.9623015119753 60.0035083919339,45.9515217285659 60.0062033377863,45.9488267827135 60.0035083919339,45.9434368910088 60.0062033377863,45.9380469993041 59.9913811355983,45.9366995263779 59.9886861897459,45.9340045805256 59.9846437709674,45.9407419451565 59.9913811355983,45.9501742556397 59.996771027303,45.9501742556397 60.0008134460816,45.9542166744182 59.9954235543768,45.959606566123 59.9983811333917,45.9625641451378 60.0048215577462,45.9625641451378</coordinates></LinearRing></outerBoundaryIs></Polygon><Polygon><outerBoundaryIs><LinearRing><coordinates>59.9904713846095,45.9625641451378 59.9832962980412,45.9582590931968 59.9725165146318,45.9582590931968 59.9698215687794,45.9555641473444 59.9644316770747,45.9555641473444 59.963893215706,45.9625641451378 59.9904713846095,45.9625641451378</coordinates></LinearRing></outerBoundaryIs></Polygon></MultiGeometry>
  </Placemark>
</Folder>
</Document></kml>
