<?xml version="1.0" encoding="utf-8" ?>
<kml xmlns="http://www.opengis.net/kml/2.2">
<Document id="root_doc">
<Schema name="task_grid_v6_45.88_61.18" id="task_grid_v6_45.88_61.18">
	<SimpleField name="area_ha" type="float"></SimpleField>
	<SimpleField name="low_risk_ha" type="float"></SimpleField>
	<SimpleField name="moderate_risk_ha" type="float"></SimpleField>
	<SimpleField name="grid_cell_deg" type="string"></SimpleField>
</Schema>
<Folder><name>task_grid_v6_45.88_61.18</name>
  <Placemark id="task_grid_v6_45.88_61.18.1">
	<name>task_grid_v6_45.88_61.18</name>
	<name>439.6</name>
	<description>1506.9</description>
	<Style><LineStyle><color>ff0000ff</color></LineStyle><PolyStyle><fill>0</fill></PolyStyle></Style>
	<ExtendedData><SchemaData schemaUrl="#task_grid_v6_45.88_61.18">
		<SimpleData name="area_ha">1067.3</SimpleData>
		<SimpleData name="low_risk_ha">0.1</SimpleData>
	</SchemaData></ExtendedData>
      <MultiGeometry><Polygon><outerBoundaryIs><LinearRing><coordinates>61.1421230145554,45.8423764215454 61.1434704874816,45.8410289486192 61.139428068703,45.8369865298406 61.1380805957769,45.8410289486192 61.1421230145554,45.8423764215454</coordinates></LinearRing></outerBoundaryIs></Polygon><Polygon><outerBoundaryIs><LinearRing><coordinates>61.1367331228507,45.8450713673977 61.1380805957769,45.8437238944715 61.1340652516071,45.8343547580755 61.1340291521287,45.8343547580755 61.1326907040722,45.8437238944715 61.1367331228507,45.8450713673977</coordinates></LinearRing></outerBoundaryIs></Polygon><Polygon><outerBoundaryIs><LinearRing><coordinates>61.1825472023408,45.8423764215454 61.1879370940455,45.8450713673977 61.1946744586764,45.8383340027668 61.1966640810221,45.8343547580755 61.1801681269245,45.8343547580755 61.1865896211193,45.8356390569145 61.1825472023408,45.839681475693 61.1744623647837,45.8423764215454 61.1704199460052,45.8464188403239 61.1717674189314,45.8477663132501 61.1825472023408,45.8423764215454</coordinates></LinearRing></outerBoundaryIs></Polygon><Polygon><outerBoundaryIs><LinearRing><coordinates>61.1299957582198,45.8410289486192 61.1263910613787,45.8374242517781 61.1263910613787,45.8428141434828 61.1286482852936,45.8450713673977 61.1299957582198,45.8410289486192</coordinates></LinearRing></outerBoundaryIs></Polygon><Polygon><outerBoundaryIs><LinearRing><coordinates>61.1704199460052,45.8491137861763 61.1609876355219,45.8477663132501 61.1582926896696,45.8504612591024 61.1555977438172,45.8477663132501 61.1515553250387,45.8518087320286 61.1609876355219,45.8531562049548 61.1636825813743,45.8558511508072 61.1704199460052,45.8491137861763</coordinates></LinearRing></outerBoundaryIs></Polygon><Polygon><outerBoundaryIs><LinearRing><coordinates>61.1488603791863,45.8625885154381 61.1448179604078,45.8585460966595 61.1407755416292,45.8625885154381 61.1475129062601,45.8639359883642 61.1488603791863,45.8625885154381</coordinates></LinearRing></outerBoundaryIs></Polygon><Polygon><outerBoundaryIs><LinearRing><coordinates>61.1286482852936,45.8585460966595 61.1263910613787,45.8608033205744 61.1263910613787,45.8656839831616 61.1299957582198,45.8652834612904 61.1286482852936,45.8585460966595</coordinates></LinearRing></outerBoundaryIs></Polygon><Polygon><outerBoundaryIs><LinearRing><coordinates>61.1515553250387,45.8787581905522 61.154250270891,45.8814531364046 61.1502078521125,45.8854955551831 61.1434704874816,45.8841480822569 61.1461654333339,45.8814531364046 61.1448179604078,45.877410717626 61.139428068703,45.8801056634784 61.139428068703,45.8881905010355 61.1367331228507,45.8854955551831 61.1367331228507,45.8801056634784 61.1380805957769,45.8787581905522 61.1340381769983,45.8747157717737 61.1273008123674,45.8760632446998 61.1273008123674,45.8787581905522 61.1340381769983,45.8828006093307 61.1305732466167,45.8839555861246 61.1263910613787,45.8829100398151 61.1263910613787,45.8962753385925 61.1286482852936,45.8962753385925 61.1286482852936,45.8881905010355 61.139428068703,45.8935803927402 61.1475129062601,45.8881905010355 61.1475129062601,45.8962753385925 61.1555977438172,45.8962753385925 61.1569452167434,45.892232919814 61.154250270891,45.8895379739616 61.1582926896696,45.8854955551831 61.1636825813743,45.8881905010355 61.1677250001528,45.8841480822569 61.1650300543005,45.8787581905522 61.1677250001528,45.8760632446998 61.1636825813743,45.8720208259213 61.1623351084481,45.8733682988475 61.1555977438172,45.8666309342166 61.1525659297333,45.8676415389112 61.1529027979648,45.8666309342166 61.1596401625957,45.8652834612904 61.1555977438172,45.8612410425119 61.1475129062601,45.8666309342166 61.1407755416292,45.8679784071428 61.1475129062601,45.8693258800689 61.1502078521125,45.8747157717737 61.1520943142091,45.8690563854837 61.1551485861751,45.8751649294157 61.1515553250387,45.8787581905522</coordinates></LinearRing></outerBoundaryIs><innerBoundaryIs><LinearRing><coordinates>61.1609876355219,45.8828006093307 61.1586776819342,45.8793356789491 61.1609876355219,45.8801056634784 61.1623351084481,45.8787581905522 61.1609876355219,45.8828006093307</coordinates></LinearRing></innerBoundaryIs></Polygon><Polygon><outerBoundaryIs><LinearRing><coordinates>61.1825472023408,45.8747157717737 61.183894675267,45.8706733529951 61.1811997294146,45.8679784071428 61.1865896211193,45.8652834612904 61.1865896211193,45.8625885154381 61.1717674189314,45.8612410425119 61.1704199460052,45.8652834612904 61.1731148918575,45.8679784071428 61.1704199460052,45.8733682988475 61.1744623647837,45.8747157717737 61.1771573106361,45.8720208259213 61.1825472023408,45.8747157717737</coordinates></LinearRing></outerBoundaryIs><innerBoundaryIs><LinearRing><coordinates>61.1771573106361,45.8693258800689 61.1758098377099,45.8679784071428 61.1785047835622,45.8679784071428 61.1771573106361,45.8693258800689</coordinates></LinearRing></innerBoundaryIs></Polygon><Polygon><outerBoundaryIs><LinearRing><coordinates>61.1785047835622,45.8814531364046 61.1744623647837,45.877410717626 61.1731148918575,45.8895379739616 61.1582926896696,45.8935803927402 61.1582926896696,45.8962753385925 61.169072473079,45.8962753385925 61.1758098377099,45.892232919814 61.1758098377099,45.8841480822569 61.1785047835622,45.8814531364046</coordinates></LinearRing></outerBoundaryIs></Polygon><Polygon><outerBoundaryIs><LinearRing><coordinates>61.1811997294146,45.8868430281093 61.1771573106361,45.8828006093307 61.1758098377099,45.8841480822569 61.1771573106361,45.8908854468878 61.1811997294146,45.8868430281093</coordinates></LinearRing></outerBoundaryIs></Polygon><Polygon><outerBoundaryIs><LinearRing><coordinates>61.2192363703852,45.8343547580755 61.2060588050916,45.8343547580755 61.2094966608644,45.8423764215454 61.2148865525691,45.839681475693 61.2175814984214,45.8423764215454 61.2216239172,45.8383340027668 61.2192363703852,45.8343547580755</coordinates></LinearRing></outerBoundaryIs></Polygon><Polygon><outerBoundaryIs><LinearRing><coordinates>61.2041067691597,45.839681475693 61.2000643503811,45.8437238944715 61.2014118233073,45.8531562049548 61.2041067691597,45.8531562049548 61.206801715012,45.8477663132501 61.2054542420858,45.8518087320286 61.206801715012,45.8531562049548 61.2121916067167,45.8504612591024 61.2162340254953,45.8464188403239 61.2148865525691,45.8450713673977 61.2189289713476,45.8437238944715 61.206801715012,45.8423764215454 61.2041067691597,45.839681475693</coordinates></LinearRing></outerBoundaryIs></Polygon><Polygon><outerBoundaryIs><LinearRing><coordinates>61.2175814984214,45.8504612591024 61.2162340254953,45.854503677881 61.2216239172,45.8571986237333 61.2162340254953,45.8625885154381 61.2202764442738,45.8666309342166 61.2263910613787,45.8666309342166 61.2263910613787,45.8588563823944 61.2263910613787,45.8580962136654 61.2263910613787,45.8565078909579 61.2250674591224,45.85694909171 61.220691051328,45.8531562049548 61.2263910613787,45.8531562049548 61.2263910613787,45.8430331616961 61.2243188630523,45.8437238944715 61.2229713901262,45.8504612591024 61.2202764442738,45.8477663132501 61.2189289713476,45.8491137861763 61.220108010158,45.8526509026075 61.2175814984214,45.8504612591024</coordinates></LinearRing></outerBoundaryIs></Polygon><Polygon><outerBoundaryIs><LinearRing><coordinates>61.2175814984214,45.8612410425119 61.2216239172,45.8571986237333 61.2175814984214,45.8558511508072 61.2135390796429,45.8598935695857 61.2175814984214,45.8612410425119</coordinates></LinearRing></outerBoundaryIs></Polygon><Polygon><outerBoundaryIs><LinearRing><coordinates>61.1892845669717,45.8733682988475 61.1960219316026,45.877410717626 61.1973694045288,45.8733682988475 61.1933269857502,45.8693258800689 61.1892845669717,45.8706733529951 61.1892845669717,45.8733682988475</coordinates></LinearRing></outerBoundaryIs></Polygon><Polygon><outerBoundaryIs><LinearRing><coordinates>61.2135390796429,45.8814531364046 61.2121916067167,45.8747157717737 61.2081491879382,45.8787581905522 61.2121916067167,45.8828006093307 61.2135390796429,45.8814531364046</coordinates></LinearRing></outerBoundaryIs></Polygon><Polygon><outerBoundaryIs><LinearRing><coordinates>61.2014118233073,45.8854955551831 61.2014118233073,45.8828006093307 61.1960219316026,45.8828006093307 61.1946744586764,45.8841480822569 61.2014118233073,45.8854955551831</coordinates></LinearRing></outerBoundaryIs></Polygon><Polygon><outerBoundaryIs><LinearRing><coordinates>61.2263910613787,45.8835253347309 61.2256663359785,45.8828006093307 61.2216239172,45.8841480822569 61.2263910613787,45.8870083687641 61.2263910613787,45.8835253347309</coordinates></LinearRing></outerBoundaryIs></Polygon><Polygon><outerBoundaryIs><LinearRing><coordinates>61.2108441337906,45.8868430281093 61.2094966608644,45.8828006093307 61.2054542420858,45.8841480822569 61.206801715012,45.8881905010355 61.2108441337906,45.8868430281093</coordinates></LinearRing></outerBoundaryIs></Polygon><Polygon><outerBoundaryIs><LinearRing><coordinates>61.2121916067167,45.8962753385925 61.2121916067167,45.8908854468878 61.2094966608644,45.8935803927402 61.2054542420858,45.8949278656664 61.2121916067167,45.8962753385925</coordinates></LinearRing></outerBoundaryIs></Polygon><Polygon><outerBoundaryIs><LinearRing><coordinates>61.2263910613787,45.8943051181403 61.2229713901262,45.8908854468878 61.2216239172,45.892232919814 61.2175814984214,45.8908854468878 61.2135390796429,45.8949278656664 61.2175814984214,45.8962753385925 61.2189289713476,45.8949278656664 61.2256663359785,45.8962753385925 61.2263910613787,45.8955506131924 61.2263910613787,45.8943051181403</coordinates></LinearRing></outerBoundaryIs></Polygon></MultiGeometry>
  </Placemark>
</Folder>
</Document></kml>
