<?xml version="1.0" encoding="utf-8" ?>
<kml xmlns="http://www.opengis.net/kml/2.2">
<Document id="root_doc">
<Schema name="task_grid_v6_44.48_60.78" id="task_grid_v6_44.48_60.78">
	<SimpleField name="area_ha" type="float"></SimpleField>
	<SimpleField name="low_risk_ha" type="float"></SimpleField>
	<SimpleField name="moderate_risk_ha" type="float"></SimpleField>
	<SimpleField name="grid_cell_deg" type="string"></SimpleField>
</Schema>
<Folder><name>task_grid_v6_44.48_60.78</name>
  <Placemark id="task_grid_v6_44.48_60.78.1">
	<name>task_grid_v6_44.48_60.78</name>
	<name>61.9</name>
	<description>294.2</description>
	<Style><LineStyle><color>ff0000ff</color></LineStyle><PolyStyle><fill>0</fill></PolyStyle></Style>
	<ExtendedData><SchemaData schemaUrl="#task_grid_v6_44.48_60.78">
		<SimpleData name="area_ha">232.3</SimpleData>
		<SimpleData name="low_risk_ha">0.1</SimpleData>
	</SchemaData></ExtendedData>
      <Polygon><outerBoundaryIs><LinearRing><coordinates>60.8133396205677,44.5218529538897 60.8111029333316,44.5218529538897 60.7959860639584,44.5309703827216 60.7936639592858,44.5323709123928 60.7933200228073,44.5334027218283 60.7925727204516,44.5330290706505 60.7903747056382,44.5343547580755 60.7950002659261,44.5343547580755 60.7952240953016,44.5343547580755 60.8246934109026,44.5343547580755 60.8241194039771,44.5326327372991 60.8263910613787,44.5326327372991 60.8263910613787,44.529514502996 60.8200769851986,44.5232004268158 60.8200769851986,44.5205054809635 60.8227719310509,44.5205054809635 60.8241194039771,44.524547899742 60.8263910613787,44.5222762423404 60.8263910613787,44.517888142685 60.8254668769033,44.5151155892588 60.823600102759,44.5143155431969 60.8141791871832,44.5199975746528 60.8173820393462,44.5232004268158 60.81603456642,44.524547899742 60.8133396205677,44.5218529538897</coordinates></LinearRing></outerBoundaryIs><innerBoundaryIs><LinearRing><coordinates>60.8025598371582,44.5272428455944 60.8052547830106,44.5299377914467 60.7998648913059,44.5326327372991 60.8025598371582,44.5272428455944</coordinates></LinearRing></innerBoundaryIs><innerBoundaryIs><LinearRing><coordinates>60.8119921476415,44.5258953726682 60.8106446747153,44.5272428455944 60.8092972017891,44.5258953726682 60.8119921476415,44.5258953726682</coordinates></LinearRing></innerBoundaryIs></Polygon>
  </Placemark>
</Folder>
</Document></kml>
