<?xml version="1.0" encoding="utf-8" ?>
<kml xmlns="http://www.opengis.net/kml/2.2">
<Document id="root_doc">
<Schema name="task_grid_v6_45.58_61.18" id="task_grid_v6_45.58_61.18">
	<SimpleField name="area_ha" type="float"></SimpleField>
	<SimpleField name="low_risk_ha" type="float"></SimpleField>
	<SimpleField name="moderate_risk_ha" type="float"></SimpleField>
	<SimpleField name="grid_cell_deg" type="string"></SimpleField>
</Schema>
<Folder><name>task_grid_v6_45.58_61.18</name>
  <Placemark id="task_grid_v6_45.58_61.18.1">
	<name>task_grid_v6_45.58_61.18</name>
	<name>114.8</name>
	<description>944.5</description>
	<Style><LineStyle><color>ff0000ff</color></LineStyle><PolyStyle><fill>0</fill></PolyStyle></Style>
	<ExtendedData><SchemaData schemaUrl="#task_grid_v6_45.58_61.18">
		<SimpleData name="area_ha">829.7</SimpleData>
		<SimpleData name="low_risk_ha">0.1</SimpleData>
	</SchemaData></ExtendedData>
      <MultiGeometry><Polygon><outerBoundaryIs><LinearRing><coordinates>61.1263910613787,45.5374098182914 61.1263910613787,45.543675153871 61.1273008123674,45.5445849048597 61.1263910613787,45.5450397803541 61.1263910613787,45.554017215343 61.1286482852936,45.554017215343 61.1326907040722,45.5472798507121 61.131343231146,45.5459323777859 61.1353856499245,45.5445849048597 61.1340381769983,45.5405424860812 61.1326907040722,45.5418899590074 61.1299957582198,45.539195013155 61.1326907040722,45.5365000673027 61.130545394845,45.5343547580755 61.1276997305179,45.5343547580755 61.1270313177822,45.535691583547 61.1265857092917,45.5343547580755 61.1263910613787,45.5343547580755 61.1263910613787,45.536972096354 61.1263910613787,45.5374098182914</coordinates></LinearRing></outerBoundaryIs></Polygon><Polygon><outerBoundaryIs><LinearRing><coordinates>61.1421230145554,45.5459323777859 61.1434704874816,45.5445849048597 61.1421230145554,45.5405424860812 61.1380805957769,45.5418899590074 61.1421230145554,45.5459323777859</coordinates></LinearRing></outerBoundaryIs></Polygon><Polygon><outerBoundaryIs><LinearRing><coordinates>61.1421230145554,45.5513222694906 61.1434704874816,45.5499747965645 61.1421230145554,45.5459323777859 61.1380805957769,45.5472798507121 61.1421230145554,45.5513222694906</coordinates></LinearRing></outerBoundaryIs></Polygon><Polygon><outerBoundaryIs><LinearRing><coordinates>61.1555977438172,45.5728818363095 61.1569452167434,45.5715343633833 61.154250270891,45.568839417531 61.1582926896696,45.5674919446048 61.1609876355219,45.5728818363095 61.1650300543005,45.5661444716786 61.1555977438172,45.5594071070477 61.1529027979648,45.5647969987524 61.1434704874816,45.5661444716786 61.1475129062601,45.5701868904572 61.1502078521125,45.5674919446048 61.1529027979648,45.5728818363095 61.1555977438172,45.5728818363095</coordinates></LinearRing></outerBoundaryIs></Polygon><Polygon><outerBoundaryIs><LinearRing><coordinates>61.1340381769983,45.5836616197189 61.131343231146,45.5863565655713 61.1263910613787,45.588478924043 61.1263910613787,45.591295012493 61.1286482852936,45.591746457276 61.1340381769983,45.5890515114237 61.1340381769983,45.5836616197189</coordinates></LinearRing></outerBoundaryIs></Polygon><Polygon><outerBoundaryIs><LinearRing><coordinates>61.1286482852936,45.629475699209 61.1299957582198,45.6281282262829 61.1263910613787,45.6245235294418 61.1263910613787,45.6290242544261 61.1286482852936,45.629475699209</coordinates></LinearRing></outerBoundaryIs></Polygon><Polygon><outerBoundaryIs><LinearRing><coordinates>61.1475129062601,45.5459323777859 61.1475129062601,45.554017215343 61.1448179604078,45.5513222694906 61.1380805957769,45.5553646882692 61.1421230145554,45.5567121611954 61.1448179604078,45.5621020529001 61.1502078521125,45.5567121611954 61.1529027979648,45.5594071070477 61.1609876355219,45.5486273236383 61.1636825813743,45.554017215343 61.1663775272266,45.5486273236383 61.1717674189314,45.5513222694906 61.1744623647837,45.5459323777859 61.1771573106361,45.5513222694906 61.1852421481931,45.5513222694906 61.1865896211193,45.5499747965645 61.1785047835622,45.5445849048597 61.1758098377099,45.5365000673027 61.1771573106361,45.5351525943765 61.1798522564884,45.5405424860812 61.1879370940455,45.5405424860812 61.1906320398979,45.5432374319336 61.1946744586764,45.5365000673027 61.1933269857502,45.5351525943765 61.1906320398979,45.5378475402288 61.1879370940455,45.5351525943765 61.1852421481931,45.5378475402288 61.1834957571165,45.5343547580755 61.1717674189314,45.5343547580755 61.1717674189314,45.5432374319336 61.169072473079,45.5351525943765 61.1658811278751,45.5343547580755 61.1576603198191,45.5343547580755 61.1569452167434,45.5365000673027 61.1582926896696,45.5378475402288 61.1529027979648,45.5378475402288 61.1461654333339,45.5418899590074 61.1461654333339,45.5445849048597 61.1475129062601,45.5459323777859</coordinates></LinearRing></outerBoundaryIs><innerBoundaryIs><LinearRing><coordinates>61.1555977438172,45.5405424860812 61.1652995488857,45.5453933886155 61.1636825813743,45.5459323777859 61.1582926896696,45.5432374319336 61.1555977438172,45.5486273236383 61.1529027979648,45.5459323777859 61.1502078521125,45.5486273236383 61.1475129062601,45.5459323777859 61.1555977438172,45.5405424860812</coordinates></LinearRing></innerBoundaryIs><innerBoundaryIs><LinearRing><coordinates>61.1663775272266,45.5432374319336 61.1677250001528,45.5445849048597 61.1663775272266,45.5450340625018 61.1663775272266,45.5432374319336</coordinates></LinearRing></innerBoundaryIs><innerBoundaryIs><LinearRing><coordinates>61.1663775272266,45.5378475402288 61.1677250001528,45.539195013155 61.1663775272266,45.5405424860812 61.1663775272266,45.5378475402288</coordinates></LinearRing></innerBoundaryIs></Polygon><Polygon><outerBoundaryIs><LinearRing><coordinates>61.169072473079,45.554017215343 61.1704199460052,45.5526697424168 61.1663775272266,45.5486273236383 61.1650300543005,45.5526697424168 61.169072473079,45.554017215343</coordinates></LinearRing></outerBoundaryIs></Polygon><Polygon><outerBoundaryIs><LinearRing><coordinates>61.1771573106361,45.5567121611954 61.1785047835622,45.5553646882692 61.1744623647837,45.5513222694906 61.1704199460052,45.5553646882692 61.1771573106361,45.5567121611954</coordinates></LinearRing></outerBoundaryIs></Polygon><Polygon><outerBoundaryIs><LinearRing><coordinates>61.2175814984214,45.5647969987524 61.2216239172,45.5634495258263 61.2202764442738,45.5594071070477 61.2162340254953,45.5634495258263 61.2175814984214,45.5647969987524</coordinates></LinearRing></outerBoundaryIs></Polygon><Polygon><outerBoundaryIs><LinearRing><coordinates>61.1785047835622,45.5823141467928 61.1825472023408,45.5836616197189 61.191979512824,45.5742293092357 61.1906320398979,45.5728818363095 61.1852421481931,45.5755767821619 61.1825472023408,45.5728818363095 61.1771573106361,45.5728818363095 61.1758098377099,45.5742293092357 61.1785047835622,45.576924255088 61.1785047835622,45.5823141467928</coordinates></LinearRing></outerBoundaryIs></Polygon><Polygon><outerBoundaryIs><LinearRing><coordinates>61.2229713901262,45.6052211865378 61.2189289713476,45.6092636053164 61.2263910613787,45.61175096866 61.2263910613787,45.6069310221641 61.2229713901262,45.6052211865378</coordinates></LinearRing></outerBoundaryIs></Polygon><Polygon><outerBoundaryIs><LinearRing><coordinates>61.1987168774549,45.6186959157996 61.2000643503811,45.6173484428734 61.1960219316026,45.6133060240949 61.1946744586764,45.6173484428734 61.1987168774549,45.6186959157996</coordinates></LinearRing></outerBoundaryIs></Polygon></MultiGeometry>
  </Placemark>
</Folder>
</Document></kml>
