<?xml version="1.0" encoding="utf-8" ?>
<kml xmlns="http://www.opengis.net/kml/2.2">
<Document id="root_doc">
<Schema name="task_grid_v6_45.41_60.96" id="task_grid_v6_45.41_60.96">
	<SimpleField name="area_ha" type="float"></SimpleField>
	<SimpleField name="low_risk_ha" type="float"></SimpleField>
	<SimpleField name="moderate_risk_ha" type="float"></SimpleField>
	<SimpleField name="grid_cell_deg" type="string"></SimpleField>
</Schema>
<Folder><name>task_grid_v6_45.41_60.96</name>
  <Placemark id="task_grid_v6_45.41_60.96.1">
	<name>task_grid_v6_45.41_60.96</name>
	<name>245.6</name>
	<description>904.9</description>
	<Style><LineStyle><color>ff0000ff</color></LineStyle><PolyStyle><fill>0</fill></PolyStyle></Style>
	<ExtendedData><SchemaData schemaUrl="#task_grid_v6_45.41_60.96">
		<SimpleData name="area_ha">659.3</SimpleData>
		<SimpleData name="low_risk_ha">0.1</SimpleData>
	</SchemaData></ExtendedData>
      <MultiGeometry><Polygon><outerBoundaryIs><LinearRing><coordinates>60.9156356482695,45.3625641451378 60.9157475629573,45.3626760598255 60.9159340874369,45.3625641451378 60.9156356482695,45.3625641451378</coordinates></LinearRing></outerBoundaryIs></Polygon><Polygon><outerBoundaryIs><LinearRing><coordinates>61.0006383573066,45.426007287356 61.0006383573066,45.434092124913 60.9952484656019,45.4394820166178 60.996595938528,45.4435244353963 61.0046807760851,45.441503226007 61.0033333031589,45.4421769624701 60.9973445345981,45.4496629231711 60.988511100971,45.4408294895439 60.9858161551186,45.4435244353963 60.9831212092663,45.4408294895439 60.9804262634139,45.4462193812487 60.9750363717092,45.4435244353963 60.9709939529306,45.4475668541748 60.9709939529306,45.4502618000272 60.9790787904877,45.4583466375843 60.976970036711,45.4625641451378 60.9956595689025,45.4625641451378 61.0060282490113,45.4556516917319 60.997387682254,45.4625641451378 61.0102213862645,45.4625641451378 61.0102213862645,45.4360867156655 61.0102213862645,45.4349874424151 61.0102213862645,45.4334937476873 61.0060282490113,45.4313971790607 61.0102213862645,45.4307981594531 61.0102213862645,45.4186018107364 61.0073757219375,45.4219648685774 61.0046807760851,45.4165749768727 60.9952484656019,45.4233123415036 61.0006383573066,45.426007287356</coordinates></LinearRing></outerBoundaryIs><innerBoundaryIs><LinearRing><coordinates>61.0093969313267,45.4374608072285 61.0087231948637,45.4394820166178 61.0079532103344,45.4398670088824 61.0093969313267,45.4374608072285</coordinates></LinearRing></innerBoundaryIs><innerBoundaryIs><LinearRing><coordinates>60.9925535197495,45.4556516917319 60.996595938528,45.4556516917319 60.9939009926757,45.4569991646581 60.9925535197495,45.4556516917319</coordinates></LinearRing></innerBoundaryIs><innerBoundaryIs><LinearRing><coordinates>60.9817737363401,45.4583466375843 60.9844686821924,45.4583466375843 60.9831212092663,45.4596941105104 60.9817737363401,45.4583466375843</coordinates></LinearRing></innerBoundaryIs></Polygon><Polygon><outerBoundaryIs><LinearRing><coordinates>60.9925535197495,45.434092124913 60.9939009926757,45.4408294895439 61.0006383573066,45.434092124913 60.9992908843804,45.4300497061345 60.9925535197495,45.434092124913</coordinates></LinearRing></outerBoundaryIs></Polygon><Polygon><outerBoundaryIs><LinearRing><coordinates>60.9750363717092,45.4381345436916 60.9763838446354,45.4367870707654 60.9696464800045,45.4327446519869 60.9602141695212,45.4421769624701 60.9642565882997,45.4435244353963 60.9750363717092,45.4381345436916</coordinates></LinearRing></outerBoundaryIs></Polygon></MultiGeometry>
  </Placemark>
</Folder>
</Document></kml>
