<?xml version="1.0" encoding="utf-8" ?>
<kml xmlns="http://www.opengis.net/kml/2.2">
<Document id="root_doc">
<Schema name="task_grid_v6_45.91_59.16" id="task_grid_v6_45.91_59.16">
	<SimpleField name="area_ha" type="float"></SimpleField>
	<SimpleField name="low_risk_ha" type="float"></SimpleField>
	<SimpleField name="moderate_risk_ha" type="float"></SimpleField>
	<SimpleField name="grid_cell_deg" type="string"></SimpleField>
</Schema>
<Folder><name>task_grid_v6_45.91_59.16</name>
  <Placemark id="task_grid_v6_45.91_59.16.1">
	<name>task_grid_v6_45.91_59.16</name>
	<name>804.9</name>
	<description>817.4</description>
	<Style><LineStyle><color>ff0000ff</color></LineStyle><PolyStyle><fill>0</fill></PolyStyle></Style>
	<ExtendedData><SchemaData schemaUrl="#task_grid_v6_45.91_59.16">
		<SimpleData name="area_ha">12.5</SimpleData>
		<SimpleData name="low_risk_ha">0.1</SimpleData>
	</SchemaData></ExtendedData>
      <Polygon><outerBoundaryIs><LinearRing><coordinates>59.1759657,45.9342038 59.1753241,45.935626 59.1738049,45.9387926 59.1737326055301,45.9388691922984 59.1734650694075,45.9407419451565 59.167952680164,45.9484592900973 59.1667277047766,45.944784363935 59.162685285998,45.9488267827135 59.1626852859981,45.9488267827135 59.1586428672195,45.9474793097873 59.1559479213671,45.9501742556397 59.139778246253,45.9501742556397 59.1370833004006,45.9528692014921 59.1182186794341,45.9528692014921 59.1155237335818,45.9555641473444 59.1102213862645,45.9555641473444 59.1102213862645,45.9625641451378 59.1408630860167,45.9625641451378 59.1424731921053,45.9609540390491 59.1532529755148,45.9609540390491 59.1559479213671,45.9582590931968 59.1721175964813,45.9582590931968 59.1748125423337,45.9609540390491 59.1788549611122,45.9542166744182 59.1734650694075,45.9515217285659 59.1734650694075,45.9488267827135 59.1802024340384,45.9474793097873 59.1902589909387,45.9625641451378 59.2006771610935,45.9625641451378 59.1963721091525,45.9582590931968 59.192329690374,45.9569116202706 59.1842448528169,45.9434368910088 59.1858483818571,45.9402298329285 59.1850689,45.9356644 59.1842252385752,45.9335227324807 59.1828973798907,45.9313096346732 59.177507488186,45.9340045805256 59.1765830995812,45.9330801919207 59.1759657,45.9342038</coordinates></LinearRing></outerBoundaryIs><innerBoundaryIs><LinearRing><coordinates>59.1667277047766,45.9501742556397 59.1653802318504,45.9497250979976 59.1675698753554,45.9489952168293 59.1667277047766,45.9501742556397</coordinates></LinearRing></innerBoundaryIs><innerBoundaryIs><LinearRing><coordinates>59.177507488186,45.9366995263779 59.1802024340384,45.9366995263779 59.1802024340384,45.9393944722303 59.1761600152598,45.9380469993041 59.177507488186,45.9366995263779</coordinates></LinearRing></innerBoundaryIs></Polygon>
  </Placemark>
</Folder>
</Document></kml>
