<?xml version="1.0" encoding="utf-8" ?>
<kml xmlns="http://www.opengis.net/kml/2.2">
<Document id="root_doc">
<Schema name="task_grid_v6_45.01_61.16" id="task_grid_v6_45.01_61.16">
	<SimpleField name="area_ha" type="float"></SimpleField>
	<SimpleField name="low_risk_ha" type="float"></SimpleField>
	<SimpleField name="moderate_risk_ha" type="float"></SimpleField>
	<SimpleField name="grid_cell_deg" type="string"></SimpleField>
</Schema>
<Folder><name>task_grid_v6_45.01_61.16</name>
  <Placemark id="task_grid_v6_45.01_61.16.1">
	<name>task_grid_v6_45.01_61.16</name>
	<name>31.8</name>
	<description>6056.5</description>
	<Style><LineStyle><color>ff0000ff</color></LineStyle><PolyStyle><fill>0</fill></PolyStyle></Style>
	<ExtendedData><SchemaData schemaUrl="#task_grid_v6_45.01_61.16">
		<SimpleData name="area_ha">6024.7</SimpleData>
		<SimpleData name="low_risk_ha">0.1</SimpleData>
	</SchemaData></ExtendedData>
      <MultiGeometry><Polygon><outerBoundaryIs><LinearRing><coordinates>61.2099749999689,44.9625641451378 61.2102213862645,44.9633033040246 61.2102213862645,44.9625641451378 61.2099749999689,44.9625641451378</coordinates></LinearRing></outerBoundaryIs></Polygon><Polygon><outerBoundaryIs><LinearRing><coordinates>61.1117611015226,44.9625641451378 61.1102213862645,44.9625641451378 61.1102213862645,44.965643575654 61.1117611015226,44.9625641451378</coordinates></LinearRing></outerBoundaryIs></Polygon><Polygon><outerBoundaryIs><LinearRing><coordinates>61.1102213862645,44.9795903339671 61.1102213862645,44.9912112541375 61.1124786101795,44.9934684780524 61.1178685018842,44.9934684780524 61.1205634477365,44.9907735322001 61.1219109206627,44.9921210051262 61.1124786101795,44.9988583697571 61.1102213862645,44.9991808303164 61.1102213862645,45.0037933859675 61.1138260831056,45.005595734388 61.1102213862645,45.0092004312291 61.1102213862645,45.0127708209564 61.1111311372533,45.0136805719451 61.1102213862645,45.0155000739226 61.1102213862645,45.0201990756073 61.1151735560318,45.0177229907236 61.116521028958,45.0244603553545 61.1102213862645,45.0257202838932 61.1102213862645,45.0451101711847 61.1111311372533,45.0460199221734 61.1102213862645,45.046323172503 61.1102213862645,45.0625641451378 61.1203761738114,45.0625641451378 61.1219109206627,45.0594946514352 61.1192159748104,45.0567997055828 61.1192159748104,45.0514098138781 61.1232583935889,45.0473673950996 61.1299957582198,45.0514098138781 61.1273008123674,45.0541047597305 61.1286482852936,45.0554522326567 61.1326907040722,45.0567997055828 61.131343231146,45.0608421243614 61.1246058665151,45.0621895972876 61.1264786057662,45.0625641451378 61.140400993779,45.0625641451378 61.1407755416292,45.0621895972876 61.1380805957769,45.0594946514352 61.1434704874816,45.0567997055828 61.1407755416292,45.0541047597305 61.1421230145554,45.0527572868043 61.1475129062601,45.0527572868043 61.1609876355219,45.0419775033949 61.1636825813743,45.0446724492472 61.1650300543005,45.0433249763211 61.1650300543005,45.0325451929116 61.1785047835622,45.0244603553545 61.1731148918575,45.0217654095022 61.1825472023408,45.0231128824284 61.1825472023408,45.0177229907236 61.1771573106361,45.0177229907236 61.1758098377099,45.0190704636498 61.1704199460052,45.0136805719451 61.1717674189314,45.0123330990189 61.1852421481931,45.0123330990189 61.1906320398979,45.0177229907236 61.1933269857502,45.0150280448713 61.1987168774549,45.0150280448713 61.1987168774549,45.0177229907236 61.1933269857502,45.0177229907236 61.183894675267,45.0244603553545 61.1879370940455,45.0258078282807 61.1906320398979,45.0311977199854 61.1960219316026,45.0311977199854 61.1987168774549,45.0338926658378 61.2027592962335,45.0298502470593 61.2000643503811,45.0244603553545 61.2014118233073,45.020417936576 61.2094966608644,45.0150280448713 61.2102213862645,45.0157527702714 61.2102213862645,44.9982016296064 61.2081491879382,44.997510896831 61.2102213862645,44.9954386985046 61.2102213862645,44.9864197396585 61.2054542420858,44.9840361675692 61.2102213862645,44.9816525954798 61.2102213862645,44.9811336392081 61.206801715012,44.9799937487906 61.2014118233073,44.9719089112335 61.1987168774549,44.9746038570859 61.1946744586764,44.9732563841597 61.2000643503811,44.9705614383074 61.1973694045288,44.967866492455 61.1987168774549,44.9665190195288 61.2041067691597,44.9692139653812 61.2085399826553,44.9625641451378 61.1164334845705,44.9625641451378 61.1138260831056,44.9651715466026 61.1138260831056,44.9732563841597 61.1111311372533,44.9759513300121 61.1102213862645,44.9795903339671</coordinates></LinearRing></outerBoundaryIs><innerBoundaryIs><LinearRing><coordinates>61.131343231146,45.0285027741331 61.1286482852936,45.0311977199854 61.1259533394413,45.0258078282807 61.1232583935889,45.0285027741331 61.1219109206627,45.0271553012069 61.1246058665151,45.0217654095022 61.1326907040722,45.0163755177975 61.1299957582198,45.0109856260927 61.1326907040722,45.0082906802404 61.1299957582198,45.005595734388 61.1340381769983,45.0015533156095 61.1367331228507,45.0042482614619 61.1448179604078,44.9961634239048 61.1529027979648,45.0069432073142 61.1555977438172,45.0015533156095 61.1623351084481,45.0082906802404 61.1623351084481,45.0163755177975 61.1609876355219,45.0177229907236 61.1582926896696,45.0150280448713 61.154250270891,45.0190704636498 61.1596401625957,45.0244603553545 61.1529027979648,45.0311977199854 61.1434704874816,45.0325451929116 61.1488603791863,45.035240138764 61.1475129062601,45.0365876116902 61.131343231146,45.0285027741331</coordinates></LinearRing></innerBoundaryIs><innerBoundaryIs><LinearRing><coordinates>61.2000643503811,45.0029007885357 61.1973694045288,45.005595734388 61.2000643503811,45.0082906802404 61.1879370940455,45.0096381531666 61.1865896211193,45.0029007885357 61.1906320398979,44.9961634239048 61.1960219316026,44.9961634239048 61.1973694045288,44.997510896831 61.1946744586764,45.0002058426833 61.2000643503811,45.0029007885357</coordinates></LinearRing></innerBoundaryIs><innerBoundaryIs><LinearRing><coordinates>61.1111311372533,45.0594946514352 61.1124786101795,45.058147178509 61.1138260831056,45.0621895972876 61.1111311372533,45.0621895972876 61.1111311372533,45.0594946514352</coordinates></LinearRing></innerBoundaryIs><innerBoundaryIs><LinearRing><coordinates>61.1286482852936,45.0419775033949 61.1246058665151,45.0379350846163 61.1259533394413,45.0365876116902 61.1299957582198,45.0406300304687 61.1286482852936,45.0419775033949</coordinates></LinearRing></innerBoundaryIs><innerBoundaryIs><LinearRing><coordinates>61.1488603791863,45.0433249763211 61.1461654333339,45.0433249763211 61.1475129062601,45.0419775033949 61.1488603791863,45.0433249763211</coordinates></LinearRing></innerBoundaryIs><innerBoundaryIs><LinearRing><coordinates>61.1609876355219,45.0311977199854 61.1609876355219,45.0338926658378 61.1596401625957,45.0325451929116 61.1609876355219,45.0311977199854</coordinates></LinearRing></innerBoundaryIs><innerBoundaryIs><LinearRing><coordinates>61.1973694045288,45.0244603553545 61.1946744586764,45.0244603553545 61.1960219316026,45.0231128824284 61.1973694045288,45.0244603553545</coordinates></LinearRing></innerBoundaryIs><innerBoundaryIs><LinearRing><coordinates>61.1973694045288,44.9867311134215 61.2000643503811,44.9867311134215 61.1987168774549,44.9880785863477 61.1973694045288,44.9867311134215</coordinates></LinearRing></innerBoundaryIs><innerBoundaryIs><LinearRing><coordinates>61.1650300543005,44.9759513300121 61.1623351084481,44.9759513300121 61.1636825813743,44.9746038570859 61.1650300543005,44.9759513300121</coordinates></LinearRing></innerBoundaryIs><innerBoundaryIs><LinearRing><coordinates>61.169072473079,44.9772988029383 61.169072473079,44.9746038570859 61.1704199460052,44.9759513300121 61.169072473079,44.9772988029383</coordinates></LinearRing></innerBoundaryIs></Polygon><Polygon><outerBoundaryIs><LinearRing><coordinates>61.206801715012,45.058147178509 61.2094966608644,45.0554522326567 61.2102213862645,45.0558145953567 61.2102213862645,45.0423398660949 61.2094966608644,45.0419775033949 61.2000643503811,45.0541047597305 61.2000643503811,45.0594946514352 61.1969948566785,45.0625641451378 61.2062033377863,45.0625641451378 61.2054542420858,45.0621895972876 61.2027592962335,45.0567997055828 61.2041067691597,45.0554522326567 61.206801715012,45.058147178509</coordinates></LinearRing></outerBoundaryIs></Polygon><Polygon><outerBoundaryIs><LinearRing><coordinates>61.1744623647837,45.0527572868043 61.1717674189314,45.0554522326567 61.169072473079,45.0527572868043 61.1582926896696,45.0527572868043 61.1555977438172,45.0554522326567 61.1529027979648,45.0527572868043 61.1434704874816,45.0594946514352 61.1450052343329,45.0625641451378 61.1850183188176,45.0625641451378 61.183894675267,45.0621895972876 61.1865896211193,45.0567997055828 61.1852421481931,45.0500623409519 61.1744623647837,45.0527572868043</coordinates></LinearRing></outerBoundaryIs><innerBoundaryIs><LinearRing><coordinates>61.1717674189314,45.0608421243614 61.1717674189314,45.058147178509 61.1731148918575,45.0594946514352 61.1717674189314,45.0608421243614</coordinates></LinearRing></innerBoundaryIs></Polygon><Polygon><outerBoundaryIs><LinearRing><coordinates>61.1933269857502,45.058147178509 61.1889100191215,45.0625641451378 61.1955354690646,45.0625641451378 61.1933269857502,45.058147178509</coordinates></LinearRing></outerBoundaryIs></Polygon></MultiGeometry>
  </Placemark>
</Folder>
</Document></kml>
