<?xml version="1.0" encoding="utf-8" ?>
<kml xmlns="http://www.opengis.net/kml/2.2">
<Document id="root_doc">
<Schema name="task_grid_v6_45.31_61.16" id="task_grid_v6_45.31_61.16">
	<SimpleField name="area_ha" type="float"></SimpleField>
	<SimpleField name="low_risk_ha" type="float"></SimpleField>
	<SimpleField name="moderate_risk_ha" type="float"></SimpleField>
	<SimpleField name="grid_cell_deg" type="string"></SimpleField>
</Schema>
<Folder><name>task_grid_v6_45.31_61.16</name>
  <Placemark id="task_grid_v6_45.31_61.16.1">
	<name>task_grid_v6_45.31_61.16</name>
	<name>1047.2</name>
	<description>2302.6</description>
	<Style><LineStyle><color>ff0000ff</color></LineStyle><PolyStyle><fill>0</fill></PolyStyle></Style>
	<ExtendedData><SchemaData schemaUrl="#task_grid_v6_45.31_61.16">
		<SimpleData name="area_ha">1255.4</SimpleData>
		<SimpleData name="low_risk_ha">0.1</SimpleData>
	</SchemaData></ExtendedData>
      <MultiGeometry><Polygon><outerBoundaryIs><LinearRing><coordinates>61.1102213862645,45.2642762291006 61.1102213862645,45.2673087323964 61.1111311372533,45.2670054820668 61.1102213862645,45.2642762291006</coordinates></LinearRing></outerBoundaryIs></Polygon><Polygon><outerBoundaryIs><LinearRing><coordinates>61.1192159748104,45.2885650488857 61.1286482852936,45.2899125218119 61.1151735560318,45.2899125218119 61.1138260831056,45.2939549405904 61.1170600181285,45.2955719081018 61.1138260831056,45.2966498864428 61.1178685018842,45.3006923052213 61.1192159748104,45.2993448322951 61.1192159748104,45.3047347239998 61.1286482852936,45.3141670344831 61.139428068703,45.306082196926 61.1353856499245,45.3101246157045 61.1448179604078,45.3114720886307 61.1448179604078,45.306082196926 61.1475129062601,45.3114720886307 61.1555977438172,45.306082196926 61.1609876355219,45.2979973593689 61.1663775272266,45.2979973593689 61.169072473079,45.3006923052213 61.1785047835622,45.2993448322951 61.1596401625957,45.2939549405904 61.169072473079,45.2899125218119 61.1744623647837,45.2899125218119 61.1771573106361,45.2926074676642 61.183894675267,45.2885650488857 61.1744623647837,45.2872175759595 61.1717674189314,45.2845226301071 61.1650300543005,45.2845226301071 61.1677250001528,45.283175157181 61.1520044826807,45.2737428466977 61.1582926896696,45.2764377925501 61.1596401625957,45.2750903196239 61.1555977438172,45.268352954993 61.1493095368284,45.2721258791863 61.1475129062601,45.2710479008453 61.1488603791863,45.2697004279192 61.14580197228,45.2625641451378 61.1398269868535,45.2625641451378 61.1340381769983,45.268352954993 61.1259533394413,45.268352954993 61.1192159748104,45.2750903196239 61.1286482852936,45.2764377925501 61.1340381769983,45.2710479008453 61.1192159748104,45.2885650488857</coordinates></LinearRing></outerBoundaryIs><innerBoundaryIs><LinearRing><coordinates>61.131343231146,45.2872175759595 61.131343231146,45.2926074676642 61.1286482852936,45.2899125218119 61.131343231146,45.2872175759595</coordinates></LinearRing></innerBoundaryIs><innerBoundaryIs><LinearRing><coordinates>61.1181379964694,45.2961108972723 61.1192159748104,45.2966498864428 61.1192159748104,45.2993448322951 61.1181379964694,45.2961108972723</coordinates></LinearRing></innerBoundaryIs><innerBoundaryIs><LinearRing><coordinates>61.1609876355219,45.2899125218119 61.1623351084481,45.2858701030333 61.1632334237322,45.2854209453913 61.1609876355219,45.2899125218119</coordinates></LinearRing></innerBoundaryIs></Polygon><Polygon><outerBoundaryIs><LinearRing><coordinates>61.1102213862645,45.2819735915673 61.1102213862645,45.2882217327585 61.1138260831056,45.283175157181 61.1102213862645,45.2819735915673</coordinates></LinearRing></outerBoundaryIs></Polygon><Polygon><outerBoundaryIs><LinearRing><coordinates>61.1102213862645,45.3055758607608 61.1102213862645,45.3110343666933 61.1111311372533,45.3101246157045 61.1102213862645,45.3055758607608</coordinates></LinearRing></outerBoundaryIs></Polygon><Polygon><outerBoundaryIs><LinearRing><coordinates>61.1246058665151,45.320904399114 61.1205634477365,45.3168619803354 61.1192159748104,45.320904399114 61.1232583935889,45.3222518720402 61.1246058665151,45.320904399114</coordinates></LinearRing></outerBoundaryIs></Polygon><Polygon><outerBoundaryIs><LinearRing><coordinates>61.1102213862645,45.3586405024698 61.1102213862645,45.3625641451378 61.1206753624243,45.3625641451378 61.1295092956818,45.3625641451378 61.1286482852936,45.3599811139732 61.1232583935889,45.3599811139732 61.1246058665151,45.358633641047 61.1205634477365,45.3572861681208 61.1192159748104,45.358633641047 61.1178685018842,45.3545912222685 61.1102213862645,45.3545912222685 61.1102213862645,45.3584147800783 61.1102213862645,45.3586405024698</coordinates></LinearRing></outerBoundaryIs></Polygon><Polygon><outerBoundaryIs><LinearRing><coordinates>61.1353856499245,45.358633641047 61.131343231146,45.3545912222685 61.1299957582198,45.358633641047 61.1340381769983,45.3599811139732 61.1353856499245,45.358633641047</coordinates></LinearRing></outerBoundaryIs></Polygon><Polygon><outerBoundaryIs><LinearRing><coordinates>61.1744623647837,45.268352954993 61.1744623647837,45.2629630632883 61.169072473079,45.2629630632883 61.1623351084481,45.2670054820668 61.1744623647837,45.268352954993</coordinates></LinearRing></outerBoundaryIs></Polygon><Polygon><outerBoundaryIs><LinearRing><coordinates>61.1677250001528,45.2804802113286 61.1744623647837,45.2818276842548 61.1744623647837,45.2791327384024 61.169072473079,45.2791327384024 61.1677250001528,45.2804802113286</coordinates></LinearRing></outerBoundaryIs></Polygon><Polygon><outerBoundaryIs><LinearRing><coordinates>61.1825472023408,45.3114720886307 61.1825472023408,45.3087771427784 61.1771573106361,45.3087771427784 61.1758098377099,45.3101246157045 61.1825472023408,45.3114720886307</coordinates></LinearRing></outerBoundaryIs></Polygon><Polygon><outerBoundaryIs><LinearRing><coordinates>61.1811997294146,45.3182094532616 61.1798522564884,45.3141670344831 61.1758098377099,45.3155145074093 61.1798522564884,45.3195569261878 61.1811997294146,45.3182094532616</coordinates></LinearRing></outerBoundaryIs></Polygon><Polygon><outerBoundaryIs><LinearRing><coordinates>61.1758098377099,45.3182094532616 61.1798522564884,45.3249468178925 61.191979512824,45.3289892366711 61.1865896211193,45.3316841825234 61.191979512824,45.3343791283758 61.1906320398979,45.335726601302 61.1852421481931,45.3330316554496 61.1785047835622,45.3397690200805 61.1798522564884,45.3411164930067 61.1852421481931,45.3411164930067 61.1879370940455,45.3384215471543 61.1892845669717,45.3424639659329 61.1933269857502,45.343811438859 61.1946744586764,45.3397690200805 61.2027592962335,45.3343791283758 61.1946744586764,45.3289892366711 61.1973694045288,45.3235993449663 61.2027592962335,45.320904399114 61.2000643503811,45.3155145074093 61.1933269857502,45.3141670344831 61.1879370940455,45.3222518720402 61.1852421481931,45.3195569261878 61.1798522564884,45.3195569261878 61.1771573106361,45.3168619803354 61.1758098377099,45.3182094532616</coordinates></LinearRing></outerBoundaryIs><innerBoundaryIs><LinearRing><coordinates>61.1946744586764,45.3235993449663 61.1933269857502,45.3249468178925 61.191979512824,45.3235993449663 61.1946744586764,45.3235993449663</coordinates></LinearRing></innerBoundaryIs></Polygon><Polygon><outerBoundaryIs><LinearRing><coordinates>61.2054542420858,45.3397690200805 61.2041067691597,45.335726601302 61.2000643503811,45.3397690200805 61.2014118233073,45.343811438859 61.2054542420858,45.3397690200805</coordinates></LinearRing></outerBoundaryIs></Polygon><Polygon><outerBoundaryIs><LinearRing><coordinates>61.1987168774549,45.3465063847114 61.1892845669717,45.3532437493423 61.1892845669717,45.358633641047 61.1916428694261,45.3625641451378 61.1937279658274,45.3625641451378 61.1946744586764,45.3559386951946 61.2027592962335,45.3505488034899 61.1987168774549,45.3465063847114</coordinates></LinearRing></outerBoundaryIs></Polygon><Polygon><outerBoundaryIs><LinearRing><coordinates>61.155709658505,45.3625641451378 61.1610995502097,45.3625641451378 61.1650300543005,45.358633641047 61.1609876355219,45.3492013305637 61.1596401625957,45.358633641047 61.155709658505,45.3625641451378</coordinates></LinearRing></outerBoundaryIs></Polygon><Polygon><outerBoundaryIs><LinearRing><coordinates>61.1552619997539,45.3625641451378 61.1515553250387,45.3613285868994 61.1569452167434,45.358633641047 61.1529027979648,45.3545912222685 61.1488603791863,45.358633641047 61.1468951271409,45.3625641451378 61.1552619997539,45.3625641451378</coordinates></LinearRing></outerBoundaryIs></Polygon><Polygon><outerBoundaryIs><LinearRing><coordinates>61.2014118233073,45.3572861681208 61.1982450370971,45.3625641451378 61.2048364629666,45.3625641451378 61.2054542420858,45.3613285868994 61.2014118233073,45.3572861681208</coordinates></LinearRing></outerBoundaryIs></Polygon><Polygon><outerBoundaryIs><LinearRing><coordinates>61.1679273459254,45.3625641451378 61.1663775272266,45.3599811139732 61.163794496062,45.3625641451378 61.1679273459254,45.3625641451378</coordinates></LinearRing></outerBoundaryIs></Polygon></MultiGeometry>
  </Placemark>
</Folder>
</Document></kml>
