<?xml version="1.0" encoding="utf-8" ?>
<kml xmlns="http://www.opengis.net/kml/2.2">
<Document id="root_doc">
<Schema name="task_grid_v6_46.08_60.38" id="task_grid_v6_46.08_60.38">
	<SimpleField name="area_ha" type="float"></SimpleField>
	<SimpleField name="low_risk_ha" type="float"></SimpleField>
	<SimpleField name="moderate_risk_ha" type="float"></SimpleField>
	<SimpleField name="grid_cell_deg" type="string"></SimpleField>
</Schema>
<Folder><name>task_grid_v6_46.08_60.38</name>
  <Placemark id="task_grid_v6_46.08_60.38.1">
	<name>task_grid_v6_46.08_60.38</name>
	<name>1010.2</name>
	<description>1228.9</description>
	<Style><LineStyle><color>ff0000ff</color></LineStyle><PolyStyle><fill>0</fill></PolyStyle></Style>
	<ExtendedData><SchemaData schemaUrl="#task_grid_v6_46.08_60.38">
		<SimpleData name="area_ha">218.7</SimpleData>
		<SimpleData name="low_risk_ha">0.1</SimpleData>
	</SchemaData></ExtendedData>
      <MultiGeometry><Polygon><outerBoundaryIs><LinearRing><coordinates>60.3295968400693,46.035065049989 60.3293600760981,46.0343547580755 60.3263910613787,46.0343547580755 60.3263910613787,46.0361336428859 60.3295968400693,46.035065049989</coordinates></LinearRing></outerBoundaryIs></Polygon><Polygon><outerBoundaryIs><LinearRing><coordinates>60.3263910613787,46.0521176215882 60.3282493671431,46.0525821980293 60.3295968400693,46.0485397792508 60.3269018942169,46.0458448333984 60.3263910613787,46.0457718572787 60.3263910613787,46.0521176215882</coordinates></LinearRing></outerBoundaryIs></Polygon><Polygon><outerBoundaryIs><LinearRing><coordinates>60.3363342047002,46.0579720897341 60.3430715693311,46.0539296709555 60.3417240964049,46.049887252177 60.334986731774,46.0539296709555 60.3363342047002,46.0579720897341</coordinates></LinearRing></outerBoundaryIs></Polygon><Polygon><outerBoundaryIs><LinearRing><coordinates>60.3444190422573,46.0714468189958 60.3511564068882,46.0700993460697 60.3471139881096,46.0660569272911 60.3430715693311,46.0700993460697 60.3444190422573,46.0714468189958</coordinates></LinearRing></outerBoundaryIs></Polygon><Polygon><outerBoundaryIs><LinearRing><coordinates>60.334986731774,46.0889639670362 60.3390291505526,46.0903114399623 60.3430715693311,46.0862690211838 60.3390291505526,46.0849215482576 60.334986731774,46.0889639670362</coordinates></LinearRing></outerBoundaryIs></Polygon><Polygon><outerBoundaryIs><LinearRing><coordinates>60.334986731774,46.0889639670362 60.3336392588478,46.08761649411 60.3263910613787,46.08761649411 60.3263910613787,46.0911480800503 60.3282493671431,46.0930063858147 60.3309443129955,46.0903114399623 60.3336392588478,46.0930063858147 60.3376816776264,46.0916589128885 60.334986731774,46.0889639670362</coordinates></LinearRing></outerBoundaryIs></Polygon><Polygon><outerBoundaryIs><LinearRing><coordinates>60.3263910613787,46.0930063858147 60.3263910613787,46.0992329176074 60.3269018942169,46.0997437504456 60.3263910613787,46.1002545832839 60.3263910613787,46.107921100797 60.3309443129955,46.1010912233718 60.3363342047002,46.0983962775194 60.3390291505526,46.1037861692241 60.3457665151834,46.102438696298 60.3390291505526,46.0930063858147 60.3309443129955,46.0957013316671 60.3282493671431,46.0930063858147 60.3263910613787,46.0930063858147</coordinates></LinearRing></outerBoundaryIs></Polygon><Polygon><outerBoundaryIs><LinearRing><coordinates>60.3282493671431,46.1091760609289 60.3263910613787,46.1091760609289 60.3263910613787,46.1114993456283 60.3282493671431,46.1118710067812 60.3282493671431,46.1091760609289</coordinates></LinearRing></outerBoundaryIs></Polygon><Polygon><outerBoundaryIs><LinearRing><coordinates>60.3263910613787,46.1226507901907 60.3263910613787,46.1313550630025 60.3282493671431,46.1307356277477 60.3282493671431,46.1334305736001 60.3263910613787,46.1334305736001 60.3263910613787,46.1343547580755 60.343828788465,46.1343547580755 60.3623594787484,46.1343547580755 60.36463113615,46.1320831006739 60.3632836632238,46.1280406818954 60.3619361902976,46.1293881548215 60.3578937715191,46.1285796710658 60.3605887173714,46.1280406818954 60.3605887173714,46.125345736043 60.3619361902976,46.1239982631168 60.3632836632238,46.125345736043 60.3673260820023,46.1239982631168 60.3659786090761,46.1199558443383 60.36463113615,46.1213033172645 60.3619361902976,46.1186083714121 60.3632836632238,46.1145659526336 60.3808008112641,46.1078285880027 60.3794533383379,46.1037861692241 60.3767583924856,46.1064811150765 60.3740634466332,46.1037861692241 60.3686735549285,46.1037861692241 60.3659786090761,46.1064811150765 60.349808933962,46.1064811150765 60.3471139881096,46.1118710067812 60.3417240964049,46.1091760609289 60.3363342047002,46.1118710067812 60.3309443129955,46.1091760609289 60.3282493671431,46.1118710067812 60.3263910613787,46.1118710067812 60.3263910613787,46.1199558443383 60.3263910613787,46.1206621615264 60.3263910613787,46.1222791290378 60.3282493671431,46.1226507901907 60.3263910613787,46.1226507901907</coordinates></LinearRing></outerBoundaryIs><innerBoundaryIs><LinearRing><coordinates>60.3282493671431,46.1210338226792 60.3295968400693,46.1213033172645 60.3282493671431,46.1226507901907 60.3282493671431,46.1210338226792</coordinates></LinearRing></innerBoundaryIs><innerBoundaryIs><LinearRing><coordinates>60.3471139881096,46.1280406818954 60.3376816776264,46.1293881548215 60.351998577467,46.126861643085 60.349808933962,46.1334305736001 60.3471139881096,46.1280406818954</coordinates></LinearRing></innerBoundaryIs><innerBoundaryIs><LinearRing><coordinates>60.3551988256667,46.1199558443383 60.349808933962,46.1199558443383 60.3592412444452,46.1186083714121 60.3578937715191,46.1226507901907 60.3551988256667,46.122265797926 60.3551988256667,46.1199558443383</coordinates></LinearRing></innerBoundaryIs><innerBoundaryIs><LinearRing><coordinates>60.334986731774,46.1239982631168 60.3363342047002,46.1226507901907 60.3390291505526,46.1226507901907 60.3390291505526,46.125345736043 60.334986731774,46.1239982631168</coordinates></LinearRing></innerBoundaryIs><innerBoundaryIs><LinearRing><coordinates>60.3295968400693,46.1266932089692 60.3309443129955,46.125345736043 60.3322917859217,46.1266932089692 60.3295968400693,46.1266932089692</coordinates></LinearRing></innerBoundaryIs></Polygon><Polygon><outerBoundaryIs><LinearRing><coordinates>60.3821482841903,46.08761649411 60.3754109195594,46.0889639670362 60.372715973707,46.0943538587409 60.3740634466332,46.0983962775194 60.3794533383379,46.0983962775194 60.3861907029688,46.0916589128885 60.3821482841903,46.08761649411</coordinates></LinearRing></outerBoundaryIs></Polygon><Polygon><outerBoundaryIs><LinearRing><coordinates>60.3538513527405,46.0997437504456 60.349808933962,46.0983962775194 60.3471139881096,46.0957013316671 60.3471139881096,46.1010912233718 60.3538513527405,46.0997437504456</coordinates></LinearRing></outerBoundaryIs></Polygon><Polygon><outerBoundaryIs><LinearRing><coordinates>60.3605887173714,46.1010912233718 60.3673260820023,46.0997437504456 60.3632836632238,46.0957013316671 60.3592412444452,46.0997437504456 60.3605887173714,46.1010912233718</coordinates></LinearRing></outerBoundaryIs></Polygon><Polygon><outerBoundaryIs><LinearRing><coordinates>60.4090977427139,46.1091760609289 60.4131401614924,46.1078285880027 60.4117926885662,46.1037861692241 60.4077502697877,46.1078285880027 60.4090977427139,46.1091760609289</coordinates></LinearRing></outerBoundaryIs></Polygon></MultiGeometry>
  </Placemark>
</Folder>
</Document></kml>
