<?xml version="1.0" encoding="utf-8" ?>
<kml xmlns="http://www.opengis.net/kml/2.2">
<Document id="root_doc">
<Schema name="task_grid_v6_46.01_58.96" id="task_grid_v6_46.01_58.96">
	<SimpleField name="area_ha" type="float"></SimpleField>
	<SimpleField name="low_risk_ha" type="float"></SimpleField>
	<SimpleField name="moderate_risk_ha" type="float"></SimpleField>
	<SimpleField name="grid_cell_deg" type="string"></SimpleField>
</Schema>
<Folder><name>task_grid_v6_46.01_58.96</name>
  <Placemark id="task_grid_v6_46.01_58.96.1">
	<name>task_grid_v6_46.01_58.96</name>
	<name>280.6</name>
	<description>293.1</description>
	<Style><LineStyle><color>ff0000ff</color></LineStyle><PolyStyle><fill>0</fill></PolyStyle></Style>
	<ExtendedData><SchemaData schemaUrl="#task_grid_v6_46.01_58.96">
		<SimpleData name="area_ha">12.5</SimpleData>
		<SimpleData name="low_risk_ha">0.1</SimpleData>
	</SchemaData></ExtendedData>
      <MultiGeometry><Polygon><outerBoundaryIs><LinearRing><coordinates>58.9642451525951,45.9625641451378 58.9640471924109,45.9625641451378 58.9565219282926,45.9625641451378 58.9565219282926,45.9717338224586 58.959216874145,45.9717338224586 58.967301711702,45.9798186600157 58.9753865492591,45.9798186600157 58.9780814951115,45.982513605868 58.9848188597424,45.9811661329418 58.9834713868162,45.9771237141633 58.9753865492591,45.9771237141633 58.9659542387759,45.96769140368 58.9642698976181,45.9626383802069 58.967301711702,45.9636489849015 58.9683865514658,45.9625641451378 58.9642451525951,45.9625641451378</coordinates></LinearRing></outerBoundaryIs></Polygon><Polygon><outerBoundaryIs><LinearRing><coordinates>59.0102213862645,45.9744287683109 59.0050309536351,45.9744287683109 59.0036834807089,45.9757762412371 59.0102213862645,45.9770838223482 59.0102213862645,45.9744287683109</coordinates></LinearRing></outerBoundaryIs></Polygon><Polygon><outerBoundaryIs><LinearRing><coordinates>58.9848188597424,45.9838610787942 58.9942511702256,45.9852085517204 58.996946116078,45.9879034975727 59.0102213862645,45.9879034975727 59.0102213862645,45.982513605868 58.9942511702256,45.982513605868 58.9888612785209,45.9798186600157 58.9848188597424,45.9838610787942</coordinates></LinearRing></outerBoundaryIs></Polygon></MultiGeometry>
  </Placemark>
</Folder>
</Document></kml>
