<?xml version="1.0" encoding="utf-8" ?>
<kml xmlns="http://www.opengis.net/kml/2.2">
<Document id="root_doc">
<Schema name="task_grid_v6_45.81_59.86" id="task_grid_v6_45.81_59.86">
	<SimpleField name="area_ha" type="float"></SimpleField>
	<SimpleField name="low_risk_ha" type="float"></SimpleField>
	<SimpleField name="moderate_risk_ha" type="float"></SimpleField>
	<SimpleField name="grid_cell_deg" type="string"></SimpleField>
</Schema>
<Folder><name>task_grid_v6_45.81_59.86</name>
  <Placemark id="task_grid_v6_45.81_59.86.1">
	<name>task_grid_v6_45.81_59.86</name>
	<name>969.9</name>
	<description>1478</description>
	<Style><LineStyle><color>ff0000ff</color></LineStyle><PolyStyle><fill>0</fill></PolyStyle></Style>
	<ExtendedData><SchemaData schemaUrl="#task_grid_v6_45.81_59.86">
		<SimpleData name="area_ha">508.2</SimpleData>
		<SimpleData name="low_risk_ha">0.1</SimpleData>
	</SchemaData></ExtendedData>
      <MultiGeometry><Polygon><outerBoundaryIs><LinearRing><coordinates>59.8215995468997,45.8235118005789 59.8229470198259,45.8221643276527 59.8189046010474,45.8181219088741 59.8148621822688,45.8221643276527 59.8215995468997,45.8235118005789</coordinates></LinearRing></outerBoundaryIs></Polygon><Polygon><outerBoundaryIs><LinearRing><coordinates>59.8364217490877,45.8221643276527 59.8431591137186,45.8235118005789 59.8431591137186,45.8208168547265 59.8377692220139,45.8208168547265 59.8364217490877,45.8221643276527</coordinates></LinearRing></outerBoundaryIs></Polygon><Polygon><outerBoundaryIs><LinearRing><coordinates>59.8377692220139,45.8262067464312 59.83911669494,45.824859273505 59.8350742761615,45.8208168547265 59.8323793303091,45.8235118005789 59.8242944927521,45.8235118005789 59.8229470198259,45.8275542193574 59.8269894386044,45.8289016922836 59.8296843844568,45.8262067464312 59.8377692220139,45.8262067464312</coordinates></LinearRing></outerBoundaryIs></Polygon><Polygon><outerBoundaryIs><LinearRing><coordinates>59.8148621822688,45.824859273505 59.8102213862645,45.8220747959025 59.8102213862645,45.8269256984367 59.8135147093426,45.8289016922836 59.8148621822688,45.824859273505</coordinates></LinearRing></outerBoundaryIs></Polygon><Polygon><outerBoundaryIs><LinearRing><coordinates>59.8525914242018,45.8482154708921 59.8498964783495,45.8491137861763 59.8525914242018,45.854503677881 59.8498964783495,45.8571986237333 59.8512439512757,45.8585460966595 59.8552863700542,45.8571986237333 59.8540736444206,45.8487095442984 59.8593287888327,45.8504612591024 59.8606762617589,45.8464188403239 59.8579813159065,45.8437238944715 59.8579813159065,45.8356390569145 59.8566338429804,45.8342915839883 59.853938897128,45.8369865298406 59.8472015324971,45.8329441110621 59.8512439512757,45.8315966381359 59.8512439512757,45.8289016922836 59.8418116407924,45.8302491652098 59.8418116407924,45.8356390569145 59.8472015324971,45.8410289486192 59.8445065866448,45.8464188403239 59.8485490054233,45.8504612591024 59.8512439512757,45.8477663132501 59.8525914242018,45.8482154708921</coordinates></LinearRing></outerBoundaryIs></Polygon><Polygon><outerBoundaryIs><LinearRing><coordinates>59.831031857383,45.8437238944715 59.8377692220139,45.8450713673977 59.8377692220139,45.8423764215454 59.8323793303091,45.8423764215454 59.831031857383,45.8437238944715</coordinates></LinearRing></outerBoundaryIs></Polygon><Polygon><outerBoundaryIs><LinearRing><coordinates>59.8445065866448,45.854503677881 59.8512439512757,45.8558511508072 59.8512439512757,45.8531562049548 59.8458540595709,45.8531562049548 59.8445065866448,45.854503677881</coordinates></LinearRing></outerBoundaryIs></Polygon><Polygon><outerBoundaryIs><LinearRing><coordinates>59.8310805979835,45.8625641451378 59.8364217490877,45.8598935695857 59.8269894386044,45.8585460966595 59.8229713901262,45.8625641451378 59.8310805979835,45.8625641451378</coordinates></LinearRing></outerBoundaryIs></Polygon><Polygon><outerBoundaryIs><LinearRing><coordinates>59.8382102562225,45.8625641451378 59.8377692220139,45.8612410425119 59.836446119388,45.8625641451378 59.8382102562225,45.8625641451378</coordinates></LinearRing></outerBoundaryIs></Polygon><Polygon><outerBoundaryIs><LinearRing><coordinates>59.8701085722422,45.772307829384 59.8741509910207,45.7655704647531 59.872647831213,45.7625641451378 59.865236730119,45.7625641451378 59.8701085722422,45.772307829384</coordinates></LinearRing></outerBoundaryIs></Polygon><Polygon><outerBoundaryIs><LinearRing><coordinates>59.8674136263898,45.7776977210888 59.8741509910207,45.7763502481626 59.8701085722422,45.772307829384 59.8660661534636,45.7736553023102 59.8674136263898,45.7776977210888</coordinates></LinearRing></outerBoundaryIs></Polygon><Polygon><outerBoundaryIs><LinearRing><coordinates>59.8970580307657,45.772307829384 59.8889731932087,45.772307829384 59.8849307744301,45.7790451940149 59.8889731932087,45.7803926669411 59.8943630849134,45.7750027752364 59.8970580307657,45.7776977210888 59.8970580307657,45.772307829384</coordinates></LinearRing></outerBoundaryIs></Polygon><Polygon><outerBoundaryIs><LinearRing><coordinates>59.8728035180945,45.7776977210888 59.8674136263898,45.7776977210888 59.8620237346851,45.7776977210888 59.8606762617589,45.7790451940149 59.8633712076113,45.7817401398673 59.8606762617589,45.7844350857197 59.8639101967817,45.7860520532311 59.8606762617589,45.787130031572 59.8647186805375,45.7938673962029 59.8660661534636,45.7925199232767 59.8660661534636,45.8006047608338 59.8701085722422,45.8046471796123 59.8808883556516,45.8046471796123 59.8889731932087,45.7992572879076 59.8970580307657,45.7992572879076 59.9024479224705,45.80195223376 59.9091852871014,45.7979098149814 59.906490341249,45.7952148691291 59.9078378141752,45.7938673962029 59.9102213862645,45.7938673962029 59.9102213862645,45.7899729915905 59.9102213862645,45.7896177575917 59.9091852871014,45.7898249774244 59.9102213862645,45.7893809349259 59.9102213862645,45.7696128835317 59.9078378141752,45.7696128835317 59.9024479224705,45.7776977210888 59.8970580307657,45.7776977210888 59.891668139061,45.7830876127935 59.8808883556516,45.7830876127935 59.8728035180945,45.7776977210888</coordinates></LinearRing></outerBoundaryIs><innerBoundaryIs><LinearRing><coordinates>59.8648683997515,45.7865311547159 59.8660661534636,45.787130031572 59.8660661534636,45.7925199232767 59.8648683997515,45.7865311547159</coordinates></LinearRing></innerBoundaryIs><innerBoundaryIs><LinearRing><coordinates>59.8876257202825,45.7952148691291 59.8808883556516,45.7965623420553 59.883583301504,45.7911724503506 59.8876257202825,45.7952148691291</coordinates></LinearRing></innerBoundaryIs><innerBoundaryIs><LinearRing><coordinates>59.8781934097992,45.7884775044982 59.8768459368731,45.787130031572 59.8795408827254,45.787130031572 59.8781934097992,45.7884775044982</coordinates></LinearRing></innerBoundaryIs></Polygon><Polygon><outerBoundaryIs><LinearRing><coordinates>59.8647186805375,45.8181219088741 59.868761099316,45.816774435948 59.8674136263898,45.8100370713171 59.8633712076113,45.816774435948 59.8647186805375,45.8181219088741</coordinates></LinearRing></outerBoundaryIs></Polygon><Polygon><outerBoundaryIs><LinearRing><coordinates>59.9024479224705,45.8154269630218 59.9011004495443,45.8194693818003 59.9078378141752,45.8262067464312 59.9102213862645,45.8262067464312 59.9102213862645,45.8189603556554 59.9024479224705,45.8154269630218</coordinates></LinearRing></outerBoundaryIs></Polygon><Polygon><outerBoundaryIs><LinearRing><coordinates>59.8930156119872,45.824859273505 59.891668139061,45.8208168547265 59.8876257202825,45.824859273505 59.8889731932087,45.8262067464312 59.8930156119872,45.824859273505</coordinates></LinearRing></outerBoundaryIs></Polygon><Polygon><outerBoundaryIs><LinearRing><coordinates>59.8660661534636,45.8491137861763 59.8647186805375,45.8369865298406 59.8633712076113,45.8383340027668 59.8647186805375,45.8504612591024 59.8660661534636,45.8491137861763</coordinates></LinearRing></outerBoundaryIs></Polygon></MultiGeometry>
  </Placemark>
</Folder>
</Document></kml>
