<?xml version="1.0" encoding="utf-8" ?>
<kml xmlns="http://www.opengis.net/kml/2.2">
<Document id="root_doc">
<Schema name="task_grid_v6_44.88_60.68" id="task_grid_v6_44.88_60.68">
	<SimpleField name="area_ha" type="float"></SimpleField>
	<SimpleField name="low_risk_ha" type="float"></SimpleField>
	<SimpleField name="moderate_risk_ha" type="float"></SimpleField>
	<SimpleField name="grid_cell_deg" type="string"></SimpleField>
</Schema>
<Folder><name>task_grid_v6_44.88_60.68</name>
  <Placemark id="task_grid_v6_44.88_60.68.1">
	<name>task_grid_v6_44.88_60.68</name>
	<name>0</name>
	<description>98.8</description>
	<Style><LineStyle><color>ff0000ff</color></LineStyle><PolyStyle><fill>0</fill></PolyStyle></Style>
	<ExtendedData><SchemaData schemaUrl="#task_grid_v6_44.88_60.68">
		<SimpleData name="area_ha">98.8</SimpleData>
		<SimpleData name="low_risk_ha">0.1</SimpleData>
	</SchemaData></ExtendedData>
      <MultiGeometry><Polygon><outerBoundaryIs><LinearRing><coordinates>60.6435580318691,44.9126201024817 60.6476004506476,44.9085776837031 60.6476004506476,44.9031877919984 60.6462529777214,44.9018403190722 60.6435580318691,44.9045352649246 60.6408630860167,44.8991453732199 60.6341257213858,44.9031877919984 60.6422105589429,44.9085776837031 60.6435580318691,44.9126201024817</coordinates></LinearRing></outerBoundaryIs></Polygon><Polygon><outerBoundaryIs><LinearRing><coordinates>60.6664650716141,44.9193574671126 60.6597277069832,44.915315048334 60.6556852882047,44.9166625212602 60.6570327611309,44.9207049400387 60.6664650716141,44.9193574671126</coordinates></LinearRing></outerBoundaryIs></Polygon></MultiGeometry>
  </Placemark>
</Folder>
</Document></kml>
