<?xml version="1.0" encoding="utf-8" ?>
<kml xmlns="http://www.opengis.net/kml/2.2">
<Document id="root_doc">
<Schema name="task_grid_v6_46.11_59.76" id="task_grid_v6_46.11_59.76">
	<SimpleField name="area_ha" type="float"></SimpleField>
	<SimpleField name="low_risk_ha" type="float"></SimpleField>
	<SimpleField name="moderate_risk_ha" type="float"></SimpleField>
	<SimpleField name="grid_cell_deg" type="string"></SimpleField>
</Schema>
<Folder><name>task_grid_v6_46.11_59.76</name>
  <Placemark id="task_grid_v6_46.11_59.76.1">
	<name>task_grid_v6_46.11_59.76</name>
	<name>1569.5</name>
	<description>1821.2</description>
	<Style><LineStyle><color>ff0000ff</color></LineStyle><PolyStyle><fill>0</fill></PolyStyle></Style>
	<ExtendedData><SchemaData schemaUrl="#task_grid_v6_46.11_59.76">
		<SimpleData name="area_ha">251.7</SimpleData>
		<SimpleData name="low_risk_ha">0.1</SimpleData>
	</SchemaData></ExtendedData>
      <MultiGeometry><Polygon><outerBoundaryIs><LinearRing><coordinates>59.72207144117,46.0625641451378 59.7205390774363,46.0647094543649 59.7218865503624,46.0660569272911 59.7191916045101,46.0714468189958 59.7142387310517,46.0640175088083 59.7168547856586,46.0625641451378 59.7102213862645,46.0625641451378 59.7102213862645,46.0661466798594 59.7102213862645,46.0662493670234 59.7102213862645,46.0813412217168 59.7124542398792,46.0835740753315 59.7102213862645,46.0860302143076 59.7102213862645,46.0933682988475 59.7102213862645,46.0937224511229 59.7102213862645,46.1039632453618 59.711106766953,46.1037861692241 59.7151491857315,46.0997437504456 59.7124542398792,46.0970488045932 59.7151491857315,46.0943538587409 59.711106766953,46.0935453749852 59.7138017128054,46.0930063858147 59.7205390774363,46.0862690211838 59.725928969141,46.0754892377744 59.7299713879195,46.0795316565529 59.7326663337719,46.0768367107006 59.7380562254766,46.0768367107006 59.7380562254766,46.0687518731435 59.7371579101925,46.0687518731435 59.7394036984028,46.0674044002173 59.7340138066981,46.0647094543649 59.740751171329,46.0660569272911 59.741424907792,46.065383190828 59.7420986442551,46.0674044002173 59.748836008886,46.0741417648482 59.748836008886,46.0625641451378 59.7405662805214,46.0625641451378 59.7404852258953,46.0625641451378 59.7361591159252,46.0625641451378 59.7266771655068,46.0625641451378 59.7266440722167,46.0625641451378 59.72207144117,46.0625641451378</coordinates></LinearRing></outerBoundaryIs><innerBoundaryIs><LinearRing><coordinates>59.725928969141,46.0647094543649 59.7252552326779,46.064934033186 59.7266027056041,46.0626882449757 59.725928969141,46.0647094543649</coordinates></LinearRing></innerBoundaryIs></Polygon><Polygon><outerBoundaryIs><LinearRing><coordinates>59.7232340232886,46.0916589128885 59.7272764420672,46.0930063858147 59.7313188608457,46.0889639670362 59.7272764420672,46.08761649411 59.7232340232886,46.0916589128885</coordinates></LinearRing></outerBoundaryIs></Polygon><Polygon><outerBoundaryIs><LinearRing><coordinates>59.7501834818122,46.0781841836267 59.7515309547384,46.0822266024053 59.7650056840002,46.0903114399623 59.7690481027787,46.0889639670362 59.7542259005907,46.0768367107006 59.7501834818122,46.0781841836267</coordinates></LinearRing></outerBoundaryIs></Polygon><Polygon><outerBoundaryIs><LinearRing><coordinates>59.7838703049667,46.0903114399623 59.7838703049667,46.0930063858147 59.7919551425238,46.0930063858147 59.7946500883761,46.0957013316671 59.7973450342285,46.0930063858147 59.801387453007,46.0943538587409 59.7986925071547,46.0997437504456 59.8040823988594,46.1078285880027 59.7959975613023,46.1078285880027 59.8102213862645,46.1200204379703 59.8102213862645,46.0982766020743 59.8102213862645,46.0974379746236 59.8102213862645,46.0958210071122 59.8102213862645,46.0957013316671 59.8102213862645,46.0862690211838 59.8094722905641,46.0862690211838 59.8102213862645,46.0855199254834 59.8102213862645,46.0625641451378 59.7561230101421,46.0625641451378 59.7596157922955,46.0660569272911 59.7730905215573,46.0714468189958 59.7757854674096,46.0768367107006 59.7744379944834,46.0835740753315 59.7838703049667,46.0903114399623</coordinates></LinearRing></outerBoundaryIs><innerBoundaryIs><LinearRing><coordinates>59.7811753591143,46.0741417648482 59.7852177778929,46.0781841836267 59.7757854674096,46.0768367107006 59.7811753591143,46.0741417648482</coordinates></LinearRing></innerBoundaryIs><innerBoundaryIs><LinearRing><coordinates>59.7825228320405,46.0835740753315 59.7845440414298,46.0849215482576 59.7811753591143,46.0849215482576 59.7771329403358,46.0808791294791 59.778480413262,46.0795316565529 59.7811753591143,46.0822266024053 59.7852177778929,46.0781841836267 59.7825228320405,46.0835740753315</coordinates></LinearRing></innerBoundaryIs><innerBoundaryIs><LinearRing><coordinates>59.8054298717856,46.0983962775194 59.8040823988594,46.0970488045932 59.8081248176379,46.097857288349 59.8054298717856,46.0983962775194</coordinates></LinearRing></innerBoundaryIs><innerBoundaryIs><LinearRing><coordinates>59.7879127237452,46.0781841836267 59.7892601966714,46.0768367107006 59.7919551425238,46.0768367107006 59.7919551425238,46.0795316565529 59.7879127237452,46.0781841836267</coordinates></LinearRing></innerBoundaryIs></Polygon><Polygon><outerBoundaryIs><LinearRing><coordinates>59.778480413262,46.1064811150765 59.7798278861882,46.1051336421503 59.778480413262,46.0983962775194 59.7744379944834,46.0997437504456 59.778480413262,46.1064811150765</coordinates></LinearRing></outerBoundaryIs></Polygon><Polygon><outerBoundaryIs><LinearRing><coordinates>59.7852177778929,46.1051336421503 59.7919551425238,46.1064811150765 59.7919551425238,46.1037861692241 59.7865652508191,46.1037861692241 59.7852177778929,46.1051336421503</coordinates></LinearRing></outerBoundaryIs></Polygon></MultiGeometry>
  </Placemark>
</Folder>
</Document></kml>
