<?xml version="1.0" encoding="utf-8" ?>
<kml xmlns="http://www.opengis.net/kml/2.2">
<Document id="root_doc">
<Schema name="task_grid_v6_45.98_60.08" id="task_grid_v6_45.98_60.08">
	<SimpleField name="area_ha" type="float"></SimpleField>
	<SimpleField name="low_risk_ha" type="float"></SimpleField>
	<SimpleField name="moderate_risk_ha" type="float"></SimpleField>
	<SimpleField name="grid_cell_deg" type="string"></SimpleField>
</Schema>
<Folder><name>task_grid_v6_45.98_60.08</name>
  <Placemark id="task_grid_v6_45.98_60.08.1">
	<name>task_grid_v6_45.98_60.08</name>
	<name>277.4</name>
	<description>1320</description>
	<Style><LineStyle><color>ff0000ff</color></LineStyle><PolyStyle><fill>0</fill></PolyStyle></Style>
	<ExtendedData><SchemaData schemaUrl="#task_grid_v6_45.98_60.08">
		<SimpleData name="area_ha">1042.6</SimpleData>
		<SimpleData name="low_risk_ha">0.1</SimpleData>
	</SchemaData></ExtendedData>
      <MultiGeometry><Polygon><outerBoundaryIs><LinearRing><coordinates>60.0654921465382,45.9380469993041 60.0695345653167,45.9393944722303 60.0708820382429,45.9380469993041 60.0671897970143,45.9343547580755 60.0667228936144,45.9343547580755 60.0654921465382,45.9380469993041</coordinates></LinearRing></outerBoundaryIs></Polygon><Polygon><outerBoundaryIs><LinearRing><coordinates>60.0560598360549,45.9609540390491 60.0587547819073,45.9690388766062 60.0654921465382,45.959606566123 60.0601022548334,45.9569116202706 60.0587547819073,45.9528692014921 60.0560598360549,45.9528692014921 60.0547123631287,45.9569116202706 60.049322471424,45.959606566123 60.0506699443502,45.9663439307539 60.0520174172764,45.9623015119753 60.0560598360549,45.9609540390491</coordinates></LinearRing></outerBoundaryIs></Polygon><Polygon><outerBoundaryIs><LinearRing><coordinates>60.0479749984978,45.9798186600157 60.0520174172764,45.9730812953848 60.0412376338669,45.9730812953848 60.0412376338669,45.9649964578277 60.0385426880146,45.9623015119753 60.0412376338669,45.959606566123 60.0358477421622,45.959606566123 60.0358477421622,45.9703863495324 60.0385426880146,45.9730812953848 60.0358477421622,45.9757762412371 60.0452800526455,45.9771237141633 60.0479749984978,45.9798186600157</coordinates></LinearRing></outerBoundaryIs></Polygon><Polygon><outerBoundaryIs><LinearRing><coordinates>60.0614497277596,45.9744287683109 60.0681870923905,45.96769140368 60.0668396194643,45.9663439307539 60.0601022548334,45.9703863495324 60.0614497277596,45.9744287683109</coordinates></LinearRing></outerBoundaryIs></Polygon><Polygon><outerBoundaryIs><LinearRing><coordinates>60.0708820382429,45.9703863495324 60.0627972006858,45.9757762412371 60.064144673612,45.9771237141633 60.0762719299476,45.9730812953848 60.0722295111691,45.9663439307539 60.0708820382429,45.9703863495324</coordinates></LinearRing></outerBoundaryIs></Polygon><Polygon><outerBoundaryIs><LinearRing><coordinates>60.0439325797193,45.9865560246465 60.0425851067931,45.982513605868 60.0412376338669,45.9838610787942 60.034500269236,45.982513605868 60.0331527963099,45.9865560246465 60.0371952150884,45.9879034975727 60.0385426880146,45.9865560246465 60.0398901609408,45.9879034975727 60.0439325797193,45.9865560246465</coordinates></LinearRing></outerBoundaryIs></Polygon><Polygon><outerBoundaryIs><LinearRing><coordinates>60.0425851067931,46.0175479019487 60.026415431679,46.0148529560963 60.0263910613787,46.0147311045949 60.0263910613787,46.0343547580755 60.0533648902025,46.0343547580755 60.0533648902025,46.0337175770628 60.0540020712152,46.0343547580755 60.0702692275305,46.0343547580755 60.0735769840952,46.0323701041366 60.0681870923905,46.0296751582843 60.0668396194643,46.0256327395057 60.0601022548334,46.0269802124319 60.0614497277596,46.0256327395057 60.0681870923905,46.0242852665796 60.0654921465382,46.0215903207272 60.0654921465382,46.0162004290225 60.0614497277596,46.0148529560963 60.0560598360549,46.0067681185392 60.0547123631287,46.0135054831701 60.0547123631287,46.0081155914654 60.0520174172764,46.0054206456131 60.0547123631287,46.0027256997607 60.049322471424,45.997335808056 60.0506699443502,45.9852085517204 60.0479749984978,45.9852085517204 60.0439325797193,45.9919459163513 60.049322471424,46.0027256997607 60.049322471424,46.0135054831701 60.0425851067931,46.0175479019487</coordinates></LinearRing></outerBoundaryIs><innerBoundaryIs><LinearRing><coordinates>60.0627972006858,46.0296751582843 60.0614497277596,46.0310226312105 60.0587547819073,46.0283276853581 60.0560598360549,46.0310226312105 60.0601022548334,46.0269802124319 60.0627972006858,46.0296751582843</coordinates></LinearRing></innerBoundaryIs><innerBoundaryIs><LinearRing><coordinates>60.0291103775313,46.0337175770628 60.0291103775313,46.0310226312105 60.0318053233837,46.0310226312105 60.0331527963099,46.0323701041366 60.0291103775313,46.0337175770628</coordinates></LinearRing></innerBoundaryIs><innerBoundaryIs><LinearRing><coordinates>60.0398901609408,46.0229377936534 60.0385426880146,46.0215903207272 60.0412376338669,46.0215903207272 60.0398901609408,46.0229377936534</coordinates></LinearRing></innerBoundaryIs></Polygon><Polygon><outerBoundaryIs><LinearRing><coordinates>60.0924416050617,45.9461318368612 60.101873915545,45.9474793097873 60.101873915545,45.944784363935 60.0937890779879,45.944784363935 60.0924416050617,45.9461318368612</coordinates></LinearRing></outerBoundaryIs></Polygon><Polygon><outerBoundaryIs><LinearRing><coordinates>60.1099587531021,45.9717338224586 60.116696117733,45.9703863495324 60.1153486448068,45.9636489849015 60.1086112801759,45.9649964578277 60.1099587531021,45.9717338224586</coordinates></LinearRing></outerBoundaryIs></Polygon><Polygon><outerBoundaryIs><LinearRing><coordinates>60.0964840238403,45.9717338224586 60.1032213884712,45.9703863495324 60.0937890779879,45.9690388766062 60.0910941321356,45.9636489849015 60.087051713357,45.9730812953848 60.0897466592094,45.9757762412371 60.087051713357,45.9784711870895 60.0883991862832,45.9798186600157 60.0910941321356,45.9798186600157 60.0964840238403,45.9717338224586</coordinates></LinearRing></outerBoundaryIs></Polygon><Polygon><outerBoundaryIs><LinearRing><coordinates>60.1045688613974,45.9879034975727 60.1059163343235,45.9865560246465 60.1045688613974,45.9798186600157 60.1005264426188,45.9811661329418 60.1045688613974,45.9879034975727</coordinates></LinearRing></outerBoundaryIs></Polygon><Polygon><outerBoundaryIs><LinearRing><coordinates>60.1263910613787,46.0107991016131 60.1263910613787,46.0080082510595 60.12478095529,46.0081155914654 60.1263910613787,46.0107991016131</coordinates></LinearRing></outerBoundaryIs></Polygon><Polygon><outerBoundaryIs><LinearRing><coordinates>60.1263910613787,46.0163468023033 60.1263910613787,46.0155103835559 60.12478095529,46.0162004290225 60.1263910613787,46.0163468023033</coordinates></LinearRing></outerBoundaryIs></Polygon><Polygon><outerBoundaryIs><LinearRing><coordinates>60.0722295111691,46.020242847801 60.0735769840952,46.0188953748749 60.0722295111691,46.0148529560963 60.0681870923905,46.0162004290225 60.0722295111691,46.020242847801</coordinates></LinearRing></outerBoundaryIs></Polygon><Polygon><outerBoundaryIs><LinearRing><coordinates>60.116696117733,46.0242852665796 60.1207385365115,46.0283276853581 60.1261284282162,46.0283276853581 60.1261284282162,46.020242847801 60.1234334823639,46.020242847801 60.116696117733,46.0242852665796</coordinates></LinearRing></outerBoundaryIs></Polygon><Polygon><outerBoundaryIs><LinearRing><coordinates>60.1113062260283,46.0323701041366 60.1072638072497,46.0283276853581 60.1059163343235,46.0323701041366 60.1099587531021,46.0337175770628 60.1113062260283,46.0323701041366</coordinates></LinearRing></outerBoundaryIs></Polygon></MultiGeometry>
  </Placemark>
</Folder>
</Document></kml>
