<?xml version="1.0" encoding="utf-8" ?>
<kml xmlns="http://www.opengis.net/kml/2.2">
<Document id="root_doc">
<Schema name="task_grid_v6_45.31_60.96" id="task_grid_v6_45.31_60.96">
	<SimpleField name="area_ha" type="float"></SimpleField>
	<SimpleField name="low_risk_ha" type="float"></SimpleField>
	<SimpleField name="moderate_risk_ha" type="float"></SimpleField>
	<SimpleField name="grid_cell_deg" type="string"></SimpleField>
</Schema>
<Folder><name>task_grid_v6_45.31_60.96</name>
  <Placemark id="task_grid_v6_45.31_60.96.1">
	<name>task_grid_v6_45.31_60.96</name>
	<name>22.2</name>
	<description>570.7</description>
	<Style><LineStyle><color>ff0000ff</color></LineStyle><PolyStyle><fill>0</fill></PolyStyle></Style>
	<ExtendedData><SchemaData schemaUrl="#task_grid_v6_45.31_60.96">
		<SimpleData name="area_ha">548.5</SimpleData>
		<SimpleData name="low_risk_ha">0.1</SimpleData>
	</SchemaData></ExtendedData>
      <MultiGeometry><Polygon><outerBoundaryIs><LinearRing><coordinates>60.9831212092663,45.2979973593689 60.9898585738972,45.291259994738 60.9925535197495,45.2858701030333 60.9858161551186,45.2818276842548 60.9817737363401,45.2885650488857 60.973688898783,45.2939549405904 60.9750363717092,45.2979973593689 60.9831212092663,45.2979973593689</coordinates></LinearRing></outerBoundaryIs></Polygon><Polygon><outerBoundaryIs><LinearRing><coordinates>60.9642565882997,45.2979973593689 60.9629091153736,45.3020397781475 60.9642565882997,45.3033872510737 60.9696464800045,45.3006923052213 60.9696464800045,45.2979973593689 60.9642565882997,45.2979973593689</coordinates></LinearRing></outerBoundaryIs></Polygon><Polygon><outerBoundaryIs><LinearRing><coordinates>60.9831212092663,45.3249468178925 60.9844686821924,45.3235993449663 60.9831212092663,45.3195569261878 60.9790787904877,45.320904399114 60.9831212092663,45.3249468178925</coordinates></LinearRing></outerBoundaryIs></Polygon><Polygon><outerBoundaryIs><LinearRing><coordinates>60.9642565882997,45.3276417637449 60.9602141695212,45.3316841825234 60.9696464800045,45.3330316554496 60.973688898783,45.3289892366711 60.9642565882997,45.3276417637449</coordinates></LinearRing></outerBoundaryIs></Polygon><Polygon><outerBoundaryIs><LinearRing><coordinates>60.9750363717092,45.3411164930067 60.9790787904877,45.3397690200805 60.9777313175615,45.3330316554496 60.973688898783,45.3397690200805 60.9750363717092,45.3411164930067</coordinates></LinearRing></outerBoundaryIs></Polygon><Polygon><outerBoundaryIs><LinearRing><coordinates>60.9103576712526,45.3545912222685 60.9103576712526,45.3518962764161 60.9102213862645,45.3518962764161 60.9102213862645,45.3545912222685 60.9103576712526,45.3545912222685</coordinates></LinearRing></outerBoundaryIs></Polygon><Polygon><outerBoundaryIs><LinearRing><coordinates>60.9184425088096,45.3545912222685 60.9144000900311,45.3613285868994 60.9156356482695,45.3625641451378 60.9159340874369,45.3625641451378 60.9224849275882,45.358633641047 60.9184425088096,45.3545912222685</coordinates></LinearRing></outerBoundaryIs></Polygon><Polygon><outerBoundaryIs><LinearRing><coordinates>60.9992908843804,45.2845226301071 61.0019858302328,45.2845226301071 61.0046807760851,45.2899125218119 61.0073757219375,45.2899125218119 61.0087231948637,45.2885650488857 61.0060282490113,45.2858701030333 61.0087231948637,45.2804802113286 61.0073757219375,45.2791327384024 61.0046807760851,45.2818276842548 60.9979434114542,45.2750903196239 60.9979434114542,45.2697004279192 61.0006383573066,45.2670054820668 60.9992908843804,45.2629630632883 60.996595938528,45.2656580091406 60.9939009926757,45.2629630632883 60.9898585738972,45.2697004279192 60.9925535197495,45.2723953737715 60.9925535197495,45.2777852654762 60.9992908843804,45.2845226301071</coordinates></LinearRing></outerBoundaryIs></Polygon><Polygon><outerBoundaryIs><LinearRing><coordinates>60.9925535197495,45.2966498864428 60.9992908843804,45.2979973593689 60.9992908843804,45.2926074676642 60.996595938528,45.2926074676642 60.9925535197495,45.2966498864428</coordinates></LinearRing></outerBoundaryIs></Polygon><Polygon><outerBoundaryIs><LinearRing><coordinates>60.9858161551186,45.3033872510737 60.9817737363401,45.3074296698522 60.9912060468233,45.3087771427784 60.9952484656019,45.3047347239998 60.9912060468233,45.3006923052213 60.9858161551186,45.3033872510737</coordinates></LinearRing></outerBoundaryIs></Polygon><Polygon><outerBoundaryIs><LinearRing><coordinates>61.0060282490113,45.3235993449663 61.0102213862645,45.324437972417 61.0102213862645,45.3222518720402 61.0073757219375,45.3222518720402 61.0060282490113,45.3235993449663</coordinates></LinearRing></outerBoundaryIs></Polygon><Polygon><outerBoundaryIs><LinearRing><coordinates>60.996595938528,45.3303367095972 61.0060282490113,45.3262942908187 61.0019858302328,45.3222518720402 60.9952484656019,45.3262942908187 60.996595938528,45.3303367095972</coordinates></LinearRing></outerBoundaryIs></Polygon><Polygon><outerBoundaryIs><LinearRing><coordinates>61.0087231948637,45.3424639659329 61.0102213862645,45.3394675831311 61.0102213862645,45.3358773197766 61.0100706677898,45.335726601302 61.0033333031589,45.3397690200805 61.0060282490113,45.3424639659329 61.0033333031589,45.3451589117852 61.0102213862645,45.3489856246216 61.0102213862645,45.3434627602001 61.0087231948637,45.3424639659329</coordinates></LinearRing></outerBoundaryIs></Polygon></MultiGeometry>
  </Placemark>
</Folder>
</Document></kml>
