<?xml version="1.0" encoding="utf-8" ?>
<kml xmlns="http://www.opengis.net/kml/2.2">
<Document id="root_doc">
<Schema name="task_grid_v6_45.51_60.86" id="task_grid_v6_45.51_60.86">
	<SimpleField name="area_ha" type="float"></SimpleField>
	<SimpleField name="low_risk_ha" type="float"></SimpleField>
	<SimpleField name="moderate_risk_ha" type="float"></SimpleField>
	<SimpleField name="grid_cell_deg" type="string"></SimpleField>
</Schema>
<Folder><name>task_grid_v6_45.51_60.86</name>
  <Placemark id="task_grid_v6_45.51_60.86.1">
	<name>task_grid_v6_45.51_60.86</name>
	<name>73.8</name>
	<description>830.4</description>
	<Style><LineStyle><color>ff0000ff</color></LineStyle><PolyStyle><fill>0</fill></PolyStyle></Style>
	<ExtendedData><SchemaData schemaUrl="#task_grid_v6_45.51_60.86">
		<SimpleData name="area_ha">756.6</SimpleData>
		<SimpleData name="low_risk_ha">0.1</SimpleData>
	</SchemaData></ExtendedData>
      <MultiGeometry><Polygon><outerBoundaryIs><LinearRing><coordinates>60.8578062271316,45.5149405004838 60.8564587542054,45.51628797341 60.8483739166483,45.51628797341 60.845678970796,45.5135930275576 60.8416365520174,45.5176354463362 60.8416365520174,45.5230253380409 60.8335517144603,45.5284152297456 60.8362466603127,45.531110175598 60.8348991873865,45.5324576485241 60.8322042415342,45.5297627026718 60.8227719310509,45.5418899590074 60.8281618227556,45.5445849048597 60.8322042415342,45.5513222694906 60.8362466603127,45.5499747965645 60.8335517144603,45.5445849048597 60.8402890790912,45.5432374319336 60.8416365520174,45.5472798507121 60.8483739166483,45.5513222694906 60.8497213895745,45.5445849048597 60.8443314978698,45.5365000673027 60.8389416061651,45.5338051214503 60.8429840249436,45.5297627026718 60.8510688625007,45.5351525943765 60.8524163354269,45.5230253380409 60.8591537000578,45.5189829192623 60.8672385376148,45.5243728109671 60.8739759022457,45.5176354463362 60.8672385376148,45.5082031358529 60.8645435917625,45.5108980817053 60.853763808353,45.5108980817053 60.8524163354269,45.5122455546314 60.8578062271316,45.5149405004838</coordinates></LinearRing></outerBoundaryIs><innerBoundaryIs><LinearRing><coordinates>60.8470264437221,45.5203303921885 60.8497213895745,45.5203303921885 60.8483739166483,45.5297627026718 60.8470264437221,45.5284152297456 60.8470264437221,45.5203303921885</coordinates></LinearRing></innerBoundaryIs><innerBoundaryIs><LinearRing><coordinates>60.8322042415342,45.5378475402288 60.830856768608,45.5365000673027 60.8335517144603,45.5365000673027 60.8322042415342,45.5378475402288</coordinates></LinearRing></innerBoundaryIs></Polygon><Polygon><outerBoundaryIs><LinearRing><coordinates>60.8699334834672,45.5270677568194 60.8658910646887,45.5284152297456 60.8672385376148,45.5324576485241 60.8712809563934,45.531110175598 60.8699334834672,45.5270677568194</coordinates></LinearRing></outerBoundaryIs></Polygon><Polygon><outerBoundaryIs><LinearRing><coordinates>60.9036203066217,45.539195013155 60.9036203066217,45.5472798507121 60.8955354690646,45.5526697424168 60.9022728336955,45.5594071070477 60.906315252474,45.5580596341215 60.9009253607693,45.5607545799739 60.9005634477365,45.5625641451378 60.9102213862645,45.5625641451378 60.9102213862645,45.546068662774 60.9102213862645,45.5307064462852 60.9090101983264,45.531110175598 60.9090101983264,45.5365000673027 60.9036203066217,45.539195013155</coordinates></LinearRing></outerBoundaryIs></Polygon><Polygon><outerBoundaryIs><LinearRing><coordinates>60.8955354690646,45.5607545799739 60.8966212081629,45.5625641451378 60.9002092954611,45.5625641451378 60.8995778878431,45.5594071070477 60.8955354690646,45.5607545799739</coordinates></LinearRing></outerBoundaryIs></Polygon></MultiGeometry>
  </Placemark>
</Folder>
</Document></kml>
