<?xml version="1.0" encoding="utf-8" ?>
<kml xmlns="http://www.opengis.net/kml/2.2">
<Document id="root_doc">
<Schema name="task_grid_v6_45.28_61.28" id="task_grid_v6_45.28_61.28">
	<SimpleField name="area_ha" type="float"></SimpleField>
	<SimpleField name="low_risk_ha" type="float"></SimpleField>
	<SimpleField name="moderate_risk_ha" type="float"></SimpleField>
	<SimpleField name="grid_cell_deg" type="string"></SimpleField>
</Schema>
<Folder><name>task_grid_v6_45.28_61.28</name>
  <Placemark id="task_grid_v6_45.28_61.28.1">
	<name>task_grid_v6_45.28_61.28</name>
	<name>0</name>
	<description>45</description>
	<Style><LineStyle><color>ff0000ff</color></LineStyle><PolyStyle><fill>0</fill></PolyStyle></Style>
	<ExtendedData><SchemaData schemaUrl="#task_grid_v6_45.28_61.28">
		<SimpleData name="area_ha">45</SimpleData>
		<SimpleData name="low_risk_ha">0.1</SimpleData>
	</SchemaData></ExtendedData>
      <MultiGeometry><Polygon><outerBoundaryIs><LinearRing><coordinates>61.2677493704531,45.2343547580755 61.2650952157504,45.2343547580755 61.2660905237639,45.2360136047647 61.2677493704531,45.2343547580755</coordinates></LinearRing></outerBoundaryIs></Polygon><Polygon><outerBoundaryIs><LinearRing><coordinates>61.2391410652403,45.2360136047647 61.2418360110927,45.238708550617 61.2461898036342,45.2343547580755 61.231401594071,45.2343547580755 61.2337511735356,45.2414034964694 61.2391410652403,45.2360136047647</coordinates></LinearRing></outerBoundaryIs></Polygon></MultiGeometry>
  </Placemark>
</Folder>
</Document></kml>
