<?xml version="1.0" encoding="utf-8" ?>
<kml xmlns="http://www.opengis.net/kml/2.2">
<Document id="root_doc">
<Schema name="task_grid_v6_45.51_61.06" id="task_grid_v6_45.51_61.06">
	<SimpleField name="area_ha" type="float"></SimpleField>
	<SimpleField name="low_risk_ha" type="float"></SimpleField>
	<SimpleField name="moderate_risk_ha" type="float"></SimpleField>
	<SimpleField name="grid_cell_deg" type="string"></SimpleField>
</Schema>
<Folder><name>task_grid_v6_45.51_61.06</name>
  <Placemark id="task_grid_v6_45.51_61.06.1">
	<name>task_grid_v6_45.51_61.06</name>
	<name>1805.4</name>
	<description>6186.9</description>
	<Style><LineStyle><color>ff0000ff</color></LineStyle><PolyStyle><fill>0</fill></PolyStyle></Style>
	<ExtendedData><SchemaData schemaUrl="#task_grid_v6_45.51_61.06">
		<SimpleData name="area_ha">4381.5</SimpleData>
		<SimpleData name="low_risk_ha">0.1</SimpleData>
	</SchemaData></ExtendedData>
      <MultiGeometry><Polygon><outerBoundaryIs><LinearRing><coordinates>61.055709658505,45.4625641451378 61.0518423285014,45.4625641451378 61.0518423285014,45.4664314751413 61.0585796931323,45.4677789480675 61.0599271660585,45.4664314751413 61.0545372743538,45.463736529289 61.055709658505,45.4625641451378</coordinates></LinearRing></outerBoundaryIs></Polygon><Polygon><outerBoundaryIs><LinearRing><coordinates>61.0666645306894,45.4731688397722 61.0680120036156,45.4718213668461 61.0666895433715,45.4625641451378 61.0664894419144,45.4625641451378 61.0653170577632,45.463736529289 61.0666645306894,45.4731688397722</coordinates></LinearRing></outerBoundaryIs></Polygon><Polygon><outerBoundaryIs><LinearRing><coordinates>61.0585796931323,45.4704738939199 61.0585796931323,45.4677789480675 61.0531898014276,45.4677789480675 61.0518423285014,45.4691264209937 61.0585796931323,45.4704738939199</coordinates></LinearRing></outerBoundaryIs></Polygon><Polygon><outerBoundaryIs><LinearRing><coordinates>61.0316302346087,45.4812536773293 61.0451049638705,45.4731688397722 61.0504948555752,45.4758637856246 61.0545372743538,45.4718213668461 61.0437574909443,45.463736529289 61.0449298750955,45.4625641451378 61.0366699487635,45.4625641451378 61.0102213862645,45.4625641451378 61.0102213862645,45.4811029588546 61.0102213862645,45.4978719105291 61.0154605594946,45.4947284065911 61.0221979241255,45.501465771222 61.0221979241255,45.5041607170744 61.0154605594946,45.5082031358529 61.0102213862645,45.5082031358529 61.0102213862645,45.5248227180546 61.011418140716,45.5257202838932 61.0102213862645,45.5258912488149 61.0102213862645,45.5338051214503 61.011418140716,45.5338051214503 61.0102213862645,45.5350018759018 61.0102213862645,45.5391573335364 61.0154605594946,45.5378475402288 61.0195029782731,45.5418899590074 61.0127656136422,45.5432374319336 61.0102213862645,45.5406932045559 61.0102213862645,45.5625641451378 61.0284731965186,45.5625641451378 61.0527277091899,45.5625641451378 61.0920740765545,45.5625641451378 61.0895715704344,45.5580596341215 61.0927890783032,45.5625641451378 61.0970129064177,45.5625641451378 61.0976564079915,45.5580596341215 61.0971559067675,45.5625641451378 61.1027641073957,45.5625641451378 61.1003513538438,45.5607545799739 61.1097836643271,45.5621020529001 61.1102213862645,45.5625397748375 61.1102213862645,45.5515849026531 61.1097836643271,45.5513222694906 61.1080511991363,45.5547871998722 61.1030462996962,45.5472798507121 61.1043937726224,45.5459323777859 61.1070887184747,45.5486273236383 61.1102213862645,45.5470609897434 61.1102213862645,45.5347148724391 61.1070887184747,45.5378475402288 61.1057412455486,45.5365000673027 61.1084361914009,45.5338051214503 61.1057412455486,45.531110175598 61.1070887184747,45.5297627026718 61.1102213862645,45.5291361691138 61.1102213862645,45.5243241751962 61.1097836643271,45.5243728109671 61.1070887184747,45.5189829192623 61.1097836643271,45.51628797341 61.1097836643271,45.5189829192623 61.1102213862645,45.5189829192623 61.1102213862645,45.5158502514725 61.1102213862645,45.514758550286 61.1102213862645,45.5043795780431 61.1070887184747,45.5028132441482 61.1043937726224,45.5055081900005 61.1030462996962,45.5041607170744 61.1070887184747,45.5001182982958 61.1102213862645,45.502206743489 61.1102213862645,45.4897762368238 61.1097836643271,45.4893385148864 61.1080511991363,45.4887610264895 61.1102213862645,45.4874589142125 61.1102213862645,45.4798890508462 61.1084361914009,45.4772112585508 61.1102213862645,45.4754260636872 61.1102213862645,45.4681480557772 61.1097836643271,45.4650840022152 61.1043937726224,45.4650840022152 61.1030462996962,45.4664314751413 61.1057412455486,45.4691264209937 61.10169882677,45.4731688397722 61.0949614621391,45.4745163126984 61.0922665162868,45.4799062044031 61.0949614621391,45.4826011502555 61.0909190433606,45.478558731477 61.0868766245821,45.4799062044031 61.0878872292767,45.4815905455609 61.0841816787297,45.4852960961079 61.0814867328773,45.4906859878126 61.0855291516559,45.4974233524435 61.0882240975082,45.4974233524435 61.0868766245821,45.4987708253696 61.0863713222347,45.5033185464955 61.0828342058035,45.4974233524435 61.078791787025,45.5041607170744 61.0801392599512,45.5055081900005 61.0747493682464,45.5082031358529 61.0720544223941,45.5001182982958 61.0612746389846,45.5108980817053 61.0585796931323,45.5082031358529 61.0558847472799,45.5108980817053 61.0558847472799,45.5082031358529 61.0477999097229,45.5082031358529 61.0469015944387,45.509101451137 61.0451049638705,45.5055081900005 61.0397150721658,45.5055081900005 61.0356726533872,45.501465771222 61.0383675992396,45.4987708253696 61.0343251804611,45.4947284065911 61.0316302346087,45.5001182982958 61.0302827616825,45.4987708253696 61.0302827616825,45.4933809336649 61.0329777075349,45.4906859878126 61.0290796608556,45.4815905455609 61.0302827616825,45.4799062044031 61.029121147091,45.4740981314455 61.0316302346087,45.4720908614313 61.0370201263134,45.4731688397722 61.0302827616825,45.4745163126984 61.0316302346087,45.4812536773293</coordinates></LinearRing></outerBoundaryIs><innerBoundaryIs><LinearRing><coordinates>61.0477999097229,45.5108980817053 61.0471779991415,45.5096542605426 61.0558847472799,45.5108980817053 61.0477999097229,45.5108980817053</coordinates></LinearRing></innerBoundaryIs><innerBoundaryIs><LinearRing><coordinates>61.0370201263134,45.4677789480675 61.0383675992396,45.4691264209937 61.0370201263134,45.4731688397722 61.0370201263134,45.4677789480675</coordinates></LinearRing></innerBoundaryIs><innerBoundaryIs><LinearRing><coordinates>61.0343251804611,45.4704738939199 61.0331702036672,45.4708588861845 61.0370201263134,45.4677789480675 61.0343251804611,45.4704738939199</coordinates></LinearRing></innerBoundaryIs><innerBoundaryIs><LinearRing><coordinates>61.0195029782731,45.5580596341215 61.011418140716,45.5526697424168 61.011418140716,45.5499747965645 61.0154605594946,45.5486273236383 61.0168080324207,45.5499747965645 61.0141130865684,45.5526697424168 61.0208504511993,45.5567121611954 61.022534792357,45.5557015565007 61.02008046667,45.5597920993123 61.0195029782731,45.5580596341215</coordinates></LinearRing></innerBoundaryIs><innerBoundaryIs><LinearRing><coordinates>61.0275878158302,45.5526697424168 61.0248928699778,45.5499747965645 61.0289352887564,45.5432374319336 61.0358651495196,45.5547871998722 61.0343251804611,45.554017215343 61.0316302346087,45.5567121611954 61.0247003738455,45.5544022076076 61.0275878158302,45.5526697424168</coordinates></LinearRing></innerBoundaryIs><innerBoundaryIs><LinearRing><coordinates>61.0451049638705,45.554017215343 61.0397150721658,45.5567121611954 61.0386370938248,45.5561731720249 61.0451049638705,45.554017215343</coordinates></LinearRing></innerBoundaryIs><innerBoundaryIs><LinearRing><coordinates>61.0990038809177,45.5513222694906 61.1003513538438,45.5553646882692 61.0948772450812,45.5542698665167 61.0990038809177,45.5513222694906</coordinates></LinearRing></innerBoundaryIs><innerBoundaryIs><LinearRing><coordinates>61.1030462996962,45.5149405004838 61.1040087803578,45.5147480043515 61.1030462996962,45.5176354463362 61.1030462996962,45.5149405004838</coordinates></LinearRing></innerBoundaryIs><innerBoundaryIs><LinearRing><coordinates>61.1097836643271,45.5135930275576 61.1097836643271,45.5146710058986 61.1070887184747,45.5141320167281 61.1097836643271,45.5135930275576</coordinates></LinearRing></innerBoundaryIs><innerBoundaryIs><LinearRing><coordinates>61.10169882677,45.486643569034 61.10169882677,45.4947284065911 61.0990038809177,45.4920334607388 61.0963089350653,45.4974233524435 61.093613989213,45.4920334607388 61.0909190433606,45.4947284065911 61.0949614621391,45.4906859878126 61.10169882677,45.478558731477 61.1057412455486,45.4799062044031 61.1030462996962,45.4852960961079 61.1057412455486,45.4879910419602 61.10169882677,45.486643569034</coordinates></LinearRing></innerBoundaryIs><innerBoundaryIs><LinearRing><coordinates>61.0181555053469,45.486643569034 61.0181555053469,45.4920334607388 61.011418140716,45.4879910419602 61.0154605594946,45.4812536773293 61.0235453970516,45.478558731477 61.0267159215838,45.4760223118512 61.0195029782731,45.4852960961079 61.0235453970516,45.4893385148864 61.0181555053469,45.486643569034</coordinates></LinearRing></innerBoundaryIs><innerBoundaryIs><LinearRing><coordinates>61.078791787025,45.5445849048597 61.0812417377999,45.5470348556346 61.0760968411726,45.5418899590074 61.0801392599512,45.5378475402288 61.0820257220478,45.5397340023255 61.078791787025,45.5445849048597</coordinates></LinearRing></innerBoundaryIs><innerBoundaryIs><LinearRing><coordinates>61.0855291516559,45.5513222694906 61.0841816787297,45.5526697424168 61.0855291516559,45.554017215343 61.0922665162868,45.5499747965645 61.0841816787297,45.5553646882692 61.0868766245821,45.5607545799739 61.0828342058035,45.554017215343 61.0801392599512,45.5567121611954 61.078791787025,45.5553646882692 61.0841816787297,45.5499747965645 61.0855291516559,45.5513222694906</coordinates></LinearRing></innerBoundaryIs><innerBoundaryIs><LinearRing><coordinates>61.0599271660585,45.5526697424168 61.0653170577632,45.5499747965645 61.063969584837,45.5459323777859 61.0666645306894,45.5513222694906 61.0720544223941,45.5486273236383 61.0734018953203,45.5499747965645 61.0653170577632,45.5553646882692 61.0720544223941,45.5621020529001 61.0599271660585,45.5526697424168</coordinates></LinearRing></innerBoundaryIs><innerBoundaryIs><LinearRing><coordinates>61.0495965402911,45.5360509096606 61.0477999097229,45.5351525943765 61.0504948555752,45.5324576485241 61.0518423285014,45.5338051214503 61.0495965402911,45.5360509096606</coordinates></LinearRing></innerBoundaryIs><innerBoundaryIs><LinearRing><coordinates>61.0362501417842,45.521870361247 61.0343251804611,45.5189829192623 61.0329777075349,45.531110175598 61.0329777075349,45.5203303921885 61.0370201263134,45.51628797341 61.0383675992396,45.5176354463362 61.0362501417842,45.521870361247</coordinates></LinearRing></innerBoundaryIs><innerBoundaryIs><LinearRing><coordinates>61.0572322202061,45.5203303921885 61.0585796931323,45.5189829192623 61.0558847472799,45.5297627026718 61.0572322202061,45.5203303921885</coordinates></LinearRing></innerBoundaryIs><innerBoundaryIs><LinearRing><coordinates>61.063969584837,45.5216778651147 61.0651823104706,45.523699074504 61.0585796931323,45.5189829192623 61.063969584837,45.5216778651147</coordinates></LinearRing></innerBoundaryIs><innerBoundaryIs><LinearRing><coordinates>61.0922665162868,45.5203303921885 61.0909190433606,45.5210041286516 61.0909190433606,45.5200608976033 61.0922665162868,45.5203303921885</coordinates></LinearRing></innerBoundaryIs><innerBoundaryIs><LinearRing><coordinates>61.0882240975082,45.5324576485241 61.0836041903328,45.5293777104071 61.0882240975082,45.5270677568194 61.0895715704344,45.5284152297456 61.0868766245821,45.531110175598 61.093613989213,45.5324576485241 61.0882240975082,45.5324576485241</coordinates></LinearRing></innerBoundaryIs><innerBoundaryIs><LinearRing><coordinates>61.0477999097229,45.5216778651147 61.0437574909443,45.5203303921885 61.0444312274074,45.5169617098731 61.0451049638705,45.5189829192623 61.0485698942521,45.5178279424685 61.0477999097229,45.5216778651147</coordinates></LinearRing></innerBoundaryIs><innerBoundaryIs><LinearRing><coordinates>61.0451049638705,45.5135930275576 61.0464524367967,45.5140421851997 61.0449124677382,45.5145555082192 61.0451049638705,45.5135930275576</coordinates></LinearRing></innerBoundaryIs><innerBoundaryIs><LinearRing><coordinates>61.049147382649,45.5149405004838 61.0488105144175,45.5166248416415 61.0481367779544,45.5146036322523 61.049147382649,45.5149405004838</coordinates></LinearRing></innerBoundaryIs><innerBoundaryIs><LinearRing><coordinates>61.0221979241255,45.5095506087791 61.0275878158302,45.5095506087791 61.0248928699778,45.5122455546314 61.0235453970516,45.51628797341 61.0221979241255,45.5095506087791</coordinates></LinearRing></innerBoundaryIs><innerBoundaryIs><LinearRing><coordinates>61.0235453970516,45.5459323777859 61.0221979241255,45.5445849048597 61.0235453970516,45.5378475402288 61.0235453970516,45.5459323777859</coordinates></LinearRing></innerBoundaryIs><innerBoundaryIs><LinearRing><coordinates>61.0963089350653,45.5418899590074 61.0963089350653,45.5416204644221 61.0976564079915,45.5418899590074 61.0963089350653,45.5418899590074</coordinates></LinearRing></innerBoundaryIs><innerBoundaryIs><LinearRing><coordinates>61.0612746389846,45.5594071070477 61.063969584837,45.5594071070477 61.063969584837,45.5621020529001 61.0599271660585,45.5607545799739 61.0612746389846,45.5594071070477</coordinates></LinearRing></innerBoundaryIs><innerBoundaryIs><LinearRing><coordinates>61.0612746389846,45.5135930275576 61.0626221119108,45.5149405004838 61.0585796931323,45.51628797341 61.0572322202061,45.5149405004838 61.0612746389846,45.5135930275576</coordinates></LinearRing></innerBoundaryIs><innerBoundaryIs><LinearRing><coordinates>61.0949614621391,45.5041607170744 61.0990038809177,45.5001182982958 61.1003513538438,45.501465771222 61.0963089350653,45.5055081900005 61.0949614621391,45.5041607170744</coordinates></LinearRing></innerBoundaryIs><innerBoundaryIs><LinearRing><coordinates>61.0451049638705,45.5486273236383 61.0437574909443,45.5472798507121 61.0464524367967,45.5472798507121 61.0451049638705,45.5486273236383</coordinates></LinearRing></innerBoundaryIs><innerBoundaryIs><LinearRing><coordinates>61.1084361914009,45.5418899590074 61.1097836643271,45.5405424860812 61.1097836643271,45.5432374319336 61.1084361914009,45.5418899590074</coordinates></LinearRing></innerBoundaryIs><innerBoundaryIs><LinearRing><coordinates>61.0343251804611,45.5378475402288 61.0356726533872,45.539195013155 61.0329777075349,45.539195013155 61.0343251804611,45.5378475402288</coordinates></LinearRing></innerBoundaryIs><innerBoundaryIs><LinearRing><coordinates>61.0895715704344,45.5365000673027 61.0882240975082,45.5378475402288 61.0882240975082,45.5351525943765 61.0895715704344,45.5365000673027</coordinates></LinearRing></innerBoundaryIs><innerBoundaryIs><LinearRing><coordinates>61.0141130865684,45.5284152297456 61.0154605594946,45.5270677568194 61.0154605594946,45.5297627026718 61.0141130865684,45.5284152297456</coordinates></LinearRing></innerBoundaryIs><innerBoundaryIs><LinearRing><coordinates>61.0208504511993,45.5270677568194 61.0221979241255,45.5284152297456 61.0195029782731,45.5284152297456 61.0208504511993,45.5270677568194</coordinates></LinearRing></innerBoundaryIs><innerBoundaryIs><LinearRing><coordinates>61.0248928699778,45.5203303921885 61.0235453970516,45.5216778651147 61.0235453970516,45.5189829192623 61.0248928699778,45.5203303921885</coordinates></LinearRing></innerBoundaryIs><innerBoundaryIs><LinearRing><coordinates>61.0154605594946,45.51628797341 61.0141130865684,45.5149405004838 61.0168080324207,45.5149405004838 61.0154605594946,45.51628797341</coordinates></LinearRing></innerBoundaryIs><innerBoundaryIs><LinearRing><coordinates>61.0653170577632,45.5122455546314 61.0666645306894,45.5108980817053 61.0666645306894,45.5135930275576 61.0653170577632,45.5122455546314</coordinates></LinearRing></innerBoundaryIs><innerBoundaryIs><LinearRing><coordinates>61.0801392599512,45.5108980817053 61.0814867328773,45.5122455546314 61.078791787025,45.5122455546314 61.0801392599512,45.5108980817053</coordinates></LinearRing></innerBoundaryIs><innerBoundaryIs><LinearRing><coordinates>61.0329777075349,45.5068556629267 61.0316302346087,45.5082031358529 61.0316302346087,45.5055081900005 61.0329777075349,45.5068556629267</coordinates></LinearRing></innerBoundaryIs><innerBoundaryIs><LinearRing><coordinates>61.026240342904,45.5028132441482 61.0248928699778,45.501465771222 61.0275878158302,45.501465771222 61.026240342904,45.5028132441482</coordinates></LinearRing></innerBoundaryIs></Polygon><Polygon><outerBoundaryIs><LinearRing><coordinates>61.0653170577632,45.4718213668461 61.063969584837,45.4677789480675 61.0599271660585,45.4718213668461 61.0612746389846,45.4758637856246 61.0653170577632,45.4718213668461</coordinates></LinearRing></outerBoundaryIs></Polygon><Polygon><outerBoundaryIs><LinearRing><coordinates>61.041062545092,45.4933809336649 61.0370201263134,45.4893385148864 61.0356726533872,45.4933809336649 61.0397150721658,45.4947284065911 61.041062545092,45.4933809336649</coordinates></LinearRing></outerBoundaryIs></Polygon><Polygon><outerBoundaryIs><LinearRing><coordinates>61.0102213862645,45.5026625256735 61.011418140716,45.501465771222 61.0102213862645,45.5002690167705 61.0102213862645,45.5026625256735</coordinates></LinearRing></outerBoundaryIs></Polygon><Polygon><outerBoundaryIs><LinearRing><coordinates>61.0855291516559,45.4677789480675 61.0922665162868,45.463736529289 61.0910941321356,45.4625641451378 61.0853540628809,45.4625641451378 61.0841816787297,45.463736529289 61.0855291516559,45.4677789480675</coordinates></LinearRing></outerBoundaryIs></Polygon><Polygon><outerBoundaryIs><LinearRing><coordinates>61.0801392599512,45.4731688397722 61.0841816787297,45.4691264209937 61.0747493682464,45.4677789480675 61.0707069494679,45.4718213668461 61.0801392599512,45.4731688397722</coordinates></LinearRing></outerBoundaryIs></Polygon></MultiGeometry>
  </Placemark>
</Folder>
</Document></kml>
