<?xml version="1.0" encoding="utf-8" ?>
<kml xmlns="http://www.opengis.net/kml/2.2">
<Document id="root_doc">
<Schema name="task_grid_v6_45.71_60.96" id="task_grid_v6_45.71_60.96">
	<SimpleField name="area_ha" type="float"></SimpleField>
	<SimpleField name="low_risk_ha" type="float"></SimpleField>
	<SimpleField name="moderate_risk_ha" type="float"></SimpleField>
	<SimpleField name="grid_cell_deg" type="string"></SimpleField>
</Schema>
<Folder><name>task_grid_v6_45.71_60.96</name>
  <Placemark id="task_grid_v6_45.71_60.96.1">
	<name>task_grid_v6_45.71_60.96</name>
	<name>1084.1</name>
	<description>1765.9</description>
	<Style><LineStyle><color>ff0000ff</color></LineStyle><PolyStyle><fill>0</fill></PolyStyle></Style>
	<ExtendedData><SchemaData schemaUrl="#task_grid_v6_45.71_60.96">
		<SimpleData name="area_ha">681.9</SimpleData>
		<SimpleData name="low_risk_ha">0.1</SimpleData>
	</SchemaData></ExtendedData>
      <MultiGeometry><Polygon><outerBoundaryIs><LinearRing><coordinates>60.9117051441788,45.6685524140682 60.9103576712526,45.6645099952897 60.9102213862645,45.6646462802777 60.9102213862645,45.6690470000396 60.9117051441788,45.6685524140682</coordinates></LinearRing></outerBoundaryIs></Polygon><Polygon><outerBoundaryIs><LinearRing><coordinates>60.9467394402594,45.6685524140682 60.9467394402594,45.6631625223635 60.9461410630337,45.6625641451378 60.9420082131703,45.6625641451378 60.9413495485547,45.6658574682159 60.9440444944071,45.6712473599206 60.9480869131856,45.6752897786991 60.9534768048903,45.6752897786991 60.9534768048903,45.6725948328468 60.9467394402594,45.6685524140682</coordinates></LinearRing></outerBoundaryIs></Polygon><Polygon><outerBoundaryIs><LinearRing><coordinates>60.9157475629573,45.6752897786991 60.9197899817358,45.673942305773 60.9184425088096,45.6672049411421 60.9144000900311,45.6685524140682 60.9157475629573,45.6752897786991</coordinates></LinearRing></outerBoundaryIs></Polygon><Polygon><outerBoundaryIs><LinearRing><coordinates>60.9413495485547,45.6766372516253 60.9400020756285,45.6725948328468 60.9332647109976,45.6766372516253 60.9346121839238,45.6806796704038 60.9413495485547,45.6766372516253</coordinates></LinearRing></outerBoundaryIs></Polygon><Polygon><outerBoundaryIs><LinearRing><coordinates>60.93595965685,45.6874170350347 60.9332647109976,45.6928069267395 60.9346121839238,45.6941543996656 60.9400020756285,45.6941543996656 60.9467394402594,45.6901119808871 60.9400020756285,45.6860695621086 60.93595965685,45.6874170350347</coordinates></LinearRing></outerBoundaryIs></Polygon><Polygon><outerBoundaryIs><LinearRing><coordinates>60.9157475629573,45.7049341830751 60.9197899817358,45.7008917642965 60.9157475629573,45.696849345518 60.9117051441788,45.7008917642965 60.9157475629573,45.7049341830751</coordinates></LinearRing></outerBoundaryIs></Polygon><Polygon><outerBoundaryIs><LinearRing><coordinates>60.9332647109976,45.7089766018536 60.9400020756285,45.7103240747798 60.9413495485547,45.7089766018536 60.93595965685,45.7062816560013 60.9346121839238,45.7022392372227 60.9332647109976,45.7089766018536</coordinates></LinearRing></outerBoundaryIs></Polygon><Polygon><outerBoundaryIs><LinearRing><coordinates>60.9292222922191,45.734578587451 60.9238324005144,45.734578587451 60.9103576712526,45.7237988040416 60.9102213862645,45.7237988040416 60.9102213862645,45.7625641451378 60.9750363717092,45.7625641451378 60.9750363717092,45.7588331001222 60.9817737363401,45.7574856271961 60.9777313175615,45.7588331001222 60.9764876358897,45.7625641451378 60.9858161551186,45.7625641451378 60.9858161551186,45.7588331001222 60.9879721118005,45.7620670351451 60.9874750018078,45.7625641451378 60.9883035184623,45.7625641451378 60.9890291505526,45.7625641451378 61.0003043217938,45.7625641451378 60.9992908843804,45.7534432084175 60.9939009926757,45.7561381542699 60.988511100971,45.7480533167128 60.9858161551186,45.7534432084175 60.9844686821924,45.7467058437866 60.9804262634139,45.7426634250081 60.9709939529306,45.7440108979343 60.9763838446354,45.7458075285025 60.973688898783,45.7467058437866 60.9769228338058,45.7499397788095 60.9758448554649,45.7515567463209 60.9750363717092,45.7507482625652 60.9696464800045,45.7507482625652 60.9682990070783,45.7520957354914 60.9615616424474,45.7453583708605 60.9575192236688,45.749400789639 60.9612921478622,45.7512872517356 60.958866696595,45.7561381542699 60.9561717507427,45.7561381542699 60.9561717507427,45.7534432084175 60.9507818590379,45.7534432084175 60.9507818590379,45.7480533167128 60.9400020756285,45.7534432084175 60.9386546027023,45.7467058437866 60.9332647109976,45.7440108979343 60.93595965685,45.7413159520819 60.9346121839238,45.7399684791557 60.9319172380714,45.7395834868911 60.9319172380714,45.7372735333034 60.9332647109976,45.7332311145248 60.9319172380714,45.7318836415987 60.9292222922191,45.734578587451</coordinates></LinearRing></outerBoundaryIs><innerBoundaryIs><LinearRing><coordinates>60.9507818590379,45.7561381542699 60.9507818590379,45.7550601759289 60.9561717507427,45.7561381542699 60.9507818590379,45.7561381542699</coordinates></LinearRing></innerBoundaryIs><innerBoundaryIs><LinearRing><coordinates>60.9620108000894,45.7516465778493 60.9629091153736,45.7520957354914 60.9642565882997,45.7561381542699 60.9620108000894,45.7516465778493</coordinates></LinearRing></innerBoundaryIs><innerBoundaryIs><LinearRing><coordinates>60.9467394402594,45.7574856271961 60.9426970214809,45.7615280459746 60.9413495485547,45.7574856271961 60.9453919673332,45.7561381542699 60.9467394402594,45.7574856271961</coordinates></LinearRing></innerBoundaryIs><innerBoundaryIs><LinearRing><coordinates>60.9386546027023,45.7574856271961 60.9373071297762,45.7588331001222 60.9373071297762,45.7561381542699 60.9386546027023,45.7574856271961</coordinates></LinearRing></innerBoundaryIs><innerBoundaryIs><LinearRing><coordinates>60.9784799136316,45.7476041590708 60.9780681857931,45.7463689755551 60.9790787904877,45.7467058437866 60.9784799136316,45.7476041590708</coordinates></LinearRing></innerBoundaryIs></Polygon><Polygon><outerBoundaryIs><LinearRing><coordinates>60.9467394402594,45.7413159520819 60.9453919673332,45.7372735333034 60.9413495485547,45.7386210062296 60.9453919673332,45.7426634250081 60.9467394402594,45.7413159520819</coordinates></LinearRing></outerBoundaryIs></Polygon><Polygon><outerBoundaryIs><LinearRing><coordinates>60.9777313175615,45.6672049411421 60.9804262634139,45.6725948328468 60.9831212092663,45.6725948328468 60.9844686821924,45.6712473599206 60.9817737363401,45.6685524140682 60.9844686821924,45.6658574682159 60.9811753591143,45.6625641451378 60.9796771677135,45.6625641451378 60.9777313175615,45.6645099952897 60.9757854674096,45.6625641451378 60.9748865525691,45.6625641451378 60.973688898783,45.6685524140682 60.9750363717092,45.6698998869944 60.9777313175615,45.6672049411421</coordinates></LinearRing></outerBoundaryIs></Polygon><Polygon><outerBoundaryIs><LinearRing><coordinates>60.9656040612259,45.6901119808871 60.9723414258568,45.6914594538133 60.9723414258568,45.6887645079609 60.9669515341521,45.6887645079609 60.9656040612259,45.6901119808871</coordinates></LinearRing></outerBoundaryIs></Polygon><Polygon><outerBoundaryIs><LinearRing><coordinates>60.9467394402594,45.6928069267395 60.9534768048903,45.6941543996656 60.9534768048903,45.6914594538133 60.9480869131856,45.6914594538133 60.9467394402594,45.6928069267395</coordinates></LinearRing></outerBoundaryIs></Polygon><Polygon><outerBoundaryIs><LinearRing><coordinates>60.9723414258568,45.696849345518 60.9696464800045,45.6941543996656 60.9629091153736,45.6981968184442 60.9696464800045,45.6995442913704 60.973688898783,45.7062816560013 60.9777313175615,45.7076291289274 60.9817737363401,45.7035867101489 60.9817737363401,45.6981968184442 60.9723414258568,45.696849345518</coordinates></LinearRing></outerBoundaryIs></Polygon><Polygon><outerBoundaryIs><LinearRing><coordinates>60.9898585738972,45.7332311145248 60.988511100971,45.7291886957463 60.9844686821924,45.7332311145248 60.9858161551186,45.734578587451 60.9898585738972,45.7332311145248</coordinates></LinearRing></outerBoundaryIs></Polygon></MultiGeometry>
  </Placemark>
</Folder>
</Document></kml>
