<?xml version="1.0" encoding="utf-8" ?>
<kml xmlns="http://www.opengis.net/kml/2.2">
<Document id="root_doc">
<Schema name="task_grid_v6_45.71_60.86" id="task_grid_v6_45.71_60.86">
	<SimpleField name="area_ha" type="float"></SimpleField>
	<SimpleField name="low_risk_ha" type="float"></SimpleField>
	<SimpleField name="moderate_risk_ha" type="float"></SimpleField>
	<SimpleField name="grid_cell_deg" type="string"></SimpleField>
</Schema>
<Folder><name>task_grid_v6_45.71_60.86</name>
  <Placemark id="task_grid_v6_45.71_60.86.1">
	<name>task_grid_v6_45.71_60.86</name>
	<name>1936.2</name>
	<description>2660.3</description>
	<Style><LineStyle><color>ff0000ff</color></LineStyle><PolyStyle><fill>0</fill></PolyStyle></Style>
	<ExtendedData><SchemaData schemaUrl="#task_grid_v6_45.71_60.86">
		<SimpleData name="area_ha">724.1</SimpleData>
		<SimpleData name="low_risk_ha">0.1</SimpleData>
	</SchemaData></ExtendedData>
      <MultiGeometry><Polygon><outerBoundaryIs><LinearRing><coordinates>60.8510688625007,45.6860695621086 60.853763808353,45.6824763009721 60.8524163354269,45.6847220891824 60.853763808353,45.6860695621086 60.8524163354269,45.6901119808871 60.8564587542054,45.6941543996656 60.8631961188363,45.6928069267395 60.8699334834672,45.6941543996656 60.8631961188363,45.6955018725918 60.8658910646887,45.6981968184442 60.8658910646887,45.7035867101489 60.8631961188363,45.7062816560013 60.8645435917625,45.7076291289274 60.868586010541,45.7062816560013 60.8631961188363,45.711671547706 60.8652173282256,45.7123452841691 60.8618486459101,45.7130190206322 60.8578062271316,45.719756385263 60.8618486459101,45.7211038581892 60.8672385376148,45.7184089123369 60.8726284293195,45.7237988040416 60.8807132668766,45.7237988040416 60.8820607398028,45.719756385263 60.8766708480981,45.719756385263 60.8793657939504,45.7143664935583 60.8753233751719,45.7103240747798 60.8807132668766,45.7130190206322 60.8847556856552,45.7170614394107 60.8847556856552,45.7278412228201 60.8854294221182,45.7291886957463 60.883408212729,45.7291886957463 60.8793657939504,45.7332311145248 60.8861031585813,45.734578587451 60.8861031585813,45.7305361686725 60.8874506315075,45.7332311145248 60.883408212729,45.7372735333034 60.8807132668766,45.734578587451 60.8780183210243,45.7372735333034 60.853763808353,45.7372735333034 60.8470264437221,45.7413159520819 60.8510688625007,45.7453583708605 60.8618486459101,45.7453583708605 60.8578062271316,45.7467058437866 60.8645435917625,45.7507482625652 60.8658910646887,45.749400789639 60.8672385376148,45.7507482625652 60.8726284293195,45.7426634250081 60.8712809563934,45.7467058437866 60.8753233751719,45.7480533167128 60.8766708480981,45.7467058437866 60.8820607398028,45.7520957354914 60.8847556856552,45.7574856271961 60.8847556856552,45.7625641451378 60.9102213862645,45.7625641451378 60.9102213862645,45.7237988040416 60.9049677795479,45.7237988040416 60.9022728336955,45.7264937498939 60.9009253607693,45.7251462769678 60.906315252474,45.719756385263 60.9049677795479,45.7184089123369 60.9022728336955,45.7184089123369 60.8968829419908,45.7264937498939 60.898230414917,45.719756385263 60.8914930502861,45.7157139664845 60.8955354690646,45.7143664935583 60.8928405232122,45.711671547706 60.8901455773599,45.7008917642965 60.8887981044337,45.6995442913704 60.8861031585813,45.7022392372227 60.8820607398028,45.6981968184442 60.8847556856552,45.6955018725918 60.883408212729,45.6941543996656 60.8780183210243,45.6914594538133 60.8753233751719,45.6941543996656 60.8739759022457,45.6928069267395 60.8739759022457,45.6847220891824 60.8712809563934,45.68202714333 60.8780183210243,45.6806796704038 60.8780183210243,45.6779847245515 60.8726284293195,45.6752897786991 60.8753233751719,45.6752897786991 60.8766708480981,45.673942305773 60.8780183210243,45.6752897786991 60.8807132668766,45.6752897786991 60.883408212729,45.6698998869944 60.8887981044337,45.6752897786991 60.8901455773599,45.6712473599206 60.898230414917,45.6658574682159 60.8955354690646,45.6631625223635 60.8961338462903,45.6625641451378 60.8865020767318,45.6625641451378 60.8857286107311,45.6625641451378 60.8764305978732,45.6625641451378 60.8699334834672,45.6672049411421 60.8618486459101,45.6672049411421 60.8591537000578,45.6725948328468 60.8510688625007,45.6752897786991 60.8510688625007,45.6860695621086</coordinates></LinearRing></outerBoundaryIs><innerBoundaryIs><LinearRing><coordinates>60.8618486459101,45.6887645079609 60.8645435917625,45.6833746162562 60.868586010541,45.6874170350347 60.8631961188363,45.6901119808871 60.8631961188363,45.6928069267395 60.8618486459101,45.6887645079609</coordinates></LinearRing></innerBoundaryIs><innerBoundaryIs><LinearRing><coordinates>60.868586010541,45.711671547706 60.8699334834672,45.7103240747798 60.8753233751719,45.7103240747798 60.868586010541,45.711671547706</coordinates></LinearRing></innerBoundaryIs><innerBoundaryIs><LinearRing><coordinates>60.8901455773599,45.719756385263 60.8941879961384,45.7264937498939 60.8874506315075,45.7170614394107 60.8887981044337,45.7130190206322 60.8914930502861,45.7157139664845 60.8901455773599,45.719756385263</coordinates></LinearRing></innerBoundaryIs><innerBoundaryIs><LinearRing><coordinates>60.8591537000578,45.6752897786991 60.8618486459101,45.6779847245515 60.8591537000578,45.6806796704038 60.85684374647,45.6783697168161 60.8591537000578,45.6752897786991</coordinates></LinearRing></innerBoundaryIs><innerBoundaryIs><LinearRing><coordinates>60.868586010541,45.7008917642965 60.8739759022457,45.6981968184442 60.8766708480981,45.7008917642965 60.8766708480981,45.7035867101489 60.8753233751719,45.7049341830751 60.8726284293195,45.7022392372227 60.868586010541,45.7062816560013 60.868586010541,45.7008917642965</coordinates></LinearRing></innerBoundaryIs><innerBoundaryIs><LinearRing><coordinates>60.9009253607693,45.7574856271961 60.8968829419908,45.7588331001222 60.8955354690646,45.7574856271961 60.8995778878431,45.7561381542699 60.9009253607693,45.7574856271961</coordinates></LinearRing></innerBoundaryIs><innerBoundaryIs><LinearRing><coordinates>60.8847556856552,45.7440108979343 60.883408212729,45.7453583708605 60.8820607398028,45.7440108979343 60.8847556856552,45.7440108979343</coordinates></LinearRing></innerBoundaryIs></Polygon><Polygon><outerBoundaryIs><LinearRing><coordinates>60.8605011729839,45.7278412228201 60.8672385376148,45.7291886957463 60.8712809563934,45.7251462769678 60.8672385376148,45.7237988040416 60.8605011729839,45.7278412228201</coordinates></LinearRing></outerBoundaryIs></Polygon><Polygon><outerBoundaryIs><LinearRing><coordinates>60.8678605079779,45.7625641451378 60.868586010541,45.7574856271961 60.8697409873349,45.7571006349314 60.8686482852936,45.7625641451378 60.8807723171105,45.7625641451378 60.8780183210243,45.7561381542699 60.8726284293195,45.7561381542699 60.8766708480981,45.7547906813437 60.8726284293195,45.7534432084175 60.8699334834672,45.7480533167128 60.8672385376148,45.7534432084175 60.8529056370544,45.7625641451378 60.863852858987,45.7625641451378 60.8645435917625,45.7615280459746 60.8655796909256,45.7625641451378 60.8678605079779,45.7625641451378</coordinates></LinearRing></outerBoundaryIs></Polygon><Polygon><outerBoundaryIs><LinearRing><coordinates>60.8164908852631,45.7625641451378 60.8243260797957,45.7625641451378 60.8187295122724,45.7588331001222 60.8164908852631,45.7625641451378</coordinates></LinearRing></outerBoundaryIs></Polygon><Polygon><outerBoundaryIs><LinearRing><coordinates>60.9076627254002,45.6698998869944 60.9102213862645,45.6690470000396 60.9102213862645,45.6646462802777 60.906315252474,45.6685524140682 60.9076627254002,45.6698998869944</coordinates></LinearRing></outerBoundaryIs></Polygon><Polygon><outerBoundaryIs><LinearRing><coordinates>60.8658910646887,45.7359260603772 60.8780183210243,45.7372735333034 60.8780183210243,45.734578587451 60.8672385376148,45.734578587451 60.8658910646887,45.7359260603772</coordinates></LinearRing></outerBoundaryIs></Polygon></MultiGeometry>
  </Placemark>
</Folder>
</Document></kml>
