<?xml version="1.0" encoding="utf-8" ?>
<kml xmlns="http://www.opengis.net/kml/2.2">
<Document id="root_doc">
<Schema name="task_grid_v6_46.21_60.56" id="task_grid_v6_46.21_60.56">
	<SimpleField name="area_ha" type="float"></SimpleField>
	<SimpleField name="low_risk_ha" type="float"></SimpleField>
	<SimpleField name="moderate_risk_ha" type="float"></SimpleField>
	<SimpleField name="grid_cell_deg" type="string"></SimpleField>
</Schema>
<Folder><name>task_grid_v6_46.21_60.56</name>
  <Placemark id="task_grid_v6_46.21_60.56.1">
	<name>task_grid_v6_46.21_60.56</name>
	<name>171.4</name>
	<description>218.1</description>
	<Style><LineStyle><color>ff0000ff</color></LineStyle><PolyStyle><fill>0</fill></PolyStyle></Style>
	<ExtendedData><SchemaData schemaUrl="#task_grid_v6_46.21_60.56">
		<SimpleData name="area_ha">46.7</SimpleData>
		<SimpleData name="low_risk_ha">0.1</SimpleData>
	</SchemaData></ExtendedData>
      <Polygon><outerBoundaryIs><LinearRing><coordinates>60.5411500894794,46.1954143282043 60.5344127248486,46.1994567469829 60.5357601977747,46.2034991657614 60.53037030607,46.2034991657614 60.5209379955868,46.2075415845399 60.53037030607,46.2115840033185 60.5411500894794,46.2115840033185 60.5505823999627,46.2021516928352 60.5465399811842,46.1954143282043 60.5424975624056,46.1967618011305 60.545192508258,46.1994567469829 60.5411500894794,46.1954143282043</coordinates></LinearRing></outerBoundaryIs></Polygon>
  </Placemark>
</Folder>
</Document></kml>
