<?xml version="1.0" encoding="utf-8" ?>
<kml xmlns="http://www.opengis.net/kml/2.2">
<Document id="root_doc">
<Schema name="task_grid_v6_45.11_61.56" id="task_grid_v6_45.11_61.56">
	<SimpleField name="area_ha" type="float"></SimpleField>
	<SimpleField name="low_risk_ha" type="float"></SimpleField>
	<SimpleField name="moderate_risk_ha" type="float"></SimpleField>
	<SimpleField name="grid_cell_deg" type="string"></SimpleField>
</Schema>
<Folder><name>task_grid_v6_45.11_61.56</name>
  <Placemark id="task_grid_v6_45.11_61.56.1">
	<name>task_grid_v6_45.11_61.56</name>
	<name>0</name>
	<description>23.5</description>
	<Style><LineStyle><color>ff0000ff</color></LineStyle><PolyStyle><fill>0</fill></PolyStyle></Style>
	<ExtendedData><SchemaData schemaUrl="#task_grid_v6_45.11_61.56">
		<SimpleData name="area_ha">23.5</SimpleData>
		<SimpleData name="low_risk_ha">0.1</SimpleData>
	</SchemaData></ExtendedData>
      <MultiGeometry><Polygon><outerBoundaryIs><LinearRing><coordinates>61.5126780692547,45.0891390558111 61.5102213862645,45.086682372821 61.5102213862645,45.0980427876983 61.5126780692547,45.0972238933682 61.5126780692547,45.0891390558111</coordinates></LinearRing></outerBoundaryIs></Polygon><Polygon><outerBoundaryIs><LinearRing><coordinates>61.6096961199396,45.1619025938248 61.6102213862645,45.1624278601497 61.6102213862645,45.1563376133451 61.6096961199396,45.1565127021201 61.6096961199396,45.1619025938248</coordinates></LinearRing></outerBoundaryIs></Polygon></MultiGeometry>
  </Placemark>
</Folder>
</Document></kml>
