<?xml version="1.0" encoding="utf-8" ?>
<kml xmlns="http://www.opengis.net/kml/2.2">
<Document id="root_doc">
<Schema name="task_grid_v6_45.51_59.36" id="task_grid_v6_45.51_59.36">
	<SimpleField name="area_ha" type="float"></SimpleField>
	<SimpleField name="low_risk_ha" type="float"></SimpleField>
	<SimpleField name="moderate_risk_ha" type="float"></SimpleField>
	<SimpleField name="grid_cell_deg" type="string"></SimpleField>
</Schema>
<Folder><name>task_grid_v6_45.51_59.36</name>
  <Placemark id="task_grid_v6_45.51_59.36.1">
	<name>task_grid_v6_45.51_59.36</name>
	<name>1634.6</name>
	<description>2606.2</description>
	<Style><LineStyle><color>ff0000ff</color></LineStyle><PolyStyle><fill>0</fill></PolyStyle></Style>
	<ExtendedData><SchemaData schemaUrl="#task_grid_v6_45.51_59.36">
		<SimpleData name="area_ha">971.5</SimpleData>
		<SimpleData name="low_risk_ha">0.1</SimpleData>
	</SchemaData></ExtendedData>
      <MultiGeometry><Polygon><outerBoundaryIs><LinearRing><coordinates>59.3418991851799,45.4758637856246 59.3445941310322,45.4731688397722 59.3517461027173,45.4779368208956 59.3486365498108,45.4826011502555 59.3594163332202,45.4906859878126 59.3594163332202,45.4933809336649 59.3634587519988,45.4974233524435 59.3621112790726,45.4987708253696 59.3634587519988,45.5055081900005 59.3607638061464,45.5028132441482 59.3594163332202,45.5041607170744 59.3594163332202,45.5149405004838 59.3540264415155,45.5230253380409 59.3553739144417,45.5270677568194 59.3513314956631,45.531110175598 59.3526789685893,45.5351525943765 59.3567213873679,45.531110175598 59.358068860294,45.5324576485241 59.3621112790726,45.531110175598 59.3567213873679,45.5338051214503 59.3607638061464,45.5378475402288 59.370388612762,45.5262977722902 59.3715435895558,45.5297627026718 59.3755860083344,45.5257202838932 59.3742385354082,45.5216778651147 59.3796284271129,45.5216778651147 59.3809759000391,45.5203303921885 59.3850183188176,45.5216778651147 59.3890607375962,45.5122455546314 59.3890607375962,45.4960758795173 59.3850183188176,45.4893385148864 59.3823233729653,45.4920334607388 59.3809759000391,45.4906859878126 59.3836708458914,45.4879910419602 59.3809759000391,45.4852960961079 59.3823233729653,45.486643569034 59.3863657917438,45.4852960961079 59.3850183188176,45.4812536773293 59.3836708458914,45.4826011502555 59.3836708458914,45.4745163126984 59.3809759000391,45.4745163126984 59.3806390318075,45.4762006538561 59.3796284271129,45.4650840022152 59.3782809541867,45.4664314751413 59.3796284271129,45.4812536773293 59.3769584939427,45.4625641451378 59.3638687569455,45.4625641451378 59.3639079096408,45.4628382140049 59.3636338407737,45.4625641451378 59.3605724705046,45.4625641451378 59.3594163332202,45.4799062044031 59.3594163332202,45.4625641451378 59.3474641656596,45.4625641451378 59.3473240946396,45.4625641451378 59.3393793281025,45.4625641451378 59.3405517122537,45.463736529289 59.3378567664014,45.4664314751413 59.3405517122537,45.4691264209937 59.3405517122537,45.4745163126984 59.3418991851799,45.4758637856246</coordinates></LinearRing></outerBoundaryIs><innerBoundaryIs><LinearRing><coordinates>59.3621112790726,45.4826011502555 59.3594163332202,45.4852960961079 59.3594163332202,45.4799062044031 59.3621112790726,45.4826011502555</coordinates></LinearRing></innerBoundaryIs><innerBoundaryIs><LinearRing><coordinates>59.3588773440497,45.5267982622342 59.358068860294,45.5243728109671 59.3594163332202,45.5257202838932 59.3588773440497,45.5267982622342</coordinates></LinearRing></innerBoundaryIs><innerBoundaryIs><LinearRing><coordinates>59.3661536978511,45.5028132441482 59.3675011707773,45.501465771222 59.3688486437035,45.5028132441482 59.3769334812606,45.4974233524435 59.3742385354082,45.5028132441482 59.3675011707773,45.5041607170744 59.372891062482,45.5095506087791 59.3715435895558,45.5135930275576 59.365479961388,45.5095506087791 59.3701961166296,45.5095506087791 59.3661536978511,45.5028132441482</coordinates></LinearRing></innerBoundaryIs><innerBoundaryIs><LinearRing><coordinates>59.3782809541867,45.4987708253696 59.3782809541867,45.5068556629267 59.3769334812606,45.4974233524435 59.3782809541867,45.4987708253696</coordinates></LinearRing></innerBoundaryIs><innerBoundaryIs><LinearRing><coordinates>59.3836708458914,45.5149405004838 59.3829971094284,45.51628797341 59.3782809541867,45.5068556629267 59.3836708458914,45.5149405004838</coordinates></LinearRing></innerBoundaryIs><innerBoundaryIs><LinearRing><coordinates>59.3486365498108,45.4691264209937 59.3459416039584,45.4664314751413 59.3477382345267,45.4646348445731 59.3486365498108,45.4691264209937</coordinates></LinearRing></innerBoundaryIs><innerBoundaryIs><LinearRing><coordinates>59.3648062249249,45.4691264209937 59.3701961166296,45.4745163126984 59.3621112790726,45.4691264209937 59.3642073480689,45.4649342830011 59.3648062249249,45.4691264209937</coordinates></LinearRing></innerBoundaryIs><innerBoundaryIs><LinearRing><coordinates>59.3769334812606,45.5189829192623 59.3755860083344,45.5176354463362 59.3755860083344,45.5122455546314 59.3782809541867,45.5122455546314 59.3769334812606,45.5189829192623</coordinates></LinearRing></innerBoundaryIs><innerBoundaryIs><LinearRing><coordinates>59.3688486437035,45.5216778651147 59.3675011707773,45.5176354463362 59.3688486437035,45.51628797341 59.3701961166296,45.5203303921885 59.3688486437035,45.5216778651147</coordinates></LinearRing></innerBoundaryIs></Polygon><Polygon><outerBoundaryIs><LinearRing><coordinates>59.3284244559181,45.5459323777859 59.3243820371396,45.5472798507121 59.3338143476228,45.5486273236383 59.3365092934752,45.5432374319336 59.3418991851799,45.5486273236383 59.3607638061464,45.5513222694906 59.3688486437035,45.5432374319336 59.372891062482,45.5472798507121 59.372891062482,45.5553646882692 59.3755860083344,45.5607545799739 59.3850183188176,45.5621020529001 59.3850183188176,45.5594071070477 59.3782809541867,45.5553646882692 59.3836708458914,45.5526697424168 59.3836708458914,45.5472798507121 59.380302163576,45.5455955095544 59.3850183188176,45.5432374319336 59.38771326467,45.5459323777859 59.3890607375962,45.5445849048597 59.3890607375962,45.5418899590074 59.3836708458914,45.539195013155 59.3863657917438,45.5365000673027 59.3850183188176,45.5351525943765 59.3782809541867,45.539195013155 59.3809759000391,45.5365000673027 59.3755860083344,45.5338051214503 59.3742385354082,45.5297627026718 59.3701961166296,45.5365000673027 59.372891062482,45.539195013155 59.3715435895558,45.5405424860812 59.3634587519988,45.5351525943765 59.3607638061464,45.5378475402288 59.3567213873679,45.5418899590074 59.3594163332202,45.5445849048597 59.358068860294,45.5459323777859 59.3513314956631,45.539195013155 59.3540264415155,45.5365000673027 59.349984022737,45.5324576485241 59.3418991851799,45.5405424860812 59.3311194017705,45.5405424860812 59.3291944404473,45.5443924087274 59.3257295100657,45.5432374319336 59.320339618361,45.5378475402288 59.320339618361,45.5486273236383 59.3289144460731,45.544952397476 59.3284244559181,45.5459323777859</coordinates></LinearRing></outerBoundaryIs><innerBoundaryIs><LinearRing><coordinates>59.3794787078989,45.5451837817158 59.3782809541867,45.5445849048597 59.3782809541867,45.539195013155 59.3794787078989,45.5451837817158</coordinates></LinearRing></innerBoundaryIs></Polygon><Polygon><outerBoundaryIs><LinearRing><coordinates>59.3594163332202,45.5526697424168 59.3715435895558,45.5567121611954 59.3715435895558,45.5486273236383 59.3688486437035,45.5513222694906 59.3594163332202,45.5526697424168</coordinates></LinearRing></outerBoundaryIs></Polygon><Polygon><outerBoundaryIs><LinearRing><coordinates>59.3936690398667,45.4625641451378 59.3944506293009,45.463736529289 59.3917556834485,45.4691264209937 59.3984930480794,45.4731688397722 59.3973147486756,45.4625641451378 59.3936690398667,45.4625641451378</coordinates></LinearRing></outerBoundaryIs></Polygon><Polygon><outerBoundaryIs><LinearRing><coordinates>59.3998405210056,45.4799062044031 59.3957981022271,45.4758637856246 59.3944506293009,45.4799062044031 59.3984930480794,45.4812536773293 59.3998405210056,45.4799062044031</coordinates></LinearRing></outerBoundaryIs></Polygon><Polygon><outerBoundaryIs><LinearRing><coordinates>59.4092728314888,45.4974233524435 59.4102213862645,45.492680578565 59.4102213862645,45.4902870696621 59.4079253585627,45.4879910419602 59.4079253585627,45.4826011502555 59.4011879939318,45.4731688397722 59.3998405210056,45.4772112585508 59.402535466858,45.4826011502555 59.3998405210056,45.4852960961079 59.4052304127103,45.4879910419602 59.4052304127103,45.4960758795173 59.4092728314888,45.4974233524435</coordinates></LinearRing></outerBoundaryIs></Polygon><Polygon><outerBoundaryIs><LinearRing><coordinates>59.3863657917438,45.531110175598 59.3850183188176,45.5216778651147 59.3836708458914,45.5230253380409 59.3850183188176,45.5324576485241 59.3863657917438,45.531110175598</coordinates></LinearRing></outerBoundaryIs></Polygon><Polygon><outerBoundaryIs><LinearRing><coordinates>59.3944506293009,45.539195013155 59.3904082105223,45.5324576485241 59.3890607375962,45.539195013155 59.3931031563747,45.5405424860812 59.3944506293009,45.539195013155</coordinates></LinearRing></outerBoundaryIs></Polygon><Polygon><outerBoundaryIs><LinearRing><coordinates>59.4065778856365,45.554017215343 59.4102213862645,45.5503737147149 59.4102213862645,45.547980205812 59.4092728314888,45.5432374319336 59.4052304127103,45.5445849048597 59.4065778856365,45.554017215343</coordinates></LinearRing></outerBoundaryIs></Polygon><Polygon><outerBoundaryIs><LinearRing><coordinates>59.3850183188176,45.5625641451378 59.3850183188176,45.5621020529001 59.3769334812606,45.5621020529001 59.3764713890228,45.5625641451378 59.3850183188176,45.5625641451378</coordinates></LinearRing></outerBoundaryIs></Polygon></MultiGeometry>
  </Placemark>
</Folder>
</Document></kml>
