<?xml version="1.0" encoding="utf-8" ?>
<kml xmlns="http://www.opengis.net/kml/2.2">
<Document id="root_doc">
<Schema name="task_grid_v6_45.88_60.18" id="task_grid_v6_45.88_60.18">
	<SimpleField name="area_ha" type="float"></SimpleField>
	<SimpleField name="low_risk_ha" type="float"></SimpleField>
	<SimpleField name="moderate_risk_ha" type="float"></SimpleField>
	<SimpleField name="grid_cell_deg" type="string"></SimpleField>
</Schema>
<Folder><name>task_grid_v6_45.88_60.18</name>
  <Placemark id="task_grid_v6_45.88_60.18.1">
	<name>task_grid_v6_45.88_60.18</name>
	<name>857.3</name>
	<description>2063.2</description>
	<Style><LineStyle><color>ff0000ff</color></LineStyle><PolyStyle><fill>0</fill></PolyStyle></Style>
	<ExtendedData><SchemaData schemaUrl="#task_grid_v6_45.88_60.18">
		<SimpleData name="area_ha">1205.9</SimpleData>
		<SimpleData name="low_risk_ha">0.1</SimpleData>
	</SchemaData></ExtendedData>
      <MultiGeometry><Polygon><outerBoundaryIs><LinearRing><coordinates>60.1689948655051,45.8343547580755 60.1584677784445,45.8369865298406 60.154425359666,45.8410289486192 60.1611627242969,45.8450713673977 60.1705950347801,45.8383340027668 60.169268619883,45.8343547580755 60.1689948655051,45.8343547580755</coordinates></LinearRing></outerBoundaryIs></Polygon><Polygon><outerBoundaryIs><LinearRing><coordinates>60.1422981033304,45.8450713673977 60.1382556845518,45.8464188403239 60.1436455762566,45.8437238944715 60.1436455762566,45.8410289486192 60.1388782972968,45.8343547580755 60.1263910613787,45.8343547580755 60.1263910613787,45.8464188403239 60.1301708469948,45.8464188403239 60.1263910613787,45.85019862594 60.1263910613787,45.8555787156122 60.1263910613787,45.8558511508072 60.1263910613787,45.8571986237333 60.1301708469948,45.8571986237333 60.1270267435003,45.8558511508072 60.1315183199209,45.8558511508072 60.1409506304042,45.8491137861763 60.1382556845518,45.8518087320286 60.139603157478,45.8531562049548 60.1436455762566,45.8518087320286 60.1422981033304,45.8450713673977</coordinates></LinearRing></outerBoundaryIs></Polygon><Polygon><outerBoundaryIs><LinearRing><coordinates>60.1476879950351,45.8531562049548 60.1490354679613,45.8518087320286 60.1449930491827,45.8477663132501 60.1436455762566,45.8518087320286 60.1476879950351,45.8531562049548</coordinates></LinearRing></outerBoundaryIs></Polygon><Polygon><outerBoundaryIs><LinearRing><coordinates>60.1476879950351,45.8666309342166 60.1503829408875,45.8666309342166 60.154425359666,45.8625885154381 60.1476879950351,45.8585460966595 60.1409506304042,45.8598935695857 60.1476879950351,45.8666309342166</coordinates></LinearRing></outerBoundaryIs></Polygon><Polygon><outerBoundaryIs><LinearRing><coordinates>60.169247561854,45.8828006093307 60.1705950347801,45.8814531364046 60.169247561854,45.8801056634784 60.1705950347801,45.8787581905522 60.1746374535587,45.8828006093307 60.1786798723372,45.8787581905522 60.1719425077063,45.877410717626 60.1800273452634,45.877410717626 60.1813748181896,45.8760632446998 60.1759849264849,45.8733682988475 60.1781898821822,45.8689583874527 60.1800273452634,45.8720208259213 60.1813748181896,45.8706733529951 60.1827222911158,45.8720208259213 60.1894596557467,45.8706733529951 60.1881121828205,45.8639359883642 60.1840697640419,45.8652834612904 60.1835307748715,45.8663614396314 60.1827222911158,45.8639359883642 60.1759849264849,45.8652834612904 60.1638576701492,45.8666309342166 60.1598152513707,45.8760632446998 60.1629593548651,45.877410717626 60.1611627242969,45.877410717626 60.1598152513707,45.8787581905522 60.169247561854,45.8828006093307</coordinates></LinearRing></outerBoundaryIs><innerBoundaryIs><LinearRing><coordinates>60.1776018939963,45.8679784071428 60.1732899806325,45.8679784071428 60.1759849264849,45.8652834612904 60.1776018939963,45.8679784071428</coordinates></LinearRing></innerBoundaryIs></Polygon><Polygon><outerBoundaryIs><LinearRing><coordinates>60.1598152513707,45.8787581905522 60.1557728325922,45.8747157717737 60.154425359666,45.8787581905522 60.1584677784445,45.8801056634784 60.1598152513707,45.8787581905522</coordinates></LinearRing></outerBoundaryIs></Polygon><Polygon><outerBoundaryIs><LinearRing><coordinates>60.1652051430754,45.8895379739616 60.1584677784445,45.8854955551831 60.1503829408875,45.8854955551831 60.1476879950351,45.8828006093307 60.1422981033304,45.8854955551831 60.1409506304042,45.8841480822569 60.1463405221089,45.8814531364046 60.139603157478,45.877410717626 60.1355607386995,45.8787581905522 60.1382556845518,45.8814531364046 60.1369082116257,45.8828006093307 60.1328657928471,45.8787581905522 60.1355607386995,45.8760632446998 60.1342132657733,45.8747157717737 60.1288233740686,45.8747157717737 60.1263910613787,45.8722834590838 60.1263910613787,45.8838977346191 60.1274759011424,45.8841480822569 60.1263910613787,45.8845096955115 60.1263910613787,45.8908854468878 60.1263910613787,45.8962753385925 60.1315183199209,45.8962753385925 60.1263910613787,45.8970078040986 60.1263910613787,45.898014179877 60.1369082116257,45.8989702844449 60.1369082116257,45.8935803927402 60.139603157478,45.8989702844449 60.1422981033304,45.8962753385925 60.1449930491827,45.8989702844449 60.1530778867398,45.8935803927402 60.1584677784445,45.8935803927402 60.1584677784445,45.8908854468878 60.1611627242969,45.8962753385925 60.1652051430754,45.8949278656664 60.1625101972231,45.892232919814 60.1652051430754,45.8895379739616</coordinates></LinearRing></outerBoundaryIs><innerBoundaryIs><LinearRing><coordinates>60.1530778867398,45.8908854468878 60.1476879950351,45.8908854468878 60.1503829408875,45.8881905010355 60.1530778867398,45.8908854468878</coordinates></LinearRing></innerBoundaryIs></Polygon><Polygon><outerBoundaryIs><LinearRing><coordinates>60.1719425077063,45.8935803927402 60.1719425077063,45.8892684793764 60.1746374535587,45.8908854468878 60.177332399411,45.8881905010355 60.1827222911158,45.8881905010355 60.1840697640419,45.8868430281093 60.1800273452634,45.8828006093307 60.177332399411,45.8854955551831 60.1679000889278,45.8868430281093 60.1701458771381,45.8881905010355 60.169247561854,45.8881905010355 60.1652051430754,45.892232919814 60.1719425077063,45.8935803927402</coordinates></LinearRing></outerBoundaryIs></Polygon><Polygon><outerBoundaryIs><LinearRing><coordinates>60.1831222972944,45.8343547580755 60.177332399411,45.8343547580755 60.177332399411,45.8369865298406 60.1831222972944,45.8343547580755</coordinates></LinearRing></outerBoundaryIs></Polygon><Polygon><outerBoundaryIs><LinearRing><coordinates>60.1908071286728,45.8612410425119 60.1961970203776,45.8585460966595 60.1948495474514,45.8598935695857 60.1948495474514,45.8760632446998 60.2015869120823,45.877410717626 60.2029343850084,45.8760632446998 60.1975444933037,45.8733682988475 60.206976803787,45.8747157717737 60.2123666954917,45.8720208259213 60.2123666954917,45.877410717626 60.2191040601226,45.8679784071428 60.2191040601226,45.8625885154381 60.2056293308608,45.8571986237333 60.2083242767132,45.854503677881 60.2056293308608,45.8518087320286 60.2110192225655,45.8491137861763 60.206976803787,45.8423764215454 60.2015869120823,45.8450713673977 60.1961970203776,45.839681475693 60.192154601599,45.8410289486192 60.1908071286728,45.8477663132501 60.1840697640419,45.8491137861763 60.1827222911158,45.8477663132501 60.1746374535587,45.8477663132501 60.1625101972231,45.854503677881 60.1719425077063,45.8558511508072 60.1746374535587,45.8531562049548 60.1746374535587,45.8585460966595 60.1800273452634,45.8558511508072 60.1908071286728,45.8612410425119</coordinates></LinearRing></outerBoundaryIs><innerBoundaryIs><LinearRing><coordinates>60.1961970203776,45.8504612591024 60.1854172369681,45.8504612591024 60.1840697640419,45.8491137861763 60.1961970203776,45.8504612591024</coordinates></LinearRing></innerBoundaryIs><innerBoundaryIs><LinearRing><coordinates>60.2015869120823,45.8612410425119 60.2005089337413,45.8607020533414 60.2019237803138,45.8602304378172 60.2015869120823,45.8612410425119</coordinates></LinearRing></innerBoundaryIs></Polygon><Polygon><outerBoundaryIs><LinearRing><coordinates>60.1827222911158,45.8639359883642 60.1840697640419,45.8625885154381 60.1800273452634,45.8585460966595 60.1759849264849,45.8625885154381 60.1827222911158,45.8639359883642</coordinates></LinearRing></outerBoundaryIs></Polygon><Polygon><outerBoundaryIs><LinearRing><coordinates>60.1813748181896,45.8733682988475 60.1827222911158,45.8801056634784 60.1867647098943,45.8733682988475 60.1813748181896,45.8733682988475</coordinates></LinearRing></outerBoundaryIs></Polygon><Polygon><outerBoundaryIs><LinearRing><coordinates>60.2204515330488,45.8801056634784 60.2204515330488,45.8747157717737 60.2150616413441,45.8747157717737 60.2137141684179,45.8760632446998 60.2204515330488,45.8801056634784</coordinates></LinearRing></outerBoundaryIs></Polygon><Polygon><outerBoundaryIs><LinearRing><coordinates>60.2204515330488,45.8908854468878 60.2204515330488,45.8881905010355 60.2150616413441,45.8881905010355 60.2137141684179,45.8895379739616 60.2204515330488,45.8908854468878</coordinates></LinearRing></outerBoundaryIs></Polygon><Polygon><outerBoundaryIs><LinearRing><coordinates>60.2015869120823,45.8962753385925 60.2015869120823,45.8935803927402 60.1908071286728,45.8935803927402 60.1894596557467,45.8949278656664 60.2015869120823,45.8962753385925</coordinates></LinearRing></outerBoundaryIs></Polygon></MultiGeometry>
  </Placemark>
</Folder>
</Document></kml>
