<?xml version="1.0" encoding="utf-8" ?>
<kml xmlns="http://www.opengis.net/kml/2.2">
<Document id="root_doc">
<Schema name="task_grid_v6_45.51_59.06" id="task_grid_v6_45.51_59.06">
	<SimpleField name="area_ha" type="float"></SimpleField>
	<SimpleField name="low_risk_ha" type="float"></SimpleField>
	<SimpleField name="moderate_risk_ha" type="float"></SimpleField>
	<SimpleField name="grid_cell_deg" type="string"></SimpleField>
</Schema>
<Folder><name>task_grid_v6_45.51_59.06</name>
  <Placemark id="task_grid_v6_45.51_59.06.1">
	<name>task_grid_v6_45.51_59.06</name>
	<name>67.5</name>
	<description>1454.8</description>
	<Style><LineStyle><color>ff0000ff</color></LineStyle><PolyStyle><fill>0</fill></PolyStyle></Style>
	<ExtendedData><SchemaData schemaUrl="#task_grid_v6_45.51_59.06">
		<SimpleData name="area_ha">1387.3</SimpleData>
		<SimpleData name="low_risk_ha">0.1</SimpleData>
	</SchemaData></ExtendedData>
      <MultiGeometry><Polygon><outerBoundaryIs><LinearRing><coordinates>59.0543799313366,45.4625641451378 59.0510201219001,45.4625641451378 59.0535399789775,45.4650840022152 59.0543799313366,45.4625641451378</coordinates></LinearRing></outerBoundaryIs></Polygon><Polygon><outerBoundaryIs><LinearRing><coordinates>59.0589298706822,45.4650840022152 59.0629722894608,45.463736529289 59.0617999053096,45.4625641451378 59.0580899183231,45.4625641451378 59.0589298706822,45.4650840022152</coordinates></LinearRing></outerBoundaryIs></Polygon><Polygon><outerBoundaryIs><LinearRing><coordinates>59.0926166938367,45.4664314751413 59.0913275838355,45.4625641451378 59.0748077311714,45.4625641451378 59.0683621811655,45.4664314751413 59.0777944916487,45.4677789480675 59.0831843833535,45.4650840022152 59.0885742750582,45.4731688397722 59.0926166938367,45.4664314751413</coordinates></LinearRing></outerBoundaryIs></Polygon><Polygon><outerBoundaryIs><LinearRing><coordinates>59.0102213862645,45.4644601305209 59.0102213862645,45.4742001277732 59.0158107370445,45.4704738939199 59.0212006287492,45.4704738939199 59.0225481016754,45.4691264209937 59.0186107361618,45.4625641451378 59.017805327797,45.4625641451378 59.0102213862645,45.4644601305209</coordinates></LinearRing></outerBoundaryIs></Polygon><Polygon><outerBoundaryIs><LinearRing><coordinates>59.0885742750582,45.4812536773293 59.0926166938367,45.4772112585508 59.0885742750582,45.4758637856246 59.0845318562796,45.4799062044031 59.0885742750582,45.4812536773293</coordinates></LinearRing></outerBoundaryIs></Polygon><Polygon><outerBoundaryIs><LinearRing><coordinates>59.0319804121587,45.4758637856246 59.0238955746016,45.4704738939199 59.0225481016754,45.4745163126984 59.0252430475278,45.4772112585508 59.0144632641183,45.4852960961079 59.0185056828969,45.4893385148864 59.0212006287492,45.486643569034 59.0238955746016,45.4893385148864 59.0265905204539,45.486643569034 59.0292854663063,45.4920334607388 59.0360228309372,45.4879910419602 59.0400652497157,45.4812536773293 59.0427601955681,45.4920334607388 59.0454551414204,45.486643569034 59.0575823977561,45.4826011502555 59.0535399789775,45.4758637856246 59.0508450331252,45.478558731477 59.049497560199,45.4772112585508 59.0468026143466,45.4718213668461 59.0441076684943,45.4718213668461 59.0468026143466,45.4772112585508 59.0454551414204,45.478558731477 59.0373703038634,45.478558731477 59.0373703038634,45.4731688397722 59.0319804121587,45.4758637856246</coordinates></LinearRing></outerBoundaryIs><innerBoundaryIs><LinearRing><coordinates>59.0292854663063,45.4839486231817 59.0279379933801,45.4826011502555 59.0319804121587,45.478558731477 59.0333278850848,45.4799062044031 59.0292854663063,45.4839486231817</coordinates></LinearRing></innerBoundaryIs></Polygon><Polygon><outerBoundaryIs><LinearRing><coordinates>59.0575823977561,45.4933809336649 59.0562349248299,45.4893385148864 59.0521925060513,45.4906859878126 59.0535399789775,45.4974233524435 59.0575823977561,45.4933809336649</coordinates></LinearRing></outerBoundaryIs></Polygon><Polygon><outerBoundaryIs><LinearRing><coordinates>59.0360228309372,45.4987708253696 59.034675358011,45.4947284065911 59.0306329392325,45.4960758795173 59.0319804121587,45.5001182982958 59.0360228309372,45.4987708253696</coordinates></LinearRing></outerBoundaryIs></Polygon><Polygon><outerBoundaryIs><LinearRing><coordinates>59.0319804121587,45.5486273236383 59.0360228309372,45.5472798507121 59.034675358011,45.5432374319336 59.0306329392325,45.5472798507121 59.0319804121587,45.5486273236383</coordinates></LinearRing></outerBoundaryIs></Polygon><Polygon><outerBoundaryIs><LinearRing><coordinates>59.0683621811655,45.5472798507121 59.0670147082393,45.5432374319336 59.0629722894608,45.5472798507121 59.064319762387,45.5513222694906 59.0683621811655,45.5472798507121</coordinates></LinearRing></outerBoundaryIs></Polygon><Polygon><outerBoundaryIs><LinearRing><coordinates>59.0845318562796,45.5526697424168 59.0804894375011,45.5486273236383 59.0764470187226,45.5499747965645 59.0804894375011,45.5567121611954 59.0845318562796,45.5526697424168</coordinates></LinearRing></outerBoundaryIs></Polygon><Polygon><outerBoundaryIs><LinearRing><coordinates>59.072404599944,45.5594071070477 59.0764470187226,45.5580596341215 59.0750995457964,45.554017215343 59.0710571270179,45.5580596341215 59.072404599944,45.5594071070477</coordinates></LinearRing></outerBoundaryIs></Polygon><Polygon><outerBoundaryIs><LinearRing><coordinates>59.1068405187989,45.4625641451378 59.1068614076278,45.4625815524951 59.1033964772462,45.463736529289 59.1007015313938,45.4691264209937 59.10204900432,45.4704738939199 59.1074388960247,45.4704738939199 59.1102213862645,45.46769140368 59.1102213862645,45.4653815346924 59.1102213862645,45.4651715466026 59.1102213862645,45.4625641451378 59.1076139847997,45.4625641451378 59.1069136296998,45.4625641451378 59.1068405187989,45.4625641451378</coordinates></LinearRing></outerBoundaryIs></Polygon><Polygon><outerBoundaryIs><LinearRing><coordinates>59.0926166938367,45.4718213668461 59.0993540584676,45.4731688397722 59.0993540584676,45.4704738939199 59.0939641667629,45.4704738939199 59.0926166938367,45.4718213668461</coordinates></LinearRing></outerBoundaryIs></Polygon><Polygon><outerBoundaryIs><LinearRing><coordinates>59.1101338418771,45.478558731477 59.1102213862645,45.4786462758644 59.1102213862645,45.4689513322187 59.1035461964602,45.4823017118275 59.0993540584676,45.4812536773293 59.0966591126153,45.486643569034 59.0939641667629,45.4812536773293 59.0899217479844,45.4879910419602 59.0899217479844,45.4933809336649 59.0926166938367,45.4960758795173 59.0899217479844,45.4987708253696 59.0953116396891,45.501465771222 59.0926166938367,45.5041607170744 59.0939641667629,45.5055081900005 59.10204900432,45.5028132441482 59.1060914230985,45.4987708253696 59.1007015313938,45.4960758795173 59.1074388960247,45.4947284065911 59.1102213862645,45.4919459163513 59.1102213862645,45.4843863451191 59.1101338418771,45.4839486231817 59.1102213862645,45.4840361675692 59.1102213862645,45.4811661329418 59.1101338418771,45.4812536773293 59.1101338418771,45.478558731477</coordinates></LinearRing></outerBoundaryIs><innerBoundaryIs><LinearRing><coordinates>59.1047439501723,45.4920334607388 59.1033964772462,45.4906859878126 59.1074388960247,45.486643569034 59.1087863689509,45.4879910419602 59.1047439501723,45.4920334607388</coordinates></LinearRing></innerBoundaryIs></Polygon><Polygon><outerBoundaryIs><LinearRing><coordinates>59.1033964772462,45.4799062044031 59.10204900432,45.4731688397722 59.0980065855414,45.4799062044031 59.0993540584676,45.4812536773293 59.1033964772462,45.4799062044031</coordinates></LinearRing></outerBoundaryIs></Polygon><Polygon><outerBoundaryIs><LinearRing><coordinates>59.1102213862645,45.499400789639 59.1060914230985,45.501465771222 59.1102213862645,45.507660715971 59.1102213862645,45.499400789639</coordinates></LinearRing></outerBoundaryIs></Polygon><Polygon><outerBoundaryIs><LinearRing><coordinates>59.1101338418771,45.51628797341 59.1102213862645,45.5162254417046 59.1102213862645,45.5108105373178 59.1087863689509,45.5122455546314 59.1101338418771,45.51628797341</coordinates></LinearRing></outerBoundaryIs></Polygon><Polygon><outerBoundaryIs><LinearRing><coordinates>59.0939641667629,45.5189829192623 59.0980065855414,45.5176354463362 59.0966591126153,45.5082031358529 59.0899217479844,45.5122455546314 59.0939641667629,45.5189829192623</coordinates></LinearRing></outerBoundaryIs></Polygon><Polygon><outerBoundaryIs><LinearRing><coordinates>59.0885742750582,45.5378475402288 59.0912692209105,45.5351525943765 59.0939641667629,45.5405424860812 59.0966591126153,45.5378475402288 59.10204900432,45.5378475402288 59.1033964772462,45.5365000673027 59.0993540584676,45.5324576485241 59.0899217479844,45.531110175598 59.0926166938367,45.5284152297456 59.0899217479844,45.5257202838932 59.0885742750582,45.51628797341 59.0831843833535,45.5216778651147 59.0764470187226,45.5230253380409 59.0845318562796,45.5257202838932 59.0791419645749,45.5365000673027 59.0831843833535,45.5378475402288 59.0858793292058,45.5351525943765 59.0885742750582,45.5378475402288</coordinates></LinearRing></outerBoundaryIs></Polygon><Polygon><outerBoundaryIs><LinearRing><coordinates>59.1007015313938,45.5230253380409 59.1060914230985,45.5257202838932 59.1060914230985,45.539195013155 59.1033964772462,45.5418899590074 59.1101338418771,45.5459323777859 59.1102213862645,45.5459323777859 59.1102213862645,45.5217216373084 59.1101338418771,45.5216778651147 59.1074388960247,45.51628797341 59.1047439501723,45.5216778651147 59.10204900432,45.5189829192623 59.1007015313938,45.5203303921885 59.1007015313938,45.5230253380409</coordinates></LinearRing></outerBoundaryIs></Polygon></MultiGeometry>
  </Placemark>
</Folder>
</Document></kml>
