<?xml version="1.0" encoding="utf-8" ?>
<kml xmlns="http://www.opengis.net/kml/2.2">
<Document id="root_doc">
<Schema name="task_grid_v6_46.08_59.78" id="task_grid_v6_46.08_59.78">
	<SimpleField name="area_ha" type="float"></SimpleField>
	<SimpleField name="low_risk_ha" type="float"></SimpleField>
	<SimpleField name="moderate_risk_ha" type="float"></SimpleField>
	<SimpleField name="grid_cell_deg" type="string"></SimpleField>
</Schema>
<Folder><name>task_grid_v6_46.08_59.78</name>
  <Placemark id="task_grid_v6_46.08_59.78.1">
	<name>task_grid_v6_46.08_59.78</name>
	<name>2962.5</name>
	<description>3071.8</description>
	<Style><LineStyle><color>ff0000ff</color></LineStyle><PolyStyle><fill>0</fill></PolyStyle></Style>
	<ExtendedData><SchemaData schemaUrl="#task_grid_v6_46.08_59.78">
		<SimpleData name="area_ha">109.4</SimpleData>
		<SimpleData name="low_risk_ha">0.1</SimpleData>
	</SchemaData></ExtendedData>
      <MultiGeometry><Polygon><outerBoundaryIs><LinearRing><coordinates>59.7697583946922,46.0343547580755 59.7690481027787,46.035065049989 59.7730905215573,46.0364125229152 59.7751482863969,46.0343547580755 59.7697583946922,46.0343547580755</coordinates></LinearRing></outerBoundaryIs></Polygon><Polygon><outerBoundaryIs><LinearRing><coordinates>59.7946500883761,46.0364125229152 59.7987656180555,46.0343547580755 59.7925923235364,46.0343547580755 59.7946500883761,46.0364125229152</coordinates></LinearRing></outerBoundaryIs></Polygon><Polygon><outerBoundaryIs><LinearRing><coordinates>59.7778432322493,46.0343547580755 59.7744379944834,46.0377599958414 59.7757854674096,46.0391074687675 59.7825228320405,46.0377599958414 59.7791175942747,46.0343547580755 59.7778432322493,46.0343547580755</coordinates></LinearRing></outerBoundaryIs></Polygon><Polygon><outerBoundaryIs><LinearRing><coordinates>59.7596157922955,46.0444973604723 59.7690481027787,46.0404549416937 59.7677006298525,46.0364125229152 59.763658211074,46.035065049989 59.7657890868145,46.0343547580755 59.7602529733081,46.0343547580755 59.7609632652216,46.035065049989 59.7555733735169,46.0377599958414 59.7555733735169,46.0404549416937 59.7596157922955,46.0444973604723</coordinates></LinearRing></outerBoundaryIs></Polygon><Polygon><outerBoundaryIs><LinearRing><coordinates>59.7420986442551,46.0539296709555 59.7434461171813,46.0552771438817 59.7474885359599,46.0539296709555 59.7461410630337,46.049887252177 59.7420986442551,46.0539296709555</coordinates></LinearRing></outerBoundaryIs></Polygon><Polygon><outerBoundaryIs><LinearRing><coordinates>59.7895970649029,46.0899745717308 59.7919551425238,46.0930063858147 59.7973450342285,46.0930063858147 59.8000399800808,46.0903114399623 59.8040823988594,46.0916589128885 59.7986925071547,46.0997437504456 59.8040823988594,46.1078285880027 59.7959975613023,46.1078285880027 59.8148621822688,46.1239982631168 59.8121672364165,46.1293881548215 59.8148621822688,46.1320831006739 59.8148621822688,46.1343547580755 59.8263910613787,46.1343547580755 59.8263910613787,46.1031877919984 59.8256419656783,46.102438696298 59.8263910613787,46.102438696298 59.8263910613787,46.0570735603226 59.8242944927521,46.0579720897341 59.8175571281212,46.0539296709555 59.8148621822688,46.0458448333984 59.8263910613787,46.0458448333984 59.8263910613787,46.0418024146199 59.8215995468997,46.0418024146199 59.816209655195,46.0364125229152 59.8135147093426,46.0391074687675 59.8063856433046,46.0343547580755 59.8011019484353,46.0343547580755 59.8067773447117,46.0377599958414 59.8000399800808,46.0418024146199 59.7973450342285,46.0391074687675 59.7959975613023,46.0404549416937 59.7959975613023,46.0458448333984 59.7986925071547,46.0485397792508 59.7973450342285,46.0552771438817 59.7933026154499,46.0539296709555 59.7933026154499,46.0458448333984 59.7892601966714,46.0418024146199 59.7865652508191,46.0444973604723 59.7650056840002,46.0471923063246 59.7555733735169,46.0566246168079 59.7609632652216,46.0593195626602 59.7555733735169,46.0620145085126 59.7596157922955,46.0660569272911 59.7730905215573,46.0714468189958 59.7757854674096,46.0768367107006 59.7744379944834,46.0835740753315 59.778480413262,46.08761649411 59.7892601966714,46.0903114399623 59.7895970649029,46.0899745717308</coordinates></LinearRing></outerBoundaryIs><innerBoundaryIs><LinearRing><coordinates>59.778480413262,46.0741417648482 59.7825228320405,46.0754892377744 59.7852177778929,46.0781841836267 59.7838703049667,46.0795316565529 59.7838703049667,46.0768367107006 59.7757854674096,46.0768367107006 59.778480413262,46.0741417648482</coordinates></LinearRing></innerBoundaryIs><innerBoundaryIs><LinearRing><coordinates>59.7825228320405,46.0808791294791 59.7837018708509,46.082395036521 59.7811753591143,46.0849215482576 59.7771329403358,46.0808791294791 59.7838703049667,46.0795316565529 59.7825228320405,46.0808791294791</coordinates></LinearRing></innerBoundaryIs><innerBoundaryIs><LinearRing><coordinates>59.8135147093426,46.1064811150765 59.8121672364165,46.102438696298 59.8148621822688,46.0997437504456 59.8054298717856,46.0983962775194 59.8054298717856,46.0957013316671 59.8135147093426,46.0957013316671 59.8175571281212,46.0997437504456 59.8148621822688,46.102438696298 59.8175571281212,46.1051336421503 59.8135147093426,46.1064811150765</coordinates></LinearRing></innerBoundaryIs><innerBoundaryIs><LinearRing><coordinates>59.8189046010474,46.08761649411 59.8121672364165,46.0808791294791 59.8135147093426,46.0795316565529 59.816209655195,46.0822266024053 59.8242944927521,46.0822266024053 59.8256419656783,46.0862690211838 59.8189046010474,46.08761649411</coordinates></LinearRing></innerBoundaryIs><innerBoundaryIs><LinearRing><coordinates>59.8094722905641,46.0862690211838 59.8202520739735,46.0916589128885 59.8189046010474,46.0957013316671 59.8094722905641,46.0862690211838</coordinates></LinearRing></innerBoundaryIs><innerBoundaryIs><LinearRing><coordinates>59.7973450342285,46.0714468189958 59.7959975613023,46.0700993460697 59.8027349259332,46.0660569272911 59.8067773447117,46.0700993460697 59.8054298717856,46.0714468189958 59.8000399800808,46.0687518731435 59.7973450342285,46.0714468189958</coordinates></LinearRing></innerBoundaryIs><innerBoundaryIs><LinearRing><coordinates>59.7933026154499,46.0754892377744 59.7919551425238,46.0795316565529 59.7892601966714,46.0795316565529 59.7919551425238,46.0741417648482 59.7933026154499,46.0754892377744</coordinates></LinearRing></innerBoundaryIs><innerBoundaryIs><LinearRing><coordinates>59.8229470198259,46.1051336421503 59.8215995468997,46.1064811150765 59.8202520739735,46.102438696298 59.8229470198259,46.102438696298 59.8229470198259,46.1051336421503</coordinates></LinearRing></innerBoundaryIs><innerBoundaryIs><LinearRing><coordinates>59.8242944927521,46.0660569272911 59.8215995468997,46.0606670355864 59.8256419656783,46.0647094543649 59.8242944927521,46.0660569272911</coordinates></LinearRing></innerBoundaryIs><innerBoundaryIs><LinearRing><coordinates>59.8189046010474,46.125345736043 59.8189046010474,46.1226507901907 59.8202520739735,46.1239982631168 59.8189046010474,46.125345736043</coordinates></LinearRing></innerBoundaryIs><innerBoundaryIs><LinearRing><coordinates>59.8081248176379,46.0903114399623 59.8081248176379,46.0930063858147 59.8067773447117,46.0916589128885 59.8081248176379,46.0903114399623</coordinates></LinearRing></innerBoundaryIs><innerBoundaryIs><LinearRing><coordinates>59.8067773447117,46.0781841836267 59.8094722905641,46.0781841836267 59.8081248176379,46.0795316565529 59.8067773447117,46.0781841836267</coordinates></LinearRing></innerBoundaryIs><innerBoundaryIs><LinearRing><coordinates>59.8108197634903,46.0579720897341 59.8108197634903,46.0552771438817 59.8121672364165,46.0566246168079 59.8108197634903,46.0579720897341</coordinates></LinearRing></innerBoundaryIs></Polygon><Polygon><outerBoundaryIs><LinearRing><coordinates>59.7865652508191,46.1037861692241 59.7852177778929,46.1051336421503 59.7919551425238,46.1064811150765 59.7919551425238,46.1037861692241 59.7865652508191,46.1037861692241</coordinates></LinearRing></outerBoundaryIs></Polygon></MultiGeometry>
  </Placemark>
</Folder>
</Document></kml>
