<?xml version="1.0" encoding="utf-8" ?>
<kml xmlns="http://www.opengis.net/kml/2.2">
<Document id="root_doc">
<Schema name="task_grid_v6_45.38_59.28" id="task_grid_v6_45.38_59.28">
	<SimpleField name="area_ha" type="float"></SimpleField>
	<SimpleField name="low_risk_ha" type="float"></SimpleField>
	<SimpleField name="moderate_risk_ha" type="float"></SimpleField>
	<SimpleField name="grid_cell_deg" type="string"></SimpleField>
</Schema>
<Folder><name>task_grid_v6_45.38_59.28</name>
  <Placemark id="task_grid_v6_45.38_59.28.1">
	<name>task_grid_v6_45.38_59.28</name>
	<name>613.8</name>
	<description>1920.8</description>
	<Style><LineStyle><color>ff0000ff</color></LineStyle><PolyStyle><fill>0</fill></PolyStyle></Style>
	<ExtendedData><SchemaData schemaUrl="#task_grid_v6_45.38_59.28">
		<SimpleData name="area_ha">1307</SimpleData>
		<SimpleData name="low_risk_ha">0.1</SimpleData>
	</SchemaData></ExtendedData>
      <MultiGeometry><Polygon><outerBoundaryIs><LinearRing><coordinates>59.2516184991259,45.3451589117852 59.2543134449782,45.3424639659329 59.2475760803473,45.335726601302 59.2408387157164,45.3370740742281 59.2462286074212,45.3397690200805 59.2462286074212,45.3478538576376 59.2529659720521,45.3492013305637 59.2543134449782,45.3478538576376 59.2516184991259,45.3451589117852</coordinates></LinearRing></outerBoundaryIs></Polygon><Polygon><outerBoundaryIs><LinearRing><coordinates>59.2367962969379,45.3518962764161 59.2408387157164,45.3478538576376 59.2327538781594,45.3451589117852 59.2408387157164,45.3424639659329 59.2287114593808,45.335726601302 59.2263910613787,45.3365000673027 59.2263910613787,45.3405181157809 59.2273639864546,45.3424639659329 59.2263910613787,45.3444098160848 59.2263910613787,45.3488870701034 59.2314064052332,45.3518962764161 59.2341013510855,45.3492013305637 59.2367962969379,45.3518962764161</coordinates></LinearRing></outerBoundaryIs></Polygon><Polygon><outerBoundaryIs><LinearRing><coordinates>59.2543134449782,45.358633641047 59.2502710261997,45.3518962764161 59.2462286074212,45.3532437493423 59.2502710261997,45.3626760598255 59.2543134449782,45.358633641047</coordinates></LinearRing></outerBoundaryIs></Polygon><Polygon><outerBoundaryIs><LinearRing><coordinates>59.230058932307,45.358633641047 59.2367962969379,45.3599811139732 59.2367962969379,45.3572861681208 59.2314064052332,45.3572861681208 59.230058932307,45.358633641047</coordinates></LinearRing></outerBoundaryIs></Polygon><Polygon><outerBoundaryIs><LinearRing><coordinates>59.2287114593808,45.3572861681208 59.2263910613787,45.3580596341215 59.2263910613787,45.3625512105421 59.230058932307,45.3613285868994 59.2287114593808,45.3572861681208</coordinates></LinearRing></outerBoundaryIs></Polygon><Polygon><outerBoundaryIs><LinearRing><coordinates>59.259703336683,45.3694134244564 59.2529659720521,45.3626760598255 59.2475760803473,45.3653710056779 59.2421861886426,45.3599811139732 59.2341013510855,45.3653710056779 59.2263910613787,45.3628009091089 59.2263910613787,45.3719137852936 59.2341013510855,45.373455843235 59.2367962969379,45.3680659515303 59.2381437698641,45.3694134244564 59.2314064052332,45.381540680792 59.2287114593808,45.3761507890873 59.2263910613787,45.3761507890873 59.2263910613787,45.3819152286423 59.2263910613787,45.3836178475252 59.2263910613787,45.3838610787942 59.2263910613787,45.4004053017586 59.2263910613787,45.4032250968943 59.2273639864546,45.403549405253 59.2263910613787,45.4038737136116 59.2263910613787,45.4042238911616 59.2263910613787,45.4061697413135 59.2263910613787,45.4081155914654 59.2273639864546,45.4071426663895 59.2280377229177,45.4078164028525 59.2263910613787,45.410560838751 59.2263910613787,45.4273547602821 59.2314064052332,45.4273547602821 59.2341013510855,45.4246598144298 59.2394912427903,45.4273547602821 59.2381437698641,45.4152275039465 59.244881134495,45.411185085168 59.2475760803473,45.4138800310204 59.2543134449782,45.4098376122418 59.2489235532735,45.4017527746847 59.2543134449782,45.39636288298 59.2516184991259,45.3936679371277 59.2570083908306,45.3909729912753 59.2543134449782,45.3882780454229 59.2543134449782,45.3828881537182 59.2583558637568,45.381540680792 59.2610508096091,45.3842356266444 59.2650932283877,45.3801932078659 59.2556609179044,45.373455843235 59.2543134449782,45.3761507890873 59.2543134449782,45.3721083703088 59.259703336683,45.3694134244564</coordinates></LinearRing></outerBoundaryIs><innerBoundaryIs><LinearRing><coordinates>59.2354488240117,45.4017527746847 59.2341013510855,45.4031002476109 59.2354488240117,45.3981595135482 59.2354488240117,45.4017527746847</coordinates></LinearRing></innerBoundaryIs><innerBoundaryIs><LinearRing><coordinates>59.2408387157164,45.3855830995706 59.2408387157164,45.3774982620135 59.2435336615688,45.3748033161612 59.2408387157164,45.3694134244564 59.2421861886426,45.3680659515303 59.2489235532735,45.3721083703088 59.2435336615688,45.3801932078659 59.244881134495,45.3842356266444 59.2421861886426,45.3788457349397 59.2408387157164,45.3882780454229 59.2362780381201,45.3951190618174 59.2381437698641,45.3882780454229 59.2408387157164,45.3855830995706</coordinates></LinearRing></innerBoundaryIs><innerBoundaryIs><LinearRing><coordinates>59.2532654104801,45.3782468580836 59.2529659720521,45.3788457349397 59.244881134495,45.3842356266444 59.2532654104801,45.3782468580836</coordinates></LinearRing></innerBoundaryIs><innerBoundaryIs><LinearRing><coordinates>59.2294814439101,45.4054102011987 59.2290483276124,45.4041108523056 59.230058932307,45.4044477205371 59.2294814439101,45.4054102011987</coordinates></LinearRing></innerBoundaryIs><innerBoundaryIs><LinearRing><coordinates>59.2435336615688,45.4071426663895 59.2421861886426,45.4084901393156 59.2394912427903,45.4031002476109 59.2435336615688,45.4071426663895</coordinates></LinearRing></innerBoundaryIs><innerBoundaryIs><LinearRing><coordinates>59.230058932307,45.4206173956512 59.2287114593808,45.4219648685774 59.2287114593808,45.4192699227251 59.230058932307,45.4206173956512</coordinates></LinearRing></innerBoundaryIs><innerBoundaryIs><LinearRing><coordinates>59.244881134495,45.3950154100538 59.2435336615688,45.3936679371277 59.2462286074212,45.3936679371277 59.244881134495,45.3950154100538</coordinates></LinearRing></innerBoundaryIs></Polygon><Polygon><outerBoundaryIs><LinearRing><coordinates>59.244881134495,45.4343547580755 59.244881134495,45.4327446519869 59.2400508162291,45.4343547580755 59.244881134495,45.4343547580755</coordinates></LinearRing></outerBoundaryIs></Polygon><Polygon><outerBoundaryIs><LinearRing><coordinates>59.2518811322883,45.4343547580755 59.2502710261997,45.4327446519869 59.2486609201111,45.4343547580755 59.2518811322883,45.4343547580755</coordinates></LinearRing></outerBoundaryIs></Polygon><Polygon><outerBoundaryIs><LinearRing><coordinates>59.2534232531275,45.3343547580755 59.2488504423727,45.3343547580755 59.2529659720521,45.335726601302 59.2534232531275,45.3343547580755</coordinates></LinearRing></outerBoundaryIs></Polygon><Polygon><outerBoundaryIs><LinearRing><coordinates>59.2587644042317,45.3343547580755 59.2610508096091,45.335726601302 59.2610508096091,45.3343547580755 59.2587644042317,45.3343547580755</coordinates></LinearRing></outerBoundaryIs></Polygon><Polygon><outerBoundaryIs><LinearRing><coordinates>59.2650851049542,45.3343547580755 59.2664407013138,45.3384215471543 59.2664407013138,45.3343547580755 59.2650851049542,45.3343547580755</coordinates></LinearRing></outerBoundaryIs></Polygon><Polygon><outerBoundaryIs><LinearRing><coordinates>59.2866771655068,45.3343547580755 59.2839578493542,45.3370740742281 59.2880002681327,45.3384215471543 59.2933901598374,45.335726601302 59.2933901598374,45.3343547580755 59.2866771655068,45.3343547580755</coordinates></LinearRing></outerBoundaryIs></Polygon><Polygon><outerBoundaryIs><LinearRing><coordinates>59.2772204847233,45.3411164930067 59.2785679576495,45.3397690200805 59.2774851052485,45.3343547580755 59.2732511768456,45.3343547580755 59.2731780659447,45.3343791283758 59.2772204847233,45.3411164930067</coordinates></LinearRing></outerBoundaryIs></Polygon><Polygon><outerBoundaryIs><LinearRing><coordinates>59.2570083908306,45.3397690200805 59.259703336683,45.3424639659329 59.2543134449782,45.3505488034899 59.2556609179044,45.3545912222685 59.259703336683,45.3493938266961 59.259703336683,45.3505488034899 59.2654782206523,45.3517037802838 59.2623982825353,45.3532437493423 59.2745255388709,45.3599811139732 59.2758730117971,45.358633641047 59.2704831200924,45.3532437493423 59.2731780659447,45.3505488034899 59.2691356471662,45.3465063847114 59.2650932283877,45.3478538576376 59.26778817424,45.3505488034899 59.2637457554615,45.3465063847114 59.2613203041944,45.3473148684671 59.2650932283877,45.3424639659329 59.2637457554615,45.3384215471543 59.2570083908306,45.3397690200805</coordinates></LinearRing></outerBoundaryIs></Polygon><Polygon><outerBoundaryIs><LinearRing><coordinates>59.2920426869113,45.3613285868994 59.2947376327636,45.358633641047 59.2866527952065,45.358633641047 59.2866527952065,45.3640235327517 59.2839578493542,45.3667184786041 59.2853053222804,45.3707608973826 59.2839578493542,45.3721083703088 59.2853053222804,45.373455843235 59.2893477410589,45.3721083703088 59.2880002681327,45.3680659515303 59.2906952139851,45.373455843235 59.2947376327636,45.3640235327517 59.2920426869113,45.3613285868994</coordinates></LinearRing></outerBoundaryIs></Polygon><Polygon><outerBoundaryIs><LinearRing><coordinates>59.2691356471662,45.3653710056779 59.2637457554615,45.3680659515303 59.2610508096091,45.3653710056779 59.259703336683,45.3667184786041 59.259703336683,45.3694134244564 59.259703336683,45.3721083703088 59.2664407013138,45.3788457349397 59.2704831200924,45.3721083703088 59.2691356471662,45.3653710056779</coordinates></LinearRing></outerBoundaryIs></Polygon><Polygon><outerBoundaryIs><LinearRing><coordinates>59.2893477410589,45.3801932078659 59.2880002681327,45.373455843235 59.2839578493542,45.3748033161612 59.2880002681327,45.381540680792 59.2893477410589,45.3801932078659</coordinates></LinearRing></outerBoundaryIs></Polygon></MultiGeometry>
  </Placemark>
</Folder>
</Document></kml>
