<?xml version="1.0" encoding="utf-8" ?>
<kml xmlns="http://www.opengis.net/kml/2.2">
<Document id="root_doc">
<Schema name="task_grid_v6_46.01_59.56" id="task_grid_v6_46.01_59.56">
	<SimpleField name="area_ha" type="float"></SimpleField>
	<SimpleField name="low_risk_ha" type="float"></SimpleField>
	<SimpleField name="moderate_risk_ha" type="float"></SimpleField>
	<SimpleField name="grid_cell_deg" type="string"></SimpleField>
</Schema>
<Folder><name>task_grid_v6_46.01_59.56</name>
  <Placemark id="task_grid_v6_46.01_59.56.1">
	<name>task_grid_v6_46.01_59.56</name>
	<name>391.6</name>
	<description>526.1</description>
	<Style><LineStyle><color>ff0000ff</color></LineStyle><PolyStyle><fill>0</fill></PolyStyle></Style>
	<ExtendedData><SchemaData schemaUrl="#task_grid_v6_46.01_59.56">
		<SimpleData name="area_ha">134.6</SimpleData>
		<SimpleData name="low_risk_ha">0.1</SimpleData>
	</SchemaData></ExtendedData>
      <MultiGeometry><Polygon><outerBoundaryIs><LinearRing><coordinates>59.583096838966,46.0054206456131 59.5804018931136,46.0081155914654 59.5817493660398,46.012158010244 59.5992665140801,46.0081155914654 59.5952240953016,46.0040731726869 59.5898342035969,46.0040731726869 59.5844443118922,45.9986832809822 59.5790544201874,45.9986832809822 59.5750120014089,46.0027256997607 59.583096838966,46.0054206456131</coordinates></LinearRing></outerBoundaryIs></Polygon><Polygon><outerBoundaryIs><LinearRing><coordinates>59.6033089328587,46.0094630643916 59.597919041154,46.0094630643916 59.5965715682278,46.0108105373178 59.6033089328587,46.0148529560963 59.6033089328587,46.0094630643916</coordinates></LinearRing></outerBoundaryIs></Polygon><Polygon><outerBoundaryIs><LinearRing><coordinates>59.5238080302141,46.0269802124319 59.5238080302141,46.0485397792508 59.5265029760664,46.0485397792508 59.5278504489926,46.0418024146199 59.5291979219188,46.0512347251031 59.5265029760664,46.0539296709555 59.5318928677712,46.0593195626602 59.5318928677712,46.0625641451378 59.5397944931198,46.0625641451378 59.5399777053282,46.0620145085126 59.5372827594759,46.0593195626602 59.5426726511806,46.0566246168079 59.5426726511806,46.0431498875461 59.5413251782544,46.0418024146199 59.5386302324021,46.0471923063246 59.5372827594759,46.0458448333984 59.5372827594759,46.0404549416937 59.5318928677712,46.0323701041366 59.5345878136235,46.0296751582843 59.5332403406973,46.0229377936534 59.5291979219188,46.0242852665796 59.5278504489926,46.0364125229152 59.5265029760664,46.0269802124319 59.5238080302141,46.0269802124319</coordinates></LinearRing></outerBoundaryIs></Polygon></MultiGeometry>
  </Placemark>
</Folder>
</Document></kml>
