<?xml version="1.0" encoding="utf-8" ?>
<kml xmlns="http://www.opengis.net/kml/2.2">
<Document id="root_doc">
<Schema name="task_grid_v6_45.18_61.18" id="task_grid_v6_45.18_61.18">
	<SimpleField name="area_ha" type="float"></SimpleField>
	<SimpleField name="low_risk_ha" type="float"></SimpleField>
	<SimpleField name="moderate_risk_ha" type="float"></SimpleField>
	<SimpleField name="grid_cell_deg" type="string"></SimpleField>
</Schema>
<Folder><name>task_grid_v6_45.18_61.18</name>
  <Placemark id="task_grid_v6_45.18_61.18.1">
	<name>task_grid_v6_45.18_61.18</name>
	<name>12.7</name>
	<description>1024.3</description>
	<Style><LineStyle><color>ff0000ff</color></LineStyle><PolyStyle><fill>0</fill></PolyStyle></Style>
	<ExtendedData><SchemaData schemaUrl="#task_grid_v6_45.18_61.18">
		<SimpleData name="area_ha">1011.7</SimpleData>
		<SimpleData name="low_risk_ha">0.1</SimpleData>
	</SchemaData></ExtendedData>
      <MultiGeometry><Polygon><outerBoundaryIs><LinearRing><coordinates>61.1448179604078,45.1821146877175 61.1488603791863,45.178072268939 61.1475129062601,45.1740298501604 61.1421230145554,45.1740298501604 61.139428068703,45.1713349043081 61.1340381769983,45.1740298501604 61.131343231146,45.1686399584557 61.1273008123674,45.1726823772343 61.1299957582198,45.1753773230866 61.1273008123674,45.178072268939 61.1286482852936,45.1794197418652 61.1448179604078,45.1821146877175</coordinates></LinearRing></outerBoundaryIs><innerBoundaryIs><LinearRing><coordinates>61.1407755416292,45.178072268939 61.1434704874816,45.178072268939 61.1421230145554,45.1794197418652 61.1407755416292,45.178072268939</coordinates></LinearRing></innerBoundaryIs></Polygon><Polygon><outerBoundaryIs><LinearRing><coordinates>61.1502078521125,45.1982843628317 61.1569452167434,45.1969368899055 61.1529027979648,45.1955894169793 61.1502078521125,45.1928944711269 61.1502078521125,45.1982843628317</coordinates></LinearRing></outerBoundaryIs></Polygon><Polygon><outerBoundaryIs><LinearRing><coordinates>61.1434704874816,45.1969368899055 61.1475129062601,45.200979308684 61.1488603791863,45.1996318357578 61.1475129062601,45.1955894169793 61.1434704874816,45.1969368899055</coordinates></LinearRing></outerBoundaryIs></Polygon><Polygon><outerBoundaryIs><LinearRing><coordinates>61.1475129062601,45.2252338213553 61.1515553250387,45.2238863484291 61.1502078521125,45.2198439296505 61.1461654333339,45.2238863484291 61.1475129062601,45.2252338213553</coordinates></LinearRing></outerBoundaryIs></Polygon><Polygon><outerBoundaryIs><LinearRing><coordinates>61.1464768070969,45.2343547580755 61.1485490054233,45.2343547580755 61.1475129062601,45.2333186589123 61.1464768070969,45.2343547580755</coordinates></LinearRing></outerBoundaryIs></Polygon><Polygon><outerBoundaryIs><LinearRing><coordinates>61.1529027979648,45.2333186589123 61.1518666988017,45.2343547580755 61.153938897128,45.2343547580755 61.1529027979648,45.2333186589123</coordinates></LinearRing></outerBoundaryIs></Polygon><Polygon><outerBoundaryIs><LinearRing><coordinates>61.183894675267,45.1565127021201 61.1933269857502,45.1605551208986 61.1933269857502,45.1551652291939 61.1852421481931,45.1551652291939 61.183894675267,45.1565127021201</coordinates></LinearRing></outerBoundaryIs></Polygon><Polygon><outerBoundaryIs><LinearRing><coordinates>61.1636825813743,45.1686399584557 61.1677250001528,45.1645975396772 61.1609876355219,45.1605551208986 61.1596401625957,45.1672924855295 61.1636825813743,45.1686399584557</coordinates></LinearRing></outerBoundaryIs></Polygon><Polygon><outerBoundaryIs><LinearRing><coordinates>61.1852421481931,45.1901995252746 61.183894675267,45.1942419440531 61.1879370940455,45.1955894169793 61.191979512824,45.1915469982008 61.1852421481931,45.1901995252746</coordinates></LinearRing></outerBoundaryIs></Polygon><Polygon><outerBoundaryIs><LinearRing><coordinates>61.1677250001528,45.1807672147913 61.1636825813743,45.1901995252746 61.1569452167434,45.1915469982008 61.1569452167434,45.1969368899055 61.1569452167434,45.1996318357578 61.1529027979648,45.200979308684 61.1502078521125,45.2063692003887 61.1448179604078,45.2036742545364 61.1434704874816,45.2050217274626 61.1434704874816,45.2131065650196 61.1502078521125,45.2144540379458 61.1582926896696,45.2225388755029 61.1609876355219,45.2225388755029 61.1609876355219,45.2279287672076 61.169072473079,45.2279287672076 61.1731148918575,45.2211914025767 61.1609876355219,45.2198439296505 61.1596401625957,45.215801510872 61.1731148918575,45.2050217274626 61.1704199460052,45.1996318357578 61.1758098377099,45.1969368899055 61.1704199460052,45.1888520523484 61.1785047835622,45.1834621606437 61.1758098377099,45.1807672147913 61.1771573106361,45.1767247960128 61.183894675267,45.1753773230866 61.183894675267,45.1699874313819 61.1798522564884,45.1659450126034 61.1758098377099,45.1672924855295 61.1785047835622,45.1699874313819 61.1771573106361,45.1713349043081 61.1717674189314,45.163250066751 61.1704199460052,45.1699874313819 61.1623351084481,45.1753773230866 61.169072473079,45.1767247960128 61.1717674189314,45.1740298501604 61.1731148918575,45.178072268939 61.1677250001528,45.1807672147913</coordinates></LinearRing></outerBoundaryIs><innerBoundaryIs><LinearRing><coordinates>61.1663775272266,45.2252338213553 61.1650300543005,45.2238863484291 61.1663775272266,45.2225388755029 61.1663775272266,45.2252338213553</coordinates></LinearRing></innerBoundaryIs><innerBoundaryIs><LinearRing><coordinates>61.1569452167434,45.2104116191673 61.1582926896696,45.2090641462411 61.1596401625957,45.2104116191673 61.1569452167434,45.2104116191673</coordinates></LinearRing></innerBoundaryIs><innerBoundaryIs><LinearRing><coordinates>61.1582926896696,45.2036742545364 61.1596401625957,45.2050217274626 61.1582926896696,45.2063692003887 61.1582926896696,45.2036742545364</coordinates></LinearRing></innerBoundaryIs><innerBoundaryIs><LinearRing><coordinates>61.1650300543005,45.1996318357578 61.1636825813743,45.200979308684 61.1623351084481,45.1996318357578 61.1650300543005,45.1996318357578</coordinates></LinearRing></innerBoundaryIs></Polygon><Polygon><outerBoundaryIs><LinearRing><coordinates>61.2108441337906,45.2211914025767 61.2175814984214,45.2225388755029 61.2216239172,45.2184964567244 61.2175814984214,45.2171489837982 61.2108441337906,45.2211914025767</coordinates></LinearRing></outerBoundaryIs></Polygon></MultiGeometry>
  </Placemark>
</Folder>
</Document></kml>
