<?xml version="1.0" encoding="utf-8" ?>
<kml xmlns="http://www.opengis.net/kml/2.2">
<Document id="root_doc">
<Schema name="task_grid_v6_46.11_59.86" id="task_grid_v6_46.11_59.86">
	<SimpleField name="area_ha" type="float"></SimpleField>
	<SimpleField name="low_risk_ha" type="float"></SimpleField>
	<SimpleField name="moderate_risk_ha" type="float"></SimpleField>
	<SimpleField name="grid_cell_deg" type="string"></SimpleField>
</Schema>
<Folder><name>task_grid_v6_46.11_59.86</name>
  <Placemark id="task_grid_v6_46.11_59.86.1">
	<name>task_grid_v6_46.11_59.86</name>
	<name>5299.2</name>
	<description>5301.9</description>
	<Style><LineStyle><color>ff0000ff</color></LineStyle><PolyStyle><fill>0</fill></PolyStyle></Style>
	<ExtendedData><SchemaData schemaUrl="#task_grid_v6_46.11_59.86">
		<SimpleData name="area_ha">2.7</SimpleData>
		<SimpleData name="low_risk_ha">0.1</SimpleData>
	</SchemaData></ExtendedData>
      <MultiGeometry><Polygon><outerBoundaryIs><LinearRing><coordinates>59.8768991741466,46.0625641451378 59.8808883556516,46.0633619814388 59.8808883556516,46.0625641451378 59.8768991741466,46.0625641451378</coordinates></LinearRing></outerBoundaryIs></Polygon><Polygon><outerBoundaryIs><LinearRing><coordinates>59.8102213862645,46.0958210071122 59.8102213862645,46.0974379746236 59.8102213862645,46.0982766020743 59.8102213862645,46.1200204379703 59.8148621822688,46.1239982631168 59.8121672364165,46.1266932089692 59.8148621822688,46.1320831006739 59.8148621822688,46.1625641451378 59.8445065866448,46.1625641451378 59.8445065866448,46.1617275050499 59.8498964783495,46.1563376133451 59.8498964783495,46.1239982631168 59.8512439512757,46.1226507901907 59.8593287888327,46.1280406818954 59.8633712076113,46.1266932089692 59.8552863700542,46.110523533855 59.8552863700542,46.0997437504456 59.8593287888327,46.0957013316671 59.8701085722422,46.0983962775194 59.8728035180945,46.1010912233718 59.8889731932087,46.1037861692241 59.8970580307657,46.1118710067812 59.8997529766181,46.1091760609289 59.9024479224705,46.1145659526336 59.9078378141752,46.1145659526336 59.9102213862645,46.1161550006931 59.9102213862645,46.0663084736573 59.9014846197189,46.0625641451378 59.893263811663,46.0625641451378 59.891668139061,46.0633619814388 59.8808883556516,46.0633619814388 59.8781934097992,46.0633619814388 59.8754984639469,46.0687518731435 59.8728035180945,46.0687518731435 59.8714560451683,46.0674044002173 59.8738761727081,46.0625641451378 59.8536374601786,46.0625641451378 59.8512439512757,46.0633619814388 59.8504461149747,46.0625641451378 59.8102213862645,46.0625641451378 59.8102213862645,46.0855199254834 59.8108197634903,46.0849215482576 59.8121672364165,46.0862690211838 59.8102213862645,46.0862690211838 59.8102213862645,46.0957013316671 59.8102213862645,46.0958210071122</coordinates></LinearRing></outerBoundaryIs><innerBoundaryIs><LinearRing><coordinates>59.8108197634903,46.0957013316671 59.8121672364165,46.0970488045932 59.8108197634903,46.0973182991785 59.8108197634903,46.0957013316671</coordinates></LinearRing></innerBoundaryIs><innerBoundaryIs><LinearRing><coordinates>59.853938897128,46.0822266024053 59.8741509910207,46.0916589128885 59.8701085722422,46.0957013316671 59.8674136263898,46.0930063858147 59.8593287888327,46.0930063858147 59.8566338429804,46.08761649411 59.8512439512757,46.08761649411 59.8485490054233,46.0903114399623 59.8431591137186,46.08761649411 59.8377692220139,46.0903114399623 59.8283369115306,46.0889639670362 59.8296843844568,46.0849215482576 59.83911669494,46.0835740753315 59.83911669494,46.0808791294791 59.8431591137186,46.0795316565529 59.8458540595709,46.0822266024053 59.853938897128,46.0822266024053</coordinates></LinearRing></innerBoundaryIs><innerBoundaryIs><LinearRing><coordinates>59.8620237346851,46.0795316565529 59.8566338429804,46.0795316565529 59.8472015324971,46.0754892377744 59.8593287888327,46.0741417648482 59.8620237346851,46.0768367107006 59.8647186805375,46.0741417648482 59.8660661534636,46.0754892377744 59.8620237346851,46.0795316565529</coordinates></LinearRing></innerBoundaryIs><innerBoundaryIs><LinearRing><coordinates>59.8269894386044,46.0795316565529 59.8242944927521,46.08761649411 59.8189046010474,46.08761649411 59.8148621822688,46.0835740753315 59.8242944927521,46.0822266024053 59.8269894386044,46.0795316565529</coordinates></LinearRing></innerBoundaryIs><innerBoundaryIs><LinearRing><coordinates>59.8795408827254,46.0674044002173 59.8889731932087,46.0660569272911 59.8930156119872,46.0700993460697 59.891668139061,46.0714468189958 59.8862782473563,46.0687518731435 59.8808883556516,46.0714468189958 59.8795408827254,46.0674044002173</coordinates></LinearRing></innerBoundaryIs><innerBoundaryIs><LinearRing><coordinates>59.8404641678662,46.1010912233718 59.8431591137186,46.1010912233718 59.8445065866448,46.102438696298 59.8404641678662,46.1037861692241 59.8404641678662,46.1010912233718</coordinates></LinearRing></innerBoundaryIs><innerBoundaryIs><LinearRing><coordinates>59.8202520739735,46.1239982631168 59.8189046010474,46.125345736043 59.8189046010474,46.1226507901907 59.8202520739735,46.1239982631168</coordinates></LinearRing></innerBoundaryIs><innerBoundaryIs><LinearRing><coordinates>59.9091852871014,46.0862690211838 59.9078378141752,46.08761649411 59.9078378141752,46.0849215482576 59.9091852871014,46.0862690211838</coordinates></LinearRing></innerBoundaryIs><innerBoundaryIs><LinearRing><coordinates>59.8498964783495,46.0700993460697 59.8512439512757,46.0687518731435 59.8512439512757,46.0714468189958 59.8498964783495,46.0700993460697</coordinates></LinearRing></innerBoundaryIs></Polygon><Polygon><outerBoundaryIs><LinearRing><coordinates>59.8606762617589,46.140167938231 59.8674136263898,46.1496002487142 59.868761099316,46.1482527757881 59.8674136263898,46.1361255194524 59.8606762617589,46.140167938231</coordinates></LinearRing></outerBoundaryIs></Polygon><Polygon><outerBoundaryIs><LinearRing><coordinates>59.8606762617589,46.1617275050499 59.8660661534636,46.1563376133451 59.8660661534636,46.1509477216404 59.8620237346851,46.1442103570095 59.8579813159065,46.1482527757881 59.8552863700542,46.1617275050499 59.8544497299663,46.1625641451378 59.8606762617589,46.1625641451378 59.8606762617589,46.1617275050499</coordinates></LinearRing></outerBoundaryIs></Polygon></MultiGeometry>
  </Placemark>
</Folder>
</Document></kml>
