<?xml version="1.0" encoding="utf-8" ?>
<kml xmlns="http://www.opengis.net/kml/2.2">
<Document id="root_doc">
<Schema name="task_grid_v6_44.98_60.28" id="task_grid_v6_44.98_60.28">
	<SimpleField name="area_ha" type="float"></SimpleField>
	<SimpleField name="low_risk_ha" type="float"></SimpleField>
	<SimpleField name="moderate_risk_ha" type="float"></SimpleField>
	<SimpleField name="grid_cell_deg" type="string"></SimpleField>
</Schema>
<Folder><name>task_grid_v6_44.98_60.28</name>
  <Placemark id="task_grid_v6_44.98_60.28.1">
	<name>task_grid_v6_44.98_60.28</name>
	<name>0</name>
	<description>288.4</description>
	<Style><LineStyle><color>ff0000ff</color></LineStyle><PolyStyle><fill>0</fill></PolyStyle></Style>
	<ExtendedData><SchemaData schemaUrl="#task_grid_v6_44.98_60.28">
		<SimpleData name="area_ha">288.4</SimpleData>
		<SimpleData name="low_risk_ha">0.1</SimpleData>
	</SchemaData></ExtendedData>
      <MultiGeometry><Polygon><outerBoundaryIs><LinearRing><coordinates>60.3188170566599,44.9921210051262 60.320164529586,44.9934684780524 60.3228594754384,44.9907735322001 60.3263910613787,44.9925393251702 60.3263910613787,44.9790645959084 60.3174695837337,44.9746038570859 60.3161221108075,44.9867311134215 60.3188170566599,44.9921210051262</coordinates></LinearRing></outerBoundaryIs></Polygon><Polygon><outerBoundaryIs><LinearRing><coordinates>60.3161221108075,44.997510896831 60.320164529586,45.0015533156095 60.3215120025122,45.0002058426833 60.320164529586,44.9961634239048 60.3161221108075,44.997510896831</coordinates></LinearRing></outerBoundaryIs></Polygon><Polygon><outerBoundaryIs><LinearRing><coordinates>60.2932150710625,45.0177229907236 60.2891726522839,45.0190704636498 60.2918675981363,45.0244603553545 60.2959100169148,45.0258078282807 60.297257489841,45.0217654095022 60.2932150710625,45.0177229907236</coordinates></LinearRing></outerBoundaryIs></Polygon><Polygon><outerBoundaryIs><LinearRing><coordinates>60.3263910613787,45.0239495225163 60.3263910613787,45.02083625662 60.3255544212908,45.020417936576 60.3242069483646,45.0217654095022 60.3263910613787,45.0239495225163</coordinates></LinearRing></outerBoundaryIs></Polygon><Polygon><outerBoundaryIs><LinearRing><coordinates>60.2783928688745,45.0244603553545 60.2797403418007,45.0285027741331 60.2864777064316,45.0244603553545 60.2851302335054,45.020417936576 60.2783928688745,45.0244603553545</coordinates></LinearRing></outerBoundaryIs></Polygon><Polygon><outerBoundaryIs><LinearRing><coordinates>60.2932150710625,45.0338926658378 60.2927529788248,45.0343547580755 60.3233215676761,45.0343547580755 60.3215120025122,45.0325451929116 60.3228594754384,45.0311977199854 60.3263910613787,45.0315901184232 60.3263910613787,45.0248252359533 60.3174695837337,45.0311977199854 60.3093847461766,45.0285027741331 60.3066898003242,45.0338926658378 60.2932150710625,45.0338926658378</coordinates></LinearRing></outerBoundaryIs></Polygon></MultiGeometry>
  </Placemark>
</Folder>
</Document></kml>
