<?xml version="1.0" encoding="utf-8" ?>
<kml xmlns="http://www.opengis.net/kml/2.2">
<Document id="root_doc">
<Schema name="task_grid_v6_45.21_61.66" id="task_grid_v6_45.21_61.66">
	<SimpleField name="area_ha" type="float"></SimpleField>
	<SimpleField name="low_risk_ha" type="float"></SimpleField>
	<SimpleField name="moderate_risk_ha" type="float"></SimpleField>
	<SimpleField name="grid_cell_deg" type="string"></SimpleField>
</Schema>
<Folder><name>task_grid_v6_45.21_61.66</name>
  <Placemark id="task_grid_v6_45.21_61.66.1">
	<name>task_grid_v6_45.21_61.66</name>
	<name>42.8</name>
	<description>109.5</description>
	<Style><LineStyle><color>ff0000ff</color></LineStyle><PolyStyle><fill>0</fill></PolyStyle></Style>
	<ExtendedData><SchemaData schemaUrl="#task_grid_v6_45.21_61.66">
		<SimpleData name="area_ha">66.7</SimpleData>
		<SimpleData name="low_risk_ha">0.1</SimpleData>
	</SchemaData></ExtendedData>
      <MultiGeometry><Polygon><outerBoundaryIs><LinearRing><coordinates>61.6164334845705,45.1659450126034 61.6184620050499,45.1625641451378 61.6103576712526,45.1625641451378 61.6137385387182,45.1659450126034 61.6164334845705,45.1659450126034</coordinates></LinearRing></outerBoundaryIs></Polygon><Polygon><outerBoundaryIs><LinearRing><coordinates>61.6366455784632,45.1699874313819 61.6326031596847,45.1659450126034 61.6258657950538,45.1672924855295 61.6299082138323,45.1713349043081 61.6258657950538,45.1753773230866 61.635298105537,45.1821146877175 61.6366455784632,45.1753773230866 61.6343997902529,45.1740298501604 61.635298105537,45.1740298501604 61.6366455784632,45.1699874313819</coordinates></LinearRing></outerBoundaryIs></Polygon></MultiGeometry>
  </Placemark>
</Folder>
</Document></kml>
