<?xml version="1.0" encoding="utf-8" ?>
<kml xmlns="http://www.opengis.net/kml/2.2">
<Document id="root_doc">
<Schema name="task_grid_v6_45.81_60.16" id="task_grid_v6_45.81_60.16">
	<SimpleField name="area_ha" type="float"></SimpleField>
	<SimpleField name="low_risk_ha" type="float"></SimpleField>
	<SimpleField name="moderate_risk_ha" type="float"></SimpleField>
	<SimpleField name="grid_cell_deg" type="string"></SimpleField>
</Schema>
<Folder><name>task_grid_v6_45.81_60.16</name>
  <Placemark id="task_grid_v6_45.81_60.16.1">
	<name>task_grid_v6_45.81_60.16</name>
	<name>427.1</name>
	<description>1747.2</description>
	<Style><LineStyle><color>ff0000ff</color></LineStyle><PolyStyle><fill>0</fill></PolyStyle></Style>
	<ExtendedData><SchemaData schemaUrl="#task_grid_v6_45.81_60.16">
		<SimpleData name="area_ha">1320</SimpleData>
		<SimpleData name="low_risk_ha">0.1</SimpleData>
	</SchemaData></ExtendedData>
      <MultiGeometry><Polygon><outerBoundaryIs><LinearRing><coordinates>60.1369082116257,45.8235118005789 60.1328657928471,45.824859273505 60.1274759011424,45.824859273505 60.1301708469948,45.8275542193574 60.1220860094377,45.8356390569145 60.1220860094377,45.8410289486192 60.1207385365115,45.8342915839883 60.1180435906592,45.8369865298406 60.116696117733,45.8383340027668 60.1180435906592,45.8450713673977 60.1153486448068,45.8477663132501 60.1153486448068,45.8423764215454 60.1113062260283,45.8437238944715 60.1102213862645,45.845893573999 60.1102213862645,45.8507238922649 60.1102213862645,45.8528935717923 60.1113062260283,45.8518087320286 60.1153486448068,45.8558511508072 60.1173698541961,45.8551774143441 60.1140011718806,45.8571986237333 60.1301708469948,45.8571986237333 60.1270267435003,45.8558511508072 60.1315183199209,45.8558511508072 60.1409506304042,45.8491137861763 60.1382556845518,45.8518087320286 60.139603157478,45.8531562049548 60.1436455762566,45.8518087320286 60.1422981033304,45.8450713673977 60.1382556845518,45.8464188403239 60.1436455762566,45.8437238944715 60.1436455762566,45.8410289486192 60.1369082116257,45.8315966381359 60.135897606931,45.8312597699044 60.1409506304042,45.8302491652098 60.1369082116257,45.8235118005789</coordinates></LinearRing></outerBoundaryIs><innerBoundaryIs><LinearRing><coordinates>60.1234334823639,45.8531562049548 60.1254546917531,45.8551774143441 60.1219175753219,45.8536615073021 60.1234334823639,45.8531562049548</coordinates></LinearRing></innerBoundaryIs><innerBoundaryIs><LinearRing><coordinates>60.1301708469948,45.8464188403239 60.1261284282162,45.8504612591024 60.12478095529,45.8464188403239 60.1301708469948,45.8464188403239</coordinates></LinearRing></innerBoundaryIs></Polygon><Polygon><outerBoundaryIs><LinearRing><coordinates>60.1113062260283,45.8356390569145 60.1180435906592,45.8369865298406 60.1180435906592,45.8342915839883 60.1126536989544,45.8342915839883 60.1113062260283,45.8356390569145</coordinates></LinearRing></outerBoundaryIs></Polygon><Polygon><outerBoundaryIs><LinearRing><coordinates>60.1476879950351,45.8531562049548 60.1490354679613,45.8518087320286 60.1449930491827,45.8477663132501 60.1436455762566,45.8518087320286 60.1476879950351,45.8531562049548</coordinates></LinearRing></outerBoundaryIs></Polygon><Polygon><outerBoundaryIs><LinearRing><coordinates>60.1557728325922,45.8289016922836 60.1598152513707,45.8275542193574 60.1638576701492,45.8181219088741 60.1665526160016,45.8181219088741 60.1679000889278,45.8194693818003 60.1625101972231,45.824859273505 60.1705950347801,45.8302491652098 60.1719425077063,45.8342915839883 60.1746374535587,45.8289016922836 60.177332399411,45.8289016922836 60.177332399411,45.8369865298406 60.192154601599,45.8302491652098 60.1894596557467,45.8275542193574 60.192154601599,45.824859273505 60.1881121828205,45.8208168547265 60.1800273452634,45.8181219088741 60.1746374535587,45.8208168547265 60.1705950347801,45.816774435948 60.169247561854,45.8100370713171 60.1530778867398,45.8100370713171 60.1463405221089,45.8140794900956 60.1490354679613,45.8221643276527 60.154425359666,45.824859273505 60.1557728325922,45.8289016922836</coordinates></LinearRing></outerBoundaryIs><innerBoundaryIs><LinearRing><coordinates>60.1854172369681,45.8235118005789 60.1867647098943,45.8275542193574 60.1827222911158,45.8289016922836 60.1854172369681,45.8235118005789</coordinates></LinearRing></innerBoundaryIs><innerBoundaryIs><LinearRing><coordinates>60.1786798723372,45.824859273505 60.1746374535587,45.8262067464312 60.1746374535587,45.8235118005789 60.177332399411,45.8235118005789 60.1786798723372,45.824859273505</coordinates></LinearRing></innerBoundaryIs><innerBoundaryIs><LinearRing><coordinates>60.1598152513707,45.8194693818003 60.1584677784445,45.8208168547265 60.1571203055184,45.8194693818003 60.1598152513707,45.8194693818003</coordinates></LinearRing></innerBoundaryIs></Polygon><Polygon><outerBoundaryIs><LinearRing><coordinates>60.1611627242969,45.8342915839883 60.1652051430754,45.8329441110621 60.1638576701492,45.8262067464312 60.1571203055184,45.8302491652098 60.1611627242969,45.8342915839883</coordinates></LinearRing></outerBoundaryIs></Polygon><Polygon><outerBoundaryIs><LinearRing><coordinates>60.1584677784445,45.8369865298406 60.154425359666,45.8410289486192 60.1611627242969,45.8450713673977 60.1705950347801,45.8383340027668 60.169247561854,45.8342915839883 60.1584677784445,45.8369865298406</coordinates></LinearRing></outerBoundaryIs></Polygon><Polygon><outerBoundaryIs><LinearRing><coordinates>60.1625101972231,45.854503677881 60.1719425077063,45.8558511508072 60.1746374535587,45.8531562049548 60.1746374535587,45.8585460966595 60.1800273452634,45.8558511508072 60.1908071286728,45.8612410425119 60.1961970203776,45.8585460966595 60.1948495474514,45.8598935695857 60.1948495474514,45.8625641451378 60.2102213862645,45.8625641451378 60.2102213862645,45.8590354458948 60.2056293308608,45.8571986237333 60.2083242767132,45.854503677881 60.2056293308608,45.8518087320286 60.2102213862645,45.8495127043268 60.2102213862645,45.8477840590079 60.206976803787,45.8423764215454 60.2015869120823,45.8450713673977 60.1961970203776,45.839681475693 60.192154601599,45.8410289486192 60.1908071286728,45.8477663132501 60.1840697640419,45.8491137861763 60.1827222911158,45.8477663132501 60.1746374535587,45.8477663132501 60.1625101972231,45.854503677881</coordinates></LinearRing></outerBoundaryIs><innerBoundaryIs><LinearRing><coordinates>60.1961970203776,45.8504612591024 60.1854172369681,45.8504612591024 60.1840697640419,45.8491137861763 60.1961970203776,45.8504612591024</coordinates></LinearRing></innerBoundaryIs><innerBoundaryIs><LinearRing><coordinates>60.2015869120823,45.8612410425119 60.2005089337413,45.8607020533414 60.2019237803138,45.8602304378172 60.2015869120823,45.8612410425119</coordinates></LinearRing></innerBoundaryIs></Polygon><Polygon><outerBoundaryIs><LinearRing><coordinates>60.1436212059563,45.8625641451378 60.1543847424989,45.8625641451378 60.1476879950351,45.8585460966595 60.1409506304042,45.8598935695857 60.1436212059563,45.8625641451378</coordinates></LinearRing></outerBoundaryIs></Polygon><Polygon><outerBoundaryIs><LinearRing><coordinates>60.1760092967851,45.8625641451378 60.1840453937417,45.8625641451378 60.1800273452634,45.8585460966595 60.1760092967851,45.8625641451378</coordinates></LinearRing></outerBoundaryIs></Polygon></MultiGeometry>
  </Placemark>
</Folder>
</Document></kml>
