<?xml version="1.0" encoding="utf-8" ?>
<kml xmlns="http://www.opengis.net/kml/2.2">
<Document id="root_doc">
<Schema name="task_grid_v6_45.51_60.96" id="task_grid_v6_45.51_60.96">
	<SimpleField name="area_ha" type="float"></SimpleField>
	<SimpleField name="low_risk_ha" type="float"></SimpleField>
	<SimpleField name="moderate_risk_ha" type="float"></SimpleField>
	<SimpleField name="grid_cell_deg" type="string"></SimpleField>
</Schema>
<Folder><name>task_grid_v6_45.51_60.96</name>
  <Placemark id="task_grid_v6_45.51_60.96.1">
	<name>task_grid_v6_45.51_60.96</name>
	<name>2978</name>
	<description>4844.6</description>
	<Style><LineStyle><color>ff0000ff</color></LineStyle><PolyStyle><fill>0</fill></PolyStyle></Style>
	<ExtendedData><SchemaData schemaUrl="#task_grid_v6_45.51_60.96">
		<SimpleData name="area_ha">1866.6</SimpleData>
		<SimpleData name="low_risk_ha">0.1</SimpleData>
	</SchemaData></ExtendedData>
      <MultiGeometry><Polygon><outerBoundaryIs><LinearRing><coordinates>60.9575192236688,45.4987708253696 60.95667705309,45.4989392594854 60.9602141695212,45.4906859878126 60.9561717507427,45.4893385148864 60.9507818590379,45.4947284065911 60.9426970214809,45.4947284065911 60.9400020756285,45.5001182982958 60.9332647109976,45.501465771222 60.9305697651453,45.5068556629267 60.9319172380714,45.5108980817053 60.9373071297762,45.5028132441482 60.9413495485547,45.5068556629267 60.9346121839238,45.5135930275576 60.9292222922191,45.5108980817053 60.9265273463667,45.51628797341 60.9184425088096,45.5243728109671 60.9157475629573,45.5243728109671 60.9130526171049,45.5297627026718 60.9102213862645,45.5307064462852 60.9102213862645,45.546068662774 60.9102213862645,45.5625641451378 60.9227800544843,45.5625641451378 60.9238324005144,45.5625641451378 60.9281058654118,45.5625641451378 60.9314551458337,45.5625641451378 60.9368450375385,45.5625641451378 60.9373071297762,45.5621020529001 60.9400020756285,45.5621020529001 60.9440444944071,45.5580596341215 60.93595965685,45.5526697424168 60.9453919673332,45.5513222694906 60.9467394402594,45.5445849048597 60.9507818590379,45.5432374319336 60.9534768048903,45.5459323777859 60.9602141695212,45.539195013155 60.958866696595,45.5378475402288 60.9634553881815,45.5341328851351 60.9696464800045,45.5378475402288 60.9723414258568,45.5324576485241 60.9750363717092,45.5351525943765 60.9817737363401,45.5257202838932 60.9782277549554,45.5221743025086 60.9800893951823,45.5206672604201 60.9831212092663,45.5216778651147 60.9871636280448,45.5176354463362 60.984805550424,45.5168494204626 60.9871636280448,45.5149405004838 60.9871636280448,45.5122455546314 61.0087231948637,45.4906859878126 61.0006383573066,45.4987708253696 61.0033333031589,45.5041607170744 61.0046807760851,45.5055081900005 61.0100706677898,45.5028132441482 61.0102213862645,45.5026625256735 61.0102213862645,45.5002690167705 61.0087231948637,45.4987708253696 61.0102213862645,45.4978719105291 61.0102213862645,45.4811029588546 61.0102213862645,45.4625641451378 60.997387682254,45.4625641451378 60.9925535197495,45.4664314751413 60.9952484656019,45.4718213668461 60.9912060468233,45.4758637856246 60.9804262634139,45.4758637856246 60.9787678351971,45.476692999733 60.9750363717092,45.4704738939199 60.9669515341521,45.4731688397722 60.9629091153736,45.4772112585508 60.9602141695212,45.4826011502555 60.9640438294167,45.4889839167479 60.9615616424474,45.4893385148864 60.9575192236688,45.4987708253696</coordinates></LinearRing></outerBoundaryIs><innerBoundaryIs><LinearRing><coordinates>60.9696464800045,45.5297627026718 60.9665840415359,45.5316001657529 60.9730151623199,45.5263940203563 60.9696464800045,45.5297627026718</coordinates></LinearRing></innerBoundaryIs><innerBoundaryIs><LinearRing><coordinates>60.9521293319641,45.5041607170744 60.944621982804,45.5091656165145 60.9453919673332,45.5082031358529 60.9521293319641,45.5041607170744</coordinates></LinearRing></innerBoundaryIs><innerBoundaryIs><LinearRing><coordinates>60.9440444944071,45.5098874770106 60.9440444944071,45.5122455546314 60.9346121839238,45.5216778651147 60.9440444944071,45.5098874770106</coordinates></LinearRing></innerBoundaryIs><innerBoundaryIs><LinearRing><coordinates>60.9332647109976,45.5230253380409 60.9278748192929,45.5203303921885 60.9319172380714,45.5189829192623 60.9346121839238,45.5216778651147 60.9332647109976,45.5230253380409</coordinates></LinearRing></innerBoundaryIs><innerBoundaryIs><LinearRing><coordinates>60.9386546027023,45.5257202838932 60.93595965685,45.531110175598 60.9319172380714,45.5351525943765 60.921137454662,45.5351525943765 60.9200594763211,45.535691583547 60.921137454662,45.5324576485241 60.9265273463667,45.5324576485241 60.9305697651453,45.5284152297456 60.9311087543157,45.5273372514046 60.9319172380714,45.5297627026718 60.9373071297762,45.5243728109671 60.9386546027023,45.5257202838932</coordinates></LinearRing></innerBoundaryIs><innerBoundaryIs><LinearRing><coordinates>60.9154780683721,45.5386560239846 60.9144000900311,45.5418899590074 60.9144000900311,45.539195013155 60.9154780683721,45.5386560239846</coordinates></LinearRing></innerBoundaryIs><innerBoundaryIs><LinearRing><coordinates>60.966277797689,45.4886647784233 60.9682990070783,45.4879910419602 60.9656040612259,45.4852960961079 60.9709939529306,45.4879910419602 60.966277797689,45.4886647784233</coordinates></LinearRing></innerBoundaryIs><innerBoundaryIs><LinearRing><coordinates>60.9730151623199,45.4795693361716 60.9682990070783,45.4772112585508 60.9696464800045,45.4758637856246 60.9750363717092,45.478558731477 60.9730151623199,45.4795693361716</coordinates></LinearRing></innerBoundaryIs><innerBoundaryIs><LinearRing><coordinates>60.9561717507427,45.5055081900005 60.9602141695212,45.5095506087791 60.9534768048903,45.5135930275576 60.9561717507427,45.5055081900005</coordinates></LinearRing></innerBoundaryIs><innerBoundaryIs><LinearRing><coordinates>60.9238324005144,45.5243728109671 60.9251798734405,45.5257202838932 60.9238324005144,45.5270677568194 60.9238324005144,45.5243728109671</coordinates></LinearRing></innerBoundaryIs><innerBoundaryIs><LinearRing><coordinates>60.9467394402594,45.5041607170744 60.9453919673332,45.5055081900005 60.9440444944071,45.5041607170744 60.9467394402594,45.5041607170744</coordinates></LinearRing></innerBoundaryIs></Polygon><Polygon><outerBoundaryIs><LinearRing><coordinates>60.9858161551186,45.5405424860812 60.9871636280448,45.539195013155 60.9858161551186,45.5378475402288 60.9912060468233,45.5351525943765 60.9912060468233,45.5324576485241 60.9858161551186,45.5324576485241 60.9844686821924,45.5365000673027 60.9831212092663,45.5351525943765 60.9817737363401,45.539195013155 60.9858161551186,45.5405424860812</coordinates></LinearRing></outerBoundaryIs></Polygon><Polygon><outerBoundaryIs><LinearRing><coordinates>60.9548242778165,45.5580596341215 60.9534768048903,45.5567121611954 60.9453919673332,45.5594071070477 60.9440389510089,45.5625641451378 60.9503197668002,45.5625641451378 60.9548242778165,45.5580596341215</coordinates></LinearRing></outerBoundaryIs></Polygon><Polygon><outerBoundaryIs><LinearRing><coordinates>60.9912060468233,45.4704738939199 60.9925535197495,45.4691264209937 60.9898585738972,45.4664314751413 60.9956595689025,45.4625641451378 60.976970036711,45.4625641451378 60.9763838446354,45.463736529289 60.9777313175615,45.4704738939199 60.9804262634139,45.4677789480675 60.9858161551186,45.4677789480675 60.9912060468233,45.4704738939199</coordinates></LinearRing></outerBoundaryIs></Polygon><Polygon><outerBoundaryIs><LinearRing><coordinates>60.9844686821924,45.4745163126984 60.9912060468233,45.4758637856246 60.9912060468233,45.4731688397722 60.9858161551186,45.4731688397722 60.9844686821924,45.4745163126984</coordinates></LinearRing></outerBoundaryIs></Polygon><Polygon><outerBoundaryIs><LinearRing><coordinates>60.9871636280448,45.5122455546314 60.988511100971,45.51628797341 60.9871636280448,45.5176354463362 60.9939009926757,45.5189829192623 60.9979434114542,45.5149405004838 60.9923777624113,45.5138273706752 61.0033333031589,45.5068556629267 60.996595938528,45.5028132441482 60.9871636280448,45.5122455546314</coordinates></LinearRing></outerBoundaryIs></Polygon><Polygon><outerBoundaryIs><LinearRing><coordinates>61.0006383573066,45.5176354463362 61.0102213862645,45.5248227180546 61.0102213862645,45.5082031358529 61.0046807760851,45.5082031358529 60.9992908843804,45.5108980817053 60.9979434114542,45.5122455546314 61.0033333031589,45.5149405004838 61.0006383573066,45.5176354463362</coordinates></LinearRing></outerBoundaryIs></Polygon><Polygon><outerBoundaryIs><LinearRing><coordinates>60.9979434114542,45.5284152297456 61.0060282490113,45.5365000673027 61.0033333031589,45.539195013155 61.0046807760851,45.5405424860812 61.0102213862645,45.5391573335364 61.0102213862645,45.5350018759018 61.0100706677898,45.5351525943765 61.0087231948637,45.5338051214503 61.0102213862645,45.5338051214503 61.0102213862645,45.5258912488149 61.0019858302328,45.5270677568194 61.0019858302328,45.5243728109671 61.0060282490113,45.5230253380409 60.9992908843804,45.5216778651147 60.9979434114542,45.5284152297456</coordinates></LinearRing></outerBoundaryIs></Polygon><Polygon><outerBoundaryIs><LinearRing><coordinates>60.9939009926757,45.5432374319336 60.9858161551186,45.5432374319336 60.9817737363401,45.5472798507121 60.9858161551186,45.5486273236383 60.988511100971,45.5459323777859 60.9939009926757,45.5459323777859 60.9979434114542,45.5499747965645 60.9925535197495,45.5526697424168 60.9950271204297,45.5625641451378 61.0102213862645,45.5625641451378 61.0102213862645,45.5406932045559 61.0100706677898,45.5405424860812 61.0046807760851,45.5432374319336 61.0019858302328,45.5405424860812 60.9992908843804,45.5432374319336 60.996595938528,45.5405424860812 60.9939009926757,45.5432374319336</coordinates></LinearRing></outerBoundaryIs></Polygon></MultiGeometry>
  </Placemark>
</Folder>
</Document></kml>
