<?xml version="1.0" encoding="utf-8" ?>
<kml xmlns="http://www.opengis.net/kml/2.2">
<Document id="root_doc">
<Schema name="task_grid_v6_46.01_60.26" id="task_grid_v6_46.01_60.26">
	<SimpleField name="area_ha" type="float"></SimpleField>
	<SimpleField name="low_risk_ha" type="float"></SimpleField>
	<SimpleField name="moderate_risk_ha" type="float"></SimpleField>
	<SimpleField name="grid_cell_deg" type="string"></SimpleField>
</Schema>
<Folder><name>task_grid_v6_46.01_60.26</name>
  <Placemark id="task_grid_v6_46.01_60.26.1">
	<name>task_grid_v6_46.01_60.26</name>
	<name>746.6</name>
	<description>1528.8</description>
	<Style><LineStyle><color>ff0000ff</color></LineStyle><PolyStyle><fill>0</fill></PolyStyle></Style>
	<ExtendedData><SchemaData schemaUrl="#task_grid_v6_46.01_60.26">
		<SimpleData name="area_ha">782.2</SimpleData>
		<SimpleData name="low_risk_ha">0.1</SimpleData>
	</SchemaData></ExtendedData>
      <MultiGeometry><Polygon><outerBoundaryIs><LinearRing><coordinates>60.2102213862645,46.0313524131856 60.2102213862645,46.0363025955901 60.2164091142702,46.035065049989 60.2102213862645,46.0313524131856</coordinates></LinearRing></outerBoundaryIs></Polygon><Polygon><outerBoundaryIs><LinearRing><coordinates>60.229883843532,46.035065049989 60.2366212081629,46.0364125229152 60.2366212081629,46.0337175770628 60.2312313164582,46.0337175770628 60.229883843532,46.035065049989</coordinates></LinearRing></outerBoundaryIs></Polygon><Polygon><outerBoundaryIs><LinearRing><coordinates>60.2102213862645,46.0450469970975 60.2102213862645,46.0598425806486 60.2150616413441,46.0525821980293 60.2110192225655,46.0593195626602 60.2231464789011,46.0579720897341 60.2238202153642,46.057298353271 60.2231464789011,46.0606670355864 60.2193522597984,46.0625641451378 60.2304334801572,46.0625641451378 60.2312313164582,46.0625641451378 60.235025535561,46.0625641451378 60.2358233718619,46.0625641451378 60.2379509353312,46.0625641451378 60.2536242110938,46.0625641451378 60.2574095573176,46.0625641451378 60.2610706832364,46.0625641451378 60.2649181396127,46.0620145085126 60.2592587533227,46.0595890572455 60.2689605583912,46.0606670355864 60.2689605583912,46.0579720897341 60.2581807749818,46.0579720897341 60.2573722912261,46.0587805734898 60.2554858291294,46.0579720897341 60.2460535186462,46.0593195626602 60.2568333020556,46.0566246168079 60.2527908832771,46.0552771438817 60.2487484644985,46.0485397792508 60.2487484644985,46.0431498875461 60.2460535186462,46.0404549416937 60.2487484644985,46.0377599958414 60.2433585727938,46.0377599958414 60.24470604572,46.0364125229152 60.2500959374247,46.0364125229152 60.259528247908,46.0296751582843 60.2689605583912,46.0337175770628 60.2770453959483,46.0283276853581 60.2797403418007,46.0310226312105 60.2851302335054,46.0310226312105 60.2864777064316,46.0296751582843 60.282435287653,46.0256327395057 60.2851302335054,46.0256327395057 60.2932150710625,46.0310226312105 60.3012999086195,46.0310226312105 60.3039948544719,46.0337175770628 60.3080372732504,46.0323701041366 60.3039948544719,46.0256327395057 60.3012999086195,46.0283276853581 60.2986049627672,46.0256327395057 60.2959100169148,46.0283276853581 60.2878251793577,46.0229377936534 60.2662656125389,46.0229377936534 60.2635706666865,46.020242847801 60.2608757208342,46.0229377936534 60.2527908832771,46.0229377936534 60.24470604572,46.0310226312105 60.2393161540153,46.0310226312105 60.2379686810891,46.0323701041366 60.2388669963732,46.0341667347049 60.2366212081629,46.0364125229152 60.221799005975,46.0377599958414 60.2177565871964,46.0337175770628 60.2164091142702,46.035065049989 60.2150616413441,46.0364125229152 60.2102213862645,46.0364125229152 60.2102213862645,46.0400235298095 60.2137141684179,46.0458448333984 60.2123666954917,46.0471923063246 60.2102213862645,46.0450469970975</coordinates></LinearRing></outerBoundaryIs><innerBoundaryIs><LinearRing><coordinates>60.2244939518273,46.0512347251031 60.2244939518273,46.0485397792508 60.2258414247535,46.0525821980293 60.2270926496135,46.0530634383601 60.2244939518273,46.0539296709555 60.2240447941853,46.0561754591658 60.2204515330488,46.0525821980293 60.2150616413441,46.0525821980293 60.2244939518273,46.0512347251031</coordinates></LinearRing></innerBoundaryIs><innerBoundaryIs><LinearRing><coordinates>60.2244939518273,46.0458448333984 60.2271888976797,46.0431498875461 60.2244939518273,46.0485397792508 60.2244939518273,46.0458448333984</coordinates></LinearRing></innerBoundaryIs><innerBoundaryIs><LinearRing><coordinates>60.2312313164582,46.0606670355864 60.2323092947992,46.0612060247569 60.2312313164582,46.0615653508705 60.2312313164582,46.0606670355864</coordinates></LinearRing></innerBoundaryIs><innerBoundaryIs><LinearRing><coordinates>60.2285363706059,46.0579720897341 60.2285363706059,46.0536187156649 60.2334575760754,46.0555114869993 60.2285363706059,46.0579720897341</coordinates></LinearRing></innerBoundaryIs><innerBoundaryIs><LinearRing><coordinates>60.2352737352368,46.0512347251031 60.2339262623106,46.0525821980293 60.2325787893844,46.0512347251031 60.2352737352368,46.0512347251031</coordinates></LinearRing></innerBoundaryIs></Polygon><Polygon><outerBoundaryIs><LinearRing><coordinates>60.2104695859403,46.0625641451378 60.2161609145944,46.0625641451378 60.2123666954917,46.0606670355864 60.2104695859403,46.0625641451378</coordinates></LinearRing></outerBoundaryIs></Polygon><Polygon><outerBoundaryIs><LinearRing><coordinates>60.3039948544719,46.0525821980293 60.2999524356934,46.0566246168079 60.3026473815457,46.0539296709555 60.2986049627672,46.049887252177 60.2932150710625,46.0579720897341 60.2891726522839,46.0593195626602 60.2910591143806,46.0612060247569 60.2797403418007,46.0579720897341 60.2788219307199,46.0625641451378 60.2924172347615,46.0625641451378 60.2958125357137,46.0625641451378 60.2972042525674,46.0625641451378 60.2988295415882,46.0622390873336 60.2987645300274,46.0625641451378 60.3102213862645,46.0625641451378 60.3102213862645,46.0598303954985 60.3093847461766,46.0606670355864 60.3080372732504,46.0593195626602 60.3102213862645,46.0593195626602 60.3102213862645,46.0449156805162 60.3093847461766,46.0444973604723 60.3080372732504,46.0539296709555 60.3066898003242,46.049887252177 60.3026473815457,46.0512347251031 60.3039948544719,46.0525821980293</coordinates></LinearRing></outerBoundaryIs></Polygon><Polygon><outerBoundaryIs><LinearRing><coordinates>60.2783928688745,46.0566246168079 60.2851302335054,46.0579720897341 60.2851302335054,46.0552771438817 60.2797403418007,46.0552771438817 60.2783928688745,46.0566246168079</coordinates></LinearRing></outerBoundaryIs></Polygon></MultiGeometry>
  </Placemark>
</Folder>
</Document></kml>
