<?xml version="1.0" encoding="utf-8" ?>
<kml xmlns="http://www.opengis.net/kml/2.2">
<Document id="root_doc">
<Schema name="task_grid_v6_45.78_61.38" id="task_grid_v6_45.78_61.38">
	<SimpleField name="area_ha" type="float"></SimpleField>
	<SimpleField name="low_risk_ha" type="float"></SimpleField>
	<SimpleField name="moderate_risk_ha" type="float"></SimpleField>
	<SimpleField name="grid_cell_deg" type="string"></SimpleField>
</Schema>
<Folder><name>task_grid_v6_45.78_61.38</name>
  <Placemark id="task_grid_v6_45.78_61.38.1">
	<name>task_grid_v6_45.78_61.38</name>
	<name>336.2</name>
	<description>418.3</description>
	<Style><LineStyle><color>ff0000ff</color></LineStyle><PolyStyle><fill>0</fill></PolyStyle></Style>
	<ExtendedData><SchemaData schemaUrl="#task_grid_v6_45.78_61.38">
		<SimpleData name="area_ha">82.1</SimpleData>
		<SimpleData name="low_risk_ha">0.1</SimpleData>
	</SchemaData></ExtendedData>
      <MultiGeometry><Polygon><outerBoundaryIs><LinearRing><coordinates>61.3321166971467,45.7682654106055 61.3361591159252,45.772307829384 61.3375065888514,45.7709603564579 61.3361591159252,45.7669179376793 61.3321166971467,45.7682654106055</coordinates></LinearRing></outerBoundaryIs></Polygon><Polygon><outerBoundaryIs><LinearRing><coordinates>61.326726805442,45.7817401398673 61.3263910613787,45.781404395804 61.3263910613787,45.7820758839306 61.326726805442,45.7817401398673</coordinates></LinearRing></outerBoundaryIs></Polygon><Polygon><outerBoundaryIs><LinearRing><coordinates>61.326726805442,45.787130031572 61.3263910613787,45.7867942875087 61.3263910613787,45.7873538609475 61.326726805442,45.787130031572</coordinates></LinearRing></outerBoundaryIs></Polygon><Polygon><outerBoundaryIs><LinearRing><coordinates>61.3361591159252,45.8127320171694 61.334811642999,45.8140794900956 61.3415490076299,45.8154269630218 61.3415490076299,45.8127320171694 61.3361591159252,45.8127320171694</coordinates></LinearRing></outerBoundaryIs></Polygon><Polygon><outerBoundaryIs><LinearRing><coordinates>61.3846681412677,45.8289016922836 61.3819731954153,45.8262067464312 61.379278249563,45.8315966381359 61.3765833037106,45.8289016922836 61.3738883578582,45.8315966381359 61.3631085744488,45.8235118005789 61.3577186827441,45.8235118005789 61.3550237368917,45.8262067464312 61.3469388993347,45.8262067464312 61.3442439534823,45.8235118005789 61.3402015347038,45.824859273505 61.338845036908,45.8343547580755 61.3553816545475,45.8343547580755 61.3566280695857,45.8343547580755 61.3616137297383,45.8343547580755 61.3577186827441,45.8289016922836 61.3604136285965,45.8315966381359 61.3620685005602,45.8343547580755 61.3711302379187,45.8343547580755 61.3712060468233,45.8343547580755 61.3711934120059,45.8342915839883 61.371214470035,45.8343547580755 61.3790887273013,45.8343547580755 61.379278249563,45.8342915839883 61.3793161540153,45.8343547580755 61.3912220346359,45.8343547580755 61.3900580329724,45.8262067464312 61.3876625255481,45.8274045001434 61.3887105600462,45.8221643276527 61.3833206683415,45.8194693818003 61.3819731954153,45.8154269630218 61.3779307766368,45.816774435948 61.3806257224891,45.8194693818003 61.3806257224891,45.824859273505 61.3861381117326,45.8281667070511 61.3846681412677,45.8289016922836</coordinates></LinearRing></outerBoundaryIs></Polygon></MultiGeometry>
  </Placemark>
</Folder>
</Document></kml>
