<?xml version="1.0" encoding="utf-8" ?>
<kml xmlns="http://www.opengis.net/kml/2.2">
<Document id="root_doc">
<Schema name="task_grid_v6_45.51_59.86" id="task_grid_v6_45.51_59.86">
	<SimpleField name="area_ha" type="float"></SimpleField>
	<SimpleField name="low_risk_ha" type="float"></SimpleField>
	<SimpleField name="moderate_risk_ha" type="float"></SimpleField>
	<SimpleField name="grid_cell_deg" type="string"></SimpleField>
</Schema>
<Folder><name>task_grid_v6_45.51_59.86</name>
  <Placemark id="task_grid_v6_45.51_59.86.1">
	<name>task_grid_v6_45.51_59.86</name>
	<name>0</name>
	<description>27.2</description>
	<Style><LineStyle><color>ff0000ff</color></LineStyle><PolyStyle><fill>0</fill></PolyStyle></Style>
	<ExtendedData><SchemaData schemaUrl="#task_grid_v6_45.51_59.86">
		<SimpleData name="area_ha">27.2</SimpleData>
		<SimpleData name="low_risk_ha">0.1</SimpleData>
	</SchemaData></ExtendedData>
      <Polygon><outerBoundaryIs><LinearRing><coordinates>59.8350742761615,45.5621020529001 59.8189046010474,45.5621020529001 59.816209655195,45.5594071070477 59.8102213862645,45.5594071070477 59.8102213862645,45.5625641451378 59.8355363683992,45.5625641451378 59.8350742761615,45.5621020529001</coordinates></LinearRing></outerBoundaryIs></Polygon>
  </Placemark>
</Folder>
</Document></kml>
