<?xml version="1.0" encoding="utf-8" ?>
<kml xmlns="http://www.opengis.net/kml/2.2">
<Document id="root_doc">
<Schema name="task_grid_v6_46.18_59.88" id="task_grid_v6_46.18_59.88">
	<SimpleField name="area_ha" type="float"></SimpleField>
	<SimpleField name="low_risk_ha" type="float"></SimpleField>
	<SimpleField name="moderate_risk_ha" type="float"></SimpleField>
	<SimpleField name="grid_cell_deg" type="string"></SimpleField>
</Schema>
<Folder><name>task_grid_v6_46.18_59.88</name>
  <Placemark id="task_grid_v6_46.18_59.88.1">
	<name>task_grid_v6_46.18_59.88</name>
	<name>1994.5</name>
	<description>1994.5</description>
	<Style><LineStyle><color>ff0000ff</color></LineStyle><PolyStyle><fill>0</fill></PolyStyle></Style>
	<ExtendedData><SchemaData schemaUrl="#task_grid_v6_46.18_59.88">
		<SimpleData name="area_ha">0</SimpleData>
		<SimpleData name="low_risk_ha">0.1</SimpleData>
	</SchemaData></ExtendedData>
      <MultiGeometry><Polygon><outerBoundaryIs><LinearRing><coordinates>59.9159226517323,46.1469053028619 59.9105327600275,46.1469053028619 59.9091852871014,46.1482527757881 59.9186175975846,46.1522951945666 59.9199650705108,46.1509477216404 59.9159226517323,46.1469053028619</coordinates></LinearRing></outerBoundaryIs></Polygon><Polygon><outerBoundaryIs><LinearRing><coordinates>59.8984055036919,46.1509477216404 59.891668139061,46.1442103570095 59.8903206661349,46.1482527757881 59.8930156119872,46.1509477216404 59.8903206661349,46.1536426674928 59.8970580307657,46.1576850862713 59.8984055036919,46.1509477216404</coordinates></LinearRing></outerBoundaryIs></Polygon><Polygon><outerBoundaryIs><LinearRing><coordinates>59.8350742761615,46.1684648696807 59.8377692220139,46.1711598155331 59.8404641678662,46.1684648696807 59.8431591137186,46.1711598155331 59.8445065866448,46.1698123426069 59.8445065866448,46.1617275050499 59.8498964783495,46.1536426674928 59.8506679947262,46.1343547580755 59.8263910613787,46.1343547580755 59.8263910613787,46.1658704028115 59.8323793303091,46.1738547613855 59.8364217490877,46.1725072884593 59.8337268032353,46.1698123426069 59.8350742761615,46.1684648696807</coordinates></LinearRing></outerBoundaryIs><innerBoundaryIs><LinearRing><coordinates>59.8337268032353,46.1563376133451 59.8323793303091,46.1576850862713 59.8283369115306,46.1536426674928 59.8296843844568,46.1522951945666 59.8337268032353,46.1563376133451</coordinates></LinearRing></innerBoundaryIs><innerBoundaryIs><LinearRing><coordinates>59.8418116407924,46.1374729923786 59.8445065866448,46.1374729923786 59.8431591137186,46.1388204653048 59.8418116407924,46.1374729923786</coordinates></LinearRing></innerBoundaryIs></Polygon><Polygon><outerBoundaryIs><LinearRing><coordinates>59.9024479224705,46.1603800321237 59.9078378141752,46.1603800321237 59.9078378141752,46.154990140419 59.9051428683228,46.1576850862713 59.8997529766181,46.1576850862713 59.8984055036919,46.1617275050499 59.8997529766181,46.163074977976 59.9024479224705,46.1603800321237</coordinates></LinearRing></outerBoundaryIs></Polygon><Polygon><outerBoundaryIs><LinearRing><coordinates>59.8525914242018,46.1644224509022 59.8579813159065,46.1698123426069 59.853938897128,46.1711598155331 59.8512439512757,46.1684648696807 59.8485490054233,46.1738547613855 59.8418116407924,46.1752022343116 59.8445065866448,46.177897180164 59.8431591137186,46.1792446530902 59.8404641678662,46.1765497072378 59.8263910613787,46.1742041894899 59.8263910613787,46.1947154719955 59.8323793303091,46.192719382352 59.8377692220139,46.1873294906473 59.8431591137186,46.1873294906473 59.8458540595709,46.1900244364996 59.8525914242018,46.1859820177211 59.853938897128,46.1819395989425 59.8620237346851,46.1819395989425 59.8647186805375,46.1792446530902 59.8660661534636,46.1805921260164 59.8633712076113,46.1832870718687 59.8660661534636,46.1859820177211 59.8647186805375,46.1873294906473 59.8620237346851,46.1846345447949 59.8606762617589,46.1886769635734 59.8674136263898,46.1900244364996 59.868761099316,46.1805921260164 59.8714560451683,46.177897180164 59.868761099316,46.1752022343116 59.868761099316,46.1698123426069 59.8714560451683,46.1671173967546 59.868761099316,46.1644224509022 59.868761099316,46.1563376133451 59.8768459368731,46.1509477216404 59.8741509910207,46.1482527757881 59.8808883556516,46.1415154111572 59.8889731932087,46.1415154111572 59.891668139061,46.1388204653048 59.8997529766181,46.1442103570095 59.9011004495443,46.1428628840833 59.8997529766181,46.1388204653048 59.8943630849134,46.1361255194524 59.8862782473563,46.1361255194524 59.8845074859794,46.1343547580755 59.8676252706152,46.1343547580755 59.8660661534636,46.1374729923786 59.8606762617589,46.140167938231 59.8552863700542,46.1617275050499 59.8525914242018,46.1644224509022</coordinates></LinearRing></outerBoundaryIs><innerBoundaryIs><LinearRing><coordinates>59.8606762617589,46.1509477216404 59.8647186805375,46.1442103570095 59.8647186805375,46.1522951945666 59.8606762617589,46.1509477216404</coordinates></LinearRing></innerBoundaryIs><innerBoundaryIs><LinearRing><coordinates>59.853938897128,46.1765497072378 59.853938897128,46.1738547613855 59.8552863700542,46.1752022343116 59.853938897128,46.1765497072378</coordinates></LinearRing></innerBoundaryIs><innerBoundaryIs><LinearRing><coordinates>59.8579813159065,46.1752022343116 59.8606762617589,46.1752022343116 59.8593287888327,46.1765497072378 59.8579813159065,46.1752022343116</coordinates></LinearRing></innerBoundaryIs><innerBoundaryIs><LinearRing><coordinates>59.8647186805375,46.1711598155331 59.8647186805375,46.1738547613855 59.8633712076113,46.1725072884593 59.8647186805375,46.1711598155331</coordinates></LinearRing></innerBoundaryIs></Polygon><Polygon><outerBoundaryIs><LinearRing><coordinates>59.9226600163632,46.1725072884593 59.9263910613787,46.1762383334748 59.9263910613787,46.1642667640207 59.9240074892893,46.163074977976 59.9199650705108,46.1671173967546 59.9253549622155,46.1698123426069 59.9226600163632,46.1725072884593</coordinates></LinearRing></outerBoundaryIs></Polygon><Polygon><outerBoundaryIs><LinearRing><coordinates>59.8263910613787,46.1987076512824 59.8263910613787,46.205595734388 59.8269894386044,46.2061941116138 59.831031857383,46.1994567469829 59.8269894386044,46.1981092740567 59.8263910613787,46.1987076512824</coordinates></LinearRing></outerBoundaryIs></Polygon><Polygon><outerBoundaryIs><LinearRing><coordinates>59.8566338429804,46.2115840033185 59.8633712076113,46.2075415845399 59.8593287888327,46.2034991657614 59.8552863700542,46.2075415845399 59.8566338429804,46.2115840033185</coordinates></LinearRing></outerBoundaryIs></Polygon><Polygon><outerBoundaryIs><LinearRing><coordinates>59.8296843844568,46.2061941116138 59.8263910613787,46.2094874346919 59.8263910613787,46.2181706494747 59.8269894386044,46.2169738950232 59.8296843844568,46.2196688408756 59.8337268032353,46.215626422097 59.8337268032353,46.2102365303923 59.8296843844568,46.2061941116138</coordinates></LinearRing></outerBoundaryIs><innerBoundaryIs><LinearRing><coordinates>59.8296843844568,46.2142789491708 59.8283369115306,46.2129314762447 59.8296843844568,46.2115840033185 59.8296843844568,46.2142789491708</coordinates></LinearRing></innerBoundaryIs></Polygon></MultiGeometry>
  </Placemark>
</Folder>
</Document></kml>
