<?xml version="1.0" encoding="utf-8" ?>
<kml xmlns="http://www.opengis.net/kml/2.2">
<Document id="root_doc">
<Schema name="task_grid_v6_44.78_60.98" id="task_grid_v6_44.78_60.98">
	<SimpleField name="area_ha" type="float"></SimpleField>
	<SimpleField name="low_risk_ha" type="float"></SimpleField>
	<SimpleField name="moderate_risk_ha" type="float"></SimpleField>
	<SimpleField name="grid_cell_deg" type="string"></SimpleField>
</Schema>
<Folder><name>task_grid_v6_44.78_60.98</name>
  <Placemark id="task_grid_v6_44.78_60.98.1">
	<name>task_grid_v6_44.78_60.98</name>
	<name>55.9</name>
	<description>610.2</description>
	<Style><LineStyle><color>ff0000ff</color></LineStyle><PolyStyle><fill>0</fill></PolyStyle></Style>
	<ExtendedData><SchemaData schemaUrl="#task_grid_v6_44.78_60.98">
		<SimpleData name="area_ha">554.4</SimpleData>
		<SimpleData name="low_risk_ha">0.1</SimpleData>
	</SchemaData></ExtendedData>
      <MultiGeometry><Polygon><outerBoundaryIs><LinearRing><coordinates>60.9278748192929,44.7387960950045 60.9263910613787,44.7373123370903 60.9263910613787,44.7412690248616 60.9278748192929,44.7387960950045</coordinates></LinearRing></outerBoundaryIs></Polygon><Polygon><outerBoundaryIs><LinearRing><coordinates>61.0006383573066,44.7738303910852 60.9992908843804,44.7697879723067 60.9939009926757,44.7697879723067 60.9912060468233,44.7670930264543 60.9871636280448,44.7711354452328 60.9912060468233,44.7751778640114 60.9939009926757,44.772482918159 60.996595938528,44.7751778640114 61.0006383573066,44.7738303910852</coordinates></LinearRing></outerBoundaryIs></Polygon><Polygon><outerBoundaryIs><LinearRing><coordinates>61.0263910613787,44.7756300194355 61.026240342904,44.7751778640114 61.0181555053469,44.7751778640114 61.0168080324207,44.7819152286423 61.026240342904,44.7832627015684 61.0263910613787,44.7834134200431 61.0263910613787,44.7756300194355</coordinates></LinearRing></outerBoundaryIs></Polygon><Polygon><outerBoundaryIs><LinearRing><coordinates>61.0073757219375,44.7778728098637 61.0033333031589,44.7792202827899 61.0033333031589,44.7819152286423 61.0100706677898,44.7832627015684 61.011418140716,44.7819152286423 61.0073757219375,44.7778728098637</coordinates></LinearRing></outerBoundaryIs></Polygon><Polygon><outerBoundaryIs><LinearRing><coordinates>60.9400020756285,44.7832627015684 60.93595965685,44.7846101744946 60.9494343861118,44.7846101744946 60.9426970214809,44.7805677557161 60.9400020756285,44.7832627015684</coordinates></LinearRing></outerBoundaryIs></Polygon><Polygon><outerBoundaryIs><LinearRing><coordinates>60.9548242778165,44.8007798496088 60.958866696595,44.8048222683873 60.9615616424474,44.802127322535 60.9669515341521,44.8075172142397 60.9723414258568,44.8075172142397 60.9750363717092,44.810212160092 60.9804262634139,44.810212160092 60.9831212092663,44.8075172142397 60.9858161551186,44.810212160092 60.9871636280448,44.8088646871659 60.9858161551186,44.8048222683873 60.9750363717092,44.802127322535 60.9602141695212,44.7926950120517 60.9642565882997,44.7913475391255 60.9696464800045,44.7967374308302 60.9750363717092,44.7967374308302 60.9750363717092,44.7913475391255 60.9669515341521,44.7859576474208 60.9561717507427,44.7886525932732 60.9534768048903,44.7832627015684 60.9494343861118,44.787305120347 60.9521293319641,44.7900000661993 60.9494343861118,44.7926950120517 60.9575192236688,44.7980849037564 60.9548242778165,44.8007798496088</coordinates></LinearRing></outerBoundaryIs></Polygon><Polygon><outerBoundaryIs><LinearRing><coordinates>60.9426970214809,44.8048222683873 60.93595965685,44.8088646871659 60.9426970214809,44.810212160092 60.9507818590379,44.8156020517968 60.9521293319641,44.8115596330182 60.9426970214809,44.8048222683873</coordinates></LinearRing></outerBoundaryIs></Polygon><Polygon><outerBoundaryIs><LinearRing><coordinates>61.0168080324207,44.82503436228 61.0235453970516,44.8317717269109 61.0248928699778,44.8304242539847 61.0235453970516,44.8236868893538 61.0168080324207,44.82503436228</coordinates></LinearRing></outerBoundaryIs></Polygon></MultiGeometry>
  </Placemark>
</Folder>
</Document></kml>
