<?xml version="1.0" encoding="utf-8" ?>
<kml xmlns="http://www.opengis.net/kml/2.2">
<Document id="root_doc">
<Schema name="task_grid_v6_46.31_59.56" id="task_grid_v6_46.31_59.56">
	<SimpleField name="area_ha" type="float"></SimpleField>
	<SimpleField name="low_risk_ha" type="float"></SimpleField>
	<SimpleField name="moderate_risk_ha" type="float"></SimpleField>
	<SimpleField name="grid_cell_deg" type="string"></SimpleField>
</Schema>
<Folder><name>task_grid_v6_46.31_59.56</name>
  <Placemark id="task_grid_v6_46.31_59.56.1">
	<name>task_grid_v6_46.31_59.56</name>
	<name>536.4</name>
	<description>1208.3</description>
	<Style><LineStyle><color>ff0000ff</color></LineStyle><PolyStyle><fill>0</fill></PolyStyle></Style>
	<ExtendedData><SchemaData schemaUrl="#task_grid_v6_46.31_59.56">
		<SimpleData name="area_ha">672</SimpleData>
		<SimpleData name="low_risk_ha">0.1</SimpleData>
	</SchemaData></ExtendedData>
      <MultiGeometry><Polygon><outerBoundaryIs><LinearRing><coordinates>59.5911816765231,46.3099495269296 59.5857917848183,46.3099495269296 59.5871392577445,46.3193818374128 59.5938766223754,46.3153394186343 59.5884867306707,46.3126444727819 59.5911816765231,46.3099495269296</coordinates></LinearRing></outerBoundaryIs></Polygon><Polygon><outerBoundaryIs><LinearRing><coordinates>59.5938766223754,46.3180343644866 59.6100462974896,46.3180343644866 59.6033089328587,46.3166868915605 59.6006139870063,46.3139919457081 59.5938766223754,46.3180343644866</coordinates></LinearRing></outerBoundaryIs></Polygon><Polygon><outerBoundaryIs><LinearRing><coordinates>59.5103333009523,46.3261192020437 59.5102213862645,46.3258953726682 59.5102213862645,46.3261565069396 59.5103333009523,46.3261192020437</coordinates></LinearRing></outerBoundaryIs></Polygon><Polygon><outerBoundaryIs><LinearRing><coordinates>59.5224605572879,46.3274666749699 59.5197656114356,46.3247717291175 59.5184181385094,46.3315090937484 59.5170706655832,46.3301616208223 59.5116807738785,46.3301616208223 59.5102213862645,46.3294319270153 59.5102213862645,46.3453583708605 59.5116807738785,46.3463312959364 59.5170706655832,46.3463312959364 59.5386302324021,46.3571110793458 59.5574948533686,46.3598060251982 59.5588423262948,46.358458552272 59.5507574887377,46.3530686605673 59.5507574887377,46.350373714715 59.5561473804424,46.3476787688626 59.5547999075162,46.3463312959364 59.5521049616639,46.3463312959364 59.55345243459,46.3449838230102 59.5507574887377,46.3422888771579 59.5588423262948,46.3395939313055 59.55345243459,46.3368989854532 59.5669271638518,46.3288141478961 59.5628847450733,46.3247717291175 59.5521049616639,46.3220767832652 59.5426726511806,46.3261192020437 59.5547999075162,46.3274666749699 59.5561473804424,46.3288141478961 59.5386302324021,46.3274666749699 59.5375522540611,46.3285446533108 59.5359352865497,46.3274666749699 59.5224605572879,46.3274666749699</coordinates></LinearRing></outerBoundaryIs><innerBoundaryIs><LinearRing><coordinates>59.5238080302141,46.3342040396008 59.5187898551787,46.3367131271185 59.515723192657,46.3342040396008 59.5184181385094,46.3315090937484 59.5238080302141,46.3342040396008</coordinates></LinearRing></innerBoundaryIs><innerBoundaryIs><LinearRing><coordinates>59.530545394845,46.3409414042317 59.5386302324021,46.3409414042317 59.5413251782544,46.3463312959364 59.530545394845,46.3463312959364 59.5264565114828,46.3429858459128 59.530545394845,46.3409414042317</coordinates></LinearRing></innerBoundaryIs><innerBoundaryIs><LinearRing><coordinates>59.545367597033,46.3368989854532 59.5440201241068,46.3382464583793 59.5426726511806,46.3368989854532 59.545367597033,46.3368989854532</coordinates></LinearRing></innerBoundaryIs></Polygon><Polygon><outerBoundaryIs><LinearRing><coordinates>59.5601897992209,46.3490262417888 59.5588423262948,46.350373714715 59.568274636778,46.3517211876411 59.568274636778,46.3490262417888 59.5601897992209,46.3490262417888</coordinates></LinearRing></outerBoundaryIs></Polygon><Polygon><outerBoundaryIs><LinearRing><coordinates>59.5844443118922,46.3463312959364 59.5763594743351,46.3463312959364 59.5750120014089,46.350373714715 59.5696221097042,46.3530686605673 59.5844443118922,46.3571110793458 59.5844443118922,46.3463312959364</coordinates></LinearRing></outerBoundaryIs></Polygon><Polygon><outerBoundaryIs><LinearRing><coordinates>59.5588423262948,46.3557636064197 59.5655796909256,46.3571110793458 59.5696221097042,46.3530686605673 59.5601897992209,46.3517211876411 59.5588423262948,46.3557636064197</coordinates></LinearRing></outerBoundaryIs></Polygon><Polygon><outerBoundaryIs><LinearRing><coordinates>59.5857917848183,46.358458552272 59.5709695826304,46.3544161334935 59.5669271638518,46.358458552272 59.5857917848183,46.358458552272</coordinates></LinearRing></outerBoundaryIs></Polygon></MultiGeometry>
  </Placemark>
</Folder>
</Document></kml>
