<?xml version="1.0" encoding="utf-8" ?>
<kml xmlns="http://www.opengis.net/kml/2.2">
<Document id="root_doc">
<Schema name="task_grid_v6_46.01_60.16" id="task_grid_v6_46.01_60.16">
	<SimpleField name="area_ha" type="float"></SimpleField>
	<SimpleField name="low_risk_ha" type="float"></SimpleField>
	<SimpleField name="moderate_risk_ha" type="float"></SimpleField>
	<SimpleField name="grid_cell_deg" type="string"></SimpleField>
</Schema>
<Folder><name>task_grid_v6_46.01_60.16</name>
  <Placemark id="task_grid_v6_46.01_60.16.1">
	<name>task_grid_v6_46.01_60.16</name>
	<name>467.4</name>
	<description>1641.8</description>
	<Style><LineStyle><color>ff0000ff</color></LineStyle><PolyStyle><fill>0</fill></PolyStyle></Style>
	<ExtendedData><SchemaData schemaUrl="#task_grid_v6_46.01_60.16">
		<SimpleData name="area_ha">1174.4</SimpleData>
		<SimpleData name="low_risk_ha">0.1</SimpleData>
	</SchemaData></ExtendedData>
      <MultiGeometry><Polygon><outerBoundaryIs><LinearRing><coordinates>60.1431031563747,45.9625641451378 60.1331284260096,45.9625641451378 60.1422981033304,45.9717338224586 60.1503829408875,45.9717338224586 60.1517304138136,45.96769140368 60.1449930491827,45.9663439307539 60.1431031563747,45.9625641451378</coordinates></LinearRing></outerBoundaryIs></Polygon><Polygon><outerBoundaryIs><LinearRing><coordinates>60.1153486448068,45.9636489849015 60.1102213862645,45.96467443661 60.1102213862645,45.9716812958261 60.116696117733,45.9703863495324 60.1153486448068,45.9636489849015</coordinates></LinearRing></outerBoundaryIs></Polygon><Polygon><outerBoundaryIs><LinearRing><coordinates>60.1557728325922,45.982513605868 60.1557728325922,45.9771237141633 60.1530778867398,45.9798186600157 60.1490354679613,45.9811661329418 60.1557728325922,45.982513605868</coordinates></LinearRing></outerBoundaryIs></Polygon><Polygon><outerBoundaryIs><LinearRing><coordinates>60.1288233740686,46.0148529560963 60.1342132657733,46.012158010244 60.1315183199209,46.0148529560963 60.1220860094377,46.0162004290225 60.139603157478,46.0175479019487 60.1463405221089,46.0135054831701 60.1449930491827,46.0094630643916 60.1476879950351,46.012158010244 60.1503829408875,46.0094630643916 60.1584677784445,46.0094630643916 60.1638576701492,46.012158010244 60.1652051430754,46.0081155914654 60.1611627242969,46.0040731726869 60.1530778867398,46.0040731726869 60.1503829408875,46.0067681185392 60.1476879950351,46.0040731726869 60.1449930491827,46.0067681185392 60.12478095529,46.0081155914654 60.1288233740686,46.0148529560963</coordinates></LinearRing></outerBoundaryIs></Polygon><Polygon><outerBoundaryIs><LinearRing><coordinates>60.139603157478,46.020242847801 60.139603157478,46.0175479019487 60.1342132657733,46.0175479019487 60.1328657928471,46.0188953748749 60.139603157478,46.020242847801</coordinates></LinearRing></outerBoundaryIs></Polygon><Polygon><outerBoundaryIs><LinearRing><coordinates>60.1630491863935,46.025902234091 60.1638576701492,46.0283276853581 60.1705950347801,46.0269802124319 60.1665526160016,46.0229377936534 60.1641271647345,46.0237462774091 60.1652051430754,46.0215903207272 60.1638576701492,46.020242847801 60.169247561854,46.020242847801 60.1719425077063,46.0175479019487 60.1746374535587,46.020242847801 60.177332399411,46.0175479019487 60.1800273452634,46.020242847801 60.1813748181896,46.0162004290225 60.1719425077063,46.0148529560963 60.1719425077063,46.0094630643916 60.1652051430754,46.0108105373178 60.1679000889278,46.0135054831701 60.1665526160016,46.0148529560963 60.1638576701492,46.012158010244 60.1530778867398,46.0148529560963 60.1530778867398,46.012158010244 60.1598152513707,46.0108105373178 60.1503829408875,46.0094630643916 60.1463405221089,46.0162004290225 60.1493349063893,46.0179970595907 60.1409506304042,46.0215903207272 60.1476879950351,46.0256327395057 60.1530778867398,46.0229377936534 60.1557728325922,46.0283276853581 60.1625101972231,46.0269802124319 60.1630491863935,46.025902234091</coordinates></LinearRing></outerBoundaryIs></Polygon><Polygon><outerBoundaryIs><LinearRing><coordinates>60.1261284282162,46.0283276853581 60.1261284282162,46.020242847801 60.1220860094377,46.0215903207272 60.12478095529,46.0242852665796 60.1234334823639,46.0256327395057 60.1207385365115,46.0229377936534 60.116696117733,46.0242852665796 60.1207385365115,46.0283276853581 60.1261284282162,46.0283276853581</coordinates></LinearRing></outerBoundaryIs></Polygon><Polygon><outerBoundaryIs><LinearRing><coordinates>60.1102213862645,46.0334549439004 60.1113062260283,46.0323701041366 60.1102213862645,46.0312852643729 60.1102213862645,46.0334549439004</coordinates></LinearRing></outerBoundaryIs></Polygon><Polygon><outerBoundaryIs><LinearRing><coordinates>60.1220860094377,46.0485397792508 60.1288233740686,46.049887252177 60.1288233740686,46.0471923063246 60.1234334823639,46.0471923063246 60.1220860094377,46.0485397792508</coordinates></LinearRing></outerBoundaryIs></Polygon><Polygon><outerBoundaryIs><LinearRing><coordinates>60.1449930491827,46.0418024146199 60.1382556845518,46.0458448333984 60.1436455762566,46.0566246168079 60.1382556845518,46.0593195626602 60.1366333933131,46.0625641451378 60.1413495485547,46.0625641451378 60.1422981033304,46.0606670355864 60.1476879950351,46.0606670355864 60.1495851045865,46.0625641451378 60.1511807771884,46.0625641451378 60.1530778867398,46.0606670355864 60.1705950347801,46.0593195626602 60.1571203055184,46.0485397792508 60.1557728325922,46.0418024146199 60.1490354679613,46.0431498875461 60.154425359666,46.0458448333984 60.1530778867398,46.0525821980293 60.1476879950351,46.0525821980293 60.1436455762566,46.0485397792508 60.1490354679613,46.0458448333984 60.1449930491827,46.0418024146199</coordinates></LinearRing></outerBoundaryIs></Polygon><Polygon><outerBoundaryIs><LinearRing><coordinates>60.1355607386995,46.0539296709555 60.1315183199209,46.049887252177 60.1301708469948,46.0539296709555 60.1342132657733,46.0579720897341 60.1355607386995,46.0539296709555</coordinates></LinearRing></outerBoundaryIs></Polygon><Polygon><outerBoundaryIs><LinearRing><coordinates>60.1638576701492,45.9636489849015 60.1746374535587,45.9636489849015 60.1757222933224,45.9625641451378 60.1633152502674,45.9625641451378 60.1638576701492,45.9636489849015</coordinates></LinearRing></outerBoundaryIs></Polygon><Polygon><outerBoundaryIs><LinearRing><coordinates>60.1719425077063,45.9744287683109 60.1719425077063,45.9717338224586 60.1584677784445,45.9717338224586 60.1571203055184,45.9730812953848 60.1719425077063,45.9744287683109</coordinates></LinearRing></outerBoundaryIs></Polygon><Polygon><outerBoundaryIs><LinearRing><coordinates>60.1746374535587,45.9798186600157 60.1746374535587,45.9771237141633 60.1665526160016,45.9771237141633 60.1652051430754,45.9784711870895 60.1746374535587,45.9798186600157</coordinates></LinearRing></outerBoundaryIs></Polygon><Polygon><outerBoundaryIs><LinearRing><coordinates>60.192154601599,46.0323701041366 60.1935020745252,46.0337175770628 60.2042818579346,46.0337175770628 60.206976803787,46.0337175770628 60.2096717496393,46.0364125229152 60.2102213862645,46.0363025955901 60.2102213862645,46.0313524131856 60.2096717496393,46.0310226312105 60.206976803787,46.0310226312105 60.2083242767132,46.0296751582843 60.2015869120823,46.0229377936534 60.1975444933037,46.0242852665796 60.1988919662299,46.0256327395057 60.1975444933037,46.0296751582843 60.1964665149628,46.0302141474548 60.1975444933037,46.0269802124319 60.1908071286728,46.0175479019487 60.1867647098943,46.0188953748749 60.1958197279582,46.030537540957 60.192154601599,46.0323701041366</coordinates></LinearRing></outerBoundaryIs></Polygon><Polygon><outerBoundaryIs><LinearRing><coordinates>60.1584677784445,46.0418024146199 60.1571203055184,46.0485397792508 60.1638576701492,46.0525821980293 60.1679000889278,46.0458448333984 60.1631839336862,46.0438236240092 60.1665526160016,46.0444973604723 60.1665526160016,46.0391074687675 60.1638576701492,46.0391074687675 60.1603542405412,46.0426108983756 60.1584677784445,46.0418024146199</coordinates></LinearRing></outerBoundaryIs></Polygon><Polygon><outerBoundaryIs><LinearRing><coordinates>60.1908071286728,46.0364125229152 60.1827222911158,46.0444973604723 60.1719425077063,46.0391074687675 60.1705950347801,46.0485397792508 60.1719425077063,46.049887252177 60.1746374535587,46.0471923063246 60.1800273452634,46.0471923063246 60.1854172369681,46.049887252177 60.1881121828205,46.0471923063246 60.1908071286728,46.049887252177 60.1935020745252,46.0471923063246 60.1988919662299,46.0471923063246 60.206976803787,46.0525821980293 60.2096717496393,46.049887252177 60.2096717496393,46.0606670355864 60.2102213862645,46.0598425806486 60.2102213862645,46.0450469970975 60.2096717496393,46.0444973604723 60.2042818579346,46.0471923063246 60.2029343850084,46.0458448333984 60.2083242767132,46.0431498875461 60.2096717496393,46.0391074687675 60.2102213862645,46.0400235298095 60.2102213862645,46.0364125229152 60.2096717496393,46.0364125229152 60.2042818579346,46.0337175770628 60.2015869120823,46.0391074687675 60.1988919662299,46.0364125229152 60.1935020745252,46.0391074687675 60.1908071286728,46.0364125229152</coordinates></LinearRing></outerBoundaryIs></Polygon><Polygon><outerBoundaryIs><LinearRing><coordinates>60.1732899806325,46.0539296709555 60.169247561854,46.049887252177 60.1679000889278,46.0539296709555 60.1719425077063,46.0552771438817 60.1732899806325,46.0539296709555</coordinates></LinearRing></outerBoundaryIs></Polygon></MultiGeometry>
  </Placemark>
</Folder>
</Document></kml>
