<?xml version="1.0" encoding="utf-8" ?>
<kml xmlns="http://www.opengis.net/kml/2.2">
<Document id="root_doc">
<Schema name="task_grid_v6_45.91_60.66" id="task_grid_v6_45.91_60.66">
	<SimpleField name="area_ha" type="float"></SimpleField>
	<SimpleField name="low_risk_ha" type="float"></SimpleField>
	<SimpleField name="moderate_risk_ha" type="float"></SimpleField>
	<SimpleField name="grid_cell_deg" type="string"></SimpleField>
</Schema>
<Folder><name>task_grid_v6_45.91_60.66</name>
  <Placemark id="task_grid_v6_45.91_60.66.1">
	<name>task_grid_v6_45.91_60.66</name>
	<name>0</name>
	<description>431.8</description>
	<Style><LineStyle><color>ff0000ff</color></LineStyle><PolyStyle><fill>0</fill></PolyStyle></Style>
	<ExtendedData><SchemaData schemaUrl="#task_grid_v6_45.91_60.66">
		<SimpleData name="area_ha">431.8</SimpleData>
		<SimpleData name="low_risk_ha">0.1</SimpleData>
	</SchemaData></ExtendedData>
      <MultiGeometry><Polygon><outerBoundaryIs><LinearRing><coordinates>60.6907195842853,45.8679784071428 60.6866771655068,45.8666309342166 60.6826347467283,45.8706733529951 60.6866771655068,45.8720208259213 60.6907195842853,45.8679784071428</coordinates></LinearRing></outerBoundaryIs></Polygon><Polygon><outerBoundaryIs><LinearRing><coordinates>60.6664650716141,45.8760632446998 60.6624226528356,45.8720208259213 60.6570327611309,45.8720208259213 60.6556852882047,45.8760632446998 60.6597277069832,45.8801056634784 60.6651175986879,45.8801056634784 60.6664650716141,45.8760632446998</coordinates></LinearRing></outerBoundaryIs></Polygon><Polygon><outerBoundaryIs><LinearRing><coordinates>60.6934145301377,45.8814531364046 60.6974569489162,45.8854955551831 60.6988044218424,45.8841480822569 60.6974569489162,45.877410717626 60.6934145301377,45.8814531364046</coordinates></LinearRing></outerBoundaryIs></Polygon><Polygon><outerBoundaryIs><LinearRing><coordinates>60.6624226528356,45.8881905010355 60.6651175986879,45.8854955551831 60.673202436245,45.8908854468878 60.6758973820974,45.8881905010355 60.6812872738021,45.8962753385925 60.6920670572115,45.8962753385925 60.6947620030639,45.8935803927402 60.6961094759901,45.8976228115187 60.6988044218424,45.8976228115187 60.6974569489162,45.8881905010355 60.6920670572115,45.8908854468878 60.6893721113592,45.8854955551831 60.6812872738021,45.8854955551831 60.673202436245,45.8801056634784 60.6705074903927,45.8828006093307 60.6624226528356,45.8828006093307 60.6610751799094,45.8868430281093 60.6624226528356,45.8881905010355</coordinates></LinearRing></outerBoundaryIs></Polygon><Polygon><outerBoundaryIs><LinearRing><coordinates>60.635473194312,45.8935803927402 60.6368206672382,45.892232919814 60.635473194312,45.8881905010355 60.6300833026073,45.8881905010355 60.6273883567549,45.8908854468878 60.6246934109026,45.8854955551831 60.620650992124,45.8868430281093 60.6246934109026,45.8962753385925 60.6327782484596,45.8962753385925 60.6327782484596,45.8908854468878 60.635473194312,45.8935803927402</coordinates></LinearRing></outerBoundaryIs></Polygon><Polygon><outerBoundaryIs><LinearRing><coordinates>60.6260408838287,45.959606566123 60.6278154312376,45.9625641451378 60.6309443129955,45.9625641451378 60.6300833026073,45.9582590931968 60.6260408838287,45.959606566123</coordinates></LinearRing></outerBoundaryIs></Polygon></MultiGeometry>
  </Placemark>
</Folder>
</Document></kml>
