<?xml version="1.0" encoding="utf-8" ?>
<kml xmlns="http://www.opengis.net/kml/2.2">
<Document id="root_doc">
<Schema name="task_grid_v6_45.81_59.96" id="task_grid_v6_45.81_59.96">
	<SimpleField name="area_ha" type="float"></SimpleField>
	<SimpleField name="low_risk_ha" type="float"></SimpleField>
	<SimpleField name="moderate_risk_ha" type="float"></SimpleField>
	<SimpleField name="grid_cell_deg" type="string"></SimpleField>
</Schema>
<Folder><name>task_grid_v6_45.81_59.96</name>
  <Placemark id="task_grid_v6_45.81_59.96.1">
	<name>task_grid_v6_45.81_59.96</name>
	<name>801.3</name>
	<description>1303</description>
	<Style><LineStyle><color>ff0000ff</color></LineStyle><PolyStyle><fill>0</fill></PolyStyle></Style>
	<ExtendedData><SchemaData schemaUrl="#task_grid_v6_45.81_59.96">
		<SimpleData name="area_ha">501.7</SimpleData>
		<SimpleData name="low_risk_ha">0.1</SimpleData>
	</SchemaData></ExtendedData>
      <MultiGeometry><Polygon><outerBoundaryIs><LinearRing><coordinates>59.9102213862645,45.7696128835317 59.9102213862645,45.7893809349259 59.9186175975846,45.7857825586458 59.9159226517323,45.7884775044982 59.9102213862645,45.7896177575917 59.9102213862645,45.7899729915905 59.9102213862645,45.7938673962029 59.9105327600275,45.7938673962029 59.9132277058799,45.7965623420553 59.921312543437,45.7965623420553 59.9320923268464,45.8073421254647 59.9347872726988,45.8073421254647 59.9374822185511,45.80195223376 59.9361347456249,45.8059946525385 59.9401771644035,45.8073421254647 59.9415246373297,45.8059946525385 59.9401771644035,45.8046471796123 59.9415246373297,45.8032997066862 59.9403696605358,45.7975248227168 59.9415246373297,45.7979098149814 59.9428721102558,45.8046471796123 59.9496094748867,45.7979098149814 59.944219583182,45.7952148691291 59.9388296914773,45.787130031572 59.9388296914773,45.7817401398673 59.9356855879829,45.7785960363729 59.9428721102558,45.7803926669411 59.9496094748867,45.7736553023102 59.9482620019606,45.7669179376793 59.9464653713923,45.7660196223952 59.9509569478129,45.7669179376793 59.9509569478129,45.764222991827 59.9455670561082,45.764222991827 59.9446687408241,45.7651213071111 59.9428721102558,45.764222991827 59.9411700391912,45.7653577058701 59.9365141046374,45.7625641451378 59.9238002694567,45.7625641451378 59.9226600163632,45.7682654106055 59.9240074892893,45.7696128835317 59.921312543437,45.7669179376793 59.9186175975846,45.7696128835317 59.9102213862645,45.7696128835317</coordinates></LinearRing></outerBoundaryIs><innerBoundaryIs><LinearRing><coordinates>59.921312543437,45.7884775044982 59.9267024351417,45.7857825586458 59.9307448539202,45.7817401398673 59.9280499080679,45.7763502481626 59.9320923268464,45.772307829384 59.9320923268464,45.7776977210888 59.9342482835283,45.7782367102592 59.9280499080679,45.7844350857197 59.9388296914773,45.7925199232767 59.9374822185511,45.7938673962029 59.9347872726988,45.7911724503506 59.9334397997726,45.7952148691291 59.9320923268464,45.7938673962029 59.9267024351417,45.7965623420553 59.9186175975846,45.7911724503506 59.9186175975846,45.7857825586458 59.921312543437,45.7884775044982</coordinates></LinearRing></innerBoundaryIs><innerBoundaryIs><LinearRing><coordinates>59.9374822185511,45.7965623420553 59.9347872726988,45.7965623420553 59.9334397997726,45.7952148691291 59.9374822185511,45.7965623420553</coordinates></LinearRing></innerBoundaryIs><innerBoundaryIs><LinearRing><coordinates>59.9267024351417,45.764222991827 59.9320923268464,45.7669179376793 59.9406671545585,45.7656929622919 59.9347872726988,45.7696128835317 59.9267024351417,45.764222991827</coordinates></LinearRing></innerBoundaryIs><innerBoundaryIs><LinearRing><coordinates>59.944219583182,45.7709603564579 59.9401771644035,45.772307829384 59.9401771644035,45.7696128835317 59.9428721102558,45.7696128835317 59.944219583182,45.7709603564579</coordinates></LinearRing></innerBoundaryIs></Polygon><Polygon><outerBoundaryIs><LinearRing><coordinates>59.9246812257524,45.8120582807063 59.921312543437,45.8100370713171 59.9145751788061,45.8113845442432 59.9186175975846,45.8154269630218 59.9276007504258,45.814143655473 59.9293973809941,45.8154269630218 59.9307448539202,45.8113845442432 59.9240074892893,45.8073421254647 59.9199650705108,45.8086895983909 59.9246812257524,45.8120582807063</coordinates></LinearRing></outerBoundaryIs></Polygon><Polygon><outerBoundaryIs><LinearRing><coordinates>59.9293973809941,45.8181219088741 59.9280499080679,45.8194693818003 59.9374822185511,45.8235118005789 59.9388296914773,45.8221643276527 59.9374822185511,45.8208168547265 59.9482620019606,45.8154269630218 59.95904178537,45.8208168547265 59.9644316770747,45.8208168547265 59.9657791500009,45.8194693818003 59.9536518936653,45.8073421254647 59.9509569478129,45.8127320171694 59.9455670561082,45.8127320171694 59.9428721102558,45.8100370713171 59.9374822185511,45.8154269630218 59.9280499080679,45.816774435948 59.9311940115623,45.8181219088741 59.9293973809941,45.8181219088741</coordinates></LinearRing></outerBoundaryIs></Polygon><Polygon><outerBoundaryIs><LinearRing><coordinates>59.9132277058799,45.8262067464312 59.9172701246584,45.8221643276527 59.9102213862645,45.8189603556554 59.9102213862645,45.8262067464312 59.9132277058799,45.8262067464312</coordinates></LinearRing></outerBoundaryIs></Polygon><Polygon><outerBoundaryIs><LinearRing><coordinates>59.9199650705108,45.8383340027668 59.9293973809941,45.839681475693 59.9293973809941,45.8369865298406 59.921312543437,45.8369865298406 59.9199650705108,45.8383340027668</coordinates></LinearRing></outerBoundaryIs></Polygon><Polygon><outerBoundaryIs><LinearRing><coordinates>59.9509569478129,45.7750027752364 59.9549993665915,45.7736553023102 59.9536518936653,45.7696128835317 59.9496094748867,45.7709603564579 59.9509569478129,45.7750027752364</coordinates></LinearRing></outerBoundaryIs></Polygon><Polygon><outerBoundaryIs><LinearRing><coordinates>59.9536518936653,45.8046471796123 59.9549993665915,45.8032997066862 59.9509569478129,45.7992572879076 59.9496094748867,45.8032997066862 59.9536518936653,45.8046471796123</coordinates></LinearRing></outerBoundaryIs></Polygon><Polygon><outerBoundaryIs><LinearRing><coordinates>59.9374822185511,45.8423764215454 59.9455670561082,45.8477663132501 59.9469145290344,45.8464188403239 59.9374822185511,45.8369865298406 59.9307448539202,45.8410289486192 59.9374822185511,45.8423764215454</coordinates></LinearRing></outerBoundaryIs></Polygon><Polygon><outerBoundaryIs><LinearRing><coordinates>59.9563468395176,45.8477663132501 59.9563468395176,45.8450713673977 59.9509569478129,45.8450713673977 59.9496094748867,45.8464188403239 59.9563468395176,45.8477663132501</coordinates></LinearRing></outerBoundaryIs></Polygon></MultiGeometry>
  </Placemark>
</Folder>
</Document></kml>
