<?xml version="1.0" encoding="utf-8" ?>
<kml xmlns="http://www.opengis.net/kml/2.2">
<Document id="root_doc">
<Schema name="task_grid_v6_45.71_58.96" id="task_grid_v6_45.71_58.96">
	<SimpleField name="area_ha" type="float"></SimpleField>
	<SimpleField name="low_risk_ha" type="float"></SimpleField>
	<SimpleField name="moderate_risk_ha" type="float"></SimpleField>
	<SimpleField name="grid_cell_deg" type="string"></SimpleField>
</Schema>
<Folder><name>task_grid_v6_45.71_58.96</name>
  <Placemark id="task_grid_v6_45.71_58.96.1">
	<name>task_grid_v6_45.71_58.96</name>
	<name>0</name>
	<description>15.7</description>
	<Style><LineStyle><color>ff0000ff</color></LineStyle><PolyStyle><fill>0</fill></PolyStyle></Style>
	<ExtendedData><SchemaData schemaUrl="#task_grid_v6_45.71_58.96">
		<SimpleData name="area_ha">15.7</SimpleData>
		<SimpleData name="low_risk_ha">0.1</SimpleData>
	</SchemaData></ExtendedData>
      <Polygon><outerBoundaryIs><LinearRing><coordinates>59.0023360077827,45.7264937498939 59.0063784265612,45.7251462769678 59.0050309536351,45.7211038581892 59.0009885348565,45.7224513311154 59.0023360077827,45.7264937498939</coordinates></LinearRing></outerBoundaryIs></Polygon>
  </Placemark>
</Folder>
</Document></kml>
