<?xml version="1.0" encoding="utf-8" ?>
<kml xmlns="http://www.opengis.net/kml/2.2">
<Document id="root_doc">
<Schema name="task_grid_v6_45.61_60.96" id="task_grid_v6_45.61_60.96">
	<SimpleField name="area_ha" type="float"></SimpleField>
	<SimpleField name="low_risk_ha" type="float"></SimpleField>
	<SimpleField name="moderate_risk_ha" type="float"></SimpleField>
	<SimpleField name="grid_cell_deg" type="string"></SimpleField>
</Schema>
<Folder><name>task_grid_v6_45.61_60.96</name>
  <Placemark id="task_grid_v6_45.61_60.96.1">
	<name>task_grid_v6_45.61_60.96</name>
	<name>396.4</name>
	<description>3087.2</description>
	<Style><LineStyle><color>ff0000ff</color></LineStyle><PolyStyle><fill>0</fill></PolyStyle></Style>
	<ExtendedData><SchemaData schemaUrl="#task_grid_v6_45.61_60.96">
		<SimpleData name="area_ha">2690.8</SimpleData>
		<SimpleData name="low_risk_ha">0.1</SimpleData>
	</SchemaData></ExtendedData>
      <MultiGeometry><Polygon><outerBoundaryIs><LinearRing><coordinates>60.9102213862645,45.5625641451378 60.9102213862645,45.5657407423659 60.9130526171049,45.5647969987524 60.9157475629573,45.5674919446048 60.9224849275882,45.5674919446048 60.9197899817358,45.568839417531 60.9292222922191,45.5701868904572 60.9368450375385,45.5625641451378 60.9314551458337,45.5625641451378 60.9281058654118,45.5625641451378 60.9238324005144,45.5625641451378 60.9227800544843,45.5625641451378 60.9102213862645,45.5625641451378</coordinates></LinearRing></outerBoundaryIs><innerBoundaryIs><LinearRing><coordinates>60.9251798734405,45.5661444716786 60.9238324005144,45.5668182081417 60.9238324005144,45.5647969987524 60.9251798734405,45.5661444716786</coordinates></LinearRing></innerBoundaryIs></Polygon><Polygon><outerBoundaryIs><LinearRing><coordinates>60.9120566588551,45.5761040541764 60.9117051441788,45.576924255088 60.9184425088096,45.5782717280142 60.9197899817358,45.576924255088 60.9157475629573,45.5674919446048 60.9144000900311,45.5706360480992 60.9144000900311,45.568839417531 60.9102213862645,45.5667500656477 60.9102213862645,45.5775722722489 60.9120566588551,45.5761040541764</coordinates></LinearRing></outerBoundaryIs></Polygon><Polygon><outerBoundaryIs><LinearRing><coordinates>60.9251798734405,45.5877040384975 60.9238324005144,45.5836616197189 60.9197899817358,45.5877040384975 60.921137454662,45.5890515114237 60.9251798734405,45.5877040384975</coordinates></LinearRing></outerBoundaryIs></Polygon><Polygon><outerBoundaryIs><LinearRing><coordinates>60.9102213862645,45.6153297963099 60.9102213862645,45.6185596308116 60.9102213862645,45.6296119841971 60.9102213862645,45.6429958568002 60.9144000900311,45.6416029555446 60.9117051441788,45.6389080096923 60.9130526171049,45.6375605367661 60.9184425088096,45.6402554826185 60.9184425088096,45.6348655909138 60.9265273463667,45.6402554826185 60.9305697651453,45.6362130638399 60.9238324005144,45.629475699209 60.921137454662,45.6321706450614 60.9144000900311,45.6254332804305 60.9144000900311,45.6146534970211 60.9197899817358,45.6119585511687 60.9160170575425,45.6056703441799 60.9170950358835,45.6038737136116 60.9144000900311,45.6011787677593 60.9170950358835,45.5984838219069 60.9130526171049,45.591746457276 60.9144000900311,45.5903989843498 60.9102213862645,45.5883096324665 60.9102213862645,45.5945776881164 60.9102213862645,45.6151683045848 60.9102213862645,45.6153297963099</coordinates></LinearRing></outerBoundaryIs></Polygon><Polygon><outerBoundaryIs><LinearRing><coordinates>60.9197899817358,45.5984838219069 60.9184425088096,45.591746457276 60.9144000900311,45.5930939302022 60.9184425088096,45.5998312948331 60.9197899817358,45.5984838219069</coordinates></LinearRing></outerBoundaryIs></Polygon><Polygon><outerBoundaryIs><LinearRing><coordinates>60.9265273463667,45.6106110782425 60.9265273463667,45.6079161323902 60.921137454662,45.6079161323902 60.9197899817358,45.6092636053164 60.9265273463667,45.6106110782425</coordinates></LinearRing></outerBoundaryIs></Polygon><Polygon><outerBoundaryIs><LinearRing><coordinates>60.9305697651453,45.6146534970211 60.9332647109976,45.6173484428734 60.9319172380714,45.6186959157996 60.9238324005144,45.6160009699472 60.9197899817358,45.6200433887258 60.9251798734405,45.6227383345781 60.9224849275882,45.6254332804305 60.9265273463667,45.629475699209 60.9292222922191,45.6240858075043 60.9319172380714,45.6267807533567 60.9373071297762,45.6267807533567 60.9386546027023,45.6200433887258 60.9426970214809,45.6160009699472 60.9480869131856,45.6160009699472 60.9521293319641,45.6092636053164 60.9386546027023,45.5984838219069 60.9426970214809,45.5971363489807 60.9426970214809,45.5944414031284 60.9346121839238,45.5944414031284 60.9319172380714,45.5971363489807 60.9292222922191,45.591746457276 60.9251798734405,45.6038737136116 60.9265273463667,45.6052211865378 60.9319172380714,45.6025262406854 60.93595965685,45.606568659464 60.9278748192929,45.606568659464 60.9332647109976,45.6119585511687 60.9305697651453,45.6146534970211</coordinates></LinearRing></outerBoundaryIs></Polygon><Polygon><outerBoundaryIs><LinearRing><coordinates>61.0102213862645,45.5625641451378 60.9950271204297,45.5625641451378 60.9952484656019,45.5634495258263 61.0019858302328,45.5701868904572 61.0100706677898,45.5728818363095 61.0102213862645,45.5731330337673 61.0102213862645,45.5625641451378</coordinates></LinearRing></outerBoundaryIs></Polygon><Polygon><outerBoundaryIs><LinearRing><coordinates>60.9992908843804,45.5836616197189 60.9939009926757,45.5863565655713 60.9939009926757,45.5890515114237 60.9979434114542,45.5903989843498 60.9952484656019,45.5930939302022 60.9992908843804,45.5971363489807 61.0019858302328,45.5944414031284 61.0046807760851,45.5971363489807 61.0073757219375,45.591746457276 61.0102213862645,45.591746457276 61.0102213862645,45.5784224464889 61.0100706677898,45.5782717280142 61.0060282490113,45.5823141467928 61.0087231948637,45.5850090926451 61.0073757219375,45.5863565655713 61.0046807760851,45.5836616197189 60.9992908843804,45.5836616197189</coordinates></LinearRing></outerBoundaryIs></Polygon><Polygon><outerBoundaryIs><LinearRing><coordinates>60.9925535197495,45.5850090926451 60.9925535197495,45.5796192009404 60.9858161551186,45.5755767821619 60.9804262634139,45.5755767821619 60.9763838446354,45.5796192009404 60.9817737363401,45.5850090926451 60.9777313175615,45.5863565655713 60.9723414258568,45.5809666738666 60.9656040612259,45.5796192009404 60.9750363717092,45.5782717280142 60.9750363717092,45.5755767821619 60.958866696595,45.5728818363095 60.9534768048903,45.5674919446048 60.9507818590379,45.5755767821619 60.9467394402594,45.5715343633833 60.9467394402594,45.5661444716786 60.9503197668002,45.5625641451378 60.9440389510089,45.5625641451378 60.9413495485547,45.568839417531 60.9440444944071,45.5715343633833 60.9453919673332,45.5809666738666 60.9507818590379,45.5836616197189 60.9534768048903,45.5809666738666 60.9602141695212,45.5823141467928 60.9602141695212,45.5903989843498 60.9548242778165,45.5903989843498 60.9534768048903,45.5836616197189 60.9480869131856,45.5863565655713 60.9373071297762,45.5809666738666 60.9332647109976,45.5850090926451 60.9373071297762,45.591746457276 60.9480869131856,45.5944414031284 60.9507818590379,45.591746457276 60.9561717507427,45.5944414031284 60.9561717507427,45.5971363489807 60.9534768048903,45.5971363489807 60.9507818590379,45.5944414031284 60.9467394402594,45.6011787677593 60.9507818590379,45.6052211865378 60.9534768048903,45.6025262406854 60.958866696595,45.6025262406854 60.9602141695212,45.606568659464 60.9696464800045,45.6133060240949 60.9804262634139,45.6079161323902 60.9831212092663,45.6106110782425 60.988511100971,45.6106110782425 60.9939009926757,45.6186959157996 60.9952484656019,45.6119585511687 60.9992908843804,45.6079161323902 61.0006383573066,45.6092636053164 60.9979434114542,45.6119585511687 61.0060282490113,45.6173484428734 61.0060282490113,45.6200433887258 60.9979434114542,45.6200433887258 60.9979434114542,45.6308231721352 60.9952484656019,45.6335181179876 61.0033333031589,45.6389080096923 61.0046807760851,45.6456453743232 61.0100706677898,45.6456453743232 61.0102213862645,45.6455549432384 61.0102213862645,45.6375605367661 61.0100706677898,45.6375605367661 61.0073757219375,45.6321706450614 61.0006383573066,45.6308231721352 61.0060282490113,45.6281282262829 61.0102213862645,45.6197419517764 61.0102213862645,45.6161516884219 61.0087231948637,45.6146534970211 61.0102213862645,45.6146534970211 61.0102213862645,45.5974567476133 61.0046807760851,45.5998312948331 60.996595938528,45.5998312948331 60.9925535197495,45.5957888760546 60.9912060468233,45.5890515114237 60.9912060468233,45.5863565655713 60.9858161551186,45.5863565655713 60.9925535197495,45.5850090926451</coordinates></LinearRing></outerBoundaryIs><innerBoundaryIs><LinearRing><coordinates>60.9844686821924,45.5903989843498 60.9851424186555,45.5910727208129 60.9831212092663,45.591746457276 60.9817737363401,45.5903989843498 60.9858161551186,45.5863565655713 60.9844686821924,45.5903989843498</coordinates></LinearRing></innerBoundaryIs><innerBoundaryIs><LinearRing><coordinates>61.0019858302328,45.6025262406854 61.0033333031589,45.6038737136116 60.9992908843804,45.6052211865378 60.9979434114542,45.6038737136116 61.0019858302328,45.6025262406854</coordinates></LinearRing></innerBoundaryIs><innerBoundaryIs><LinearRing><coordinates>60.9426970214809,45.5863565655713 60.9426970214809,45.5890515114237 60.9400020756285,45.5890515114237 60.9386546027023,45.5877040384975 60.9426970214809,45.5863565655713</coordinates></LinearRing></innerBoundaryIs><innerBoundaryIs><LinearRing><coordinates>60.9669515341521,45.5863565655713 60.9642565882997,45.5863565655713 60.9642565882997,45.5836616197189 60.9682990070783,45.5850090926451 60.9669515341521,45.5863565655713</coordinates></LinearRing></innerBoundaryIs><innerBoundaryIs><LinearRing><coordinates>61.0033333031589,45.6119585511687 61.0046807760851,45.6106110782425 61.0046807760851,45.6133060240949 61.0033333031589,45.6119585511687</coordinates></LinearRing></innerBoundaryIs><innerBoundaryIs><LinearRing><coordinates>60.9871636280448,45.6011787677593 60.9858161551186,45.6025262406854 60.9858161551186,45.5998312948331 60.9871636280448,45.6011787677593</coordinates></LinearRing></innerBoundaryIs></Polygon><Polygon><outerBoundaryIs><LinearRing><coordinates>60.9844686821924,45.6173484428734 60.9831212092663,45.6133060240949 60.9790787904877,45.6173484428734 60.9804262634139,45.6186959157996 60.9844686821924,45.6173484428734</coordinates></LinearRing></outerBoundaryIs></Polygon><Polygon><outerBoundaryIs><LinearRing><coordinates>60.996595938528,45.6186959157996 61.0006383573066,45.6173484428734 60.9992908843804,45.6133060240949 60.9952484656019,45.6146534970211 60.996595938528,45.6186959157996</coordinates></LinearRing></outerBoundaryIs></Polygon><Polygon><outerBoundaryIs><LinearRing><coordinates>60.9925535197495,45.6227383345781 60.9912060468233,45.6186959157996 60.9871636280448,45.6200433887258 60.988511100971,45.6240858075043 60.9925535197495,45.6227383345781</coordinates></LinearRing></outerBoundaryIs></Polygon><Polygon><outerBoundaryIs><LinearRing><coordinates>60.9952484656019,45.6416029555446 60.9912060468233,45.6375605367661 60.9871636280448,45.6389080096923 60.9939009926757,45.6429504284708 60.9952484656019,45.6416029555446</coordinates></LinearRing></outerBoundaryIs></Polygon><Polygon><outerBoundaryIs><LinearRing><coordinates>60.9480869131856,45.6537302118803 60.9521293319641,45.6496877931017 60.9453919673332,45.6483403201755 60.9440444944071,45.6496877931017 60.9480869131856,45.6537302118803</coordinates></LinearRing></outerBoundaryIs></Polygon><Polygon><outerBoundaryIs><LinearRing><coordinates>60.9461410630337,45.6625641451378 60.9426970214809,45.659120103585 60.9420082131703,45.6625641451378 60.9461410630337,45.6625641451378</coordinates></LinearRing></outerBoundaryIs></Polygon><Polygon><outerBoundaryIs><LinearRing><coordinates>60.9757854674096,45.6625641451378 60.9750363717092,45.6618150494373 60.9748865525691,45.6625641451378 60.9757854674096,45.6625641451378</coordinates></LinearRing></outerBoundaryIs></Polygon><Polygon><outerBoundaryIs><LinearRing><coordinates>60.9811753591143,45.6625641451378 60.9804262634139,45.6618150494373 60.9796771677135,45.6625641451378 60.9811753591143,45.6625641451378</coordinates></LinearRing></outerBoundaryIs></Polygon></MultiGeometry>
  </Placemark>
</Folder>
</Document></kml>
