<?xml version="1.0" encoding="utf-8" ?>
<kml xmlns="http://www.opengis.net/kml/2.2">
<Document id="root_doc">
<Schema name="task_grid_v6_45.68_60.28" id="task_grid_v6_45.68_60.28">
	<SimpleField name="area_ha" type="float"></SimpleField>
	<SimpleField name="low_risk_ha" type="float"></SimpleField>
	<SimpleField name="moderate_risk_ha" type="float"></SimpleField>
	<SimpleField name="grid_cell_deg" type="string"></SimpleField>
</Schema>
<Folder><name>task_grid_v6_45.68_60.28</name>
  <Placemark id="task_grid_v6_45.68_60.28.1">
	<name>task_grid_v6_45.68_60.28</name>
	<name>726.5</name>
	<description>1181.4</description>
	<Style><LineStyle><color>ff0000ff</color></LineStyle><PolyStyle><fill>0</fill></PolyStyle></Style>
	<ExtendedData><SchemaData schemaUrl="#task_grid_v6_45.68_60.28">
		<SimpleData name="area_ha">454.9</SimpleData>
		<SimpleData name="low_risk_ha">0.1</SimpleData>
	</SchemaData></ExtendedData>
      <MultiGeometry><Polygon><outerBoundaryIs><LinearRing><coordinates>60.2263910613787,45.6483403201755 60.2285363706059,45.6483403201755 60.2312313164582,45.6402554826185 60.2420110998676,45.6375605367661 60.2441482856614,45.6343547580755 60.2294816131103,45.6343547580755 60.2263910613787,45.6343547580755 60.2263910613787,45.6411632462445 60.2263910613787,45.6418511552204 60.2263910613787,45.6483403201755</coordinates></LinearRing></outerBoundaryIs><innerBoundaryIs><LinearRing><coordinates>60.2325787893844,45.6362130638399 60.2269643188586,45.6407046402605 60.2285363706059,45.6375605367661 60.2325787893844,45.6362130638399</coordinates></LinearRing></innerBoundaryIs></Polygon><Polygon><outerBoundaryIs><LinearRing><coordinates>60.2352737352368,45.6469928472494 60.24470604572,45.6510352660279 60.24470604572,45.6456453743232 60.2366212081629,45.6456453743232 60.2352737352368,45.6469928472494</coordinates></LinearRing></outerBoundaryIs></Polygon><Polygon><outerBoundaryIs><LinearRing><coordinates>60.2581807749818,45.6510352660279 60.2527908832771,45.6564251577326 60.2474009915724,45.6564251577326 60.2487484644985,45.6550776848064 60.2393161540153,45.6537302118803 60.2379686810891,45.6604675765112 60.2393161540153,45.6618150494373 60.24470604572,45.659120103585 60.2406636269415,45.6631625223635 60.2500959374247,45.6645099952897 60.2608757208342,45.6564251577326 60.2635706666865,45.6618150494373 60.2635706666865,45.6483403201755 60.2608757208342,45.6483403201755 60.259528247908,45.6496877931017 60.2581807749818,45.6456453743232 60.2541383562033,45.6469928472494 60.2581807749818,45.6510352660279</coordinates></LinearRing></outerBoundaryIs></Polygon><Polygon><outerBoundaryIs><LinearRing><coordinates>60.2581807749818,45.6618150494373 60.2622231937603,45.6604675765112 60.2608757208342,45.6564251577326 60.2568333020556,45.6604675765112 60.2581807749818,45.6618150494373</coordinates></LinearRing></outerBoundaryIs></Polygon><Polygon><outerBoundaryIs><LinearRing><coordinates>60.2312313164582,45.6672049411421 60.2352737352368,45.6658574682159 60.2339262623106,45.6618150494373 60.229883843532,45.6658574682159 60.2312313164582,45.6672049411421</coordinates></LinearRing></outerBoundaryIs></Polygon><Polygon><outerBoundaryIs><LinearRing><coordinates>60.2770453959483,45.6456453743232 60.278147873797,45.6423379407771 60.282435287653,45.6483403201755 60.2878251793577,45.6510352660279 60.2986049627672,45.6483403201755 60.3012999086195,45.6456453743232 60.3039948544719,45.6483403201755 60.3066898003242,45.6456453743232 60.3128496765582,45.6487253124402 60.3080372732504,45.6496877931017 60.312079692029,45.6537302118803 60.320164529586,45.6537302118803 60.3228594754384,45.6510352660279 60.3263910613787,45.6545668519682 60.3263910613787,45.6464820144111 60.3263910613787,45.6402554826185 60.3228594754384,45.6402554826185 60.320164529586,45.6375605367661 60.3080372732504,45.6389080096923 60.3093847461766,45.6348655909138 60.3105766894659,45.6343547580755 60.2810878147268,45.6343547580755 60.2603648879959,45.6343547580755 60.2622231937603,45.6362130638399 60.259528247908,45.6389080096923 60.2608757208342,45.6402554826185 60.2689605583912,45.6402554826185 60.2770453959483,45.6456453743232</coordinates></LinearRing></outerBoundaryIs><innerBoundaryIs><LinearRing><coordinates>60.3174695837337,45.6510352660279 60.320164529586,45.6456453743232 60.3223204862679,45.6478013310051 60.3174695837337,45.6510352660279</coordinates></LinearRing></innerBoundaryIs><innerBoundaryIs><LinearRing><coordinates>60.2703080313174,45.6362130638399 60.2716555042436,45.6348655909138 60.2730029771698,45.6362130638399 60.2703080313174,45.6362130638399</coordinates></LinearRing></innerBoundaryIs></Polygon><Polygon><outerBoundaryIs><LinearRing><coordinates>60.3093847461766,45.6564251577326 60.3107322191028,45.6550776848064 60.3066898003242,45.6510352660279 60.3053423273981,45.6550776848064 60.3093847461766,45.6564251577326</coordinates></LinearRing></outerBoundaryIs></Polygon><Polygon><outerBoundaryIs><LinearRing><coordinates>60.2716555042436,45.6564251577326 60.274350450096,45.659120103585 60.2783928688745,45.6550776848064 60.2770453959483,45.6510352660279 60.2716555042436,45.6510352660279 60.2689605583912,45.6537302118803 60.2662656125389,45.6510352660279 60.2649181396127,45.6577726306588 60.2689605583912,45.659120103585 60.2716555042436,45.6564251577326</coordinates></LinearRing></outerBoundaryIs></Polygon><Polygon><outerBoundaryIs><LinearRing><coordinates>60.2797403418007,45.6483403201755 60.2783928688745,45.6550776848064 60.2809653171881,45.6569151478876 60.2783928688745,45.6577726306588 60.282435287653,45.6618150494373 60.2837827605792,45.6604675765112 60.2831090241161,45.6584463671219 60.2878251793577,45.6618150494373 60.2918675981363,45.6550776848064 60.2851302335054,45.6510352660279 60.282435287653,45.6537302118803 60.2797403418007,45.6483403201755</coordinates></LinearRing></outerBoundaryIs></Polygon><Polygon><outerBoundaryIs><LinearRing><coordinates>60.3263910613787,45.6590830984673 60.3263910613787,45.6555885176447 60.3242069483646,45.6577726306588 60.3263910613787,45.6590830984673</coordinates></LinearRing></outerBoundaryIs></Polygon></MultiGeometry>
  </Placemark>
</Folder>
</Document></kml>
