<?xml version="1.0" encoding="utf-8" ?>
<kml xmlns="http://www.opengis.net/kml/2.2">
<Document id="root_doc">
<Schema name="task_grid_v6_45.28_59.38" id="task_grid_v6_45.28_59.38">
	<SimpleField name="area_ha" type="float"></SimpleField>
	<SimpleField name="low_risk_ha" type="float"></SimpleField>
	<SimpleField name="moderate_risk_ha" type="float"></SimpleField>
	<SimpleField name="grid_cell_deg" type="string"></SimpleField>
</Schema>
<Folder><name>task_grid_v6_45.28_59.38</name>
  <Placemark id="task_grid_v6_45.28_59.38.1">
	<name>task_grid_v6_45.28_59.38</name>
	<name>2167.5</name>
	<description>2560</description>
	<Style><LineStyle><color>ff0000ff</color></LineStyle><PolyStyle><fill>0</fill></PolyStyle></Style>
	<ExtendedData><SchemaData schemaUrl="#task_grid_v6_45.28_59.38">
		<SimpleData name="area_ha">392.5</SimpleData>
		<SimpleData name="low_risk_ha">0.1</SimpleData>
	</SchemaData></ExtendedData>
      <MultiGeometry><Polygon><outerBoundaryIs><LinearRing><coordinates>59.3809759000391,45.2373610776909 59.3850183188176,45.238708550617 59.3863657917438,45.2373610776909 59.3845619999746,45.2343547580755 59.3815771639622,45.2343547580755 59.3809759000391,45.2373610776909</coordinates></LinearRing></outerBoundaryIs></Polygon><Polygon><outerBoundaryIs><LinearRing><coordinates>59.3553739144417,45.238708550617 59.3634587519988,45.2494883340265 59.3675011707773,45.2508358069527 59.3688486437035,45.2602681174359 59.3742385354082,45.2575731715836 59.3755860083344,45.2589206445097 59.372891062482,45.2616155903621 59.372891062482,45.2670054820668 59.3755860083344,45.2697004279192 59.372891062482,45.2723953737715 59.3742385354082,45.2818276842548 59.3782809541867,45.2777852654762 59.3755860083344,45.2750903196239 59.3782809541867,45.2723953737715 59.3782809541867,45.253530752805 59.3755860083344,45.2508358069527 59.3755860083344,45.2400560235432 59.372891062482,45.2373610776909 59.372891062482,45.2343547580755 59.3384795139274,45.2343547580755 59.3378567664014,45.2346661318385 59.3418991851799,45.238708550617 59.349984022737,45.238708550617 59.3526789685893,45.2414034964694 59.3553739144417,45.238708550617</coordinates></LinearRing></outerBoundaryIs><innerBoundaryIs><LinearRing><coordinates>59.3701961166296,45.253530752805 59.3715435895558,45.2521832798788 59.372891062482,45.253530752805 59.3701961166296,45.253530752805</coordinates></LinearRing></innerBoundaryIs><innerBoundaryIs><LinearRing><coordinates>59.3607638061464,45.238708550617 59.3621112790726,45.2400560235432 59.3607638061464,45.2414034964694 59.3607638061464,45.238708550617</coordinates></LinearRing></innerBoundaryIs><innerBoundaryIs><LinearRing><coordinates>59.3701961166296,45.2346661318385 59.3688486437035,45.2360136047647 59.3675011707773,45.2346661318385 59.3701961166296,45.2346661318385</coordinates></LinearRing></innerBoundaryIs></Polygon><Polygon><outerBoundaryIs><LinearRing><coordinates>59.3392042393275,45.2845226301071 59.3405517122537,45.283175157181 59.3392042393275,45.2764377925501 59.335161820549,45.2777852654762 59.3392042393275,45.2845226301071</coordinates></LinearRing></outerBoundaryIs></Polygon><Polygon><outerBoundaryIs><LinearRing><coordinates>59.3284244559181,45.2656580091406 59.3263910613787,45.26769140368 59.3263910613787,45.2721667332338 59.3392042393275,45.2764377925501 59.3459416039584,45.2858701030333 59.3418991851799,45.2872175759595 59.3392042393275,45.2845226301071 59.3378567664014,45.2885650488857 59.3405517122537,45.291259994738 59.3405517122537,45.2966498864428 59.335161820549,45.2993448322951 59.3338143476228,45.3033872510737 59.3284244559181,45.306082196926 59.3263910613787,45.3040488023866 59.3263910613787,45.3152912824938 59.3365092934752,45.3141670344831 59.3413601960094,45.3109330994603 59.3445941310322,45.3141670344831 59.3418991851799,45.3114720886307 59.3405517122537,45.3128195615569 59.3398779757906,45.3155145074093 59.3324668746966,45.3155145074093 59.3365092934752,45.3222518720402 59.3393967354598,45.3174394687324 59.3378567664014,45.3235993449663 59.3405517122537,45.3262942908187 59.3405517122537,45.3316841825234 59.3445941310322,45.3330316554496 59.3453879926078,45.3343547580755 59.3522216875138,45.3343547580755 59.3513314956631,45.3316841825234 59.3567213873679,45.3235993449663 59.3567213873679,45.3047347239998 59.3594163332202,45.2993448322951 59.3688486437035,45.2899125218119 59.3715435895558,45.2926074676642 59.372891062482,45.291259994738 59.3701961166296,45.2670054820668 59.3648062249249,45.2643105362145 59.3634587519988,45.2602681174359 59.358068860294,45.268352954993 59.3526789685893,45.2710479008453 59.3472890768846,45.2710479008453 59.3392042393275,45.2656580091406 59.3284244559181,45.2656580091406</coordinates></LinearRing></outerBoundaryIs><innerBoundaryIs><LinearRing><coordinates>59.3534489531186,45.3056972046614 59.3530639608539,45.3045422278675 59.3540264415155,45.3047347239998 59.3534489531186,45.3056972046614</coordinates></LinearRing></innerBoundaryIs><innerBoundaryIs><LinearRing><coordinates>59.349984022737,45.2872175759595 59.3540264415155,45.291259994738 59.3526789685893,45.2926074676642 59.3486365498108,45.2885650488857 59.349984022737,45.2872175759595</coordinates></LinearRing></innerBoundaryIs><innerBoundaryIs><LinearRing><coordinates>59.335161820549,45.3074296698522 59.3338143476228,45.3087771427784 59.3338143476228,45.306082196926 59.335161820549,45.3074296698522</coordinates></LinearRing></innerBoundaryIs><innerBoundaryIs><LinearRing><coordinates>59.3445941310322,45.2791327384024 59.3432466581061,45.2777852654762 59.3459416039584,45.2777852654762 59.3445941310322,45.2791327384024</coordinates></LinearRing></innerBoundaryIs></Polygon><Polygon><outerBoundaryIs><LinearRing><coordinates>59.372891062482,45.3047347239998 59.3688486437035,45.3006923052213 59.3675011707773,45.3074296698522 59.3715435895558,45.3087771427784 59.372891062482,45.3047347239998</coordinates></LinearRing></outerBoundaryIs></Polygon><Polygon><outerBoundaryIs><LinearRing><coordinates>59.3634587519988,45.3141670344831 59.3648062249249,45.3128195615569 59.3634587519988,45.3033872510737 59.3621112790726,45.3047347239998 59.3634587519988,45.3141670344831</coordinates></LinearRing></outerBoundaryIs></Polygon><Polygon><outerBoundaryIs><LinearRing><coordinates>59.3688486437035,45.3168619803354 59.3701961166296,45.3101246157045 59.3675011707773,45.3074296698522 59.3661536978511,45.306082196926 59.3648062249249,45.3101246157045 59.3688486437035,45.3168619803354</coordinates></LinearRing></outerBoundaryIs></Polygon><Polygon><outerBoundaryIs><LinearRing><coordinates>59.372891062482,45.3316841825234 59.3755860083344,45.3289892366711 59.372891062482,45.3262942908187 59.372891062482,45.3182094532616 59.3688486437035,45.3168619803354 59.3661536978511,45.3195569261878 59.3634587519988,45.3168619803354 59.3621112790726,45.3235993449663 59.3537459577655,45.3343547580755 59.3594407035205,45.3343547580755 59.3594407035205,45.3343547580755 59.3621275259394,45.3343547580755 59.3629689771896,45.3343547580755 59.372891062482,45.3343547580755 59.372891062482,45.3316841825234</coordinates></LinearRing></outerBoundaryIs><innerBoundaryIs><LinearRing><coordinates>59.3621112790726,45.3316841825234 59.3661536978511,45.3222518720402 59.3675011707773,45.3262942908187 59.3623679405823,45.3339941361112 59.3607638061464,45.3330316554496 59.3621112790726,45.3316841825234</coordinates></LinearRing></innerBoundaryIs></Polygon><Polygon><outerBoundaryIs><LinearRing><coordinates>59.3974569489163,45.2343547580755 59.3944506293009,45.2343547580755 59.3944506293009,45.2427509693956 59.3984930480794,45.2467933881741 59.3998405210056,45.2373610776909 59.3971455751532,45.2346661318385 59.3974569489163,45.2343547580755</coordinates></LinearRing></outerBoundaryIs></Polygon><Polygon><outerBoundaryIs><LinearRing><coordinates>59.3931031563747,45.2494883340265 59.3944506293009,45.2454459152479 59.3904082105223,45.2414034964694 59.3890607375962,45.2454459152479 59.3931031563747,45.2494883340265</coordinates></LinearRing></outerBoundaryIs></Polygon><Polygon><outerBoundaryIs><LinearRing><coordinates>59.410620304415,45.2454459152479 59.4160101961197,45.2346661318385 59.4156988223567,45.2343547580755 59.4104646175335,45.2343547580755 59.410620304415,45.2346661318385 59.4079253585627,45.2400560235432 59.4092728314888,45.2629630632883 59.4133152502674,45.253530752805 59.410620304415,45.2508358069527 59.410620304415,45.2454459152479</coordinates></LinearRing></outerBoundaryIs></Polygon><Polygon><outerBoundaryIs><LinearRing><coordinates>59.4079253585627,45.2589206445097 59.4065778856365,45.2494883340265 59.4052304127103,45.2508358069527 59.4065778856365,45.2602681174359 59.4079253585627,45.2589206445097</coordinates></LinearRing></outerBoundaryIs></Polygon><Polygon><outerBoundaryIs><LinearRing><coordinates>59.4079253585627,45.2643105362145 59.3998405210056,45.2643105362145 59.402535466858,45.2670054820668 59.3984930480794,45.2656580091406 59.3944506293009,45.2697004279192 59.3984930480794,45.2710479008453 59.3998405210056,45.2697004279192 59.4038829397841,45.2737428466977 59.4079253585627,45.2643105362145</coordinates></LinearRing></outerBoundaryIs></Polygon><Polygon><outerBoundaryIs><LinearRing><coordinates>59.3971455751532,45.283175157181 59.3957981022271,45.2791327384024 59.3917556834485,45.2804802113286 59.3957981022271,45.2845226301071 59.3971455751532,45.283175157181</coordinates></LinearRing></outerBoundaryIs></Polygon><Polygon><outerBoundaryIs><LinearRing><coordinates>59.3971455751532,45.2993448322951 59.3998405210056,45.2966498864428 59.3984930480794,45.2926074676642 59.3944506293009,45.2966498864428 59.3944506293009,45.3020397781475 59.3890607375962,45.3074296698522 59.3904082105223,45.3087771427784 59.3971455751532,45.3047347239998 59.3971455751532,45.2993448322951</coordinates></LinearRing></outerBoundaryIs></Polygon><Polygon><outerBoundaryIs><LinearRing><coordinates>59.3944506293009,45.3182094532616 59.3931031563747,45.3114720886307 59.3890607375962,45.3182094532616 59.3904082105223,45.3222518720402 59.3944506293009,45.3182094532616</coordinates></LinearRing></outerBoundaryIs></Polygon><Polygon><outerBoundaryIs><LinearRing><coordinates>59.3912634778117,45.3343547580755 59.3904082105223,45.3249468178925 59.3893628838353,45.3343547580755 59.3912634778117,45.3343547580755</coordinates></LinearRing></outerBoundaryIs></Polygon></MultiGeometry>
  </Placemark>
</Folder>
</Document></kml>
