<?xml version="1.0" encoding="utf-8" ?>
<kml xmlns="http://www.opengis.net/kml/2.2">
<Document id="root_doc">
<Schema name="task_grid_v6_44.71_61.16" id="task_grid_v6_44.71_61.16">
	<SimpleField name="area_ha" type="float"></SimpleField>
	<SimpleField name="low_risk_ha" type="float"></SimpleField>
	<SimpleField name="moderate_risk_ha" type="float"></SimpleField>
	<SimpleField name="grid_cell_deg" type="string"></SimpleField>
</Schema>
<Folder><name>task_grid_v6_44.71_61.16</name>
  <Placemark id="task_grid_v6_44.71_61.16.1">
	<name>task_grid_v6_44.71_61.16</name>
	<name>0</name>
	<description>51.2</description>
	<Style><LineStyle><color>ff0000ff</color></LineStyle><PolyStyle><fill>0</fill></PolyStyle></Style>
	<ExtendedData><SchemaData schemaUrl="#task_grid_v6_44.71_61.16">
		<SimpleData name="area_ha">51.2</SimpleData>
		<SimpleData name="low_risk_ha">0.1</SimpleData>
	</SchemaData></ExtendedData>
      <MultiGeometry><Polygon><outerBoundaryIs><LinearRing><coordinates>61.1636825813743,44.70510927185 61.1677250001528,44.7010668530715 61.1529027979648,44.6997193801453 61.1515553250387,44.7010668530715 61.1636825813743,44.70510927185</coordinates></LinearRing></outerBoundaryIs></Polygon><Polygon><outerBoundaryIs><LinearRing><coordinates>61.1946744586764,44.7064567447762 61.1933269857502,44.7024143259977 61.1892845669717,44.7037617989239 61.1933269857502,44.7078042177024 61.1946744586764,44.7064567447762</coordinates></LinearRing></outerBoundaryIs></Polygon></MultiGeometry>
  </Placemark>
</Folder>
</Document></kml>
