<?xml version="1.0" encoding="utf-8" ?>
<kml xmlns="http://www.opengis.net/kml/2.2">
<Document id="root_doc">
<Schema name="task_grid_v6_45.78_59.88" id="task_grid_v6_45.78_59.88">
	<SimpleField name="area_ha" type="float"></SimpleField>
	<SimpleField name="low_risk_ha" type="float"></SimpleField>
	<SimpleField name="moderate_risk_ha" type="float"></SimpleField>
	<SimpleField name="grid_cell_deg" type="string"></SimpleField>
</Schema>
<Folder><name>task_grid_v6_45.78_59.88</name>
  <Placemark id="task_grid_v6_45.78_59.88.1">
	<name>task_grid_v6_45.78_59.88</name>
	<name>1907.8</name>
	<description>2346.3</description>
	<Style><LineStyle><color>ff0000ff</color></LineStyle><PolyStyle><fill>0</fill></PolyStyle></Style>
	<ExtendedData><SchemaData schemaUrl="#task_grid_v6_45.78_59.88">
		<SimpleData name="area_ha">438.5</SimpleData>
		<SimpleData name="low_risk_ha">0.1</SimpleData>
	</SchemaData></ExtendedData>
      <MultiGeometry><Polygon><outerBoundaryIs><LinearRing><coordinates>59.8552863700542,45.7467058437866 59.853938897128,45.734578587451 59.8498964783495,45.7359260603772 59.8485490054233,45.734578587451 59.8458540595709,45.7372735333034 59.844394671957,45.7343547580755 59.8263910613787,45.7343547580755 59.8263910613787,45.7455578299357 59.8269894386044,45.7453583708605 59.8277594231337,45.7465133476543 59.8263910613787,45.7460572270693 59.8263910613787,45.7486516939385 59.8280674169454,45.7469753383719 59.8323793303091,45.7534432084175 59.8350742761615,45.7507482625652 59.8364217490877,45.7520957354914 59.8296843844568,45.7561381542699 59.8296843844568,45.7588331001222 59.8431591137186,45.7588331001222 59.8485490054233,45.7561381542699 59.8593287888327,45.7615280459746 59.8647186805375,45.7615280459746 59.8701085722422,45.772307829384 59.8741509910207,45.7655704647531 59.8714560451683,45.7601805730484 59.8741509910207,45.7574856271961 59.8647186805375,45.7453583708605 59.8606762617589,45.7467058437866 59.8593287888327,45.7453583708605 59.8566338429804,45.7480533167128 59.8552863700542,45.7467058437866</coordinates></LinearRing></outerBoundaryIs><innerBoundaryIs><LinearRing><coordinates>59.8620237346851,45.7507482625652 59.8512439512757,45.7534432084175 59.853938897128,45.7507482625652 59.8633712076113,45.749400789639 59.8620237346851,45.7507482625652</coordinates></LinearRing></innerBoundaryIs></Polygon><Polygon><outerBoundaryIs><LinearRing><coordinates>59.8741509910207,45.7763502481626 59.8701085722422,45.772307829384 59.8660661534636,45.7736553023102 59.8674136263898,45.7776977210888 59.8741509910207,45.7763502481626</coordinates></LinearRing></outerBoundaryIs></Polygon><Polygon><outerBoundaryIs><LinearRing><coordinates>59.8660661534636,45.7925199232767 59.8660661534636,45.8006047608338 59.8701085722422,45.8046471796123 59.8808883556516,45.8046471796123 59.8889731932087,45.7992572879076 59.8970580307657,45.7992572879076 59.9024479224705,45.80195223376 59.9091852871014,45.7979098149814 59.906490341249,45.7952148691291 59.9078378141752,45.7938673962029 59.9105327600275,45.7938673962029 59.9132277058799,45.7965623420553 59.921312543437,45.7965623420553 59.9263910613787,45.801640859997 59.9263910613787,45.7963547595466 59.9186175975846,45.7911724503506 59.9186175975846,45.7857825586458 59.921312543437,45.7884775044982 59.9263910613787,45.7859382455273 59.9263910613787,45.764845739353 59.9263910613787,45.7615280459746 59.9240074892893,45.7615280459746 59.9226600163632,45.7682654106055 59.9240074892893,45.7696128835317 59.921312543437,45.7669179376793 59.9186175975846,45.7696128835317 59.9078378141752,45.7696128835317 59.9024479224705,45.7776977210888 59.8970580307657,45.7776977210888 59.891668139061,45.7830876127935 59.8808883556516,45.7830876127935 59.8728035180945,45.7776977210888 59.8674136263898,45.7776977210888 59.8620237346851,45.7776977210888 59.8606762617589,45.7790451940149 59.8633712076113,45.7817401398673 59.8606762617589,45.7844350857197 59.8639101967817,45.7860520532311 59.8606762617589,45.787130031572 59.8647186805375,45.7938673962029 59.8660661534636,45.7925199232767</coordinates></LinearRing></outerBoundaryIs><innerBoundaryIs><LinearRing><coordinates>59.8648683997515,45.7865311547159 59.8660661534636,45.787130031572 59.8660661534636,45.7925199232767 59.8648683997515,45.7865311547159</coordinates></LinearRing></innerBoundaryIs><innerBoundaryIs><LinearRing><coordinates>59.9159226517323,45.7884775044982 59.9091852871014,45.7898249774244 59.9186175975846,45.7857825586458 59.9159226517323,45.7884775044982</coordinates></LinearRing></innerBoundaryIs><innerBoundaryIs><LinearRing><coordinates>59.8876257202825,45.7952148691291 59.8808883556516,45.7965623420553 59.883583301504,45.7911724503506 59.8876257202825,45.7952148691291</coordinates></LinearRing></innerBoundaryIs><innerBoundaryIs><LinearRing><coordinates>59.8781934097992,45.7884775044982 59.8768459368731,45.787130031572 59.8795408827254,45.787130031572 59.8781934097992,45.7884775044982</coordinates></LinearRing></innerBoundaryIs></Polygon><Polygon><outerBoundaryIs><LinearRing><coordinates>59.8647186805375,45.8181219088741 59.868761099316,45.816774435948 59.8674136263898,45.8100370713171 59.8633712076113,45.816774435948 59.8647186805375,45.8181219088741</coordinates></LinearRing></outerBoundaryIs></Polygon><Polygon><outerBoundaryIs><LinearRing><coordinates>59.8364217490877,45.8221643276527 59.8431591137186,45.8235118005789 59.8431591137186,45.8208168547265 59.8377692220139,45.8208168547265 59.8364217490877,45.8221643276527</coordinates></LinearRing></outerBoundaryIs></Polygon><Polygon><outerBoundaryIs><LinearRing><coordinates>59.8377692220139,45.8262067464312 59.83911669494,45.824859273505 59.8350742761615,45.8208168547265 59.8323793303091,45.8235118005789 59.8263910613787,45.8235118005789 59.8263910613787,45.8287022332083 59.8269894386044,45.8289016922836 59.8296843844568,45.8262067464312 59.8377692220139,45.8262067464312</coordinates></LinearRing></outerBoundaryIs></Polygon><Polygon><outerBoundaryIs><LinearRing><coordinates>59.8418116407924,45.8302491652098 59.8418116407924,45.8343547580755 59.8495526108528,45.8343547580755 59.8472015324971,45.8329441110621 59.8512439512757,45.8315966381359 59.8512439512757,45.8289016922836 59.8418116407924,45.8302491652098</coordinates></LinearRing></outerBoundaryIs></Polygon><Polygon><outerBoundaryIs><LinearRing><coordinates>59.8566970170676,45.8343547580755 59.8566338429804,45.8342915839883 59.8565706688932,45.8343547580755 59.8566970170676,45.8343547580755</coordinates></LinearRing></outerBoundaryIs></Polygon><Polygon><outerBoundaryIs><LinearRing><coordinates>59.9263910613787,45.7343547580755 59.9261186800961,45.7343547580755 59.9263910613787,45.7357166644884 59.9263910613787,45.7343547580755</coordinates></LinearRing></outerBoundaryIs></Polygon><Polygon><outerBoundaryIs><LinearRing><coordinates>59.891668139061,45.7561381542699 59.8930156119872,45.7547906813437 59.891668139061,45.7507482625652 59.8876257202825,45.7520957354914 59.891668139061,45.7561381542699</coordinates></LinearRing></outerBoundaryIs></Polygon><Polygon><outerBoundaryIs><LinearRing><coordinates>59.8889731932087,45.772307829384 59.8849307744301,45.7790451940149 59.8889731932087,45.7803926669411 59.8943630849134,45.7750027752364 59.8970580307657,45.7776977210888 59.8970580307657,45.772307829384 59.8889731932087,45.772307829384</coordinates></LinearRing></outerBoundaryIs></Polygon><Polygon><outerBoundaryIs><LinearRing><coordinates>59.9246812257524,45.8120582807063 59.921312543437,45.8100370713171 59.9145751788061,45.8113845442432 59.9186175975846,45.8154269630218 59.9263910613787,45.8143164681941 59.9263910613787,45.813279591868 59.9263910613787,45.8130841820821 59.9263910613787,45.8087722687183 59.9240074892893,45.8073421254647 59.9199650705108,45.8086895983909 59.9246812257524,45.8120582807063</coordinates></LinearRing></outerBoundaryIs></Polygon><Polygon><outerBoundaryIs><LinearRing><coordinates>59.9011004495443,45.8194693818003 59.9078378141752,45.8262067464312 59.9132277058799,45.8262067464312 59.9172701246584,45.8221643276527 59.9024479224705,45.8154269630218 59.9011004495443,45.8194693818003</coordinates></LinearRing></outerBoundaryIs></Polygon><Polygon><outerBoundaryIs><LinearRing><coordinates>59.8930156119872,45.824859273505 59.891668139061,45.8208168547265 59.8876257202825,45.824859273505 59.8889731932087,45.8262067464312 59.8930156119872,45.824859273505</coordinates></LinearRing></outerBoundaryIs></Polygon></MultiGeometry>
  </Placemark>
</Folder>
</Document></kml>
