<?xml version="1.0" encoding="utf-8" ?>
<kml xmlns="http://www.opengis.net/kml/2.2">
<Document id="root_doc">
<Schema name="task_grid_v6_45.41_61.06" id="task_grid_v6_45.41_61.06">
	<SimpleField name="area_ha" type="float"></SimpleField>
	<SimpleField name="low_risk_ha" type="float"></SimpleField>
	<SimpleField name="moderate_risk_ha" type="float"></SimpleField>
	<SimpleField name="grid_cell_deg" type="string"></SimpleField>
</Schema>
<Folder><name>task_grid_v6_45.41_61.06</name>
  <Placemark id="task_grid_v6_45.41_61.06.1">
	<name>task_grid_v6_45.41_61.06</name>
	<name>4416.3</name>
	<description>6192.5</description>
	<Style><LineStyle><color>ff0000ff</color></LineStyle><PolyStyle><fill>0</fill></PolyStyle></Style>
	<ExtendedData><SchemaData schemaUrl="#task_grid_v6_45.41_61.06">
		<SimpleData name="area_ha">1776.1</SimpleData>
		<SimpleData name="low_risk_ha">0.1</SimpleData>
	</SchemaData></ExtendedData>
      <MultiGeometry><Polygon><outerBoundaryIs><LinearRing><coordinates>61.034362485357,45.3625641451378 61.0342132657733,45.3625641451378 61.0343251804611,45.3626760598255 61.034362485357,45.3625641451378</coordinates></LinearRing></outerBoundaryIs></Polygon><Polygon><outerBoundaryIs><LinearRing><coordinates>61.0631861820227,45.3625641451378 61.063969584837,45.3626760598255 61.063969584837,45.3625641451378 61.0631861820227,45.3625641451378</coordinates></LinearRing></outerBoundaryIs></Polygon><Polygon><outerBoundaryIs><LinearRing><coordinates>61.0430277971373,45.3625641451378 61.0437574909443,45.3640235327517 61.0424100180181,45.3653710056779 61.0383675992396,45.3640235327517 61.0383675992396,45.3625641451378 61.0356726533872,45.3625641451378 61.0356726533872,45.3667184786041 61.0365388859826,45.3671997189348 61.0248928699778,45.3640235327517 61.0248928699778,45.3667184786041 61.0356726533872,45.3748033161612 61.0329777075349,45.3828881537182 61.0316302346087,45.381540680792 61.0275878158302,45.3828881537182 61.0275878158302,45.3855830995706 61.0309564981456,45.3862568360337 61.026240342904,45.3869305724968 61.0221979241255,45.3909729912753 61.0221979241255,45.4044477205371 61.0102213862645,45.4186018107364 61.0102213862645,45.4307981594531 61.0126863505289,45.430446021701 61.011418140716,45.4313971790607 61.0106481561868,45.4337071326484 61.0102213862645,45.4334937476873 61.0102213862645,45.4349874424151 61.0102213862645,45.4360867156655 61.0102213862645,45.4625641451378 61.0366699487635,45.4625641451378 61.0449298750955,45.4625641451378 61.0460032791546,45.4614907410787 61.0477999097229,45.4623890563628 61.049147382649,45.4610415834366 61.049147382649,45.4475668541748 61.0504948555752,45.4543042188057 61.0558847472799,45.4543042188057 61.0612746389846,45.4462193812487 61.0666645306894,45.4435244353963 61.0693594765417,45.4462193812487 61.0707069494679,45.4448719083225 61.0680120036156,45.434092124913 61.0734018953203,45.4313971790607 61.0666645306894,45.4300497061345 61.0801392599512,45.4246598144298 61.0814867328773,45.4233123415036 61.0828342058035,45.4246598144298 61.0868766245821,45.4233123415036 61.0976564079915,45.4071426663895 61.0963089350653,45.4031002476109 61.0868766245821,45.4098376122418 61.0976564079915,45.4017527746847 61.1003513538438,45.4044477205371 61.1003513538438,45.4098376122418 61.0949614621391,45.4125325580942 61.0963089350653,45.4165749768727 61.0949614621391,45.4179224497989 61.093613989213,45.4165749768727 61.0922665162868,45.4206173956512 61.0963089350653,45.4219648685774 61.0976564079915,45.4206173956512 61.0963089350653,45.4192699227251 61.1003513538438,45.4179224497989 61.0992488759952,45.4146150162528 61.1043937726224,45.411185085168 61.1097836643271,45.4138800310204 61.1102213862645,45.4132234481142 61.1102213862645,45.3838322118209 61.1102213862645,45.383797904707 61.1102213862645,45.3810686517407 61.1102213862645,45.3792834568771 61.1102213862645,45.3739278722863 61.1102213862645,45.3625641451378 61.1063590246678,45.3625641451378 61.1062277080865,45.3625641451378 61.0974034757758,45.3625641451378 61.0964208497531,45.3625641451378 61.080195217295,45.3625641451378 61.0746374535587,45.3625641451378 61.0747493682464,45.3626760598255 61.0732334612045,45.3638550986359 61.0719425077063,45.3625641451378 61.0640814995248,45.3625641451378 61.063969584837,45.3626760598255 61.0626221119108,45.3640235327517 61.063969584837,45.3707608973826 61.0643545771016,45.3707608973826 61.0626221119108,45.3721083703088 61.0585796931323,45.3653710056779 61.0558847472799,45.3707608973826 61.0504948555752,45.3707608973826 61.0504948555752,45.3707608973826 61.0518423285014,45.3694134244564 61.0508156824624,45.3678734553979 61.0572322202061,45.3640235327517 61.0550431387852,45.3625641451378 61.047276142289,45.3625641451378 61.0471937717397,45.3625641451378 61.0430277971373,45.3625641451378</coordinates></LinearRing></outerBoundaryIs><innerBoundaryIs><LinearRing><coordinates>61.0949614621391,45.3936679371277 61.1084361914009,45.3909729912753 61.1003513538438,45.3936679371277 61.1030462996962,45.3990578288324 61.0976564079915,45.4017527746847 61.0949614621391,45.3936679371277</coordinates></LinearRing></innerBoundaryIs><innerBoundaryIs><LinearRing><coordinates>61.1057412455486,45.3730066855929 61.1057412455486,45.3694134244564 61.1084361914009,45.3667184786041 61.1057412455486,45.3730066855929</coordinates></LinearRing></innerBoundaryIs><innerBoundaryIs><LinearRing><coordinates>61.1043937726224,45.3761507890873 61.1033831679278,45.3755893420348 61.1048429302644,45.3751027545892 61.1043937726224,45.3761507890873</coordinates></LinearRing></innerBoundaryIs><innerBoundaryIs><LinearRing><coordinates>61.0922665162868,45.3694134244564 61.0928884268681,45.368584210348 61.0933689941355,45.3700259121501 61.0922665162868,45.3694134244564</coordinates></LinearRing></innerBoundaryIs><innerBoundaryIs><LinearRing><coordinates>61.0168080324207,45.4179224497989 61.0178860107617,45.4211563848217 61.0168080324207,45.4206173956512 61.0168080324207,45.4179224497989</coordinates></LinearRing></innerBoundaryIs><innerBoundaryIs><LinearRing><coordinates>61.0302827616825,45.3995478189874 61.0302827616825,45.4017527746847 61.0168080324207,45.4179224497989 61.0302827616825,45.3995478189874</coordinates></LinearRing></innerBoundaryIs><innerBoundaryIs><LinearRing><coordinates>61.0424100180181,45.3869305724968 61.0316302346087,45.3977103559062 61.0316302346087,45.3977103559062 61.0424100180181,45.3869305724968</coordinates></LinearRing></innerBoundaryIs><innerBoundaryIs><LinearRing><coordinates>61.0558847472799,45.381540680792 61.0580407039618,45.3836966374739 61.0569627256209,45.3853136049854 61.0545372743538,45.3828881537182 61.0558847472799,45.381540680792</coordinates></LinearRing></innerBoundaryIs><innerBoundaryIs><LinearRing><coordinates>61.0653170577632,45.3801932078659 61.063969584837,45.381540680792 61.0616115072162,45.3791826031712 61.0626221119108,45.3774982620135 61.0653170577632,45.3801932078659</coordinates></LinearRing></innerBoundaryIs><innerBoundaryIs><LinearRing><coordinates>61.0437574909443,45.3721083703088 61.0417362815551,45.3700871609195 61.0470649244904,45.3730475181058 61.0424100180181,45.3761507890873 61.041062545092,45.3748033161612 61.0437574909443,45.3721083703088</coordinates></LinearRing></innerBoundaryIs><innerBoundaryIs><LinearRing><coordinates>61.026240342904,45.3950154100538 61.0248928699778,45.3936679371277 61.0275878158302,45.3936679371277 61.026240342904,45.3950154100538</coordinates></LinearRing></innerBoundaryIs><innerBoundaryIs><LinearRing><coordinates>61.0344288322246,45.4052769346455 61.0356726533872,45.3990578288324 61.0356726533872,45.4044477205371 61.0344288322246,45.4052769346455</coordinates></LinearRing></innerBoundaryIs><innerBoundaryIs><LinearRing><coordinates>61.0235453970516,45.4327446519869 61.0221979241255,45.434092124913 61.0211873194308,45.4330815202184 61.0235453970516,45.4300497061345 61.0275878158302,45.4313971790607 61.0235453970516,45.4327446519869</coordinates></LinearRing></innerBoundaryIs><innerBoundaryIs><LinearRing><coordinates>61.1057412455486,45.3855830995706 61.10169882677,45.3896255183491 61.1043937726224,45.3842356266444 61.1057412455486,45.3855830995706</coordinates></LinearRing></innerBoundaryIs><innerBoundaryIs><LinearRing><coordinates>61.0329777075349,45.4206173956512 61.0316302346087,45.4219648685774 61.0316302346087,45.4192699227251 61.0329777075349,45.4206173956512</coordinates></LinearRing></innerBoundaryIs><innerBoundaryIs><LinearRing><coordinates>61.10169882677,45.381540680792 61.1003513538438,45.3801932078659 61.1030462996962,45.3801932078659 61.10169882677,45.381540680792</coordinates></LinearRing></innerBoundaryIs></Polygon><Polygon><outerBoundaryIs><LinearRing><coordinates>61.0572322202061,45.4583466375843 61.063969584837,45.4623890563628 61.0653170577632,45.4583466375843 61.0612746389846,45.4543042188057 61.0572322202061,45.4556516917319 61.0572322202061,45.4583466375843</coordinates></LinearRing></outerBoundaryIs></Polygon><Polygon><outerBoundaryIs><LinearRing><coordinates>61.0518423285014,45.4625641451378 61.055709658505,45.4625641451378 61.0572322202061,45.4610415834366 61.0518423285014,45.4610415834366 61.0518423285014,45.4625641451378</coordinates></LinearRing></outerBoundaryIs></Polygon><Polygon><outerBoundaryIs><LinearRing><coordinates>61.0828342058035,45.4300497061345 61.0828342058035,45.4273547602821 61.0774443140988,45.4273547602821 61.0760968411726,45.4287022332083 61.0828342058035,45.4300497061345</coordinates></LinearRing></outerBoundaryIs></Polygon><Polygon><outerBoundaryIs><LinearRing><coordinates>61.0814867328773,45.4367870707654 61.0801392599512,45.4327446519869 61.0734018953203,45.4367870707654 61.0774443140988,45.4408294895439 61.0814867328773,45.4367870707654</coordinates></LinearRing></outerBoundaryIs></Polygon><Polygon><outerBoundaryIs><LinearRing><coordinates>61.1102213862645,45.4502549386044 61.1102213862645,45.4453439373738 61.1097836643271,45.4462193812487 61.1057412455486,45.4475668541748 61.1102213862645,45.4502549386044</coordinates></LinearRing></outerBoundaryIs></Polygon><Polygon><outerBoundaryIs><LinearRing><coordinates>61.0910941321356,45.4625641451378 61.0882240975082,45.4596941105104 61.0853540628809,45.4625641451378 61.0910941321356,45.4625641451378</coordinates></LinearRing></outerBoundaryIs></Polygon><Polygon><outerBoundaryIs><LinearRing><coordinates>61.0666895433715,45.4625641451378 61.0666645306894,45.4623890563628 61.0664894419144,45.4625641451378 61.0666895433715,45.4625641451378</coordinates></LinearRing></outerBoundaryIs></Polygon></MultiGeometry>
  </Placemark>
</Folder>
</Document></kml>
