<?xml version="1.0" encoding="utf-8" ?>
<kml xmlns="http://www.opengis.net/kml/2.2">
<Document id="root_doc">
<Schema name="task_grid_v6_45.38_60.98" id="task_grid_v6_45.38_60.98">
	<SimpleField name="area_ha" type="float"></SimpleField>
	<SimpleField name="low_risk_ha" type="float"></SimpleField>
	<SimpleField name="moderate_risk_ha" type="float"></SimpleField>
	<SimpleField name="grid_cell_deg" type="string"></SimpleField>
</Schema>
<Folder><name>task_grid_v6_45.38_60.98</name>
  <Placemark id="task_grid_v6_45.38_60.98.1">
	<name>task_grid_v6_45.38_60.98</name>
	<name>200.2</name>
	<description>652.4</description>
	<Style><LineStyle><color>ff0000ff</color></LineStyle><PolyStyle><fill>0</fill></PolyStyle></Style>
	<ExtendedData><SchemaData schemaUrl="#task_grid_v6_45.38_60.98">
		<SimpleData name="area_ha">452.2</SimpleData>
		<SimpleData name="low_risk_ha">0.1</SimpleData>
	</SchemaData></ExtendedData>
      <MultiGeometry><Polygon><outerBoundaryIs><LinearRing><coordinates>61.0151861908493,45.3343547580755 61.0154605594946,45.335726601302 61.0195029782731,45.3343791283758 61.019500270462,45.3343547580755 61.0151861908493,45.3343547580755</coordinates></LinearRing></outerBoundaryIs></Polygon><Polygon><outerBoundaryIs><LinearRing><coordinates>60.976937455986,45.3343547580755 60.973688898783,45.3397690200805 60.9750363717092,45.3411164930067 60.9790787904877,45.3397690200805 60.9779959380867,45.3343547580755 60.976937455986,45.3343547580755</coordinates></LinearRing></outerBoundaryIs></Polygon><Polygon><outerBoundaryIs><LinearRing><coordinates>61.0168080324207,45.3478538576376 61.0087231948637,45.3424639659329 61.011418140716,45.3370740742281 61.0100706677898,45.335726601302 61.0033333031589,45.3397690200805 61.0060282490113,45.3424639659329 61.0033333031589,45.3451589117852 61.0154605594946,45.3518962764161 61.0168080324207,45.3478538576376</coordinates></LinearRing></outerBoundaryIs></Polygon><Polygon><outerBoundaryIs><LinearRing><coordinates>61.0046807760851,45.4165749768727 60.9952484656019,45.4233123415036 61.0006383573066,45.426007287356 61.0006383573066,45.434092124913 60.9992908843804,45.4300497061345 60.9925535197495,45.434092124913 60.992606046382,45.4343547580755 61.0003757241441,45.4343547580755 61.0104322810444,45.4343547580755 61.0112605608185,45.4343547580755 61.0197003754217,45.4343547580755 61.0201970233197,45.4343547580755 61.0224605572879,45.4343547580755 61.0224605572879,45.4343547580755 61.0263910613787,45.4343547580755 61.0263910613787,45.4317960972112 61.0235453970516,45.4327446519869 61.0221979241255,45.434092124913 61.0211873194308,45.4330815202184 61.0235453970516,45.4300497061345 61.0263910613787,45.4309982609102 61.0263910613787,45.4064228150493 61.0168080324207,45.4179224497989 61.0263910613787,45.404854683038 61.0263910613787,45.3948646915791 61.026240342904,45.3950154100538 61.0248928699778,45.3936679371277 61.0263910613787,45.3936679371277 61.0263910613787,45.3869090412861 61.026240342904,45.3869305724968 61.0221979241255,45.3909729912753 61.0221979241255,45.4044477205371 61.0073757219375,45.4219648685774 61.0046807760851,45.4165749768727</coordinates></LinearRing></outerBoundaryIs><innerBoundaryIs><LinearRing><coordinates>61.0178860107617,45.4211563848217 61.0168080324207,45.4206173956512 61.0168080324207,45.4179224497989 61.0178860107617,45.4211563848217</coordinates></LinearRing></innerBoundaryIs><innerBoundaryIs><LinearRing><coordinates>61.0060282490113,45.4313971790607 61.0126863505289,45.430446021701 61.011418140716,45.4313971790607 61.0106481561868,45.4337071326484 61.0060282490113,45.4313971790607</coordinates></LinearRing></innerBoundaryIs></Polygon><Polygon><outerBoundaryIs><LinearRing><coordinates>60.9680363739158,45.4343547580755 60.9723299901522,45.4343547580755 60.9696464800045,45.4327446519869 60.9680363739158,45.4343547580755</coordinates></LinearRing></outerBoundaryIs></Polygon><Polygon><outerBoundaryIs><LinearRing><coordinates>61.0263910613787,45.3527443522087 61.0248928699778,45.3532437493423 61.0263910613787,45.3547419407432 61.0263910613787,45.3527443522087</coordinates></LinearRing></outerBoundaryIs></Polygon><Polygon><outerBoundaryIs><LinearRing><coordinates>61.0263910613787,45.3678421221547 61.0263910613787,45.3644321304065 61.0248928699778,45.3640235327517 61.0248928699778,45.3667184786041 61.0263910613787,45.3678421221547</coordinates></LinearRing></outerBoundaryIs></Polygon></MultiGeometry>
  </Placemark>
</Folder>
</Document></kml>
