<?xml version="1.0" encoding="utf-8" ?>
<kml xmlns="http://www.opengis.net/kml/2.2">
<Document id="root_doc">
<Schema name="task_grid_v6_44.61_60.76" id="task_grid_v6_44.61_60.76">
	<SimpleField name="area_ha" type="float"></SimpleField>
	<SimpleField name="low_risk_ha" type="float"></SimpleField>
	<SimpleField name="moderate_risk_ha" type="float"></SimpleField>
	<SimpleField name="grid_cell_deg" type="string"></SimpleField>
</Schema>
<Folder><name>task_grid_v6_44.61_60.76</name>
  <Placemark id="task_grid_v6_44.61_60.76.1">
	<name>task_grid_v6_44.61_60.76</name>
	<name>86.5</name>
	<description>531.3</description>
	<Style><LineStyle><color>ff0000ff</color></LineStyle><PolyStyle><fill>0</fill></PolyStyle></Style>
	<ExtendedData><SchemaData schemaUrl="#task_grid_v6_44.61_60.76">
		<SimpleData name="area_ha">444.8</SimpleData>
		<SimpleData name="low_risk_ha">0.1</SimpleData>
	</SchemaData></ExtendedData>
      <MultiGeometry><Polygon><outerBoundaryIs><LinearRing><coordinates>60.740576082554,44.5973114377557 60.7392286096278,44.5986589106819 60.7459659742587,44.6000063836081 60.7459659742587,44.5973114377557 60.740576082554,44.5973114377557</coordinates></LinearRing></outerBoundaryIs></Polygon><Polygon><outerBoundaryIs><LinearRing><coordinates>60.7446185013325,44.6040488023866 60.7513558659634,44.6053962753128 60.7513558659634,44.6027013294604 60.7459659742587,44.6027013294604 60.7446185013325,44.6040488023866</coordinates></LinearRing></outerBoundaryIs></Polygon><Polygon><outerBoundaryIs><LinearRing><coordinates>60.7149740969566,44.606743748239 60.7217114615875,44.6080912211651 60.7217114615875,44.6053962753128 60.7163215698828,44.6053962753128 60.7149740969566,44.606743748239</coordinates></LinearRing></outerBoundaryIs></Polygon><Polygon><outerBoundaryIs><LinearRing><coordinates>60.7163215698828,44.6080912211651 60.7149740969566,44.6094386940913 60.7244064074398,44.6107861670175 60.7244064074398,44.6080912211651 60.7217114615875,44.6080912211651 60.7163215698828,44.6080912211651</coordinates></LinearRing></outerBoundaryIs></Polygon><Polygon><outerBoundaryIs><LinearRing><coordinates>60.7378811367016,44.6053962753128 60.7311437720707,44.606743748239 60.7351861908493,44.6134811128699 60.7378811367016,44.6107861670175 60.740576082554,44.6134811128699 60.7446185013325,44.6094386940913 60.7378811367016,44.6053962753128</coordinates></LinearRing></outerBoundaryIs></Polygon><Polygon><outerBoundaryIs><LinearRing><coordinates>60.7473134471849,44.6121336399437 60.7567457576681,44.6134811128699 60.7567457576681,44.6107861670175 60.7486609201111,44.6107861670175 60.7473134471849,44.6121336399437</coordinates></LinearRing></outerBoundaryIs></Polygon><Polygon><outerBoundaryIs><LinearRing><coordinates>60.7540508118158,44.6242608962793 60.7567457576681,44.6269558421317 60.7607881764467,44.6229134233531 60.7540508118158,44.6188710045746 60.7513558659634,44.6215659504269 60.7459659742587,44.6215659504269 60.7446185013325,44.6256083692055 60.7459659742587,44.6269558421317 60.7486609201111,44.6242608962793 60.7540508118158,44.6242608962793</coordinates></LinearRing></outerBoundaryIs></Polygon><Polygon><outerBoundaryIs><LinearRing><coordinates>60.8052547830106,44.5730569250845 60.8052547830106,44.5676670333798 60.8025598371582,44.5703619792321 60.7998648913059,44.5676670333798 60.7944749996011,44.5703619792321 60.793127526675,44.5744043980107 60.8052547830106,44.5730569250845</coordinates></LinearRing></outerBoundaryIs></Polygon><Polygon><outerBoundaryIs><LinearRing><coordinates>60.7836952161917,44.5757518709368 60.7810002703394,44.5784468167892 60.778305324487,44.5757518709368 60.7742629057085,44.5824892355677 60.778305324487,44.5865316543463 60.7877376349703,44.5851841814201 60.7836952161917,44.5757518709368</coordinates></LinearRing></outerBoundaryIs></Polygon><Polygon><outerBoundaryIs><LinearRing><coordinates>60.7607881764467,44.5851841814201 60.7675255410776,44.5865316543463 60.7675255410776,44.5838367084939 60.7621356493729,44.5838367084939 60.7607881764467,44.5851841814201</coordinates></LinearRing></outerBoundaryIs></Polygon><Polygon><outerBoundaryIs><LinearRing><coordinates>60.7715679598561,44.5905740731248 60.7675255410776,44.5865316543463 60.7594407035205,44.5865316543463 60.7580932305943,44.5878791272725 60.7621356493729,44.591921546051 60.7675255410776,44.591921546051 60.7702204869299,44.591921546051 60.7715679598561,44.5905740731248</coordinates></LinearRing></outerBoundaryIs></Polygon><Polygon><outerBoundaryIs><LinearRing><coordinates>60.7527033388896,44.5932690189772 60.7594407035205,44.5946164919033 60.7594407035205,44.591921546051 60.7540508118158,44.591921546051 60.7527033388896,44.5932690189772</coordinates></LinearRing></outerBoundaryIs></Polygon><Polygon><outerBoundaryIs><LinearRing><coordinates>60.7621356493729,44.6107861670175 60.7688730140037,44.6094386940913 60.7661780681514,44.6040488023866 60.7715679598561,44.5986589106819 60.7661780681514,44.5959639648295 60.7688730140037,44.5932690189772 60.7675255410776,44.591921546051 60.7594407035205,44.5946164919033 60.755398284742,44.5986589106819 60.763483122299,44.6013538565342 60.7621356493729,44.6053962753128 60.755398284742,44.606743748239 60.7621356493729,44.6107861670175</coordinates></LinearRing></outerBoundaryIs></Polygon><Polygon><outerBoundaryIs><LinearRing><coordinates>60.8025598371582,44.629650787984 60.8012123642321,44.6336932067625 60.8102213862645,44.6336932067625 60.8102213862645,44.631013782425 60.8079497288629,44.629650787984 60.8025598371582,44.629650787984</coordinates></LinearRing></outerBoundaryIs></Polygon></MultiGeometry>
  </Placemark>
</Folder>
</Document></kml>
