<?xml version="1.0" encoding="utf-8" ?>
<kml xmlns="http://www.opengis.net/kml/2.2">
<Document id="root_doc">
<Schema name="task_grid_v6_46.38_59.68" id="task_grid_v6_46.38_59.68">
	<SimpleField name="area_ha" type="float"></SimpleField>
	<SimpleField name="low_risk_ha" type="float"></SimpleField>
	<SimpleField name="moderate_risk_ha" type="float"></SimpleField>
	<SimpleField name="grid_cell_deg" type="string"></SimpleField>
</Schema>
<Folder><name>task_grid_v6_46.38_59.68</name>
  <Placemark id="task_grid_v6_46.38_59.68.1">
	<name>task_grid_v6_46.38_59.68</name>
	<name>669.2</name>
	<description>676.9</description>
	<Style><LineStyle><color>ff0000ff</color></LineStyle><PolyStyle><fill>0</fill></PolyStyle></Style>
	<ExtendedData><SchemaData schemaUrl="#task_grid_v6_46.38_59.68">
		<SimpleData name="area_ha">7.7</SimpleData>
		<SimpleData name="low_risk_ha">0.1</SimpleData>
	</SchemaData></ExtendedData>
      <MultiGeometry><Polygon><outerBoundaryIs><LinearRing><coordinates>59.7191916045101,46.3382464583793 59.7178441315839,46.3395939313055 59.7263910613787,46.3403709249232 59.7263910613787,46.3382464583793 59.7191916045101,46.3382464583793</coordinates></LinearRing></outerBoundaryIs></Polygon><Polygon><outerBoundaryIs><LinearRing><coordinates>59.6693351062415,46.3395939313055 59.6760724708723,46.3463312959364 59.6787674167247,46.3436363500841 59.6841573084294,46.3436363500841 59.6868522542818,46.3463312959364 59.6922421459865,46.3436363500841 59.7084118211007,46.3436363500841 59.711106766953,46.3463312959364 59.7151491857315,46.3422888771579 59.7003269835436,46.3409414042317 59.6976320376912,46.3382464583793 59.6922421459865,46.3409414042317 59.6895472001341,46.3382464583793 59.6868522542818,46.3409414042317 59.6814623625771,46.3382464583793 59.6693351062415,46.3395939313055</coordinates></LinearRing></outerBoundaryIs></Polygon><Polygon><outerBoundaryIs><LinearRing><coordinates>59.6329533372346,46.3544161334935 59.635648283087,46.3517211876411 59.6383432289393,46.3544161334935 59.6491230123488,46.3571110793458 59.6491230123488,46.3463312959364 59.6518179582011,46.3490262417888 59.6545129040535,46.3463312959364 59.6599027957582,46.3490262417888 59.6747249979462,46.3476787688626 59.6706825791676,46.3436363500841 59.6679876333153,46.3463312959364 59.6652926874629,46.3436363500841 59.6383432289393,46.3436363500841 59.635648283087,46.3409414042317 59.6275634455299,46.3409414042317 59.6263910613787,46.3432861725341 59.6263910613787,46.3544161334935 59.6329533372346,46.3544161334935</coordinates></LinearRing></outerBoundaryIs></Polygon><Polygon><outerBoundaryIs><LinearRing><coordinates>59.7263910613787,46.3508358069527 59.7263910613787,46.3489874380018 59.725928969141,46.350373714715 59.7263910613787,46.3508358069527</coordinates></LinearRing></outerBoundaryIs></Polygon><Polygon><outerBoundaryIs><LinearRing><coordinates>59.6263910613787,46.358633641047 59.6263910613787,46.3636733552018 59.6289109184561,46.3611534981244 59.6263910613787,46.358633641047</coordinates></LinearRing></outerBoundaryIs></Polygon><Polygon><outerBoundaryIs><LinearRing><coordinates>59.7263910613787,46.3616155903621 59.7263910613787,46.3606914058867 59.725928969141,46.3611534981244 59.7263910613787,46.3616155903621</coordinates></LinearRing></outerBoundaryIs></Polygon><Polygon><outerBoundaryIs><LinearRing><coordinates>59.6263910613787,46.36558671162 59.6263910613787,46.3694134244564 59.6271142878878,46.3701366509656 59.6263910613787,46.3715831039839 59.6263910613787,46.3721083703088 59.6275634455299,46.37328075446 59.6329533372346,46.37328075446 59.635648283087,46.3759757003124 59.6531654311273,46.3746282273862 59.6477755394226,46.3719332815338 59.6464280664964,46.3678908627553 59.643733120644,46.37328075446 59.6410381747917,46.3678908627553 59.6383432289393,46.3705858086076 59.6343008101608,46.3638484439767 59.6369957560131,46.3611534981244 59.6316058643084,46.3611534981244 59.6283719292856,46.36762136817 59.6275634455299,46.3651959169029 59.6263910613787,46.36558671162</coordinates></LinearRing></outerBoundaryIs><innerBoundaryIs><LinearRing><coordinates>59.6316058643084,46.3692383356815 59.6343008101608,46.3692383356815 59.6329533372346,46.3705858086076 59.6316058643084,46.3692383356815</coordinates></LinearRing></innerBoundaryIs></Polygon><Polygon><outerBoundaryIs><LinearRing><coordinates>59.7057168752483,46.3813655920171 59.7097592940268,46.3773231732385 59.7084118211007,46.37328075446 59.7043694023221,46.3746282273862 59.7057168752483,46.3813655920171</coordinates></LinearRing></outerBoundaryIs></Polygon><Polygon><outerBoundaryIs><LinearRing><coordinates>59.6410381747917,46.4217897798025 59.6450805935702,46.4204423068763 59.643733120644,46.4163998880977 59.6396907018655,46.4204423068763 59.6410381747917,46.4217897798025</coordinates></LinearRing></outerBoundaryIs></Polygon></MultiGeometry>
  </Placemark>
</Folder>
</Document></kml>
