<?xml version="1.0" encoding="utf-8" ?>
<kml xmlns="http://www.opengis.net/kml/2.2">
<Document id="root_doc">
<Schema name="task_grid_v6_45.81_59.46" id="task_grid_v6_45.81_59.46">
	<SimpleField name="area_ha" type="float"></SimpleField>
	<SimpleField name="low_risk_ha" type="float"></SimpleField>
	<SimpleField name="moderate_risk_ha" type="float"></SimpleField>
	<SimpleField name="grid_cell_deg" type="string"></SimpleField>
</Schema>
<Folder><name>task_grid_v6_45.81_59.46</name>
  <Placemark id="task_grid_v6_45.81_59.46.1">
	<name>task_grid_v6_45.81_59.46</name>
	<name>1162.3</name>
	<description>1907</description>
	<Style><LineStyle><color>ff0000ff</color></LineStyle><PolyStyle><fill>0</fill></PolyStyle></Style>
	<ExtendedData><SchemaData schemaUrl="#task_grid_v6_45.81_59.46">
		<SimpleData name="area_ha">744.6</SimpleData>
		<SimpleData name="low_risk_ha">0.1</SimpleData>
	</SchemaData></ExtendedData>
      <MultiGeometry><Polygon><outerBoundaryIs><LinearRing><coordinates>59.4510444922004,45.7628755189008 59.4577818568313,45.764222991827 59.4577818568313,45.7625641451378 59.4513558659634,45.7625641451378 59.4510444922004,45.7628755189008</coordinates></LinearRing></outerBoundaryIs></Polygon><Polygon><outerBoundaryIs><LinearRing><coordinates>59.4739515319455,45.764222991827 59.477993950724,45.7628755189008 59.4780562254766,45.7625641451378 59.4733985830491,45.7625641451378 59.4739515319455,45.764222991827</coordinates></LinearRing></outerBoundaryIs></Polygon><Polygon><outerBoundaryIs><LinearRing><coordinates>59.4577818568313,45.7669179376793 59.4550869109789,45.7696128835317 59.4523919651266,45.764222991827 59.4429596546433,45.7682654106055 59.4496970192742,45.7750027752364 59.4523919651266,45.772307829384 59.4577818568313,45.7750027752364 59.4591293297575,45.7682654106055 59.4577818568313,45.7669179376793</coordinates></LinearRing></outerBoundaryIs></Polygon><Polygon><outerBoundaryIs><LinearRing><coordinates>59.4294849253815,45.7763502481626 59.4267899795292,45.7817401398673 59.4281374524554,45.7830876127935 59.4348748170863,45.7817401398673 59.4335273441601,45.7750027752364 59.4294849253815,45.7763502481626</coordinates></LinearRing></outerBoundaryIs></Polygon><Polygon><outerBoundaryIs><LinearRing><coordinates>59.4214000878245,45.7763502481626 59.4240950336768,45.7736553023102 59.4227475607506,45.772307829384 59.4146627231936,45.7750027752364 59.410620304415,45.7790451940149 59.4146627231936,45.7884775044982 59.4200526148983,45.7803926669411 59.4240950336768,45.7790451940149 59.4214000878245,45.7763502481626</coordinates></LinearRing></outerBoundaryIs></Polygon><Polygon><outerBoundaryIs><LinearRing><coordinates>59.4564343839051,45.7844350857197 59.463171748536,45.7911724503506 59.4685616402407,45.7911724503506 59.4699091131669,45.7898249774244 59.463171748536,45.7830876127935 59.4564343839051,45.7844350857197</coordinates></LinearRing></outerBoundaryIs></Polygon><Polygon><outerBoundaryIs><LinearRing><coordinates>59.4523919651266,45.7938673962029 59.4591293297575,45.7898249774244 59.4550869109789,45.7857825586458 59.4510444922004,45.7898249774244 59.4523919651266,45.7938673962029</coordinates></LinearRing></outerBoundaryIs></Polygon><Polygon><outerBoundaryIs><LinearRing><coordinates>59.4308323983077,45.8208168547265 59.4362222900124,45.8181219088741 59.4389172358648,45.8208168547265 59.4496970192742,45.8208168547265 59.4658666943884,45.8127320171694 59.4685616402407,45.8208168547265 59.4712565860931,45.8181219088741 59.4766464777978,45.8208168547265 59.4806888965764,45.816774435948 59.4672141673146,45.8086895983909 59.4739515319455,45.8073421254647 59.4739515319455,45.8046471796123 59.4658666943884,45.8046471796123 59.463171748536,45.80195223376 59.4443071275695,45.80195223376 59.4416121817172,45.7965623420553 59.4362222900124,45.7965623420553 59.4281374524554,45.7911724503506 59.4173576690459,45.7911724503506 59.4146627231936,45.7884775044982 59.4102213862645,45.7929188414272 59.4102213862645,45.8101204040987 59.4187051419721,45.8140794900956 59.4119677773412,45.8181219088741 59.4119677773412,45.8208168547265 59.4227475607506,45.8208168547265 59.4281374524554,45.8181219088741 59.4308323983077,45.8208168547265</coordinates></LinearRing></outerBoundaryIs><innerBoundaryIs><LinearRing><coordinates>59.4591293297575,45.8113845442432 59.4523919651266,45.8154269630218 59.448349546348,45.8140794900956 59.4550869109789,45.8046471796123 59.4591293297575,45.8059946525385 59.4591293297575,45.8113845442432</coordinates></LinearRing></innerBoundaryIs><innerBoundaryIs><LinearRing><coordinates>59.4389172358648,45.8046471796123 59.4362222900124,45.8046471796123 59.4362222900124,45.80195223376 59.440264708791,45.8032997066862 59.4389172358648,45.8046471796123</coordinates></LinearRing></innerBoundaryIs></Polygon><Polygon><outerBoundaryIs><LinearRing><coordinates>59.4102213862645,45.8306480833602 59.410620304415,45.8302491652098 59.4102213862645,45.8298502470593 59.4102213862645,45.8306480833602</coordinates></LinearRing></outerBoundaryIs></Polygon><Polygon><outerBoundaryIs><LinearRing><coordinates>59.4102213862645,45.8363520531365 59.4146627231936,45.8369865298406 59.4160101961197,45.8356390569145 59.4119677773412,45.8315966381359 59.4102213862645,45.8333430292126 59.4102213862645,45.8363520531365</coordinates></LinearRing></outerBoundaryIs></Polygon><Polygon><outerBoundaryIs><LinearRing><coordinates>59.4972379307029,45.7625641451378 59.4924028012748,45.7625641451378 59.4914686799858,45.7628755189008 59.4941636258381,45.7655704647531 59.4941636258381,45.7709603564579 59.4982060446167,45.772307829384 59.5022484633952,45.7655704647531 59.4972379307029,45.7625641451378</coordinates></LinearRing></outerBoundaryIs></Polygon><Polygon><outerBoundaryIs><LinearRing><coordinates>59.4874262612072,45.7776977210888 59.4847313153549,45.7803926669411 59.4833838424287,45.7790451940149 59.4887737341334,45.7709603564579 59.4793414236502,45.7669179376793 59.4672141673146,45.7709603564579 59.4726040590193,45.7790451940149 59.4699091131669,45.7817401398673 59.4712565860931,45.7830876127935 59.4887737341334,45.7817401398673 59.4874262612072,45.7776977210888</coordinates></LinearRing></outerBoundaryIs></Polygon><Polygon><outerBoundaryIs><LinearRing><coordinates>59.5035959363214,45.7830876127935 59.4968585716905,45.787130031572 59.4995535175429,45.7898249774244 59.4968585716905,45.7925199232767 59.5035959363214,45.7992572879076 59.5062908821738,45.7992572879076 59.5076383550999,45.7925199232767 59.5035959363214,45.7830876127935</coordinates></LinearRing></outerBoundaryIs></Polygon><Polygon><outerBoundaryIs><LinearRing><coordinates>59.5076383550999,45.8032997066862 59.5062908821738,45.7992572879076 59.5022484633952,45.8032997066862 59.5035959363214,45.8046471796123 59.5076383550999,45.8032997066862</coordinates></LinearRing></outerBoundaryIs></Polygon><Polygon><outerBoundaryIs><LinearRing><coordinates>59.4901212070596,45.7992572879076 59.4833838424287,45.8032997066862 59.4874262612072,45.8073421254647 59.4941636258381,45.8032997066862 59.492816152912,45.7992572879076 59.4901212070596,45.7992572879076</coordinates></LinearRing></outerBoundaryIs></Polygon><Polygon><outerBoundaryIs><LinearRing><coordinates>59.4995535175429,45.8491137861763 59.5035959363214,45.8504612591024 59.5076383550999,45.8464188403239 59.5035959363214,45.8450713673977 59.4995535175429,45.8491137861763</coordinates></LinearRing></outerBoundaryIs></Polygon><Polygon><outerBoundaryIs><LinearRing><coordinates>59.5035959363214,45.8558511508072 59.5049434092476,45.854503677881 59.5035959363214,45.8504612591024 59.4995535175429,45.8518087320286 59.5035959363214,45.8558511508072</coordinates></LinearRing></outerBoundaryIs></Polygon><Polygon><outerBoundaryIs><LinearRing><coordinates>59.4968585716905,45.8625641451378 59.5022728336955,45.8625641451378 59.5049434092476,45.8598935695857 59.500900990469,45.8531562049548 59.4968585716905,45.854503677881 59.4968585716905,45.8625641451378</coordinates></LinearRing></outerBoundaryIs></Polygon><Polygon><outerBoundaryIs><LinearRing><coordinates>59.4922014497364,45.8625641451378 59.4935674567932,45.8625641451378 59.4941636258381,45.8571986237333 59.4968585716905,45.854503677881 59.4914686799858,45.854503677881 59.4922014497364,45.8625641451378</coordinates></LinearRing></outerBoundaryIs></Polygon></MultiGeometry>
  </Placemark>
</Folder>
</Document></kml>
