<?xml version="1.0" encoding="utf-8" ?>
<kml xmlns="http://www.opengis.net/kml/2.2">
<Document id="root_doc">
<Schema name="task_grid_v6_45.31_61.26" id="task_grid_v6_45.31_61.26">
	<SimpleField name="area_ha" type="float"></SimpleField>
	<SimpleField name="low_risk_ha" type="float"></SimpleField>
	<SimpleField name="moderate_risk_ha" type="float"></SimpleField>
	<SimpleField name="grid_cell_deg" type="string"></SimpleField>
</Schema>
<Folder><name>task_grid_v6_45.31_61.26</name>
  <Placemark id="task_grid_v6_45.31_61.26.1">
	<name>task_grid_v6_45.31_61.26</name>
	<name>96.09999999999999</name>
	<description>312.8</description>
	<Style><LineStyle><color>ff0000ff</color></LineStyle><PolyStyle><fill>0</fill></PolyStyle></Style>
	<ExtendedData><SchemaData schemaUrl="#task_grid_v6_45.31_61.26">
		<SimpleData name="area_ha">216.6</SimpleData>
		<SimpleData name="low_risk_ha">0.1</SimpleData>
	</SchemaData></ExtendedData>
      <MultiGeometry><Polygon><outerBoundaryIs><LinearRing><coordinates>61.2350986464618,45.2777852654762 61.2418360110927,45.2818276842548 61.2431834840189,45.2777852654762 61.236446119388,45.2710479008453 61.2350986464618,45.2777852654762</coordinates></LinearRing></outerBoundaryIs></Polygon><Polygon><outerBoundaryIs><LinearRing><coordinates>61.2162340254953,45.2750903196239 61.2202764442738,45.2791327384024 61.2216239172,45.2777852654762 61.2202764442738,45.2737428466977 61.2162340254953,45.2750903196239</coordinates></LinearRing></outerBoundaryIs></Polygon><Polygon><outerBoundaryIs><LinearRing><coordinates>61.2272833034899,45.3443504280295 61.2256663359785,45.3411164930067 61.2229713901262,45.3411164930067 61.2216239172,45.3451589117852 61.2256663359785,45.3492013305637 61.2310562276832,45.3492013305637 61.2270138089047,45.3505488034899 61.2270138089047,45.3559386951946 61.2336392588478,45.3625641451378 61.2365580340757,45.3625641451378 61.2377935923141,45.3613285868994 61.2324037006094,45.3559386951946 61.236446119388,45.3599811139732 61.2391410652403,45.3545912222685 61.2458784298712,45.3532437493423 61.244530956945,45.3492013305637 61.236446119388,45.3518962764161 61.2350986464618,45.3532437493423 61.2337511735356,45.3518962764161 61.2350986464618,45.3478538576376 61.2404885381665,45.3451589117852 61.2337511735356,45.343811438859 61.2319545429674,45.3447097541431 61.2283612818309,45.3411164930067 61.2272833034899,45.3443504280295</coordinates></LinearRing></outerBoundaryIs><innerBoundaryIs><LinearRing><coordinates>61.2294392601718,45.3459673955409 61.2283612818309,45.3465063847114 61.2278222926604,45.3454284063704 61.2294392601718,45.3459673955409</coordinates></LinearRing></innerBoundaryIs></Polygon><Polygon><outerBoundaryIs><LinearRing><coordinates>61.2997773469184,45.3478538576376 61.2957349281398,45.3411164930067 61.2930399822875,45.343811438859 61.2863026176566,45.3451589117852 61.2930399822875,45.3492013305637 61.2984298739922,45.3492013305637 61.2997773469184,45.3478538576376</coordinates></LinearRing></outerBoundaryIs></Polygon><Polygon><outerBoundaryIs><LinearRing><coordinates>61.2418360110927,45.3545912222685 61.2377935923141,45.358633641047 61.2417240964049,45.3625641451378 61.2419479257804,45.3625641451378 61.2431834840189,45.3613285868994 61.2418360110927,45.3545912222685</coordinates></LinearRing></outerBoundaryIs></Polygon></MultiGeometry>
  </Placemark>
</Folder>
</Document></kml>
