<?xml version="1.0" encoding="utf-8" ?>
<kml xmlns="http://www.opengis.net/kml/2.2">
<Document id="root_doc">
<Schema name="task_grid_v6_46.18_60.28" id="task_grid_v6_46.18_60.28">
	<SimpleField name="area_ha" type="float"></SimpleField>
	<SimpleField name="low_risk_ha" type="float"></SimpleField>
	<SimpleField name="moderate_risk_ha" type="float"></SimpleField>
	<SimpleField name="grid_cell_deg" type="string"></SimpleField>
</Schema>
<Folder><name>task_grid_v6_46.18_60.28</name>
  <Placemark id="task_grid_v6_46.18_60.28.1">
	<name>task_grid_v6_46.18_60.28</name>
	<name>2439.4</name>
	<description>3425.3</description>
	<Style><LineStyle><color>ff0000ff</color></LineStyle><PolyStyle><fill>0</fill></PolyStyle></Style>
	<ExtendedData><SchemaData schemaUrl="#task_grid_v6_46.18_60.28">
		<SimpleData name="area_ha">985.9</SimpleData>
		<SimpleData name="low_risk_ha">0.1</SimpleData>
	</SchemaData></ExtendedData>
      <MultiGeometry><Polygon><outerBoundaryIs><LinearRing><coordinates>60.2263910613787,46.1343547580755 60.2263910613787,46.1388204653048 60.2263910613787,46.1442103570095 60.2312313164582,46.1442103570095 60.2312313164582,46.1361255194524 60.2339262623106,46.1415154111572 60.2500959374247,46.1442103570095 60.2514434103509,46.1428628840833 60.2527908832771,46.1442103570095 60.2689605583912,46.1442103570095 60.2716555042436,46.1469053028619 60.2770453959483,46.1469053028619 60.2797403418007,46.1442103570095 60.2851302335054,46.1442103570095 60.2932150710625,46.1442103570095 60.2959100169148,46.1469053028619 60.2986049627672,46.1442103570095 60.320164529586,46.1442103570095 60.3228594754384,46.1469053028619 60.3263910613787,46.1464007905847 60.3263910613787,46.1415154111572 60.3263910613787,46.1343547580755 60.2738495540713,46.1343547580755 60.2425345675233,46.1343547580755 60.2263910613787,46.1343547580755</coordinates></LinearRing></outerBoundaryIs><innerBoundaryIs><LinearRing><coordinates>60.2366212081629,46.1361255194524 60.2379686810891,46.1374729923786 60.2366212081629,46.1388204653048 60.2366212081629,46.1361255194524</coordinates></LinearRing></innerBoundaryIs><innerBoundaryIs><LinearRing><coordinates>60.2959100169148,46.1361255194524 60.3012999086195,46.1361255194524 60.2986049627672,46.1388204653048 60.2959100169148,46.1361255194524</coordinates></LinearRing></innerBoundaryIs><innerBoundaryIs><LinearRing><coordinates>60.2541383562033,46.1347780465263 60.2527908832771,46.1361255194524 60.2514434103509,46.1347780465263 60.2541383562033,46.1347780465263</coordinates></LinearRing></innerBoundaryIs></Polygon><Polygon><outerBoundaryIs><LinearRing><coordinates>60.2263910613787,46.1576850862713 60.2312313164582,46.1576850862713 60.2312313164582,46.1603800321237 60.2263910613787,46.1628001596634 60.2263910613787,46.1754504339874 60.2285363706059,46.1711598155331 60.2339262623106,46.1738547613855 60.2352737352368,46.1725072884593 60.2379686810891,46.1671173967546 60.2352737352368,46.1644224509022 60.2366212081629,46.163074977976 60.2420110998676,46.1684648696807 60.2500959374247,46.1657699238284 60.2541383562033,46.1617275050499 60.2527908832771,46.1576850862713 60.2474009915724,46.163074977976 60.24470604572,46.154990140419 60.2366212081629,46.1603800321237 60.2352737352368,46.1563376133451 60.2420110998676,46.1522951945666 60.259528247908,46.1509477216404 60.2500959374247,46.1442103570095 60.2352737352368,46.1428628840833 60.2379686810891,46.1455578299357 60.2352737352368,46.1482527757881 60.2379686810891,46.1509477216404 60.2366212081629,46.1522951945666 60.2263910613787,46.1532252079106 60.2263910613787,46.1576850862713</coordinates></LinearRing></outerBoundaryIs><innerBoundaryIs><LinearRing><coordinates>60.229883843532,46.1671173967546 60.2285363706059,46.1684648696807 60.2271888976797,46.1671173967546 60.229883843532,46.1671173967546</coordinates></LinearRing></innerBoundaryIs></Polygon><Polygon><outerBoundaryIs><LinearRing><coordinates>60.2271888976797,46.1832870718687 60.2339262623106,46.1846345447949 60.2339262623106,46.1819395989425 60.2285363706059,46.1819395989425 60.2271888976797,46.1832870718687</coordinates></LinearRing></outerBoundaryIs></Polygon><Polygon><outerBoundaryIs><LinearRing><coordinates>60.229883843532,46.1994567469829 60.2393161540153,46.2008042199091 60.2393161540153,46.1981092740567 60.2312313164582,46.1981092740567 60.229883843532,46.1994567469829</coordinates></LinearRing></outerBoundaryIs></Polygon><Polygon><outerBoundaryIs><LinearRing><coordinates>60.229883843532,46.2048466386876 60.2366212081629,46.2088890574661 60.2366212081629,46.2034991657614 60.2312313164582,46.2034991657614 60.229883843532,46.2048466386876</coordinates></LinearRing></outerBoundaryIs></Polygon><Polygon><outerBoundaryIs><LinearRing><coordinates>60.2581807749818,46.2142789491708 60.259528247908,46.2129314762447 60.2581807749818,46.2034991657614 60.2541383562033,46.2048466386876 60.2581807749818,46.2142789491708</coordinates></LinearRing></outerBoundaryIs></Polygon><Polygon><outerBoundaryIs><LinearRing><coordinates>60.2635706666865,46.2061941116138 60.259528247908,46.2075415845399 60.259528247908,46.2129314762447 60.2568333020556,46.215626422097 60.2581807749818,46.2196688408756 60.2649181396127,46.215626422097 60.2635706666865,46.2061941116138</coordinates></LinearRing></outerBoundaryIs></Polygon><Polygon><outerBoundaryIs><LinearRing><coordinates>60.2460535186462,46.2210163138017 60.2554858291294,46.2223637867279 60.2554858291294,46.2169738950232 60.2527908832771,46.2196688408756 60.2460535186462,46.2210163138017</coordinates></LinearRing></outerBoundaryIs></Polygon><Polygon><outerBoundaryIs><LinearRing><coordinates>60.2783928688745,46.1698123426069 60.2810878147268,46.1752022343116 60.2756979230221,46.1832870718687 60.282435287653,46.1846345447949 60.2905201252101,46.1900244364996 60.2959100169148,46.1873294906473 60.3066898003242,46.1873294906473 60.312079692029,46.1900244364996 60.3134271649552,46.1886769635734 60.3107322191028,46.1859820177211 60.3174695837337,46.1765497072378 60.320164529586,46.1819395989425 60.3228594754384,46.1792446530902 60.3263910613787,46.1792446530902 60.3263910613787,46.1546804227916 60.312079692029,46.1522951945666 60.3066898003242,46.154990140419 60.3012999086195,46.1496002487142 60.2851302335054,46.1442103570095 60.2783928688745,46.1455578299357 60.2783928688745,46.1536426674928 60.2810878147268,46.1563376133451 60.2783928688745,46.1590325591975 60.2864777064316,46.1617275050499 60.2783928688745,46.1698123426069</coordinates></LinearRing></outerBoundaryIs><innerBoundaryIs><LinearRing><coordinates>60.2864777064316,46.1832870718687 60.2878251793577,46.1819395989425 60.2891726522839,46.1832870718687 60.2864777064316,46.1832870718687</coordinates></LinearRing></innerBoundaryIs><innerBoundaryIs><LinearRing><coordinates>60.320164529586,46.163074977976 60.3215120025122,46.1644224509022 60.320164529586,46.1657699238284 60.320164529586,46.163074977976</coordinates></LinearRing></innerBoundaryIs><innerBoundaryIs><LinearRing><coordinates>60.3026473815457,46.1590325591975 60.3012999086195,46.1603800321237 60.2999524356934,46.1590325591975 60.3026473815457,46.1590325591975</coordinates></LinearRing></innerBoundaryIs></Polygon><Polygon><outerBoundaryIs><LinearRing><coordinates>60.3215120025122,46.1940668552782 60.3228594754384,46.1981092740567 60.3263910613787,46.1981092740567 60.3263910613787,46.1908141493672 60.3215120025122,46.1940668552782</coordinates></LinearRing></outerBoundaryIs></Polygon><Polygon><outerBoundaryIs><LinearRing><coordinates>60.2918675981363,46.1994567469829 60.2851302335054,46.192719382352 60.282435287653,46.1981092740567 60.2783928688745,46.1913719094258 60.2730029771698,46.1886769635734 60.2756979230221,46.1859820177211 60.2676130854651,46.1859820177211 60.2703080313174,46.1886769635734 60.2676130854651,46.1913719094258 60.282435287653,46.2088890574661 60.2864777064316,46.2021516928352 60.2918675981363,46.1994567469829</coordinates></LinearRing></outerBoundaryIs></Polygon><Polygon><outerBoundaryIs><LinearRing><coordinates>60.3107322191028,46.2075415845399 60.3107322191028,46.2048466386876 60.3039948544719,46.2034991657614 60.2986049627672,46.1981092740567 60.2945625439886,46.2021516928352 60.2945625439886,46.2102365303923 60.2986049627672,46.2142789491708 60.3039948544719,46.2142789491708 60.3053423273981,46.2102365303923 60.3107322191028,46.2075415845399</coordinates></LinearRing></outerBoundaryIs></Polygon><Polygon><outerBoundaryIs><LinearRing><coordinates>60.2770453959483,46.2196688408756 60.2783928688745,46.215626422097 60.2756979230221,46.2129314762447 60.2730029771698,46.2021516928352 60.2635706666865,46.1954143282043 60.2581807749818,46.1954143282043 60.2568333020556,46.1994567469829 60.2676130854651,46.2075415845399 60.2676130854651,46.2210163138017 60.2689605583912,46.2223637867279 60.2716555042436,46.2196688408756 60.2770453959483,46.2196688408756</coordinates></LinearRing></outerBoundaryIs></Polygon><Polygon><outerBoundaryIs><LinearRing><coordinates>60.2905201252101,46.2169738950232 60.282435287653,46.2169738950232 60.2810878147268,46.2210163138017 60.2851302335054,46.2250587325803 60.2986049627672,46.230448624285 60.2999524356934,46.2264062055065 60.2918675981363,46.2210163138017 60.2905201252101,46.2169738950232</coordinates></LinearRing></outerBoundaryIs></Polygon></MultiGeometry>
  </Placemark>
</Folder>
</Document></kml>
