<?xml version="1.0" encoding="utf-8" ?>
<kml xmlns="http://www.opengis.net/kml/2.2">
<Document id="root_doc">
<Schema name="task_grid_v6_45.98_60.18" id="task_grid_v6_45.98_60.18">
	<SimpleField name="area_ha" type="float"></SimpleField>
	<SimpleField name="low_risk_ha" type="float"></SimpleField>
	<SimpleField name="moderate_risk_ha" type="float"></SimpleField>
	<SimpleField name="grid_cell_deg" type="string"></SimpleField>
</Schema>
<Folder><name>task_grid_v6_45.98_60.18</name>
  <Placemark id="task_grid_v6_45.98_60.18.1">
	<name>task_grid_v6_45.98_60.18</name>
	<name>424.6</name>
	<description>1006.9</description>
	<Style><LineStyle><color>ff0000ff</color></LineStyle><PolyStyle><fill>0</fill></PolyStyle></Style>
	<ExtendedData><SchemaData schemaUrl="#task_grid_v6_45.98_60.18">
		<SimpleData name="area_ha">582.3</SimpleData>
		<SimpleData name="low_risk_ha">0.1</SimpleData>
	</SchemaData></ExtendedData>
      <MultiGeometry><Polygon><outerBoundaryIs><LinearRing><coordinates>60.1422981033304,45.9528692014921 60.1436455762566,45.9515217285659 60.139603157478,45.9474793097873 60.1355607386995,45.9488267827135 60.1422981033304,45.9528692014921</coordinates></LinearRing></outerBoundaryIs></Polygon><Polygon><outerBoundaryIs><LinearRing><coordinates>60.1342132657733,45.9501742556397 60.1274759011424,45.9515217285659 60.1301708469948,45.9542166744182 60.1274759011424,45.9569116202706 60.1288233740686,45.9582590931968 60.1355607386995,45.9542166744182 60.1342132657733,45.9501742556397</coordinates></LinearRing></outerBoundaryIs></Polygon><Polygon><outerBoundaryIs><LinearRing><coordinates>60.1409506304042,45.9542166744182 60.1530778867398,45.9555641473444 60.1530778867398,45.9528692014921 60.1422981033304,45.9528692014921 60.1409506304042,45.9542166744182</coordinates></LinearRing></outerBoundaryIs></Polygon><Polygon><outerBoundaryIs><LinearRing><coordinates>60.1625101972231,45.9569116202706 60.1611627242969,45.9501742556397 60.154425359666,45.9569116202706 60.1557728325922,45.9582590931968 60.1625101972231,45.9569116202706</coordinates></LinearRing></outerBoundaryIs></Polygon><Polygon><outerBoundaryIs><LinearRing><coordinates>60.1328657928471,45.9623015119753 60.1422981033304,45.9717338224586 60.1503829408875,45.9717338224586 60.1517304138136,45.96769140368 60.1449930491827,45.9663439307539 60.1422981033304,45.9609540390491 60.1328657928471,45.9623015119753</coordinates></LinearRing></outerBoundaryIs></Polygon><Polygon><outerBoundaryIs><LinearRing><coordinates>60.1571203055184,45.9730812953848 60.1638576701492,45.9744287683109 60.1638576701492,45.9717338224586 60.1584677784445,45.9717338224586 60.1571203055184,45.9730812953848</coordinates></LinearRing></outerBoundaryIs></Polygon><Polygon><outerBoundaryIs><LinearRing><coordinates>60.1557728325922,45.982513605868 60.1557728325922,45.9771237141633 60.1530778867398,45.9798186600157 60.1490354679613,45.9811661329418 60.1557728325922,45.982513605868</coordinates></LinearRing></outerBoundaryIs></Polygon><Polygon><outerBoundaryIs><LinearRing><coordinates>60.1286396277605,46.0145467122494 60.1263910613787,46.0155103835559 60.1263910613787,46.0163468023033 60.139603157478,46.0175479019487 60.1463405221089,46.0135054831701 60.1449930491827,46.0094630643916 60.1476879950351,46.012158010244 60.1503829408875,46.0094630643916 60.1463405221089,46.0162004290225 60.1493349063893,46.0179970595907 60.1409506304042,46.0215903207272 60.1476879950351,46.0256327395057 60.1530778867398,46.0229377936534 60.1557728325922,46.0283276853581 60.1625101972231,46.0269802124319 60.1611627242969,46.020242847801 60.1638576701492,46.0283276853581 60.169247561854,46.0283276853581 60.1705950347801,46.0269802124319 60.1652051430754,46.0215903207272 60.1719425077063,46.0175479019487 60.1746374535587,46.020242847801 60.1786798723372,46.0162004290225 60.1665526160016,46.0148529560963 60.1638576701492,46.012158010244 60.1652051430754,46.0081155914654 60.1611627242969,46.0040731726869 60.1530778867398,46.0040731726869 60.1503829408875,46.0067681185392 60.1476879950351,46.0040731726869 60.1449930491827,46.0067681185392 60.1263910613787,46.0080082510595 60.1263910613787,46.0107991016131 60.1286396277605,46.0145467122494</coordinates></LinearRing></outerBoundaryIs><innerBoundaryIs><LinearRing><coordinates>60.1584677784445,46.0148529560963 60.1517304138136,46.0135054831701 60.1584677784445,46.012158010244 60.1584677784445,46.0094630643916 60.1638576701492,46.012158010244 60.1584677784445,46.0148529560963</coordinates></LinearRing></innerBoundaryIs></Polygon><Polygon><outerBoundaryIs><LinearRing><coordinates>60.139603157478,46.020242847801 60.139603157478,46.0175479019487 60.1342132657733,46.0175479019487 60.1328657928471,46.0188953748749 60.139603157478,46.020242847801</coordinates></LinearRing></outerBoundaryIs></Polygon><Polygon><outerBoundaryIs><LinearRing><coordinates>60.1759849264849,45.9434368910088 60.1800273452634,45.944784363935 60.1867647098943,45.9407419451565 60.1800273452634,45.9393944722303 60.1759849264849,45.9434368910088</coordinates></LinearRing></outerBoundaryIs></Polygon><Polygon><outerBoundaryIs><LinearRing><coordinates>60.1854172369681,45.9501742556397 60.1813748181896,45.9515217285659 60.1840697640419,45.9542166744182 60.1813748181896,45.9569116202706 60.1827222911158,45.9582590931968 60.1867647098943,45.9569116202706 60.1854172369681,45.9501742556397</coordinates></LinearRing></outerBoundaryIs></Polygon><Polygon><outerBoundaryIs><LinearRing><coordinates>60.1935020745252,45.9609540390491 60.1975444933037,45.959606566123 60.1961970203776,45.9555641473444 60.192154601599,45.9569116202706 60.1935020745252,45.9609540390491</coordinates></LinearRing></outerBoundaryIs></Polygon><Polygon><outerBoundaryIs><LinearRing><coordinates>60.2150616413441,45.9609540390491 60.2191040601226,45.9569116202706 60.2042818579346,45.9555641473444 60.2029343850084,45.9569116202706 60.2150616413441,45.9609540390491</coordinates></LinearRing></outerBoundaryIs></Polygon><Polygon><outerBoundaryIs><LinearRing><coordinates>60.1719425077063,46.012158010244 60.1719425077063,46.0094630643916 60.1665526160016,46.0094630643916 60.1652051430754,46.0108105373178 60.1719425077063,46.012158010244</coordinates></LinearRing></outerBoundaryIs></Polygon><Polygon><outerBoundaryIs><LinearRing><coordinates>60.1935020745252,46.0337175770628 60.2042818579346,46.0337175770628 60.206976803787,46.0337175770628 60.2076139847997,46.0343547580755 60.2152252944144,46.0343547580755 60.2096717496393,46.0310226312105 60.206976803787,46.0310226312105 60.2042818579346,46.0310226312105 60.1988919662299,46.0256327395057 60.1975444933037,46.0296751582843 60.1964665149628,46.0302141474548 60.1975444933037,46.0269802124319 60.1908071286728,46.0175479019487 60.1840697640419,46.0188953748749 60.1881121828205,46.020242847801 60.192154601599,46.0269802124319 60.1894596557467,46.0296751582843 60.195234539716,46.0308301350781 60.192154601599,46.0323701041366 60.1935020745252,46.0337175770628</coordinates></LinearRing></outerBoundaryIs></Polygon><Polygon><outerBoundaryIs><LinearRing><coordinates>60.2083242767132,46.0296751582843 60.2042818579346,46.0256327395057 60.2002394391561,46.0269802124319 60.206976803787,46.0310226312105 60.2083242767132,46.0296751582843</coordinates></LinearRing></outerBoundaryIs></Polygon><Polygon><outerBoundaryIs><LinearRing><coordinates>60.20555621996,46.0343547580755 60.2042818579346,46.0337175770628 60.2039632674283,46.0343547580755 60.20555621996,46.0343547580755</coordinates></LinearRing></outerBoundaryIs></Polygon><Polygon><outerBoundaryIs><LinearRing><coordinates>60.2183937682091,46.0343547580755 60.2177565871964,46.0337175770628 60.2171194061837,46.0343547580755 60.2183937682091,46.0343547580755</coordinates></LinearRing></outerBoundaryIs></Polygon></MultiGeometry>
  </Placemark>
</Folder>
</Document></kml>
