<?xml version="1.0" encoding="utf-8" ?>
<kml xmlns="http://www.opengis.net/kml/2.2">
<Document id="root_doc">
<Schema name="task_grid_v6_44.88_61.28" id="task_grid_v6_44.88_61.28">
	<SimpleField name="area_ha" type="float"></SimpleField>
	<SimpleField name="low_risk_ha" type="float"></SimpleField>
	<SimpleField name="moderate_risk_ha" type="float"></SimpleField>
	<SimpleField name="grid_cell_deg" type="string"></SimpleField>
</Schema>
<Folder><name>task_grid_v6_44.88_61.28</name>
  <Placemark id="task_grid_v6_44.88_61.28.1">
	<name>task_grid_v6_44.88_61.28</name>
	<name>0</name>
	<description>661.6</description>
	<Style><LineStyle><color>ff0000ff</color></LineStyle><PolyStyle><fill>0</fill></PolyStyle></Style>
	<ExtendedData><SchemaData schemaUrl="#task_grid_v6_44.88_61.28">
		<SimpleData name="area_ha">661.6</SimpleData>
		<SimpleData name="low_risk_ha">0.1</SimpleData>
	</SchemaData></ExtendedData>
      <MultiGeometry><Polygon><outerBoundaryIs><LinearRing><coordinates>61.3154605594946,44.8343547580755 61.3120165179418,44.8343547580755 61.3105571303278,44.8358141456894 61.311904603254,44.8371616186156 61.3159470220325,44.8358141456894 61.3154605594946,44.8343547580755</coordinates></LinearRing></outerBoundaryIs></Polygon><Polygon><outerBoundaryIs><LinearRing><coordinates>61.2283612818309,44.8856706439581 61.2263910613787,44.8856706439581 61.2263910613787,44.900492846146 61.2270138089047,44.900492846146 61.2263910613787,44.9011155936721 61.2263910613787,44.9069007901405 61.2404885381665,44.900492846146 61.2404885381665,44.8977979002937 61.236446119388,44.8964504273675 61.2283612818309,44.8856706439581</coordinates></LinearRing></outerBoundaryIs></Polygon><Polygon><outerBoundaryIs><LinearRing><coordinates>61.2930399822875,44.9045352649246 61.2916925093613,44.9058827378508 61.3038197656969,44.9072302107769 61.3038197656969,44.9045352649246 61.2930399822875,44.9045352649246</coordinates></LinearRing></outerBoundaryIs></Polygon><Polygon><outerBoundaryIs><LinearRing><coordinates>61.2526157945021,44.9072302107769 61.2566582132806,44.9085776837031 61.2512683215759,44.9112726295555 61.2580056862068,44.915315048334 61.2633955779115,44.9233998858911 61.2687854696163,44.915315048334 61.2755228342472,44.9139675754078 61.2728278883948,44.9112726295555 61.274175361321,44.9099251566293 61.2809127259519,44.9085776837031 61.274175361321,44.9045352649246 61.2687854696163,44.9045352649246 61.2660905237639,44.9072302107769 61.2526157945021,44.9045352649246 61.2526157945021,44.9072302107769</coordinates></LinearRing></outerBoundaryIs></Polygon><Polygon><outerBoundaryIs><LinearRing><coordinates>61.2903450364351,44.9180099941864 61.2889975635089,44.9193574671126 61.2957349281398,44.9207049400387 61.2957349281398,44.9180099941864 61.2903450364351,44.9180099941864</coordinates></LinearRing></outerBoundaryIs></Polygon><Polygon><outerBoundaryIs><LinearRing><coordinates>61.2755228342472,44.9328321963743 61.2782177800995,44.9274423046696 61.274175361321,44.9233998858911 61.2660905237639,44.9233998858911 61.2660905237639,44.9260948317434 61.2701329425424,44.9274423046696 61.2607006320592,44.9314847234482 61.2283612818309,44.9287897775958 61.2263910613787,44.930759998048 61.2263910613787,44.9343547580755 61.2829428082201,44.9343547580755 61.2809127259519,44.9328321963743 61.2795652530257,44.9287897775958 61.2782177800995,44.9328321963743 61.2755228342472,44.9328321963743</coordinates></LinearRing></outerBoundaryIs></Polygon></MultiGeometry>
  </Placemark>
</Folder>
</Document></kml>
