<?xml version="1.0" encoding="utf-8" ?>
<kml xmlns="http://www.opengis.net/kml/2.2">
<Document id="root_doc">
<Schema name="task_grid_v6_44.88_61.08" id="task_grid_v6_44.88_61.08">
	<SimpleField name="area_ha" type="float"></SimpleField>
	<SimpleField name="low_risk_ha" type="float"></SimpleField>
	<SimpleField name="moderate_risk_ha" type="float"></SimpleField>
	<SimpleField name="grid_cell_deg" type="string"></SimpleField>
</Schema>
<Folder><name>task_grid_v6_44.88_61.08</name>
  <Placemark id="task_grid_v6_44.88_61.08.1">
	<name>task_grid_v6_44.88_61.08</name>
	<name>19.1</name>
	<description>1526.9</description>
	<Style><LineStyle><color>ff0000ff</color></LineStyle><PolyStyle><fill>0</fill></PolyStyle></Style>
	<ExtendedData><SchemaData schemaUrl="#task_grid_v6_44.88_61.08">
		<SimpleData name="area_ha">1507.8</SimpleData>
		<SimpleData name="low_risk_ha">0.1</SimpleData>
	</SchemaData></ExtendedData>
      <MultiGeometry><Polygon><outerBoundaryIs><LinearRing><coordinates>61.0397150721658,44.8371616186156 61.0370201263134,44.8371616186156 61.0356726533872,44.8412040373942 61.0424100180181,44.8452464561727 61.0437574909443,44.8438989832465 61.0397150721658,44.8371616186156</coordinates></LinearRing></outerBoundaryIs></Polygon><Polygon><outerBoundaryIs><LinearRing><coordinates>61.049147382649,44.8519838208036 61.0464524367967,44.854678766656 61.0558847472799,44.8560262395821 61.0572322202061,44.854678766656 61.0504948555752,44.8452464561727 61.0477999097229,44.8479414020251 61.0451049638705,44.8452464561727 61.0437574909443,44.8465939290989 61.0437574909443,44.8492888749512 61.049147382649,44.8519838208036</coordinates></LinearRing></outerBoundaryIs></Polygon><Polygon><outerBoundaryIs><LinearRing><coordinates>61.0329777075349,44.862763604213 61.0370201263134,44.8641110771392 61.0383675992396,44.862763604213 61.0343251804611,44.8587211854345 61.0329777075349,44.862763604213</coordinates></LinearRing></outerBoundaryIs></Polygon><Polygon><outerBoundaryIs><LinearRing><coordinates>61.0263910613787,44.8649025928791 61.0263910613787,44.8667557835 61.0302827616825,44.8654585500654 61.0263910613787,44.8649025928791</coordinates></LinearRing></outerBoundaryIs></Polygon><Polygon><outerBoundaryIs><LinearRing><coordinates>61.0572322202061,44.8977979002937 61.0612746389846,44.9018403190722 61.0653170577632,44.8977979002937 61.0585796931323,44.8964504273675 61.0572322202061,44.8977979002937</coordinates></LinearRing></outerBoundaryIs></Polygon><Polygon><outerBoundaryIs><LinearRing><coordinates>61.0668396194643,44.9343547580755 61.0718793336191,44.9343547580755 61.0734018953203,44.9328321963743 61.0693594765417,44.9287897775958 61.0653170577632,44.9328321963743 61.0668396194643,44.9343547580755</coordinates></LinearRing></outerBoundaryIs></Polygon><Polygon><outerBoundaryIs><LinearRing><coordinates>61.0801392599512,44.8371616186156 61.0814867328773,44.8385090915418 61.078791787025,44.8412040373942 61.0882240975082,44.8479414020251 61.0909190433606,44.8425515103203 61.093613989213,44.8425515103203 61.0949614621391,44.8438989832465 61.0922665162868,44.8465939290989 61.0963089350653,44.8506363478774 61.10169882677,44.8425515103203 61.1070887184747,44.8452464561727 61.1124786101795,44.8425515103203 61.1151735560318,44.8452464561727 61.1263910613787,44.8474899572421 61.1263910613787,44.8343547580755 61.1038039721751,44.8343547580755 61.10169882677,44.8371616186156 61.0990038809177,44.8344666727633 61.0963089350653,44.8371616186156 61.0951059948338,44.8343547580755 61.0562592951301,44.8343547580755 61.0572322202061,44.8358141456894 61.0666645306894,44.8425515103203 61.0693594765417,44.839856564468 61.0720544223941,44.8425515103203 61.0801392599512,44.8371616186156</coordinates></LinearRing></outerBoundaryIs></Polygon><Polygon><outerBoundaryIs><LinearRing><coordinates>61.093613989213,44.8964504273675 61.0895715704344,44.900492846146 61.0990038809177,44.9018403190722 61.1003513538438,44.900492846146 61.093613989213,44.8964504273675</coordinates></LinearRing></outerBoundaryIs></Polygon><Polygon><outerBoundaryIs><LinearRing><coordinates>61.1192159748104,44.9031877919984 61.1232583935889,44.9072302107769 61.1263910613787,44.9040975429872 61.1263910613787,44.9026419414052 61.1205634477365,44.8991453732199 61.1192159748104,44.9031877919984</coordinates></LinearRing></outerBoundaryIs></Polygon><Polygon><outerBoundaryIs><LinearRing><coordinates>61.1151735560318,44.9099251566293 61.1124786101795,44.9180099941864 61.10169882677,44.9207049400387 61.1003513538438,44.9166625212602 61.1043937726224,44.9126201024817 61.1111311372533,44.9112726295555 61.1097836643271,44.9072302107769 61.1070887184747,44.9072302107769 61.1043937726224,44.9099251566293 61.0990038809177,44.9099251566293 61.0909190433606,44.9207049400387 61.0855291516559,44.9207049400387 61.0828342058035,44.9233998858911 61.0774443140988,44.9180099941864 61.0720544223941,44.9180099941864 61.0707069494679,44.9193574671126 61.0734018953203,44.9220524129649 61.0760968411726,44.9328321963743 61.0745742794715,44.9343547580755 61.1263910613787,44.9343547580755 61.1263910613787,44.9126201024817 61.1232583935889,44.9126201024817 61.1219109206627,44.9139675754078 61.1246058665151,44.9166625212602 61.1205634477365,44.9180099941864 61.1151735560318,44.9099251566293</coordinates></LinearRing></outerBoundaryIs><innerBoundaryIs><LinearRing><coordinates>61.0774443140988,44.9233998858911 61.0801392599512,44.9260948317434 61.0855291516559,44.9260948317434 61.0895715704344,44.930137250522 61.0882240975082,44.9314847234482 61.0855291516559,44.9287897775958 61.0828342058035,44.9314847234482 61.0760968411726,44.9247473588173 61.0774443140988,44.9233998858911</coordinates></LinearRing></innerBoundaryIs><innerBoundaryIs><LinearRing><coordinates>61.1232583935889,44.9233998858911 61.1246058665151,44.9247473588173 61.1246058665151,44.9274423046696 61.1219109206627,44.9274423046696 61.1232583935889,44.9233998858911</coordinates></LinearRing></innerBoundaryIs><innerBoundaryIs><LinearRing><coordinates>61.116521028958,44.9220524129649 61.1178685018842,44.9207049400387 61.1192159748104,44.9220524129649 61.116521028958,44.9220524129649</coordinates></LinearRing></innerBoundaryIs></Polygon></MultiGeometry>
  </Placemark>
</Folder>
</Document></kml>
