<?xml version="1.0" encoding="utf-8" ?>
<kml xmlns="http://www.opengis.net/kml/2.2">
<Document id="root_doc">
<Schema name="task_grid_v6_45.68_60.18" id="task_grid_v6_45.68_60.18">
	<SimpleField name="area_ha" type="float"></SimpleField>
	<SimpleField name="low_risk_ha" type="float"></SimpleField>
	<SimpleField name="moderate_risk_ha" type="float"></SimpleField>
	<SimpleField name="grid_cell_deg" type="string"></SimpleField>
</Schema>
<Folder><name>task_grid_v6_45.68_60.18</name>
  <Placemark id="task_grid_v6_45.68_60.18.1">
	<name>task_grid_v6_45.68_60.18</name>
	<name>2182.9</name>
	<description>3155.2</description>
	<Style><LineStyle><color>ff0000ff</color></LineStyle><PolyStyle><fill>0</fill></PolyStyle></Style>
	<ExtendedData><SchemaData schemaUrl="#task_grid_v6_45.68_60.18">
		<SimpleData name="area_ha">972.3</SimpleData>
		<SimpleData name="low_risk_ha">0.1</SimpleData>
	</SchemaData></ExtendedData>
      <MultiGeometry><Polygon><outerBoundaryIs><LinearRing><coordinates>60.140180645875,45.6358280715753 60.1409506304042,45.6389080096923 60.1476879950351,45.6456453743232 60.1571203055184,45.6469928472494 60.1490354679613,45.6496877931017 60.1517304138136,45.6523827389541 60.1503829408875,45.6564251577326 60.1382556845518,45.6604675765112 60.139603157478,45.6645099952897 60.1382556845518,45.6658574682159 60.1449930491827,45.6672049411421 60.1436455762566,45.6685524140682 60.1449930491827,45.6698998869944 60.1503829408875,45.6672049411421 60.1665526160016,45.6672049411421 60.169247561854,45.6645099952897 60.1719425077063,45.6672049411421 60.1746374535587,45.6645099952897 60.177332399411,45.6672049411421 60.1881121828205,45.6672049411421 60.1908071286728,45.6645099952897 60.2015869120823,45.6645099952897 60.206976803787,45.6564251577326 60.2096717496393,45.659120103585 60.2150616413441,45.659120103585 60.2164091142702,45.6550776848064 60.1988919662299,45.6537302118803 60.1988919662299,45.6510352660279 60.2042818579346,45.6510352660279 60.2062581515597,45.6470826787778 60.2150616413441,45.6483403201755 60.2150616413441,45.6456453743232 60.2177565871964,45.6483403201755 60.2193735547078,45.6472623418346 60.2204515330488,45.6483403201755 60.2263910613787,45.6483403201755 60.2263910613787,45.6418511552204 60.2263910613787,45.6411632462445 60.2263910613787,45.6343547580755 60.1834503287871,45.6343547580755 60.1840697640419,45.6362130638399 60.1827222911158,45.6364055599722 60.1827222911158,45.6343547580755 60.1776260274162,45.6343547580755 60.1751482863969,45.6343547580755 60.1406717503749,45.6343547580755 60.1398123175,45.6343547580755 60.1363973787874,45.6343547580755 60.139603157478,45.6375605367661 60.140180645875,45.6358280715753</coordinates></LinearRing></outerBoundaryIs><innerBoundaryIs><LinearRing><coordinates>60.1449930491827,45.6655879736306 60.1463405221089,45.6658574682159 60.1449930491827,45.6672049411421 60.1449930491827,45.6655879736306</coordinates></LinearRing></innerBoundaryIs><innerBoundaryIs><LinearRing><coordinates>60.1732899806325,45.6362130638399 60.1786798723372,45.6369830483692 60.1746374535587,45.6375605367661 60.1732899806325,45.6362130638399</coordinates></LinearRing></innerBoundaryIs><innerBoundaryIs><LinearRing><coordinates>60.221799005975,45.6389080096923 60.2177565871964,45.6402554826185 60.2164091142702,45.6389080096923 60.2204515330488,45.6375605367661 60.221799005975,45.6389080096923</coordinates></LinearRing></innerBoundaryIs></Polygon><Polygon><outerBoundaryIs><LinearRing><coordinates>60.1283125412303,45.6343547580755 60.1263910613787,45.6343547580755 60.1263910613787,45.639992849456 60.1301708469948,45.6362130638399 60.1283125412303,45.6343547580755</coordinates></LinearRing></outerBoundaryIs></Polygon><Polygon><outerBoundaryIs><LinearRing><coordinates>60.1263910613787,45.6403680396881 60.1263910613787,45.6456078553 60.1355607386995,45.644297901397 60.1308445834579,45.6422766920077 60.1342132657733,45.6429504284708 60.1342132657733,45.6402554826185 60.1288233740686,45.6402554826185 60.1280148903129,45.6410639663742 60.1263910613787,45.6403680396881</coordinates></LinearRing></outerBoundaryIs></Polygon><Polygon><outerBoundaryIs><LinearRing><coordinates>60.1355607386995,45.6523827389541 60.1342132657733,45.6537302118803 60.1288233740686,45.6537302118803 60.1263910613787,45.6561625245702 60.1263910613787,45.6610756546836 60.1342132657733,45.659120103585 60.1436455762566,45.6523827389541 60.1382556845518,45.6496877931017 60.1369082116257,45.6456453743232 60.1328657928471,45.6496877931017 60.1355607386995,45.6523827389541</coordinates></LinearRing></outerBoundaryIs></Polygon><Polygon><outerBoundaryIs><LinearRing><coordinates>60.1315183199209,45.6779847245515 60.1422981033304,45.6806796704038 60.1436455762566,45.673942305773 60.1369082116257,45.6725948328468 60.1288233740686,45.6618150494373 60.1263910613787,45.6618150494373 60.1263910613787,45.6737873286638 60.1274759011424,45.673942305773 60.1263910613787,45.6744847256548 60.1263910613787,45.6833746162562 60.1315183199209,45.6833746162562 60.1315183199209,45.6779847245515</coordinates></LinearRing></outerBoundaryIs></Polygon><Polygon><outerBoundaryIs><LinearRing><coordinates>60.1625101972231,45.6766372516253 60.1584677784445,45.6725948328468 60.1517304138136,45.6766372516253 60.1557728325922,45.6806796704038 60.1625101972231,45.6766372516253</coordinates></LinearRing></outerBoundaryIs></Polygon><Polygon><outerBoundaryIs><LinearRing><coordinates>60.1263910613787,45.7007604477153 60.1288233740686,45.6995442913704 60.1274759011424,45.7008917642965 60.1369082116257,45.7022392372227 60.1369082116257,45.6995442913704 60.1382556845518,45.6981968184442 60.1342132657733,45.6914594538133 60.1263910613787,45.6914594538133 60.1263910613787,45.7007604477153</coordinates></LinearRing></outerBoundaryIs></Polygon><Polygon><outerBoundaryIs><LinearRing><coordinates>60.1422981033304,45.7049341830751 60.1355607386995,45.7089766018536 60.1355607386995,45.7170614394107 60.1328657928471,45.719756385263 60.139603157478,45.7264937498939 60.1422981033304,45.7264937498939 60.1436455762566,45.7251462769678 60.1409506304042,45.7224513311154 60.1436455762566,45.7170614394107 60.1490354679613,45.7170614394107 60.1463405221089,45.719756385263 60.1476879950351,45.7237988040416 60.154425359666,45.7170614394107 60.1517304138136,45.7143664935583 60.1557728325922,45.7076291289274 60.169247561854,45.7076291289274 60.1719425077063,45.7049341830751 60.1827222911158,45.7022392372227 60.1867647098943,45.6955018725918 60.1827222911158,45.6941543996656 60.177332399411,45.696849345518 60.1746374535587,45.7022392372227 60.1732899806325,45.6981968184442 60.1759849264849,45.6928069267395 60.1746374535587,45.6914594538133 60.1705950347801,45.6955018725918 60.1700897324328,45.6966809114022 60.169247561854,45.6941543996656 60.1652051430754,45.6955018725918 60.1665526160016,45.6995442913704 60.169247561854,45.6986459760862 60.1665526160016,45.7049341830751 60.1611627242969,45.6995442913704 60.1539762020239,45.7013409219386 60.1571203055184,45.6981968184442 60.1530778867398,45.696849345518 60.1490354679613,45.7008917642965 60.1519229099459,45.7018542449581 60.1503829408875,45.7022392372227 60.1449930491827,45.6995442913704 60.1422981033304,45.7049341830751</coordinates></LinearRing></outerBoundaryIs><innerBoundaryIs><LinearRing><coordinates>60.1382556845518,45.7143664935583 60.1422981033304,45.7103240747798 60.1436455762566,45.711671547706 60.139603157478,45.7157139664845 60.1382556845518,45.7143664935583</coordinates></LinearRing></innerBoundaryIs></Polygon><Polygon><outerBoundaryIs><LinearRing><coordinates>60.169247561854,45.6752897786991 60.169247561854,45.6725948328468 60.1638576701492,45.6725948328468 60.1625101972231,45.673942305773 60.169247561854,45.6752897786991</coordinates></LinearRing></outerBoundaryIs></Polygon><Polygon><outerBoundaryIs><LinearRing><coordinates>60.1894596557467,45.6793321974777 60.1881121828205,45.6725948328468 60.1813748181896,45.6766372516253 60.1854172369681,45.6806796704038 60.1894596557467,45.6793321974777</coordinates></LinearRing></outerBoundaryIs></Polygon><Polygon><outerBoundaryIs><LinearRing><coordinates>60.1679000889278,45.6793321974777 60.177332399411,45.6806796704038 60.177332399411,45.6779847245515 60.169247561854,45.6779847245515 60.1679000889278,45.6793321974777</coordinates></LinearRing></outerBoundaryIs></Polygon><Polygon><outerBoundaryIs><LinearRing><coordinates>60.2029343850084,45.68202714333 60.1988919662299,45.6779847245515 60.1975444933037,45.68202714333 60.2015869120823,45.6833746162562 60.2029343850084,45.68202714333</coordinates></LinearRing></outerBoundaryIs></Polygon><Polygon><outerBoundaryIs><LinearRing><coordinates>60.1598152513707,45.6928069267395 60.169247561854,45.6941543996656 60.1746374535587,45.6860695621086 60.1800273452634,45.6860695621086 60.1827222911158,45.6887645079609 60.1894596557467,45.6847220891824 60.1800273452634,45.6779847245515 60.177332399411,45.6806796704038 60.169247561854,45.6806796704038 60.1652051430754,45.6847220891824 60.1638576701492,45.6833746162562 60.1627026933554,45.6868395466378 60.1611627242969,45.6860695621086 60.1598152513707,45.6928069267395</coordinates></LinearRing></outerBoundaryIs></Polygon><Polygon><outerBoundaryIs><LinearRing><coordinates>60.1894596557467,45.6901119808871 60.1908071286728,45.6914594538133 60.1975444933037,45.6901119808871 60.1961970203776,45.6833746162562 60.1935020745252,45.6887645079609 60.1894596557467,45.6901119808871</coordinates></LinearRing></outerBoundaryIs></Polygon></MultiGeometry>
  </Placemark>
</Folder>
</Document></kml>
