<?xml version="1.0" encoding="utf-8" ?>
<kml xmlns="http://www.opengis.net/kml/2.2">
<Document id="root_doc">
<Schema name="task_grid_v6_45.88_61.38" id="task_grid_v6_45.88_61.38">
	<SimpleField name="area_ha" type="float"></SimpleField>
	<SimpleField name="low_risk_ha" type="float"></SimpleField>
	<SimpleField name="moderate_risk_ha" type="float"></SimpleField>
	<SimpleField name="grid_cell_deg" type="string"></SimpleField>
</Schema>
<Folder><name>task_grid_v6_45.88_61.38</name>
  <Placemark id="task_grid_v6_45.88_61.38.1">
	<name>task_grid_v6_45.88_61.38</name>
	<name>1217</name>
	<description>1302.6</description>
	<Style><LineStyle><color>ff0000ff</color></LineStyle><PolyStyle><fill>0</fill></PolyStyle></Style>
	<ExtendedData><SchemaData schemaUrl="#task_grid_v6_45.88_61.38">
		<SimpleData name="area_ha">85.6</SimpleData>
		<SimpleData name="low_risk_ha">0.1</SimpleData>
	</SchemaData></ExtendedData>
      <MultiGeometry><Polygon><outerBoundaryIs><LinearRing><coordinates>61.3566280695857,45.8343547580755 61.3553816545475,45.8343547580755 61.338845036908,45.8343547580755 61.3375065888514,45.8437238944715 61.3482863722608,45.8571986237333 61.3402015347038,45.8625885154381 61.3455914264085,45.8706733529951 61.3375065888514,45.8760632446998 61.3388540617776,45.877410717626 61.3523287910394,45.877410717626 61.3563712098179,45.8733682988475 61.3536762639656,45.8625885154381 61.3563712098179,45.8598935695857 61.3563712098179,45.854503677881 61.3617611015226,45.8518087320286 61.3590661556703,45.8491137861763 61.3671509932273,45.8437238944715 61.3671509932273,45.8383340027668 61.3684984661535,45.8450713673977 61.3725408849321,45.8410289486192 61.3712060468233,45.8343547580755 61.3711302379187,45.8343547580755 61.3620685005602,45.8343547580755 61.364456047375,45.8383340027668 61.3616137297383,45.8343547580755 61.3566280695857,45.8343547580755</coordinates></LinearRing></outerBoundaryIs><innerBoundaryIs><LinearRing><coordinates>61.3482863722608,45.8491137861763 61.3509813181132,45.8491137861763 61.349633845187,45.8504612591024 61.3482863722608,45.8491137861763</coordinates></LinearRing></innerBoundaryIs></Polygon><Polygon><outerBoundaryIs><LinearRing><coordinates>61.3263910613787,45.8402425480228 61.3263910613787,45.8433881504083 61.3280742783681,45.8450713673977 61.3294217512943,45.8437238944715 61.3280742783681,45.839681475693 61.3263910613787,45.8402425480228</coordinates></LinearRing></outerBoundaryIs></Polygon><Polygon><outerBoundaryIs><LinearRing><coordinates>61.3294217512943,45.8841480822569 61.3280742783681,45.8908854468878 61.3263910613787,45.8892022298984 61.3263910613787,45.895603850466 61.3280742783681,45.8989702844449 61.3334641700729,45.8989702844449 61.3375065888514,45.8949278656664 61.3321166971467,45.892232919814 61.3375065888514,45.8868430281093 61.3321166971467,45.8814531364046 61.334811642999,45.8760632446998 61.3294217512943,45.8733682988475 61.3321166971467,45.8706733529951 61.3321166971467,45.8625885154381 61.3263910613787,45.8522823710557 61.3263910613787,45.8598935695857 61.326726805442,45.8598935695857 61.3263910613787,45.860229313649 61.3263910613787,45.8703376089318 61.3263910613787,45.8707405018078 61.3263910613787,45.8844838263202 61.3280742783681,45.8828006093307 61.3294217512943,45.8841480822569</coordinates></LinearRing></outerBoundaryIs></Polygon><Polygon><outerBoundaryIs><LinearRing><coordinates>61.364456047375,45.8895379739616 61.3711934120059,45.8962753385925 61.3725408849321,45.892232919814 61.3658035203012,45.8828006093307 61.364456047375,45.8895379739616</coordinates></LinearRing></outerBoundaryIs></Polygon><Polygon><outerBoundaryIs><LinearRing><coordinates>61.3738883578582,45.8423764215454 61.3752358307844,45.8356390569145 61.3790887273013,45.8343547580755 61.371214470035,45.8343547580755 61.3738883578582,45.8423764215454</coordinates></LinearRing></outerBoundaryIs></Polygon><Polygon><outerBoundaryIs><LinearRing><coordinates>61.3967953976033,45.8437238944715 61.3914055058986,45.8356390569145 61.3912220346359,45.8343547580755 61.3793161540153,45.8343547580755 61.38736308712,45.8477663132501 61.3900580329724,45.8423764215454 61.3927529788248,45.8477663132501 61.3967953976033,45.8437238944715</coordinates></LinearRing></outerBoundaryIs></Polygon><Polygon><outerBoundaryIs><LinearRing><coordinates>61.3994903434557,45.8437238944715 61.4089226539389,45.8504612591024 61.4143125456436,45.8450713673977 61.417007491496,45.8477663132501 61.4197024373483,45.8450713673977 61.4250923290531,45.8450713673977 61.4263910613787,45.8463700997234 61.4263910613787,45.8407024320797 61.4197024373483,45.8369865298406 61.4089226539389,45.8369865298406 61.4062277080865,45.839681475693 61.4008378163818,45.839681475693 61.3994903434557,45.8437238944715</coordinates></LinearRing></outerBoundaryIs></Polygon><Polygon><outerBoundaryIs><LinearRing><coordinates>61.4263910613787,45.8517599914281 61.4263910613787,45.8464675809244 61.4237448561269,45.8491137861763 61.4263910613787,45.8517599914281</coordinates></LinearRing></outerBoundaryIs></Polygon></MultiGeometry>
  </Placemark>
</Folder>
</Document></kml>
