<?xml version="1.0" encoding="utf-8" ?>
<kml xmlns="http://www.opengis.net/kml/2.2">
<Document id="root_doc">
<Schema name="task_grid_v6_45.88_59.58" id="task_grid_v6_45.88_59.58">
	<SimpleField name="area_ha" type="float"></SimpleField>
	<SimpleField name="low_risk_ha" type="float"></SimpleField>
	<SimpleField name="moderate_risk_ha" type="float"></SimpleField>
	<SimpleField name="grid_cell_deg" type="string"></SimpleField>
</Schema>
<Folder><name>task_grid_v6_45.88_59.58</name>
  <Placemark id="task_grid_v6_45.88_59.58.1">
	<name>task_grid_v6_45.88_59.58</name>
	<name>704</name>
	<description>915.2</description>
	<Style><LineStyle><color>ff0000ff</color></LineStyle><PolyStyle><fill>0</fill></PolyStyle></Style>
	<ExtendedData><SchemaData schemaUrl="#task_grid_v6_45.88_59.58">
		<SimpleData name="area_ha">211.1</SimpleData>
		<SimpleData name="low_risk_ha">0.1</SimpleData>
	</SchemaData></ExtendedData>
      <MultiGeometry><Polygon><outerBoundaryIs><LinearRing><coordinates>59.6073513516372,45.8491137861763 59.5992665140801,45.8437238944715 59.5992665140801,45.8383340027668 59.6019614599325,45.8356390569145 59.6002490614805,45.8343547580755 59.5827529714693,45.8343547580755 59.5871392577445,45.8369865298406 59.597919041154,45.8504612591024 59.6033089328587,45.8531562049548 59.6019614599325,45.854503677881 59.6086988245634,45.8585460966595 59.6100462974896,45.854503677881 59.606003878711,45.8504612591024 59.6073513516372,45.8491137861763</coordinates></LinearRing></outerBoundaryIs><innerBoundaryIs><LinearRing><coordinates>59.5938766223754,45.8356390569145 59.5965715682278,45.8356390569145 59.5952240953016,45.8369865298406 59.5938766223754,45.8356390569145</coordinates></LinearRing></innerBoundaryIs></Polygon><Polygon><outerBoundaryIs><LinearRing><coordinates>59.5790544201874,45.8639359883642 59.583096838966,45.8625885154381 59.5763594743351,45.8558511508072 59.5750120014089,45.8598935695857 59.5642322179995,45.8706733529951 59.5655796909256,45.8720208259213 59.5763594743351,45.8693258800689 59.5790544201874,45.8639359883642</coordinates></LinearRing></outerBoundaryIs></Polygon><Polygon><outerBoundaryIs><LinearRing><coordinates>59.6019614599325,45.8679784071428 59.606003878711,45.8747157717737 59.6073513516372,45.8733682988475 59.606003878711,45.8639359883642 59.6019614599325,45.8679784071428</coordinates></LinearRing></outerBoundaryIs></Polygon><Polygon><outerBoundaryIs><LinearRing><coordinates>59.5601897992209,45.8801056634784 59.5642322179995,45.8760632446998 59.5628847450733,45.8720208259213 59.5588423262948,45.8760632446998 59.5601897992209,45.8801056634784</coordinates></LinearRing></outerBoundaryIs></Polygon><Polygon><outerBoundaryIs><LinearRing><coordinates>59.5884867306707,45.8787581905522 59.5952240953016,45.8801056634784 59.5952240953016,45.877410717626 59.5898342035969,45.877410717626 59.5884867306707,45.8787581905522</coordinates></LinearRing></outerBoundaryIs></Polygon><Polygon><outerBoundaryIs><LinearRing><coordinates>59.5669271638518,45.8895379739616 59.5615372721471,45.8949278656664 59.5628847450733,45.8989702844449 59.568274636778,45.8989702844449 59.5709695826304,45.8935803927402 59.5736645284827,45.8989702844449 59.5790544201874,45.8962753385925 59.5898342035969,45.8962753385925 59.5925291494492,45.8935803927402 59.597919041154,45.8962753385925 59.5992665140801,45.8949278656664 59.5992665140801,45.892232919814 59.5898342035969,45.8828006093307 59.5790544201874,45.8828006093307 59.5777069472613,45.8787581905522 59.5669271638518,45.8760632446998 59.568274636778,45.8801056634784 59.5750120014089,45.8814531364046 59.568274636778,45.8828006093307 59.5642322179995,45.8868430281093 59.5669271638518,45.8895379739616</coordinates></LinearRing></outerBoundaryIs><innerBoundaryIs><LinearRing><coordinates>59.5723170555565,45.8868430281093 59.5750120014089,45.8868430281093 59.5736645284827,45.8881905010355 59.5723170555565,45.8868430281093</coordinates></LinearRing></innerBoundaryIs></Polygon><Polygon><outerBoundaryIs><LinearRing><coordinates>59.6113937704157,45.8585460966595 59.6100462974896,45.8598935695857 59.6113937704157,45.8666309342166 59.6127412433419,45.8652834612904 59.6167836621205,45.8747157717737 59.620826080899,45.8706733529951 59.6167836621205,45.8612410425119 59.6154361891943,45.862588515438 59.6140887162681,45.8612410425119 59.6154361891943,45.8598935695857 59.6140887162681,45.8558511508072 59.6100462974896,45.8571986237333 59.6113937704157,45.8585460966595</coordinates></LinearRing></outerBoundaryIs></Polygon><Polygon><outerBoundaryIs><LinearRing><coordinates>59.6194786079728,45.8989702844449 59.6235210267514,45.892232919814 59.6167836621205,45.8828006093307 59.6127412433419,45.8841480822569 59.6154361891943,45.8895379739616 59.6100462974896,45.8976228115187 59.6113937704157,45.8989702844449 59.6167836621205,45.8962753385925 59.6194786079728,45.8989702844449</coordinates></LinearRing></outerBoundaryIs></Polygon></MultiGeometry>
  </Placemark>
</Folder>
</Document></kml>
