<?xml version="1.0" encoding="utf-8" ?>
<kml xmlns="http://www.opengis.net/kml/2.2">
<Document id="root_doc">
<Schema name="task_grid_v6_44.81_60.96" id="task_grid_v6_44.81_60.96">
	<SimpleField name="area_ha" type="float"></SimpleField>
	<SimpleField name="low_risk_ha" type="float"></SimpleField>
	<SimpleField name="moderate_risk_ha" type="float"></SimpleField>
	<SimpleField name="grid_cell_deg" type="string"></SimpleField>
</Schema>
<Folder><name>task_grid_v6_44.81_60.96</name>
  <Placemark id="task_grid_v6_44.81_60.96.1">
	<name>task_grid_v6_44.81_60.96</name>
	<name>90.90000000000001</name>
	<description>732.9</description>
	<Style><LineStyle><color>ff0000ff</color></LineStyle><PolyStyle><fill>0</fill></PolyStyle></Style>
	<ExtendedData><SchemaData schemaUrl="#task_grid_v6_44.81_60.96">
		<SimpleData name="area_ha">642</SimpleData>
		<SimpleData name="low_risk_ha">0.1</SimpleData>
	</SchemaData></ExtendedData>
      <MultiGeometry><Polygon><outerBoundaryIs><LinearRing><coordinates>60.9400020756285,44.7832627015684 60.93595965685,44.7846101744946 60.9494343861118,44.7846101744946 60.9426970214809,44.7805677557161 60.9400020756285,44.7832627015684</coordinates></LinearRing></outerBoundaryIs></Polygon><Polygon><outerBoundaryIs><LinearRing><coordinates>60.9251798734405,44.7900000661993 60.921137454662,44.7886525932732 60.9157475629573,44.7832627015684 60.9157475629573,44.7913475391255 60.9251798734405,44.7900000661993</coordinates></LinearRing></outerBoundaryIs></Polygon><Polygon><outerBoundaryIs><LinearRing><coordinates>60.93595965685,44.8088646871659 60.9426970214809,44.810212160092 60.9507818590379,44.8156020517968 60.9521293319641,44.8115596330182 60.9426970214809,44.8048222683873 60.93595965685,44.8088646871659</coordinates></LinearRing></outerBoundaryIs></Polygon><Polygon><outerBoundaryIs><LinearRing><coordinates>60.921137454662,44.8452464561727 60.9251798734405,44.8438989832465 60.9238324005144,44.8371616186156 60.9170950358835,44.8385090915418 60.921137454662,44.8452464561727</coordinates></LinearRing></outerBoundaryIs></Polygon><Polygon><outerBoundaryIs><LinearRing><coordinates>60.9276753602177,44.8625641451378 60.9238324005144,44.8587211854345 60.9157475629573,44.8587211854345 60.9102213862645,44.8543002440803 60.9102213862645,44.8625641451378 60.9276753602177,44.8625641451378</coordinates></LinearRing></outerBoundaryIs></Polygon><Polygon><outerBoundaryIs><LinearRing><coordinates>60.9521293319641,44.8573737125083 60.9561717507427,44.8614161312868 60.9602141695212,44.8573737125083 60.9534768048903,44.8560262395821 60.9521293319641,44.8573737125083</coordinates></LinearRing></outerBoundaryIs></Polygon><Polygon><outerBoundaryIs><LinearRing><coordinates>60.9307692242205,44.8625641451378 60.9358931704916,44.8625641451378 60.9346121839238,44.8587211854345 60.9307692242205,44.8625641451378</coordinates></LinearRing></outerBoundaryIs></Polygon><Polygon><outerBoundaryIs><LinearRing><coordinates>60.9534768048903,44.8614161312868 60.9453919673332,44.8614161312868 60.9450092960496,44.8625641451378 60.9557728325922,44.8625641451378 60.9534768048903,44.8614161312868</coordinates></LinearRing></outerBoundaryIs></Polygon><Polygon><outerBoundaryIs><LinearRing><coordinates>60.9992908843804,44.7697879723067 60.9939009926757,44.7697879723067 60.9912060468233,44.7670930264543 60.9871636280448,44.7711354452328 60.9912060468233,44.7751778640114 60.9939009926757,44.772482918159 60.996595938528,44.7751778640114 61.0006383573066,44.7738303910852 60.9992908843804,44.7697879723067</coordinates></LinearRing></outerBoundaryIs></Polygon><Polygon><outerBoundaryIs><LinearRing><coordinates>61.0073757219375,44.7778728098637 61.0033333031589,44.7792202827899 61.0033333031589,44.7819152286423 61.0100706677898,44.7832627015684 61.0102213862645,44.7831119830938 61.0102213862645,44.7807184741908 61.0073757219375,44.7778728098637</coordinates></LinearRing></outerBoundaryIs></Polygon><Polygon><outerBoundaryIs><LinearRing><coordinates>60.958866696595,44.8048222683873 60.9615616424474,44.802127322535 60.9669515341521,44.8075172142397 60.9723414258568,44.8075172142397 60.9750363717092,44.810212160092 60.9804262634139,44.810212160092 60.9831212092663,44.8075172142397 60.9858161551186,44.810212160092 60.9871636280448,44.8088646871659 60.9858161551186,44.8048222683873 60.9750363717092,44.802127322535 60.9602141695212,44.7926950120517 60.9642565882997,44.7913475391255 60.9696464800045,44.7967374308302 60.9750363717092,44.7967374308302 60.9750363717092,44.7913475391255 60.9669515341521,44.7859576474208 60.9561717507427,44.7886525932732 60.9534768048903,44.7832627015684 60.9494343861118,44.787305120347 60.9521293319641,44.7900000661993 60.9494343861118,44.7926950120517 60.9575192236688,44.7980849037564 60.9548242778165,44.8007798496088 60.958866696595,44.8048222683873</coordinates></LinearRing></outerBoundaryIs></Polygon><Polygon><outerBoundaryIs><LinearRing><coordinates>61.0073757219375,44.8425515103203 61.0060282490113,44.8465939290989 61.0102213862645,44.8491098114508 61.0102213862645,44.8439743424839 61.0073757219375,44.8425515103203</coordinates></LinearRing></outerBoundaryIs></Polygon><Polygon><outerBoundaryIs><LinearRing><coordinates>60.9898585738972,44.8519838208036 60.996595938528,44.8533312937298 60.996595938528,44.8506363478774 60.9912060468233,44.8506363478774 60.9898585738972,44.8519838208036</coordinates></LinearRing></outerBoundaryIs></Polygon><Polygon><outerBoundaryIs><LinearRing><coordinates>61.0046807760851,44.8614161312868 61.0087231948637,44.8600686583607 61.0073757219375,44.8560262395821 61.0033333031589,44.8573737125083 61.0046807760851,44.8614161312868</coordinates></LinearRing></outerBoundaryIs></Polygon><Polygon><outerBoundaryIs><LinearRing><coordinates>60.9604136285965,44.8625641451378 60.9655375748675,44.8625641451378 60.9642565882997,44.8587211854345 60.9604136285965,44.8625641451378</coordinates></LinearRing></outerBoundaryIs></Polygon></MultiGeometry>
  </Placemark>
</Folder>
</Document></kml>
