<?xml version="1.0" encoding="utf-8" ?>
<kml xmlns="http://www.opengis.net/kml/2.2">
<Document id="root_doc">
<Schema name="task_grid_v6_45.81_61.16" id="task_grid_v6_45.81_61.16">
	<SimpleField name="area_ha" type="float"></SimpleField>
	<SimpleField name="low_risk_ha" type="float"></SimpleField>
	<SimpleField name="moderate_risk_ha" type="float"></SimpleField>
	<SimpleField name="grid_cell_deg" type="string"></SimpleField>
</Schema>
<Folder><name>task_grid_v6_45.81_61.16</name>
  <Placemark id="task_grid_v6_45.81_61.16.1">
	<name>task_grid_v6_45.81_61.16</name>
	<name>84.3</name>
	<description>491.1</description>
	<Style><LineStyle><color>ff0000ff</color></LineStyle><PolyStyle><fill>0</fill></PolyStyle></Style>
	<ExtendedData><SchemaData schemaUrl="#task_grid_v6_45.81_61.16">
		<SimpleData name="area_ha">406.8</SimpleData>
		<SimpleData name="low_risk_ha">0.1</SimpleData>
	</SchemaData></ExtendedData>
      <MultiGeometry><Polygon><outerBoundaryIs><LinearRing><coordinates>61.1138260831056,45.7763502481626 61.1178685018842,45.7776977210888 61.1192159748104,45.7763502481626 61.1151735560318,45.772307829384 61.1138260831056,45.7763502481626</coordinates></LinearRing></outerBoundaryIs></Polygon><Polygon><outerBoundaryIs><LinearRing><coordinates>61.139428068703,45.7803926669411 61.1407755416292,45.7763502481626 61.1367331228507,45.772307829384 61.1353856499245,45.7763502481626 61.139428068703,45.7803926669411</coordinates></LinearRing></outerBoundaryIs></Polygon><Polygon><outerBoundaryIs><LinearRing><coordinates>61.1178685018842,45.7803926669411 61.1178685018842,45.7776977210888 61.1102213862645,45.7776977210888 61.1102213862645,45.7793002218526 61.1178685018842,45.7803926669411</coordinates></LinearRing></outerBoundaryIs></Polygon><Polygon><outerBoundaryIs><LinearRing><coordinates>61.1124786101795,45.7965623420553 61.1102213862645,45.7988195659702 61.1102213862645,45.8009617998065 61.1151735560318,45.80195223376 61.1151735560318,45.7965623420553 61.1124786101795,45.7965623420553</coordinates></LinearRing></outerBoundaryIs></Polygon><Polygon><outerBoundaryIs><LinearRing><coordinates>61.1246302368154,45.8625641451378 61.1294518949893,45.8625641451378 61.1286482852936,45.8585460966595 61.1246302368154,45.8625641451378</coordinates></LinearRing></outerBoundaryIs></Polygon><Polygon><outerBoundaryIs><LinearRing><coordinates>61.1407999119295,45.8625641451378 61.148836008886,45.8625641451378 61.1448179604078,45.8585460966595 61.1407999119295,45.8625641451378</coordinates></LinearRing></outerBoundaryIs></Polygon><Polygon><outerBoundaryIs><LinearRing><coordinates>61.1138991940065,45.8625641451378 61.1183095360928,45.8625641451378 61.1178685018842,45.8612410425119 61.1138991940065,45.8625641451378</coordinates></LinearRing></outerBoundaryIs></Polygon><Polygon><outerBoundaryIs><LinearRing><coordinates>61.1536130898783,45.8625641451378 61.1569208464431,45.8625641451378 61.1555977438172,45.8612410425119 61.1536130898783,45.8625641451378</coordinates></LinearRing></outerBoundaryIs></Polygon><Polygon><outerBoundaryIs><LinearRing><coordinates>61.1987168774549,45.8235118005789 61.2027592962335,45.8221643276527 61.2014118233073,45.8154269630218 61.1973694045288,45.8221643276527 61.1987168774549,45.8235118005789</coordinates></LinearRing></outerBoundaryIs></Polygon><Polygon><outerBoundaryIs><LinearRing><coordinates>61.1785047835622,45.8302491652098 61.1811997294146,45.8329441110621 61.1865896211193,45.8356390569145 61.1704199460052,45.8464188403239 61.1744623647837,45.8477663132501 61.1825472023408,45.8423764215454 61.1879370940455,45.8450713673977 61.1973694045288,45.8329441110621 61.1960219316026,45.8235118005789 61.191979512824,45.824859273505 61.1946744586764,45.8302491652098 61.1933269857502,45.8315966381359 61.1906320398979,45.8289016922836 61.1798522564884,45.8289016922836 61.1785047835622,45.8302491652098</coordinates></LinearRing></outerBoundaryIs></Polygon><Polygon><outerBoundaryIs><LinearRing><coordinates>61.2054542420858,45.8329441110621 61.2094966608644,45.8423764215454 61.2102213862645,45.8420140588453 61.2102213862645,45.8319906822264 61.2054542420858,45.8329441110621</coordinates></LinearRing></outerBoundaryIs></Polygon><Polygon><outerBoundaryIs><LinearRing><coordinates>61.206801715012,45.8531562049548 61.2102213862645,45.8514463693285 61.2102213862645,45.8466264228326 61.2102213862645,45.8427563850179 61.206801715012,45.8423764215454 61.2041067691597,45.839681475693 61.2000643503811,45.8437238944715 61.2014118233073,45.8531562049548 61.2041067691597,45.8531562049548 61.206801715012,45.8477663132501 61.2054542420858,45.8518087320286 61.206801715012,45.8531562049548</coordinates></LinearRing></outerBoundaryIs></Polygon><Polygon><outerBoundaryIs><LinearRing><coordinates>61.1636825813743,45.8558511508072 61.1704199460052,45.8491137861763 61.1609876355219,45.8477663132501 61.1582926896696,45.8504612591024 61.1555977438172,45.8477663132501 61.1515553250387,45.8518087320286 61.1609876355219,45.8531562049548 61.1636825813743,45.8558511508072</coordinates></LinearRing></outerBoundaryIs></Polygon><Polygon><outerBoundaryIs><LinearRing><coordinates>61.1863215478162,45.8625641451378 61.1717674189314,45.8612410425119 61.1713263847227,45.8625641451378 61.1863215478162,45.8625641451378</coordinates></LinearRing></outerBoundaryIs></Polygon></MultiGeometry>
  </Placemark>
</Folder>
</Document></kml>
