<?xml version="1.0" encoding="utf-8" ?>
<kml xmlns="http://www.opengis.net/kml/2.2">
<Document id="root_doc">
<Schema name="task_grid_v6_45.58_59.78" id="task_grid_v6_45.58_59.78">
	<SimpleField name="area_ha" type="float"></SimpleField>
	<SimpleField name="low_risk_ha" type="float"></SimpleField>
	<SimpleField name="moderate_risk_ha" type="float"></SimpleField>
	<SimpleField name="grid_cell_deg" type="string"></SimpleField>
</Schema>
<Folder><name>task_grid_v6_45.58_59.78</name>
  <Placemark id="task_grid_v6_45.58_59.78.1">
	<name>task_grid_v6_45.58_59.78</name>
	<name>3240.5</name>
	<description>5007.3</description>
	<Style><LineStyle><color>ff0000ff</color></LineStyle><PolyStyle><fill>0</fill></PolyStyle></Style>
	<ExtendedData><SchemaData schemaUrl="#task_grid_v6_45.58_59.78">
		<SimpleData name="area_ha">1766.8</SimpleData>
		<SimpleData name="low_risk_ha">0.1</SimpleData>
	</SchemaData></ExtendedData>
      <MultiGeometry><Polygon><outerBoundaryIs><LinearRing><coordinates>59.7461410630337,45.5809666738666 59.7380562254766,45.5782717280142 59.7286239149933,45.5850090926451 59.7380562254766,45.5863565655713 59.7299713879195,45.5863565655713 59.7263910613787,45.5899368921121 59.7263910613787,45.6343547580755 59.7340138066981,45.6343547580755 59.7537150677525,45.6343547580755 59.7528784276646,45.6335181179876 59.7542259005907,45.6321706450614 59.7564100136049,45.6343547580755 59.7600737606798,45.6343547580755 59.7606844777197,45.6300797387966 59.7623107381478,45.6321706450614 59.7650056840002,45.6267807533567 59.7677006298525,45.629475699209 59.7703955757049,45.6267807533567 59.7744379944834,45.6308231721352 59.7717430486311,45.6335181179876 59.772579688719,45.6343547580755 59.774623020072,45.6343547580755 59.7771329403358,45.6335181179876 59.7785273404823,45.6343547580755 59.7849388978636,45.6343547580755 59.8054298717856,45.6343547580755 59.8054298717856,45.6337876125728 59.8081248176379,45.6343266017433 59.8079840359768,45.6343547580755 59.808265599299,45.6343547580755 59.8108197634903,45.6343547580755 59.8263910613787,45.6343547580755 59.8263910613787,45.6234874302786 59.8256419656783,45.6227383345781 59.8263910613787,45.6227383345781 59.8263910613787,45.6025262406854 59.8189046010474,45.6025262406854 59.816209655195,45.5998312948331 59.8135147093426,45.6025262406854 59.7919551425238,45.5998312948331 59.7892601966714,45.6025262406854 59.7717430486311,45.5877040384975 59.7771329403358,45.5796192009404 59.7677006298525,45.5782717280142 59.7730905215573,45.5755767821619 59.7730905215573,45.5728818363095 59.7677006298525,45.5728818363095 59.778480413262,45.5701868904572 59.778480413262,45.5728818363095 59.7744379944834,45.5742293092357 59.7811753591143,45.5755767821619 59.7838703049667,45.5737801515936 59.7838703049667,45.5782717280142 59.7825228320405,45.5823141467928 59.7852177778929,45.5850090926451 59.7744379944834,45.5877040384975 59.7865652508191,45.5890515114237 59.7892601966714,45.5863565655713 59.7946500883761,45.5863565655713 59.7973450342285,45.5890515114237 59.8000399800808,45.5863565655713 59.8000399800808,45.591746457276 59.8081248176379,45.591746457276 59.8094722905641,45.5903989843498 59.8040823988594,45.5877040384975 59.8027349259332,45.5836616197189 59.7986925071547,45.5823141467928 59.8054298717856,45.5809666738666 59.816209655195,45.5890515114237 59.8215995468997,45.5890515114237 59.8242944927521,45.591746457276 59.8263910613787,45.5916926991061 59.8263910613787,45.5803682966408 59.8242944927521,45.5782717280142 59.8108197634903,45.5782717280142 59.8108197634903,45.5728818363095 59.816209655195,45.5728818363095 59.8189046010474,45.5755767821619 59.8215995468997,45.5728818363095 59.8242944927521,45.5755767821619 59.8263910613787,45.5755767821619 59.8263910613787,45.5712351747705 59.8215995468997,45.568839417531 59.8263910613787,45.5700372961507 59.8263910613787,45.5658350852783 59.8202520739735,45.5654258194513 59.8263910613787,45.5650165536243 59.8263910613787,45.5621020529001 59.8189046010474,45.5621020529001 59.816209655195,45.5594071070477 59.8081248176379,45.5594071070477 59.8054298717856,45.5621020529001 59.7973450342285,45.5567121611954 59.778480413262,45.5567121611954 59.7730905215573,45.554017215343 59.763658211074,45.5580596341215 59.7656794204633,45.5594071070477 59.7623107381478,45.5594071070477 59.7606263969901,45.5644601305209 59.7596157922955,45.5594071070477 59.7501834818122,45.5634495258263 59.7474885359599,45.5742293092357 59.7447935901075,45.576924255088 59.7474885359599,45.5796192009404 59.7461410630337,45.5809666738666</coordinates></LinearRing></outerBoundaryIs><innerBoundaryIs><LinearRing><coordinates>59.7555733735169,45.6254332804305 59.7528784276646,45.6200433887258 59.7580233242918,45.6266582558179 59.7555733735169,45.6254332804305</coordinates></LinearRing></innerBoundaryIs><innerBoundaryIs><LinearRing><coordinates>59.7569208464431,45.5998312948331 59.7547158907457,45.5968913539032 59.7663531569264,45.6038737136116 59.7569208464431,45.5998312948331</coordinates></LinearRing></innerBoundaryIs><innerBoundaryIs><LinearRing><coordinates>59.748836008886,45.5890515114237 59.7515309547384,45.591746457276 59.7596157922955,45.5809666738666 59.7663531569264,45.5823141467928 59.7663531569264,45.5903989843498 59.7690481027787,45.5957888760546 59.7623107381478,45.5971363489807 59.7623107381478,45.591746457276 59.7569208464431,45.5944414031284 59.7542259005907,45.591746457276 59.7531893829552,45.5948560101826 59.748836008886,45.5890515114237</coordinates></LinearRing></innerBoundaryIs><innerBoundaryIs><LinearRing><coordinates>59.7447935901075,45.5930939302022 59.7441947132514,45.5939922454863 59.7434461171813,45.591746457276 59.7366051007869,45.6008678124686 59.7353612796242,45.5971363489807 59.7313188608457,45.6011787677593 59.7367087525504,45.5930939302022 59.7420986442551,45.5903989843498 59.7447935901075,45.5850090926451 59.7434461171813,45.5836616197189 59.7461410630337,45.5863565655713 59.7447935901075,45.5877040384975 59.7461410630337,45.591746457276 59.748836008886,45.5890515114237 59.7447935901075,45.5930939302022</coordinates></LinearRing></innerBoundaryIs><innerBoundaryIs><LinearRing><coordinates>59.7353612796242,45.6025262406854 59.7340138066981,45.6020770830434 59.7362595949084,45.6013284869733 59.7353612796242,45.6025262406854</coordinates></LinearRing></innerBoundaryIs><innerBoundaryIs><LinearRing><coordinates>59.7353612796242,45.6079161323902 59.7340138066981,45.606568659464 59.7420986442551,45.606568659464 59.740751171329,45.6079161323902 59.7353612796242,45.6079161323902</coordinates></LinearRing></innerBoundaryIs><innerBoundaryIs><LinearRing><coordinates>59.7434461171813,45.6186959157996 59.7420986442551,45.6173484428734 59.7447935901075,45.6146534970211 59.7501834818122,45.6146534970211 59.7434461171813,45.6186959157996</coordinates></LinearRing></innerBoundaryIs><innerBoundaryIs><LinearRing><coordinates>59.740751171329,45.629475699209 59.7394036984028,45.6281282262829 59.7394036984028,45.6254332804305 59.7420986442551,45.6254332804305 59.740751171329,45.629475699209</coordinates></LinearRing></innerBoundaryIs><innerBoundaryIs><LinearRing><coordinates>59.7501834818122,45.6011787677593 59.748836008886,45.6025262406854 59.7474885359599,45.6011787677593 59.7501834818122,45.6011787677593</coordinates></LinearRing></innerBoundaryIs><innerBoundaryIs><LinearRing><coordinates>59.7663531569264,45.5634495258263 59.7685091136082,45.5612935691444 59.7717430486311,45.5634495258263 59.7690481027787,45.5661444716786 59.7663531569264,45.5634495258263</coordinates></LinearRing></innerBoundaryIs><innerBoundaryIs><LinearRing><coordinates>59.8027349259332,45.5755767821619 59.7892601966714,45.5755767821619 59.7846402894959,45.5732668285741 59.7892601966714,45.5701868904572 59.800454587135,45.5689430692945 59.8040823988594,45.5715343633833 59.8027349259332,45.5755767821619</coordinates></LinearRing></innerBoundaryIs><innerBoundaryIs><LinearRing><coordinates>59.8180062857632,45.5679411022468 59.8135147093426,45.5701868904572 59.816209655195,45.5674919446048 59.8180062857632,45.5679411022468</coordinates></LinearRing></innerBoundaryIs><innerBoundaryIs><LinearRing><coordinates>59.8121672364165,45.6335181179876 59.8108197634903,45.6337876125728 59.8108197634903,45.6321706450614 59.8121672364165,45.6335181179876</coordinates></LinearRing></innerBoundaryIs><innerBoundaryIs><LinearRing><coordinates>59.7892601966714,45.6079161323902 59.7825228320405,45.6119585511687 59.7811753591143,45.6160009699472 59.7798278861882,45.6146534970211 59.7838703049667,45.6079161323902 59.7892601966714,45.6052211865378 59.7892601966714,45.6079161323902</coordinates></LinearRing></innerBoundaryIs><innerBoundaryIs><LinearRing><coordinates>59.7825228320405,45.6200433887258 59.7865652508191,45.6186959157996 59.7879127237452,45.6200433887258 59.7838703049667,45.621390861652 59.7825228320405,45.6200433887258</coordinates></LinearRing></innerBoundaryIs><innerBoundaryIs><LinearRing><coordinates>59.7933026154499,45.6335181179876 59.7946500883761,45.6321706450614 59.7959975613023,45.6335181179876 59.7933026154499,45.6335181179876</coordinates></LinearRing></innerBoundaryIs><innerBoundaryIs><LinearRing><coordinates>59.763658211074,45.5715343633833 59.7623107381478,45.5728818363095 59.7609632652216,45.5715343633833 59.763658211074,45.5715343633833</coordinates></LinearRing></innerBoundaryIs></Polygon><Polygon><outerBoundaryIs><LinearRing><coordinates>59.7879127237452,45.5715343633833 59.8000399800808,45.5728818363095 59.8000399800808,45.5701868904572 59.7892601966714,45.5701868904572 59.7879127237452,45.5715343633833</coordinates></LinearRing></outerBoundaryIs></Polygon></MultiGeometry>
  </Placemark>
</Folder>
</Document></kml>
