<?xml version="1.0" encoding="utf-8" ?>
<kml xmlns="http://www.opengis.net/kml/2.2">
<Document id="root_doc">
<Schema name="task_grid_v6_45.58_60.18" id="task_grid_v6_45.58_60.18">
	<SimpleField name="area_ha" type="float"></SimpleField>
	<SimpleField name="low_risk_ha" type="float"></SimpleField>
	<SimpleField name="moderate_risk_ha" type="float"></SimpleField>
	<SimpleField name="grid_cell_deg" type="string"></SimpleField>
</Schema>
<Folder><name>task_grid_v6_45.58_60.18</name>
  <Placemark id="task_grid_v6_45.58_60.18.1">
	<name>task_grid_v6_45.58_60.18</name>
	<name>1660.2</name>
	<description>4177.4</description>
	<Style><LineStyle><color>ff0000ff</color></LineStyle><PolyStyle><fill>0</fill></PolyStyle></Style>
	<ExtendedData><SchemaData schemaUrl="#task_grid_v6_45.58_60.18">
		<SimpleData name="area_ha">2517.3</SimpleData>
		<SimpleData name="low_risk_ha">0.1</SimpleData>
	</SchemaData></ExtendedData>
      <MultiGeometry><Polygon><outerBoundaryIs><LinearRing><coordinates>60.169247561854,45.5809666738666 60.1652051430754,45.5823141467928 60.1702100425155,45.5898214959529 60.169247561854,45.5890515114237 60.1625101972231,45.5796192009404 60.1705950347801,45.5796192009404 60.169247561854,45.5728818363095 60.1584677784445,45.5701868904572 60.1557728325922,45.5728818363095 60.1503829408875,45.5728818363095 60.1369082116257,45.5863565655713 60.1288233740686,45.5890515114237 60.1263910613787,45.5914838241136 60.1263910613787,45.5947040362908 60.1274759011424,45.5957888760546 60.1263910613787,45.5963312959364 60.1263910613787,45.6006363478774 60.1274759011424,45.6011787677593 60.1263910613787,45.602263607523 60.1263910613787,45.6073946520972 60.1342132657733,45.6079161323902 60.1360098963415,45.6068381540492 60.1422981033304,45.6106110782425 60.1476879950351,45.6106110782425 60.1422981033304,45.6186959157996 60.1263910613787,45.6186959157996 60.1263910613787,45.629475699209 60.1315183199209,45.629475699209 60.1363973787874,45.6343547580755 60.1398123175,45.6343547580755 60.1406717503749,45.6343547580755 60.1751482863969,45.6343547580755 60.1776260274162,45.6343547580755 60.1827222911158,45.6343547580755 60.1827222911158,45.6321706450614 60.1834503287871,45.6343547580755 60.2263910613787,45.6343547580755 60.2263910613787,45.6325004270365 60.2263910613787,45.6135675330891 60.2263910613787,45.6132984187701 60.2263910613787,45.605770823163 60.2258414247535,45.6052211865378 60.2244939518273,45.6060296702935 60.2244939518273,45.6011787677593 60.221799005975,45.5984838219069 60.2231464789011,45.5971363489807 60.2263910613787,45.5982178764732 60.2263910613787,45.5911968206508 60.2258414247535,45.591746457276 60.2123666954917,45.591746457276 60.206976803787,45.5890515114237 60.2042818579346,45.5944414031284 60.2042818579346,45.591746457276 60.2002394391561,45.591746457276 60.2029343850084,45.5903989843498 60.2015869120823,45.5863565655713 60.1972749987185,45.5874345439122 60.1935020745252,45.5836616197189 60.1908071286728,45.5836616197189 60.1948495474514,45.5823141467928 60.1935020745252,45.5782717280142 60.1800273452634,45.5782717280142 60.1759849264849,45.5823141467928 60.1867647098943,45.5930939302022 60.1813748181896,45.5930939302022 60.1827222911158,45.5971363489807 60.1867647098943,45.5984838219069 60.1827222911158,45.5998312948331 60.1711725231771,45.5905914804822 60.1746374535587,45.591746457276 60.1759849264849,45.5850090926451 60.169247561854,45.5809666738666</coordinates></LinearRing></outerBoundaryIs><innerBoundaryIs><LinearRing><coordinates>60.1988919662299,45.5971363489807 60.1975444933037,45.5930939302022 60.2042818579346,45.5944414031284 60.1988919662299,45.5971363489807</coordinates></LinearRing></innerBoundaryIs><innerBoundaryIs><LinearRing><coordinates>60.1530778867398,45.629475699209 60.1598152513707,45.6254332804305 60.1584677784445,45.629475699209 60.1530778867398,45.629475699209</coordinates></LinearRing></innerBoundaryIs><innerBoundaryIs><LinearRing><coordinates>60.1482269842056,45.6262417641862 60.1503829408875,45.6240858075043 60.1530778867398,45.629475699209 60.1482269842056,45.6262417641862</coordinates></LinearRing></innerBoundaryIs><innerBoundaryIs><LinearRing><coordinates>60.1352912441142,45.6224688399929 60.1449930491827,45.6240858075043 60.1369082116257,45.6240858075043 60.1352912441142,45.6224688399929</coordinates></LinearRing></innerBoundaryIs><innerBoundaryIs><LinearRing><coordinates>60.1288233740686,45.621390861652 60.1317633149984,45.6218808518069 60.1288233740686,45.6224688399929 60.1288233740686,45.621390861652</coordinates></LinearRing></innerBoundaryIs><innerBoundaryIs><LinearRing><coordinates>60.1557728325922,45.6079161323902 60.1530778867398,45.6079161323902 60.1517304138136,45.6058949230009 60.1557728325922,45.6079161323902</coordinates></LinearRing></innerBoundaryIs><innerBoundaryIs><LinearRing><coordinates>60.1679000889278,45.6011787677593 60.1638576701492,45.5998312948331 60.1584677784445,45.6025262406854 60.169247561854,45.5971363489807 60.1705950347801,45.5984838219069 60.1652051430754,45.606568659464 60.1679000889278,45.6011787677593</coordinates></LinearRing></innerBoundaryIs><innerBoundaryIs><LinearRing><coordinates>60.1813748181896,45.6038737136116 60.1813748181896,45.606568659464 60.177332399411,45.5998312948331 60.1813748181896,45.6038737136116</coordinates></LinearRing></innerBoundaryIs><innerBoundaryIs><LinearRing><coordinates>60.1813748181896,45.6119585511687 60.1802651346033,45.6121170773953 60.1813748181896,45.606568659464 60.1813748181896,45.6119585511687</coordinates></LinearRing></innerBoundaryIs><innerBoundaryIs><LinearRing><coordinates>60.192154601599,45.6038737136116 60.1948495474514,45.606568659464 60.1935020745252,45.6079161323902 60.1892671596143,45.6057986749347 60.192154601599,45.6038737136116</coordinates></LinearRing></innerBoundaryIs><innerBoundaryIs><LinearRing><coordinates>60.2083242767132,45.5984838219069 60.2150616413441,45.5971363489807 60.2191040601226,45.6038737136116 60.2150616413441,45.6052211865378 60.2083242767132,45.5984838219069</coordinates></LinearRing></innerBoundaryIs><innerBoundaryIs><LinearRing><coordinates>60.2244939518273,45.6200433887258 60.2231464789011,45.6200433887258 60.2231464789011,45.6197738941406 60.2244939518273,45.6200433887258</coordinates></LinearRing></innerBoundaryIs><innerBoundaryIs><LinearRing><coordinates>60.2137141684179,45.6173484428734 60.2096717496393,45.6186959157996 60.2083242767132,45.6173484428734 60.2123666954917,45.6160009699472 60.2137141684179,45.6173484428734</coordinates></LinearRing></innerBoundaryIs><innerBoundaryIs><LinearRing><coordinates>60.1652051430754,45.5957888760546 60.1611627242969,45.5971363489807 60.1611627242969,45.5944414031284 60.1638576701492,45.5944414031284 60.1652051430754,45.5957888760546</coordinates></LinearRing></innerBoundaryIs><innerBoundaryIs><LinearRing><coordinates>60.2015869120823,45.6160009699472 60.2029343850084,45.6173484428734 60.2015869120823,45.6186959157996 60.2015869120823,45.6160009699472</coordinates></LinearRing></innerBoundaryIs><innerBoundaryIs><LinearRing><coordinates>60.1827222911158,45.621390861652 60.1840697640419,45.6227383345781 60.1827222911158,45.6240858075043 60.1827222911158,45.621390861652</coordinates></LinearRing></innerBoundaryIs><innerBoundaryIs><LinearRing><coordinates>60.1894596557467,45.6227383345781 60.1881121828205,45.6240858075043 60.1867647098943,45.6227383345781 60.1894596557467,45.6227383345781</coordinates></LinearRing></innerBoundaryIs></Polygon><Polygon><outerBoundaryIs><LinearRing><coordinates>60.1263910613787,45.6343547580755 60.1283125412303,45.6343547580755 60.1263910613787,45.6324332782239 60.1263910613787,45.6343547580755</coordinates></LinearRing></outerBoundaryIs></Polygon><Polygon><outerBoundaryIs><LinearRing><coordinates>60.2231464789011,45.5890515114237 60.2263910613787,45.5858069289461 60.2263910613787,45.5805677557161 60.2244939518273,45.5796192009404 60.2231464789011,45.5755767821619 60.2164091142702,45.576924255088 60.221799005975,45.5850090926451 60.2191040601226,45.5877040384975 60.2204515330488,45.5890515114237 60.2231464789011,45.5890515114237</coordinates></LinearRing></outerBoundaryIs></Polygon></MultiGeometry>
  </Placemark>
</Folder>
</Document></kml>
