<?xml version="1.0" encoding="utf-8" ?>
<kml xmlns="http://www.opengis.net/kml/2.2">
<Document id="root_doc">
<Schema name="task_grid_v6_45.08_61.08" id="task_grid_v6_45.08_61.08">
	<SimpleField name="area_ha" type="float"></SimpleField>
	<SimpleField name="low_risk_ha" type="float"></SimpleField>
	<SimpleField name="moderate_risk_ha" type="float"></SimpleField>
	<SimpleField name="grid_cell_deg" type="string"></SimpleField>
</Schema>
<Folder><name>task_grid_v6_45.08_61.08</name>
  <Placemark id="task_grid_v6_45.08_61.08.1">
	<name>task_grid_v6_45.08_61.08</name>
	<name>0</name>
	<description>427.8</description>
	<Style><LineStyle><color>ff0000ff</color></LineStyle><PolyStyle><fill>0</fill></PolyStyle></Style>
	<ExtendedData><SchemaData schemaUrl="#task_grid_v6_45.08_61.08">
		<SimpleData name="area_ha">427.8</SimpleData>
		<SimpleData name="low_risk_ha">0.1</SimpleData>
	</SchemaData></ExtendedData>
      <MultiGeometry><Polygon><outerBoundaryIs><LinearRing><coordinates>61.0774443140988,45.0365876116902 61.0801392599512,45.0392825575425 61.0841816787297,45.035240138764 61.0762132525334,45.0343547580755 61.0658396197796,45.0343547580755 61.0693594765417,45.0392825575425 61.0720544223941,45.0365876116902 61.0774443140988,45.0365876116902</coordinates></LinearRing></outerBoundaryIs></Polygon><Polygon><outerBoundaryIs><LinearRing><coordinates>61.0877620052705,45.0343547580755 61.0841816787297,45.0379350846163 61.0855291516559,45.0419775033949 61.0895715704344,45.0406300304687 61.0883165159558,45.0343547580755 61.0877620052705,45.0343547580755</coordinates></LinearRing></outerBoundaryIs></Polygon><Polygon><outerBoundaryIs><LinearRing><coordinates>61.0545372743538,45.0702744348446 61.0558847472799,45.0743168536232 61.0599271660585,45.0702744348446 61.0585796931323,45.0662320160661 61.0545372743538,45.0702744348446</coordinates></LinearRing></outerBoundaryIs></Polygon><Polygon><outerBoundaryIs><LinearRing><coordinates>61.0868766245821,45.0756643265494 61.0895715704344,45.0810542182541 61.0868766245821,45.0837491641064 61.0868766245821,45.0945289475159 61.0909190433606,45.0985713662944 61.0976564079915,45.0918340016635 61.0949614621391,45.0864441099588 61.0949614621391,45.0702744348446 61.0895715704344,45.0675794889923 61.0949614621391,45.0648845431399 61.0909190433606,45.0554522326567 61.0841816787297,45.0648845431399 61.0868766245821,45.0702744348446 61.0922665162868,45.072969380697 61.0868766245821,45.0756643265494</coordinates></LinearRing></outerBoundaryIs></Polygon><Polygon><outerBoundaryIs><LinearRing><coordinates>61.10169882677,45.0743168536232 61.1003513538438,45.0810542182541 61.1043937726224,45.087791582885 61.1070887184747,45.087791582885 61.1084361914009,45.0810542182541 61.10169882677,45.0743168536232</coordinates></LinearRing></outerBoundaryIs></Polygon><Polygon><outerBoundaryIs><LinearRing><coordinates>61.0909190433606,45.1336056623751 61.0976564079915,45.1322581894489 61.0963089350653,45.1282157706703 61.0909190433606,45.1282157706703 61.0868766245821,45.1322581894489 61.0872959383074,45.1343547580755 61.0905444955104,45.1343547580755 61.0909190433606,45.1336056623751</coordinates></LinearRing></outerBoundaryIs></Polygon></MultiGeometry>
  </Placemark>
</Folder>
</Document></kml>
