<?xml version="1.0" encoding="utf-8" ?>
<kml xmlns="http://www.opengis.net/kml/2.2">
<Document id="root_doc">
<Schema name="task_grid_v6_45.88_61.88" id="task_grid_v6_45.88_61.88">
	<SimpleField name="area_ha" type="float"></SimpleField>
	<SimpleField name="low_risk_ha" type="float"></SimpleField>
	<SimpleField name="moderate_risk_ha" type="float"></SimpleField>
	<SimpleField name="grid_cell_deg" type="string"></SimpleField>
</Schema>
<Folder><name>task_grid_v6_45.88_61.88</name>
  <Placemark id="task_grid_v6_45.88_61.88.1">
	<name>task_grid_v6_45.88_61.88</name>
	<name>25</name>
	<description>25</description>
	<Style><LineStyle><color>ff0000ff</color></LineStyle><PolyStyle><fill>0</fill></PolyStyle></Style>
	<ExtendedData><SchemaData schemaUrl="#task_grid_v6_45.88_61.88">
		<SimpleData name="area_ha">0</SimpleData>
		<SimpleData name="low_risk_ha">0.1</SimpleData>
	</SchemaData></ExtendedData>
      <Polygon><outerBoundaryIs><LinearRing><coordinates>61.8791907051755,45.892232919814 61.8859280698064,45.8962753385925 61.8899704885849,45.892232919814 61.8805381781017,45.8908854468878 61.8791907051755,45.892232919814</coordinates></LinearRing></outerBoundaryIs></Polygon>
  </Placemark>
</Folder>
</Document></kml>
