<?xml version="1.0" encoding="utf-8" ?>
<kml xmlns="http://www.opengis.net/kml/2.2">
<Document id="root_doc">
<Schema name="task_grid_v6_46.31_60.26" id="task_grid_v6_46.31_60.26">
	<SimpleField name="area_ha" type="float"></SimpleField>
	<SimpleField name="low_risk_ha" type="float"></SimpleField>
	<SimpleField name="moderate_risk_ha" type="float"></SimpleField>
	<SimpleField name="grid_cell_deg" type="string"></SimpleField>
</Schema>
<Folder><name>task_grid_v6_46.31_60.26</name>
  <Placemark id="task_grid_v6_46.31_60.26.1">
	<name>task_grid_v6_46.31_60.26</name>
	<name>287.1</name>
	<description>315.1</description>
	<Style><LineStyle><color>ff0000ff</color></LineStyle><PolyStyle><fill>0</fill></PolyStyle></Style>
	<ExtendedData><SchemaData schemaUrl="#task_grid_v6_46.31_60.26">
		<SimpleData name="area_ha">28</SimpleData>
		<SimpleData name="low_risk_ha">0.1</SimpleData>
	</SchemaData></ExtendedData>
      <MultiGeometry><Polygon><outerBoundaryIs><LinearRing><coordinates>60.274350450096,46.2951273247416 60.2703080313174,46.2964747976678 60.2716555042436,46.3005172164463 60.2756979230221,46.2991697435201 60.274350450096,46.2951273247416</coordinates></LinearRing></outerBoundaryIs></Polygon><Polygon><outerBoundaryIs><LinearRing><coordinates>60.2810878147268,46.2937798518154 60.282435287653,46.3032121622987 60.2864777064316,46.2964747976678 60.282435287653,46.2924323788892 60.2810878147268,46.2937798518154</coordinates></LinearRing></outerBoundaryIs></Polygon><Polygon><outerBoundaryIs><LinearRing><coordinates>60.2244939518273,46.2991697435201 60.2164091142702,46.2937798518154 60.2150616413441,46.2897374330369 60.2102213862645,46.2907054840528 60.2102213862645,46.304770425175 60.2204515330488,46.305907108151 60.2231464789011,46.3086020540034 60.2271888976797,46.3045596352249 60.2244939518273,46.2991697435201</coordinates></LinearRing></outerBoundaryIs></Polygon><Polygon><outerBoundaryIs><LinearRing><coordinates>60.2891726522839,46.3126444727819 60.2905201252101,46.3139919457081 60.2945625439886,46.3126444727819 60.2932150710625,46.3086020540034 60.2891726522839,46.3126444727819</coordinates></LinearRing></outerBoundaryIs></Polygon><Polygon><outerBoundaryIs><LinearRing><coordinates>60.2756979230221,46.3234242561914 60.274350450096,46.3139919457081 60.2703080313174,46.3153394186343 60.2716555042436,46.3328565666746 60.2756979230221,46.3288141478961 60.2730029771698,46.3261192020437 60.2756979230221,46.3234242561914</coordinates></LinearRing></outerBoundaryIs></Polygon><Polygon><outerBoundaryIs><LinearRing><coordinates>60.2541383562033,46.3288141478961 60.2608757208342,46.3328565666746 60.2622231937603,46.3315090937484 60.2608757208342,46.3220767832652 60.2541383562033,46.3288141478961</coordinates></LinearRing></outerBoundaryIs></Polygon><Polygon><outerBoundaryIs><LinearRing><coordinates>60.259528247908,46.3368989854532 60.2635706666865,46.3382464583793 60.2649181396127,46.3368989854532 60.2608757208342,46.3328565666746 60.259528247908,46.3368989854532</coordinates></LinearRing></outerBoundaryIs></Polygon></MultiGeometry>
  </Placemark>
</Folder>
</Document></kml>
