<?xml version="1.0" encoding="utf-8" ?>
<kml xmlns="http://www.opengis.net/kml/2.2">
<Document id="root_doc">
<Schema name="task_grid_v6_45.78_60.98" id="task_grid_v6_45.78_60.98">
	<SimpleField name="area_ha" type="float"></SimpleField>
	<SimpleField name="low_risk_ha" type="float"></SimpleField>
	<SimpleField name="moderate_risk_ha" type="float"></SimpleField>
	<SimpleField name="grid_cell_deg" type="string"></SimpleField>
</Schema>
<Folder><name>task_grid_v6_45.78_60.98</name>
  <Placemark id="task_grid_v6_45.78_60.98.1">
	<name>task_grid_v6_45.78_60.98</name>
	<name>3524.9</name>
	<description>4817.1</description>
	<Style><LineStyle><color>ff0000ff</color></LineStyle><PolyStyle><fill>0</fill></PolyStyle></Style>
	<ExtendedData><SchemaData schemaUrl="#task_grid_v6_45.78_60.98">
		<SimpleData name="area_ha">1292.2</SimpleData>
		<SimpleData name="low_risk_ha">0.1</SimpleData>
	</SchemaData></ExtendedData>
      <MultiGeometry><Polygon><outerBoundaryIs><LinearRing><coordinates>60.9263910613787,45.734578587451 60.9263910613787,45.7374098182914 60.9263910613787,45.7383787686419 60.9263910613787,45.7387940330779 60.9263910613787,45.7388632438172 60.9263910613787,45.8280942336581 60.9292222922191,45.8262067464312 60.9373071297762,45.8289016922836 60.9408105593842,45.8230626429368 60.9426970214809,45.8262067464312 60.9440444944071,45.8194693818003 60.9400020756285,45.8154269630218 60.939039594967,45.8183144050064 60.9373071297762,45.8154269630218 60.9400020756285,45.8100370713171 60.9453919673332,45.8100370713171 60.9480869131856,45.8127320171694 60.9507818590379,45.8100370713171 60.9534768048903,45.8127320171694 60.958866696595,45.8073421254647 60.9615616424474,45.8100370713171 60.9642565882997,45.8073421254647 60.9750363717092,45.8073421254647 60.9750363717092,45.8100370713171 60.9858161551186,45.8100370713171 60.9844686821924,45.8140794900956 60.9898585738972,45.816774435948 60.9939009926757,45.8235118005789 60.9992908843804,45.8181219088741 61.0019858302328,45.8208168547265 61.0033333031589,45.8194693818003 61.0060282490113,45.8140794900956 61.0046807760851,45.8073421254647 61.0087231948637,45.8059946525385 61.0087231948637,45.8032997066862 61.0046807760851,45.7992572879076 61.0100706677898,45.80195223376 61.0127656136422,45.7992572879076 61.0154605594946,45.80195223376 61.0195029782731,45.7979098149814 61.011418140716,45.7898249774244 61.0127656136422,45.7857825586458 61.0154605594946,45.7884775044982 61.0168080324207,45.787130031572 61.0168080324207,45.7817401398673 61.011418140716,45.7709603564579 61.0006383573066,45.7655704647531 60.9992908843804,45.7534432084175 60.9939009926757,45.7561381542699 60.988511100971,45.7480533167128 60.9858161551186,45.7534432084175 60.9844686821924,45.7467058437866 60.9804262634139,45.7426634250081 60.9709939529306,45.7440108979343 60.9763838446354,45.7458075285025 60.973688898783,45.7467058437866 60.9769228338058,45.7499397788095 60.9758448554649,45.7515567463209 60.9750363717092,45.7507482625652 60.9696464800045,45.7507482625652 60.9682990070783,45.7520957354914 60.9615616424474,45.7453583708605 60.9575192236688,45.749400789639 60.9612921478622,45.7512872517356 60.958866696595,45.7561381542699 60.9561717507427,45.7561381542699 60.9561717507427,45.7534432084175 60.9507818590379,45.7534432084175 60.9507818590379,45.7480533167128 60.9400020756285,45.7534432084175 60.9386546027023,45.7467058437866 60.9332647109976,45.7440108979343 60.93595965685,45.7413159520819 60.9346121839238,45.7399684791557 60.9319172380714,45.7395834868911 60.9319172380714,45.7372735333034 60.9328901631474,45.7343547580755 60.9294461215946,45.7343547580755 60.9292222922191,45.734578587451 60.9263910613787,45.734578587451</coordinates></LinearRing></outerBoundaryIs><innerBoundaryIs><LinearRing><coordinates>60.988511100971,45.8100370713171 60.9939009926757,45.8127320171694 60.9858161551186,45.8100370713171 60.988511100971,45.8100370713171</coordinates></LinearRing></innerBoundaryIs><innerBoundaryIs><LinearRing><coordinates>60.9507818590379,45.7561381542699 60.9507818590379,45.7550601759289 60.9561717507427,45.7561381542699 60.9507818590379,45.7561381542699</coordinates></LinearRing></innerBoundaryIs><innerBoundaryIs><LinearRing><coordinates>60.9992908843804,45.80195223376 60.9989540161489,45.8009416290653 61.0003688627213,45.8014132445895 60.9992908843804,45.80195223376</coordinates></LinearRing></innerBoundaryIs><innerBoundaryIs><LinearRing><coordinates>60.9952484656019,45.7898249774244 60.9995603789656,45.7898249774244 60.9979434114542,45.7925199232767 60.9979434114542,45.7979098149814 60.9952484656019,45.7898249774244</coordinates></LinearRing></innerBoundaryIs><innerBoundaryIs><LinearRing><coordinates>61.0033333031589,45.7736553023102 60.9939009926757,45.772307829384 60.9912060468233,45.7669179376793 60.9912060468233,45.7669179376793 60.9979434114542,45.7682654106055 60.9952484656019,45.7709603564579 60.996595938528,45.772307829384 61.0060282490113,45.7736553023102 61.0042316184431,45.7754519328785 61.0033333031589,45.7736553023102</coordinates></LinearRing></innerBoundaryIs><innerBoundaryIs><LinearRing><coordinates>60.9858161551186,45.764222991827 60.9858161551186,45.7588331001222 60.9879721118005,45.7620670351451 60.9858161551186,45.764222991827</coordinates></LinearRing></innerBoundaryIs><innerBoundaryIs><LinearRing><coordinates>60.9777313175615,45.764222991827 60.9773270756837,45.7630102661934 60.9858161551186,45.764222991827 60.9777313175615,45.764222991827</coordinates></LinearRing></innerBoundaryIs><innerBoundaryIs><LinearRing><coordinates>60.9763838446354,45.7601805730484 60.9774618229763,45.759641583878 60.9768330022774,45.7615280459746 60.9763838446354,45.7601805730484</coordinates></LinearRing></innerBoundaryIs><innerBoundaryIs><LinearRing><coordinates>60.9620108000894,45.7516465778493 60.9629091153736,45.7520957354914 60.9642565882997,45.7561381542699 60.9620108000894,45.7516465778493</coordinates></LinearRing></innerBoundaryIs><innerBoundaryIs><LinearRing><coordinates>60.9332647109976,45.8086895983909 60.9353607799939,45.8071924062507 60.9339996962301,45.8099145737783 60.9332647109976,45.8086895983909</coordinates></LinearRing></innerBoundaryIs><innerBoundaryIs><LinearRing><coordinates>60.9669515341521,45.8046471796123 60.9642565882997,45.80195223376 60.9615616424474,45.8046471796123 60.9602141695212,45.8032997066862 60.9656040612259,45.7979098149814 60.9645092394734,45.7924357062188 60.9709939529306,45.7952148691291 60.9656040612259,45.8032997066862 60.9750363717092,45.8046471796123 60.9669515341521,45.8046471796123</coordinates></LinearRing></innerBoundaryIs><innerBoundaryIs><LinearRing><coordinates>60.9453919673332,45.7561381542699 60.9467394402594,45.7574856271961 60.9426970214809,45.7615280459746 60.9413495485547,45.7574856271961 60.9453919673332,45.7561381542699</coordinates></LinearRing></innerBoundaryIs><innerBoundaryIs><LinearRing><coordinates>60.9373071297762,45.7561381542699 60.9386546027023,45.7574856271961 60.9373071297762,45.7588331001222 60.9373071297762,45.7561381542699</coordinates></LinearRing></innerBoundaryIs><innerBoundaryIs><LinearRing><coordinates>60.9780681857931,45.7463689755551 60.9790787904877,45.7467058437866 60.9784799136316,45.7476041590708 60.9780681857931,45.7463689755551</coordinates></LinearRing></innerBoundaryIs></Polygon><Polygon><outerBoundaryIs><LinearRing><coordinates>60.9453919673332,45.7426634250081 60.9467394402594,45.7413159520819 60.9453919673332,45.7372735333034 60.9413495485547,45.7386210062296 60.9453919673332,45.7426634250081</coordinates></LinearRing></outerBoundaryIs></Polygon><Polygon><outerBoundaryIs><LinearRing><coordinates>60.9803630893267,45.8343547580755 60.9804894375011,45.8343547580755 60.9804262634139,45.8342915839883 60.9803630893267,45.8343547580755</coordinates></LinearRing></outerBoundaryIs></Polygon><Polygon><outerBoundaryIs><LinearRing><coordinates>60.9864876432452,45.7343547580755 60.9855923257431,45.7343547580755 60.9858161551186,45.734578587451 60.9864876432452,45.7343547580755</coordinates></LinearRing></outerBoundaryIs></Polygon><Polygon><outerBoundaryIs><LinearRing><coordinates>61.0154605594946,45.8100370713171 61.0195029782731,45.8059946525385 61.0127656136422,45.8046471796123 61.011418140716,45.8059946525385 61.0154605594946,45.8100370713171</coordinates></LinearRing></outerBoundaryIs></Polygon><Polygon><outerBoundaryIs><LinearRing><coordinates>61.0248928699778,45.816774435948 61.0208504511993,45.8100370713171 61.0195029782731,45.816774435948 61.0235453970516,45.8181219088741 61.0248928699778,45.816774435948</coordinates></LinearRing></outerBoundaryIs></Polygon><Polygon><outerBoundaryIs><LinearRing><coordinates>61.0154605594946,45.8289016922836 61.0168080324207,45.8275542193574 61.0127656136422,45.8235118005789 61.011418140716,45.8275542193574 61.0154605594946,45.8289016922836</coordinates></LinearRing></outerBoundaryIs></Polygon><Polygon><outerBoundaryIs><LinearRing><coordinates>61.0127656136422,45.8342915839883 61.0154605594946,45.8315966381359 61.0181555053469,45.8342915839883 61.0208504511993,45.8289016922836 61.0263910613787,45.8277935702477 61.0263910613787,45.823963956003 61.026240342904,45.8235118005789 61.0235453970516,45.8262067464312 61.0208504511993,45.8235118005789 61.0154605594946,45.8289016922836 61.0073757219375,45.8289016922836 61.0060282490113,45.8329441110621 61.0127656136422,45.8342915839883</coordinates></LinearRing></outerBoundaryIs></Polygon><Polygon><outerBoundaryIs><LinearRing><coordinates>60.996280068092,45.8343547580755 61.0019226561456,45.8343547580755 61.0033333031589,45.8329441110621 61.0019858302328,45.8315966381359 60.996595938528,45.8342915839883 60.996280068092,45.8343547580755</coordinates></LinearRing></outerBoundaryIs></Polygon><Polygon><outerBoundaryIs><LinearRing><coordinates>60.9885742750582,45.8343547580755 60.988511100971,45.8342915839883 60.9883847527965,45.8343547580755 60.9885742750582,45.8343547580755</coordinates></LinearRing></outerBoundaryIs></Polygon></MultiGeometry>
  </Placemark>
</Folder>
</Document></kml>
