<?xml version="1.0" encoding="utf-8" ?>
<kml xmlns="http://www.opengis.net/kml/2.2">
<Document id="root_doc">
<Schema name="task_grid_v6_46.08_60.48" id="task_grid_v6_46.08_60.48">
	<SimpleField name="area_ha" type="float"></SimpleField>
	<SimpleField name="low_risk_ha" type="float"></SimpleField>
	<SimpleField name="moderate_risk_ha" type="float"></SimpleField>
	<SimpleField name="grid_cell_deg" type="string"></SimpleField>
</Schema>
<Folder><name>task_grid_v6_46.08_60.48</name>
  <Placemark id="task_grid_v6_46.08_60.48.1">
	<name>task_grid_v6_46.08_60.48</name>
	<name>1015.4</name>
	<description>1641.4</description>
	<Style><LineStyle><color>ff0000ff</color></LineStyle><PolyStyle><fill>0</fill></PolyStyle></Style>
	<ExtendedData><SchemaData schemaUrl="#task_grid_v6_46.08_60.48">
		<SimpleData name="area_ha">626</SimpleData>
		<SimpleData name="low_risk_ha">0.1</SimpleData>
	</SchemaData></ExtendedData>
      <MultiGeometry><Polygon><outerBoundaryIs><LinearRing><coordinates>60.4468269846469,46.1064811150765 60.4535643492778,46.102438696298 60.4495219304993,46.0957013316671 60.4468269846469,46.0957013316671 60.4454795117207,46.0970488045932 60.4481744575731,46.0997437504456 60.4427845658684,46.102438696298 60.4468269846469,46.1064811150765</coordinates></LinearRing></outerBoundaryIs></Polygon><Polygon><outerBoundaryIs><LinearRing><coordinates>60.462996659761,46.0903114399623 60.4616491868349,46.0943538587409 60.4683865514658,46.0983962775194 60.4710814973181,46.0957013316671 60.4805138078014,46.110523533855 60.4859036995061,46.1132184797074 60.4872511724323,46.1199558443383 60.492641064137,46.1162243808504 60.492641064137,46.1172608984859 60.4912935912108,46.1186083714121 60.4941810331955,46.1203408366029 60.4912935912108,46.1213033172645 60.4939885370632,46.1239982631168 60.4939885370632,46.1320831006739 60.4902024413938,46.1343547580755 60.5017911823197,46.1343547580755 60.4966834829155,46.1266932089692 60.4980309558417,46.125345736043 60.5007259016941,46.1280406818954 60.5034208475464,46.125345736043 60.5088107392511,46.125345736043 60.5115056851035,46.1280406818954 60.5142006309559,46.125345736043 60.5101582121773,46.1293881548215 60.5115056851035,46.1307356277477 60.515548103882,46.1293881548215 60.5130648022551,46.1343547580755 60.5159713923328,46.1343547580755 60.5168955768082,46.1334305736001 60.5187439457591,46.1343547580755 60.5234659760976,46.1343547580755 60.5263910613787,46.1299671301538 60.5263910613787,46.1012339232428 60.5263910613787,46.1010912233718 60.5263910613787,46.0960224063768 60.5168955768082,46.0983962775194 60.515548103882,46.102438696298 60.5191149439808,46.1020423807314 60.5168955768082,46.1064811150765 60.5142006309559,46.1037861692241 60.5115056851035,46.1091760609289 60.5028219706903,46.1091760609289 60.5047683204726,46.1078285880027 60.5034208475464,46.1037861692241 60.5061157933988,46.1010912233718 60.5115056851035,46.1010912233718 60.5115056851035,46.0983962775194 60.5128531580297,46.0970488045932 60.5101582121773,46.0943538587409 60.5168955768082,46.0849215482576 60.5222854685129,46.08761649411 60.5263910613787,46.0844232552144 60.5263910613787,46.0794053083785 60.5249804143653,46.0822266024053 60.4980309558417,46.0822266024053 60.4966834829155,46.0862690211838 60.5034208475464,46.0983962775194 60.5012441605118,46.0993291433914 60.4966834829155,46.0970488045932 60.492641064137,46.0822266024053 60.4845562265799,46.0822266024053 60.4737764431705,46.08761649411 60.4710814973181,46.0849215482576 60.4710814973181,46.0930063858147 60.462996659761,46.0903114399623</coordinates></LinearRing></outerBoundaryIs><innerBoundaryIs><LinearRing><coordinates>60.4912935912108,46.0943538587409 60.4899461182846,46.1010912233718 60.4859036995061,46.0997437504456 60.4859036995061,46.0943538587409 60.4912935912108,46.0943538587409</coordinates></LinearRing></innerBoundaryIs><innerBoundaryIs><LinearRing><coordinates>60.4764713890228,46.0930063858147 60.4764713890228,46.0903114399623 60.477818861949,46.0916589128885 60.4764713890228,46.0930063858147</coordinates></LinearRing></innerBoundaryIs><innerBoundaryIs><LinearRing><coordinates>60.4859036995061,46.0889639670362 60.4885986453585,46.0889639670362 60.4872511724323,46.0903114399623 60.4859036995061,46.0889639670362</coordinates></LinearRing></innerBoundaryIs><innerBoundaryIs><LinearRing><coordinates>60.4980309558417,46.1183388768269 60.4993784287679,46.1186083714121 60.4980309558417,46.1226507901907 60.4980309558417,46.1183388768269</coordinates></LinearRing></innerBoundaryIs><innerBoundaryIs><LinearRing><coordinates>60.5047683204726,46.0889639670362 60.5061157933988,46.08761649411 60.5088107392511,46.08761649411 60.5088107392511,46.0903114399623 60.5047683204726,46.0889639670362</coordinates></LinearRing></innerBoundaryIs><innerBoundaryIs><LinearRing><coordinates>60.5236329414391,46.1132184797074 60.5168955768082,46.1172608984859 60.515548103882,46.1159134255598 60.5182430497344,46.110523533855 60.5263278872915,46.1078285880027 60.5236329414391,46.1132184797074</coordinates></LinearRing></innerBoundaryIs><innerBoundaryIs><LinearRing><coordinates>60.5088107392511,46.1226507901907 60.5020733746202,46.1159134255598 60.5088107392511,46.1145659526336 60.5101582121773,46.1213033172645 60.5088107392511,46.1226507901907</coordinates></LinearRing></innerBoundaryIs></Polygon><Polygon><outerBoundaryIs><LinearRing><coordinates>60.5018617303949,46.1343547580755 60.5044218499945,46.1343547580755 60.5034208475464,46.125345736043 60.4993784287679,46.1293881548215 60.5018617303949,46.1343547580755</coordinates></LinearRing></outerBoundaryIs></Polygon><Polygon><outerBoundaryIs><LinearRing><coordinates>60.4845562265799,46.1334305736001 60.4839401035963,46.1343547580755 60.4854804110553,46.1343547580755 60.4845562265799,46.1334305736001</coordinates></LinearRing></outerBoundaryIs></Polygon><Polygon><outerBoundaryIs><LinearRing><coordinates>60.507463266325,46.102438696298 60.5115056851035,46.1064811150765 60.5128531580297,46.1051336421503 60.5115056851035,46.1010912233718 60.507463266325,46.102438696298</coordinates></LinearRing></outerBoundaryIs></Polygon></MultiGeometry>
  </Placemark>
</Folder>
</Document></kml>
