<?xml version="1.0" encoding="utf-8" ?>
<kml xmlns="http://www.opengis.net/kml/2.2">
<Document id="root_doc">
<Schema name="task_grid_v6_45.81_59.66" id="task_grid_v6_45.81_59.66">
	<SimpleField name="area_ha" type="float"></SimpleField>
	<SimpleField name="low_risk_ha" type="float"></SimpleField>
	<SimpleField name="moderate_risk_ha" type="float"></SimpleField>
	<SimpleField name="grid_cell_deg" type="string"></SimpleField>
</Schema>
<Folder><name>task_grid_v6_45.81_59.66</name>
  <Placemark id="task_grid_v6_45.81_59.66.1">
	<name>task_grid_v6_45.81_59.66</name>
	<name>88.90000000000001</name>
	<description>332.6</description>
	<Style><LineStyle><color>ff0000ff</color></LineStyle><PolyStyle><fill>0</fill></PolyStyle></Style>
	<ExtendedData><SchemaData schemaUrl="#task_grid_v6_45.81_59.66">
		<SimpleData name="area_ha">243.7</SimpleData>
		<SimpleData name="low_risk_ha">0.1</SimpleData>
	</SchemaData></ExtendedData>
      <MultiGeometry><Polygon><outerBoundaryIs><LinearRing><coordinates>59.6456818574933,45.7625641451378 59.6450805935702,45.7655704647531 59.6491230123488,45.7696128835317 59.658555322832,45.7682654106055 59.6512251243735,45.7625641451378 59.6456818574933,45.7625641451378</coordinates></LinearRing></outerBoundaryIs></Polygon><Polygon><outerBoundaryIs><LinearRing><coordinates>59.6568624835181,45.7625641451378 59.6558603769797,45.7655704647531 59.658555322832,45.7682654106055 59.6599027957582,45.7696128835317 59.6612502686844,45.7655704647531 59.658243949069,45.7625641451378 59.6568624835181,45.7625641451378</coordinates></LinearRing></outerBoundaryIs></Polygon><Polygon><outerBoundaryIs><LinearRing><coordinates>59.7057168752483,45.764222991827 59.7043694023221,45.7709603564579 59.7084118211007,45.772307829384 59.7102213862645,45.7704982642202 59.7102213862645,45.7669256984367 59.7057168752483,45.764222991827</coordinates></LinearRing></outerBoundaryIs></Polygon><Polygon><outerBoundaryIs><LinearRing><coordinates>59.6652926874629,45.7776977210888 59.6572078499058,45.7776977210888 59.6558603769797,45.7790451940149 59.6599027957582,45.7830876127935 59.6652926874629,45.7803926669411 59.6652926874629,45.7776977210888</coordinates></LinearRing></outerBoundaryIs></Polygon><Polygon><outerBoundaryIs><LinearRing><coordinates>59.6531654311273,45.8464188403239 59.6477755394226,45.8571986237333 59.6491230123488,45.8585460966595 59.6518179582011,45.8558511508072 59.6518179582011,45.8612410425119 59.6599027957582,45.8585460966595 59.6629163321169,45.8625641451378 59.6693229210913,45.8625641451378 59.6666401603891,45.8571986237333 59.6693351062415,45.8518087320286 59.6679876333153,45.8504612591024 59.6599027957582,45.8558511508072 59.658555322832,45.854503677881 59.6612502686844,45.8518087320286 59.6599027957582,45.8423764215454 59.6558603769797,45.8437238944715 59.658555322832,45.8464188403239 59.6572078499058,45.8477663132501 59.6545129040535,45.8450713673977 59.6531654311273,45.8464188403239</coordinates></LinearRing></outerBoundaryIs></Polygon><Polygon><outerBoundaryIs><LinearRing><coordinates>59.6102213862645,45.8571402608084 59.6102213862645,45.8573737125083 59.6113937704157,45.8585460966595 59.6102213862645,45.8597184808107 59.6102213862645,45.8607690134606 59.6105804126,45.8625641451378 59.615411818894,45.8625641451378 59.6140887162681,45.8612410425119 59.6154361891943,45.8598935695857 59.6140887162681,45.8558511508072 59.6102213862645,45.8571402608084</coordinates></LinearRing></outerBoundaryIs></Polygon><Polygon><outerBoundaryIs><LinearRing><coordinates>59.6167836621205,45.8612410425119 59.6154605594946,45.8625641451378 59.617350706103,45.8625641451378 59.6167836621205,45.8612410425119</coordinates></LinearRing></outerBoundaryIs></Polygon></MultiGeometry>
  </Placemark>
</Folder>
</Document></kml>
