<?xml version="1.0" encoding="utf-8" ?>
<kml xmlns="http://www.opengis.net/kml/2.2">
<Document id="root_doc">
<Schema name="task_grid_v6_45.78_59.28" id="task_grid_v6_45.78_59.28">
	<SimpleField name="area_ha" type="float"></SimpleField>
	<SimpleField name="low_risk_ha" type="float"></SimpleField>
	<SimpleField name="moderate_risk_ha" type="float"></SimpleField>
	<SimpleField name="grid_cell_deg" type="string"></SimpleField>
</Schema>
<Folder><name>task_grid_v6_45.78_59.28</name>
  <Placemark id="task_grid_v6_45.78_59.28.1">
	<name>task_grid_v6_45.78_59.28</name>
	<name>1048.4</name>
	<description>1523</description>
	<Style><LineStyle><color>ff0000ff</color></LineStyle><PolyStyle><fill>0</fill></PolyStyle></Style>
	<ExtendedData><SchemaData schemaUrl="#task_grid_v6_45.78_59.28">
		<SimpleData name="area_ha">474.6</SimpleData>
		<SimpleData name="low_risk_ha">0.1</SimpleData>
	</SchemaData></ExtendedData>
      <MultiGeometry><Polygon><outerBoundaryIs><LinearRing><coordinates>59.2529659720521,45.7561381542699 59.2583558637568,45.7588331001222 59.2650932283877,45.7547906813437 59.2543134449782,45.749400789639 59.2570083908306,45.7467058437866 59.2556609179044,45.7426634250081 59.2475760803473,45.7426634250081 59.2381437698641,45.749400789639 59.2381437698641,45.7467058437866 59.2341013510855,45.7453583708605 59.230058932307,45.7520957354914 59.2327538781594,45.7547906813437 59.230058932307,45.7574856271961 59.2341013510855,45.7615280459746 59.2394912427903,45.7615280459746 59.2408387157164,45.7601805730484 59.2408387157164,45.7601805730484 59.2421861886426,45.7615280459746 59.2529659720521,45.7561381542699</coordinates></LinearRing></outerBoundaryIs><innerBoundaryIs><LinearRing><coordinates>59.2424556832279,45.7542516921732 59.2435336615688,45.7547906813437 59.2429946723983,45.7558686596847 59.2424556832279,45.7542516921732</coordinates></LinearRing></innerBoundaryIs><innerBoundaryIs><LinearRing><coordinates>59.2381437698641,45.7574856271961 59.2367962969379,45.7588331001222 59.2354488240117,45.7574856271961 59.2381437698641,45.7574856271961</coordinates></LinearRing></innerBoundaryIs></Polygon><Polygon><outerBoundaryIs><LinearRing><coordinates>59.2314064052332,45.7830876127935 59.2354488240117,45.7763502481626 59.2287114593808,45.7669179376793 59.2273639864546,45.7790451940149 59.2314064052332,45.7830876127935</coordinates></LinearRing></outerBoundaryIs></Polygon><Polygon><outerBoundaryIs><LinearRing><coordinates>59.2516184991259,45.8006047608338 59.2556609179044,45.8073421254647 59.2623982825353,45.8032997066862 59.2543134449782,45.7952148691291 59.2529659720521,45.7857825586458 59.2516184991259,45.8006047608338</coordinates></LinearRing></outerBoundaryIs></Polygon><Polygon><outerBoundaryIs><LinearRing><coordinates>59.2502710261997,45.8154269630218 59.2543134449782,45.8113845442432 59.2502710261997,45.8046471796123 59.2489235532735,45.8059946525385 59.2502710261997,45.8154269630218</coordinates></LinearRing></outerBoundaryIs></Polygon><Polygon><outerBoundaryIs><LinearRing><coordinates>59.2637457554615,45.8181219088741 59.26778817424,45.8140794900956 59.2637457554615,45.8100370713171 59.2583558637568,45.8154269630218 59.2516184991259,45.816774435948 59.2556609179044,45.8208168547265 59.2543134449782,45.824859273505 59.2637457554615,45.8262067464312 59.2637457554615,45.8181219088741</coordinates></LinearRing></outerBoundaryIs></Polygon><Polygon><outerBoundaryIs><LinearRing><coordinates>59.2880002681327,45.7615280459746 59.2866527952065,45.7655704647531 59.2906952139851,45.7696128835317 59.2915671082314,45.7669972007926 59.2987800515422,45.7803926669411 59.3001275244683,45.7776977210888 59.3001275244683,45.7790451940149 59.3095598349516,45.7884775044982 59.3082123620254,45.7898249774244 59.3149497266563,45.7992572879076 59.3263910613787,45.801164177028 59.3263910613787,45.79320584489 59.3257295100657,45.7938673962029 59.320339618361,45.7911724503506 59.3176446725087,45.7884775044982 59.3189921454348,45.787130031572 59.3187675666138,45.7864562951089 59.320339618361,45.7884775044982 59.3263910613787,45.7921083703088 59.3263910613787,45.7830876127935 59.3230345642134,45.7830876127935 59.3149497266563,45.7750027752364 59.3149497266563,45.772307829384 59.3095598349516,45.772307829384 59.3041699432469,45.7776977210888 59.3014749973945,45.7750027752364 59.3082123620254,45.7736553023102 59.3001275244683,45.7709603564579 59.3001275244683,45.7682654106055 59.305517416173,45.7655704647531 59.2987800515422,45.764222991827 59.2947376327636,45.7601805730484 59.2933901598374,45.7480533167128 59.2839578493542,45.7520957354914 59.2920426869113,45.7574856271961 59.2893477410589,45.7628755189008 59.2893477410589,45.7628755189008 59.2880002681327,45.7615280459746</coordinates></LinearRing></outerBoundaryIs><innerBoundaryIs><LinearRing><coordinates>59.3109073078778,45.7763502481626 59.3164557258091,45.78348392836 59.3136022537301,45.7844350857197 59.3149497266563,45.7857825586458 59.3131530960881,45.78668087393 59.3082123620254,45.7817401398673 59.3136022537301,45.7817401398673 59.3109073078778,45.7763502481626</coordinates></LinearRing></innerBoundaryIs></Polygon><Polygon><outerBoundaryIs><LinearRing><coordinates>59.26778817424,45.8006047608338 59.26778817424,45.7790451940149 59.2718305930186,45.7750027752364 59.2745255388709,45.7803926669411 59.2785679576495,45.7736553023102 59.2785679576495,45.7628755189008 59.2718305930186,45.7588331001222 59.2691356471662,45.7615280459746 59.2664407013138,45.7561381542699 59.259703336683,45.7655704647531 59.2623982825353,45.7682654106055 59.2623982825353,45.7898249774244 59.259703336683,45.7952148691291 59.2637457554615,45.80195223376 59.26778817424,45.8006047608338</coordinates></LinearRing></outerBoundaryIs></Polygon></MultiGeometry>
  </Placemark>
</Folder>
</Document></kml>
