<?xml version="1.0" encoding="utf-8" ?>
<kml xmlns="http://www.opengis.net/kml/2.2">
<Document id="root_doc">
<Schema name="task_grid_v6_45.71_60.26" id="task_grid_v6_45.71_60.26">
	<SimpleField name="area_ha" type="float"></SimpleField>
	<SimpleField name="low_risk_ha" type="float"></SimpleField>
	<SimpleField name="moderate_risk_ha" type="float"></SimpleField>
	<SimpleField name="grid_cell_deg" type="string"></SimpleField>
</Schema>
<Folder><name>task_grid_v6_45.71_60.26</name>
  <Placemark id="task_grid_v6_45.71_60.26.1">
	<name>task_grid_v6_45.71_60.26</name>
	<name>12.4</name>
	<description>24.7</description>
	<Style><LineStyle><color>ff0000ff</color></LineStyle><PolyStyle><fill>0</fill></PolyStyle></Style>
	<ExtendedData><SchemaData schemaUrl="#task_grid_v6_45.71_60.26">
		<SimpleData name="area_ha">12.3</SimpleData>
		<SimpleData name="low_risk_ha">0.1</SimpleData>
	</SchemaData></ExtendedData>
      <MultiGeometry><Polygon><outerBoundaryIs><LinearRing><coordinates>60.2500959374247,45.6645099952897 60.252690404294,45.6625641451378 60.2412620041672,45.6625641451378 60.2406636269415,45.6631625223635 60.2500959374247,45.6645099952897</coordinates></LinearRing></outerBoundaryIs></Polygon><Polygon><outerBoundaryIs><LinearRing><coordinates>60.2352737352368,45.6658574682159 60.2341759608774,45.6625641451378 60.2331771666101,45.6625641451378 60.229883843532,45.6658574682159 60.2312313164582,45.6672049411421 60.2352737352368,45.6658574682159</coordinates></LinearRing></outerBoundaryIs></Polygon></MultiGeometry>
  </Placemark>
</Folder>
</Document></kml>
