<?xml version="1.0" encoding="utf-8" ?>
<kml xmlns="http://www.opengis.net/kml/2.2">
<Document id="root_doc">
<Schema name="task_grid_v6_44.81_60.76" id="task_grid_v6_44.81_60.76">
	<SimpleField name="area_ha" type="float"></SimpleField>
	<SimpleField name="low_risk_ha" type="float"></SimpleField>
	<SimpleField name="moderate_risk_ha" type="float"></SimpleField>
	<SimpleField name="grid_cell_deg" type="string"></SimpleField>
</Schema>
<Folder><name>task_grid_v6_44.81_60.76</name>
  <Placemark id="task_grid_v6_44.81_60.76.1">
	<name>task_grid_v6_44.81_60.76</name>
	<name>0</name>
	<description>160.8</description>
	<Style><LineStyle><color>ff0000ff</color></LineStyle><PolyStyle><fill>0</fill></PolyStyle></Style>
	<ExtendedData><SchemaData schemaUrl="#task_grid_v6_44.81_60.76">
		<SimpleData name="area_ha">160.8</SimpleData>
		<SimpleData name="low_risk_ha">0.1</SimpleData>
	</SchemaData></ExtendedData>
      <MultiGeometry><Polygon><outerBoundaryIs><LinearRing><coordinates>60.778305324487,44.7994323766826 60.7836952161917,44.7967374308302 60.7836952161917,44.7940424849779 60.778305324487,44.7940424849779 60.7769578515608,44.7980849037564 60.778305324487,44.7994323766826</coordinates></LinearRing></outerBoundaryIs></Polygon><Polygon><outerBoundaryIs><LinearRing><coordinates>60.7567457576681,44.8075172142397 60.7527033388896,44.8088646871659 60.7540508118158,44.8129071059444 60.7580932305943,44.8115596330182 60.7567457576681,44.8075172142397</coordinates></LinearRing></outerBoundaryIs></Polygon><Polygon><outerBoundaryIs><LinearRing><coordinates>60.8079497288629,44.8587211854345 60.7944749996011,44.8560262395821 60.7863901620441,44.8506363478774 60.7823477432655,44.854678766656 60.7947390523084,44.8625641451378 60.8098712087146,44.8625641451378 60.8079497288629,44.8587211854345</coordinates></LinearRing></outerBoundaryIs></Polygon></MultiGeometry>
  </Placemark>
</Folder>
</Document></kml>
