<?xml version="1.0" encoding="utf-8" ?>
<kml xmlns="http://www.opengis.net/kml/2.2">
<Document id="root_doc">
<Schema name="task_grid_v6_45.61_59.76" id="task_grid_v6_45.61_59.76">
	<SimpleField name="area_ha" type="float"></SimpleField>
	<SimpleField name="low_risk_ha" type="float"></SimpleField>
	<SimpleField name="moderate_risk_ha" type="float"></SimpleField>
	<SimpleField name="grid_cell_deg" type="string"></SimpleField>
</Schema>
<Folder><name>task_grid_v6_45.61_59.76</name>
  <Placemark id="task_grid_v6_45.61_59.76.1">
	<name>task_grid_v6_45.61_59.76</name>
	<name>2119.9</name>
	<description>3985.2</description>
	<Style><LineStyle><color>ff0000ff</color></LineStyle><PolyStyle><fill>0</fill></PolyStyle></Style>
	<ExtendedData><SchemaData schemaUrl="#task_grid_v6_45.61_59.76">
		<SimpleData name="area_ha">1865.3</SimpleData>
		<SimpleData name="low_risk_ha">0.1</SimpleData>
	</SchemaData></ExtendedData>
      <MultiGeometry><Polygon><outerBoundaryIs><LinearRing><coordinates>59.7380562254766,45.5782717280142 59.7286239149933,45.5850090926451 59.7380562254766,45.5863565655713 59.7299713879195,45.5863565655713 59.7232340232886,45.5930939302022 59.7232340232886,45.6011787677593 59.7205390774363,45.6038737136116 59.7215496821309,45.6129691558633 59.7205390774363,45.6119585511687 59.7191916045101,45.6025262406854 59.7178441315839,45.6146534970211 59.7151491857315,45.6173484428734 59.7178441315839,45.6200433887258 59.7178441315839,45.6362130638399 59.7245814962148,45.6402554826185 59.725928969141,45.6308231721352 59.725928969141,45.6416029555446 59.7269089494509,45.6430729260096 59.7232340232886,45.644297901397 59.7272764420672,45.6510352660279 59.7286239149933,45.6496877931017 59.7274689381995,45.6439129091324 59.7313188608457,45.6496877931017 59.7340138066981,45.6604675765112 59.7353612796242,45.6618150494373 59.7361103753247,45.6625641451378 59.7385869118817,45.6625641451378 59.7420986442551,45.6496877931017 59.740751171329,45.6483403201755 59.748836008886,45.6510352660279 59.7542259005907,45.6564251577326 59.7582683193693,45.6389080096923 59.7528784276646,45.6335181179876 59.7542259005907,45.6321706450614 59.7596157922955,45.6375605367661 59.7606844777197,45.6300797387966 59.7623107381478,45.6321706450614 59.7650056840002,45.6267807533567 59.7677006298525,45.629475699209 59.7703955757049,45.6267807533567 59.7730905215573,45.629475699209 59.7744379944834,45.6281282262829 59.7744379944834,45.6200433887258 59.7771329403358,45.6146534970211 59.7906076695976,45.6038737136116 59.7717430486311,45.5877040384975 59.7771329403358,45.5796192009404 59.7677006298525,45.5782717280142 59.7730905215573,45.5755767821619 59.7730905215573,45.5728818363095 59.7703955757049,45.5728818363095 59.778480413262,45.5701868904572 59.778480413262,45.5728818363095 59.7744379944834,45.5742293092357 59.7811753591143,45.5755767821619 59.7838703049667,45.5737801515936 59.7838703049667,45.5782717280142 59.7825228320405,45.5823141467928 59.7852177778929,45.5850090926451 59.7744379944834,45.5877040384975 59.7865652508191,45.5890515114237 59.7892601966714,45.5863565655713 59.7946500883761,45.5863565655713 59.7973450342285,45.5890515114237 59.8000399800808,45.5863565655713 59.8000399800808,45.591746457276 59.8081248176379,45.591746457276 59.8094722905641,45.5903989843498 59.8040823988594,45.5877040384975 59.8027349259332,45.5836616197189 59.7986925071547,45.5823141467928 59.8054298717856,45.5809666738666 59.8102213862645,45.5845603097258 59.8102213862645,45.5782717280142 59.8102213862645,45.5668935673791 59.8102213862645,45.5660945319652 59.8102213862645,45.5653953759782 59.8102213862645,45.5625641451378 59.7704149775984,45.5625641451378 59.7717430486311,45.5634495258263 59.7690481027787,45.5661444716786 59.7663531569264,45.5634495258263 59.7672385376148,45.5625641451378 59.7605108739307,45.5625641451378 59.7603643883656,45.5631500873982 59.7602471999135,45.5625641451378 59.7522493700853,45.5625641451378 59.7501834818122,45.5634495258263 59.7474885359599,45.5742293092357 59.7447935901075,45.576924255088 59.7474885359599,45.5796192009404 59.7461410630337,45.5809666738666 59.7380562254766,45.5782717280142</coordinates></LinearRing></outerBoundaryIs><innerBoundaryIs><LinearRing><coordinates>59.7555733735169,45.6254332804305 59.7528784276646,45.6200433887258 59.7580233242918,45.6266582558179 59.7555733735169,45.6254332804305</coordinates></LinearRing></innerBoundaryIs><innerBoundaryIs><LinearRing><coordinates>59.748836008886,45.5890515114237 59.7515309547384,45.591746457276 59.7596157922955,45.5809666738666 59.7663531569264,45.5823141467928 59.7663531569264,45.5903989843498 59.7690481027787,45.5930939302022 59.7677006298525,45.5971363489807 59.7609632652216,45.5957888760546 59.763658211074,45.5930939302022 59.7623107381478,45.591746457276 59.7569208464431,45.5944414031284 59.7542259005907,45.591746457276 59.7528784276646,45.5930939302022 59.7569208464431,45.5998312948331 59.748836008886,45.5890515114237</coordinates></LinearRing></innerBoundaryIs><innerBoundaryIs><LinearRing><coordinates>59.7447935901075,45.5930939302022 59.7441947132514,45.5939922454863 59.7434461171813,45.591746457276 59.7366051007869,45.6008678124686 59.7353612796242,45.5971363489807 59.7313188608457,45.6011787677593 59.7367087525504,45.5930939302022 59.7420986442551,45.5903989843498 59.7447935901075,45.5850090926451 59.7434461171813,45.5836616197189 59.7461410630337,45.5863565655713 59.7447935901075,45.5877040384975 59.7461410630337,45.591746457276 59.748836008886,45.5890515114237 59.7447935901075,45.5930939302022</coordinates></LinearRing></innerBoundaryIs><innerBoundaryIs><LinearRing><coordinates>59.7353612796242,45.6025262406854 59.7340138066981,45.6020770830434 59.7362595949084,45.6013284869733 59.7353612796242,45.6025262406854</coordinates></LinearRing></innerBoundaryIs><innerBoundaryIs><LinearRing><coordinates>59.7420986442551,45.606568659464 59.740751171329,45.6079161323902 59.7353612796242,45.6079161323902 59.7340138066981,45.606568659464 59.7420986442551,45.606568659464</coordinates></LinearRing></innerBoundaryIs><innerBoundaryIs><LinearRing><coordinates>59.740751171329,45.6483403201755 59.7394036984028,45.6469928472494 59.7394036984028,45.6416029555446 59.740751171329,45.6483403201755</coordinates></LinearRing></innerBoundaryIs><innerBoundaryIs><LinearRing><coordinates>59.7434461171813,45.6186959157996 59.7420986442551,45.6173484428734 59.7447935901075,45.6146534970211 59.7501834818122,45.6146534970211 59.7434461171813,45.6186959157996</coordinates></LinearRing></innerBoundaryIs><innerBoundaryIs><LinearRing><coordinates>59.740751171329,45.629475699209 59.7394036984028,45.6281282262829 59.7394036984028,45.6254332804305 59.7420986442551,45.6254332804305 59.740751171329,45.629475699209</coordinates></LinearRing></innerBoundaryIs><innerBoundaryIs><LinearRing><coordinates>59.7501834818122,45.6011787677593 59.748836008886,45.6025262406854 59.7474885359599,45.6011787677593 59.7501834818122,45.6011787677593</coordinates></LinearRing></innerBoundaryIs><innerBoundaryIs><LinearRing><coordinates>59.8027349259332,45.5755767821619 59.7892601966714,45.5755767821619 59.7846402894959,45.5732668285741 59.7892601966714,45.5701868904572 59.800454587135,45.5689430692945 59.8040823988594,45.5715343633833 59.8027349259332,45.5755767821619</coordinates></LinearRing></innerBoundaryIs><innerBoundaryIs><LinearRing><coordinates>59.767363761621,45.5738924410041 59.7668023145684,45.5755767821619 59.7663531569264,45.5742293092357 59.767363761621,45.5738924410041</coordinates></LinearRing></innerBoundaryIs><innerBoundaryIs><LinearRing><coordinates>59.763658211074,45.5715343633833 59.7623107381478,45.5728818363095 59.7609632652216,45.5715343633833 59.763658211074,45.5715343633833</coordinates></LinearRing></innerBoundaryIs></Polygon><Polygon><outerBoundaryIs><LinearRing><coordinates>59.7218865503624,45.6025262406854 59.7232340232886,45.6011787677593 59.7218865503624,45.591746457276 59.7205390774363,45.5930939302022 59.7218865503624,45.6025262406854</coordinates></LinearRing></outerBoundaryIs></Polygon><Polygon><outerBoundaryIs><LinearRing><coordinates>59.7503031572574,45.6625641451378 59.7552143471815,45.6625641451378 59.7515309547384,45.6564251577326 59.7503031572574,45.6625641451378</coordinates></LinearRing></outerBoundaryIs></Polygon><Polygon><outerBoundaryIs><LinearRing><coordinates>59.7352114604841,45.6625641451378 59.7358963479817,45.6625641451378 59.7353612796242,45.6618150494373 59.7352114604841,45.6625641451378</coordinates></LinearRing></outerBoundaryIs></Polygon><Polygon><outerBoundaryIs><LinearRing><coordinates>59.7879127237452,45.5715343633833 59.8000399800808,45.5728818363095 59.8000399800808,45.5701868904572 59.7892601966714,45.5701868904572 59.7879127237452,45.5715343633833</coordinates></LinearRing></outerBoundaryIs></Polygon><Polygon><outerBoundaryIs><LinearRing><coordinates>59.7973450342285,45.6025262406854 59.7973450342285,45.5998312948331 59.7919551425238,45.5998312948331 59.7906076695976,45.6011787677593 59.7973450342285,45.6025262406854</coordinates></LinearRing></outerBoundaryIs></Polygon><Polygon><outerBoundaryIs><LinearRing><coordinates>59.763658211074,45.644297901397 59.7623107381478,45.6375605367661 59.7582683193693,45.6389080096923 59.7623107381478,45.6456453743232 59.763658211074,45.644297901397</coordinates></LinearRing></outerBoundaryIs></Polygon></MultiGeometry>
  </Placemark>
</Folder>
</Document></kml>
