<?xml version="1.0" encoding="utf-8" ?>
<kml xmlns="http://www.opengis.net/kml/2.2">
<Document id="root_doc">
<Schema name="task_grid_v6_45.61_61.16" id="task_grid_v6_45.61_61.16">
	<SimpleField name="area_ha" type="float"></SimpleField>
	<SimpleField name="low_risk_ha" type="float"></SimpleField>
	<SimpleField name="moderate_risk_ha" type="float"></SimpleField>
	<SimpleField name="grid_cell_deg" type="string"></SimpleField>
</Schema>
<Folder><name>task_grid_v6_45.61_61.16</name>
  <Placemark id="task_grid_v6_45.61_61.16.1">
	<name>task_grid_v6_45.61_61.16</name>
	<name>26.8</name>
	<description>412.1</description>
	<Style><LineStyle><color>ff0000ff</color></LineStyle><PolyStyle><fill>0</fill></PolyStyle></Style>
	<ExtendedData><SchemaData schemaUrl="#task_grid_v6_45.61_61.16">
		<SimpleData name="area_ha">385.2</SimpleData>
		<SimpleData name="low_risk_ha">0.1</SimpleData>
	</SchemaData></ExtendedData>
      <MultiGeometry><Polygon><outerBoundaryIs><LinearRing><coordinates>61.1111311372533,45.5661444716786 61.1124786101795,45.5674919446048 61.1246058665151,45.5661444716786 61.124208052455,45.5625641451378 61.1147114637941,45.5625641451378 61.1102457565648,45.5625641451378 61.1124786101795,45.5647969987524 61.1111311372533,45.5661444716786</coordinates></LinearRing></outerBoundaryIs></Polygon><Polygon><outerBoundaryIs><LinearRing><coordinates>61.1102213862645,45.5681571042894 61.1102213862645,45.5689693819579 61.1111311372533,45.568839417531 61.1102213862645,45.5681571042894</coordinates></LinearRing></outerBoundaryIs></Polygon><Polygon><outerBoundaryIs><LinearRing><coordinates>61.1124786101795,45.5701868904572 61.1111311372533,45.5715343633833 61.1178685018842,45.5755767821619 61.1219109206627,45.5715343633833 61.1124786101795,45.5701868904572</coordinates></LinearRing></outerBoundaryIs></Polygon><Polygon><outerBoundaryIs><LinearRing><coordinates>61.1102213862645,45.5836616197189 61.1102213862645,45.5913087353386 61.1124786101795,45.5890515114237 61.1178685018842,45.5944414031284 61.1192159748104,45.5903989843498 61.1151735560318,45.5836616197189 61.1102213862645,45.5836616197189</coordinates></LinearRing></outerBoundaryIs></Polygon><Polygon><outerBoundaryIs><LinearRing><coordinates>61.1192159748104,45.6146534970211 61.1124786101795,45.6106110782425 61.1102213862645,45.6128683021575 61.1102213862645,45.6159384382419 61.1192159748104,45.6146534970211</coordinates></LinearRing></outerBoundaryIs></Polygon><Polygon><outerBoundaryIs><LinearRing><coordinates>61.1219109206627,45.6281282262829 61.1286482852936,45.629475699209 61.1299957582198,45.6281282262829 61.1259533394413,45.6240858075043 61.1219109206627,45.6281282262829</coordinates></LinearRing></outerBoundaryIs></Polygon><Polygon><outerBoundaryIs><LinearRing><coordinates>61.1555977438172,45.5728818363095 61.1569452167434,45.5715343633833 61.154250270891,45.568839417531 61.1582926896696,45.5674919446048 61.1609876355219,45.5728818363095 61.1650300543005,45.5661444716786 61.1600175971433,45.5625641451378 61.1540192247722,45.5625641451378 61.1529027979648,45.5647969987524 61.1434704874816,45.5661444716786 61.1475129062601,45.5701868904572 61.1502078521125,45.5674919446048 61.1529027979648,45.5728818363095 61.1555977438172,45.5728818363095</coordinates></LinearRing></outerBoundaryIs></Polygon><Polygon><outerBoundaryIs><LinearRing><coordinates>61.1785047835622,45.5823141467928 61.1825472023408,45.5836616197189 61.191979512824,45.5742293092357 61.1906320398979,45.5728818363095 61.1852421481931,45.5755767821619 61.1825472023408,45.5728818363095 61.1771573106361,45.5728818363095 61.1758098377099,45.5742293092357 61.1785047835622,45.576924255088 61.1785047835622,45.5823141467928</coordinates></LinearRing></outerBoundaryIs></Polygon><Polygon><outerBoundaryIs><LinearRing><coordinates>61.131343231146,45.5863565655713 61.1219109206627,45.5903989843498 61.1286482852936,45.591746457276 61.1340381769983,45.5890515114237 61.1340381769983,45.5836616197189 61.131343231146,45.5863565655713</coordinates></LinearRing></outerBoundaryIs></Polygon><Polygon><outerBoundaryIs><LinearRing><coordinates>61.1987168774549,45.6186959157996 61.2000643503811,45.6173484428734 61.1960219316026,45.6133060240949 61.1946744586764,45.6173484428734 61.1987168774549,45.6186959157996</coordinates></LinearRing></outerBoundaryIs></Polygon><Polygon><outerBoundaryIs><LinearRing><coordinates>61.2014118233073,45.6564251577326 61.2027592962335,45.6523827389541 61.1987168774549,45.6483403201755 61.1973694045288,45.6550776848064 61.2014118233073,45.6564251577326</coordinates></LinearRing></outerBoundaryIs></Polygon><Polygon><outerBoundaryIs><LinearRing><coordinates>61.1431735472052,45.6625641451378 61.139428068703,45.6618150494373 61.1386789730026,45.6625641451378 61.1431735472052,45.6625641451378</coordinates></LinearRing></outerBoundaryIs></Polygon></MultiGeometry>
  </Placemark>
</Folder>
</Document></kml>
