<?xml version="1.0" encoding="utf-8" ?>
<kml xmlns="http://www.opengis.net/kml/2.2">
<Document id="root_doc">
<Schema name="task_grid_v6_45.71_59.46" id="task_grid_v6_45.71_59.46">
	<SimpleField name="area_ha" type="float"></SimpleField>
	<SimpleField name="low_risk_ha" type="float"></SimpleField>
	<SimpleField name="moderate_risk_ha" type="float"></SimpleField>
	<SimpleField name="grid_cell_deg" type="string"></SimpleField>
</Schema>
<Folder><name>task_grid_v6_45.71_59.46</name>
  <Placemark id="task_grid_v6_45.71_59.46.1">
	<name>task_grid_v6_45.71_59.46</name>
	<name>201.8</name>
	<description>432.8</description>
	<Style><LineStyle><color>ff0000ff</color></LineStyle><PolyStyle><fill>0</fill></PolyStyle></Style>
	<ExtendedData><SchemaData schemaUrl="#task_grid_v6_45.71_59.46">
		<SimpleData name="area_ha">231</SimpleData>
		<SimpleData name="low_risk_ha">0.1</SimpleData>
	</SchemaData></ExtendedData>
      <MultiGeometry><Polygon><outerBoundaryIs><LinearRing><coordinates>59.4429596546433,45.7089766018536 59.4470020734219,45.7130190206322 59.4456546004957,45.7143664935583 59.448349546348,45.7305361686725 59.4550869109789,45.7372735333034 59.4577818568313,45.7372735333034 59.4685616402407,45.7507482625652 59.4699091131669,45.7467058437866 59.4537394380528,45.7251462769678 59.4550869109789,45.7264937498939 59.4577818568313,45.7237988040416 59.4604768026837,45.7264937498939 59.4618242756098,45.7224513311154 59.4523919651266,45.7103240747798 59.4512517957275,45.7160249217752 59.4496970192742,45.7103240747798 59.448349546348,45.711671547706 59.4470020734219,45.7076291289274 59.4429596546433,45.7089766018536</coordinates></LinearRing></outerBoundaryIs><innerBoundaryIs><LinearRing><coordinates>59.4517182286635,45.7177351758738 59.4537394380528,45.719756385263 59.4537394380528,45.7251462769678 59.4517182286635,45.7177351758738</coordinates></LinearRing></innerBoundaryIs></Polygon><Polygon><outerBoundaryIs><LinearRing><coordinates>59.4672141673146,45.7386210062296 59.4739515319455,45.7453583708605 59.4752990048716,45.7413159520819 59.4685616402407,45.734578587451 59.4672141673146,45.7386210062296</coordinates></LinearRing></outerBoundaryIs></Polygon><Polygon><outerBoundaryIs><LinearRing><coordinates>59.4726040590193,45.7601805730484 59.4733985830491,45.7625641451378 59.4780562254766,45.7625641451378 59.4793414236502,45.7561381542699 59.4860787882811,45.7574856271961 59.4820363695025,45.7588331001222 59.4820363695025,45.7615280459746 59.4914686799858,45.7601805730484 59.4847313153549,45.7507482625652 59.4820363695025,45.7534432084175 59.4766464777978,45.7507482625652 59.4752990048716,45.7520957354914 59.4752990048716,45.7574856271961 59.4726040590193,45.7601805730484</coordinates></LinearRing></outerBoundaryIs></Polygon><Polygon><outerBoundaryIs><LinearRing><coordinates>59.4523919651266,45.7588331001222 59.4510444922004,45.7601805730484 59.4604768026837,45.7615280459746 59.4604768026837,45.7588331001222 59.4523919651266,45.7588331001222</coordinates></LinearRing></outerBoundaryIs></Polygon><Polygon><outerBoundaryIs><LinearRing><coordinates>59.4523919651266,45.7615280459746 59.4513558659634,45.7625641451378 59.4577818568313,45.7625641451378 59.4577818568313,45.7615280459746 59.4523919651266,45.7615280459746</coordinates></LinearRing></outerBoundaryIs></Polygon><Polygon><outerBoundaryIs><LinearRing><coordinates>59.4955110987643,45.7615280459746 59.4924028012748,45.7625641451378 59.4972379307029,45.7625641451378 59.4955110987643,45.7615280459746</coordinates></LinearRing></outerBoundaryIs></Polygon></MultiGeometry>
  </Placemark>
</Folder>
</Document></kml>
