<?xml version="1.0" encoding="utf-8" ?>
<kml xmlns="http://www.opengis.net/kml/2.2">
<Document id="root_doc">
<Schema name="task_grid_v6_45.81_60.86" id="task_grid_v6_45.81_60.86">
	<SimpleField name="area_ha" type="float"></SimpleField>
	<SimpleField name="low_risk_ha" type="float"></SimpleField>
	<SimpleField name="moderate_risk_ha" type="float"></SimpleField>
	<SimpleField name="grid_cell_deg" type="string"></SimpleField>
</Schema>
<Folder><name>task_grid_v6_45.81_60.86</name>
  <Placemark id="task_grid_v6_45.81_60.86.1">
	<name>task_grid_v6_45.81_60.86</name>
	<name>4862.7</name>
	<description>5116.1</description>
	<Style><LineStyle><color>ff0000ff</color></LineStyle><PolyStyle><fill>0</fill></PolyStyle></Style>
	<ExtendedData><SchemaData schemaUrl="#task_grid_v6_45.81_60.86">
		<SimpleData name="area_ha">253.5</SimpleData>
		<SimpleData name="low_risk_ha">0.1</SimpleData>
	</SchemaData></ExtendedData>
      <MultiGeometry><Polygon><outerBoundaryIs><LinearRing><coordinates>60.863852858987,45.7625641451378 60.8529056370544,45.7625641451378 60.8524163354269,45.7628755189008 60.8551112812792,45.764222991827 60.8429840249436,45.764222991827 60.8402890790912,45.7669179376793 60.8375941332389,45.764222991827 60.8268143498295,45.764222991827 60.8243260797957,45.7625641451378 60.8164908852631,45.7625641451378 60.8146870934938,45.7655704647531 60.8200769851986,45.7736553023102 60.81603456642,45.7776977210888 60.8106446747153,45.7750027752364 60.8102213862645,45.7754260636872 60.8102213862645,45.8103220874171 60.8119921476415,45.8113845442432 60.8102213862645,45.8131553056202 60.8102213862645,45.8196542186954 60.81603456642,45.8208168547265 60.8187295122724,45.8181219088741 60.8227719310509,45.8221643276527 60.8200769851986,45.824859273505 60.8254668769033,45.8275542193574 60.8227719310509,45.8302491652098 60.8268143498295,45.8315966381359 60.8295092956818,45.8369865298406 60.8322042415342,45.8342915839883 60.8402890790912,45.8423764215454 60.853763808353,45.8423764215454 60.8564587542054,45.8504612591024 60.8672385376148,45.8504612591024 60.8726284293195,45.8450713673977 60.8753233751719,45.8504612591024 60.8766708480981,45.8437238944715 60.8753233751719,45.8423764215454 60.8753233751719,45.8423764215454 60.8793657939504,45.8356390569145 60.8780183210243,45.8315966381359 60.8807132668766,45.8342915839883 60.8820607398028,45.8275542193574 60.8820607398028,45.8356390569145 60.8887981044337,45.8369865298406 60.8887981044337,45.8342915839883 60.8847556856552,45.8329441110621 60.8874506315075,45.8302491652098 60.8847556856552,45.8275542193574 60.8874506315075,45.824859273505 60.8793657939504,45.824859273505 60.8753233751719,45.8208168547265 60.8726284293195,45.8235118005789 60.8699334834672,45.8208168547265 60.8672385376148,45.8235118005789 60.8658910646887,45.8221643276527 60.8699334834672,45.8181219088741 60.8766708480981,45.816774435948 60.868586010541,45.8113845442432 60.868586010541,45.8086895983909 60.8618486459101,45.80195223376 60.853763808353,45.7992572879076 60.8497213895745,45.7952148691291 60.8470264437221,45.7925199232767 60.8470264437221,45.787130031572 60.8591537000578,45.7857825586458 60.8699334834672,45.7938673962029 60.8807132668766,45.7965623420553 60.8847556856552,45.8006047608338 60.8847556856552,45.8059946525385 60.8820607398028,45.8086895983909 60.8820607398028,45.816774435948 60.8820607398028,45.8194693818003 60.8941879961384,45.8289016922836 60.898230414917,45.824859273505 60.898230414917,45.816774435948 60.9036203066217,45.8140794900956 60.9009253607693,45.816774435948 60.9022728336955,45.8181219088741 60.9049677795479,45.8181219088741 60.9090101983264,45.8113845442432 60.9076627254002,45.8100370713171 60.9102213862645,45.8074784104527 60.9102213862645,45.7965169137259 60.9102213862645,45.7959567480862 60.9102213862645,45.7943246143806 60.9102213862645,45.7937311112149 60.9102213862645,45.7625641451378 60.8847556856552,45.7625641451378 60.8847556856552,45.7655704647531 60.8820607398028,45.7655704647531 60.8807723171105,45.7625641451378 60.8686482852936,45.7625641451378 60.868586010541,45.7628755189008 60.8712809563934,45.7682654106055 60.868586010541,45.7709603564579 60.8739759022457,45.7736553023102 60.8699334834672,45.7750027752364 60.8631961188363,45.7709603564579 60.868586010541,45.7682654106055 60.8652173282256,45.7662442012162 60.8672385376148,45.7669179376793 60.8678605079779,45.7625641451378 60.8655796909256,45.7625641451378 60.8658910646887,45.7628755189008 60.8635329870678,45.7652335965216 60.8624902996845,45.7646079840916 60.863852858987,45.7625641451378</coordinates></LinearRing></outerBoundaryIs><innerBoundaryIs><LinearRing><coordinates>60.8955354690646,45.8059946525385 60.8928405232122,45.7952148691291 60.8847556856552,45.787130031572 60.8861031585813,45.7830876127935 60.8901455773599,45.7817401398673 60.8847556856552,45.7790451940149 60.8914930502861,45.7776977210888 60.8930330193445,45.7746177829718 60.8941879961384,45.7803926669411 60.8955354690646,45.7790451940149 60.898230414917,45.7817401398673 60.898230414917,45.787130031572 60.9072135677582,45.7925199232767 60.906315252474,45.7952148691291 60.9095491874969,45.79629284747 60.906315252474,45.7979098149814 60.9036203066217,45.8059946525385 60.9049677795479,45.8073421254647 60.9036203066217,45.8086895983909 60.8955354690646,45.8059946525385</coordinates></LinearRing></innerBoundaryIs><innerBoundaryIs><LinearRing><coordinates>60.8941879961384,45.772307829384 60.8955354690646,45.7727569870261 60.8936490069679,45.773385807725 60.8941879961384,45.772307829384</coordinates></LinearRing></innerBoundaryIs><innerBoundaryIs><LinearRing><coordinates>60.898230414917,45.7736553023102 60.8976914257465,45.7747332806512 60.8972198102223,45.7733184340787 60.898230414917,45.7736553023102</coordinates></LinearRing></innerBoundaryIs><innerBoundaryIs><LinearRing><coordinates>60.8672385376148,45.8369865298406 60.8672385376148,45.8342915839883 60.8726284293195,45.8369865298406 60.868586010541,45.8383340027668 60.8712809563934,45.8399509702782 60.8605011729839,45.8356390569145 60.8672385376148,45.8369865298406</coordinates></LinearRing></innerBoundaryIs><innerBoundaryIs><LinearRing><coordinates>60.8753233751719,45.8289016922836 60.8780183210243,45.8315966381359 60.8766708480981,45.8329441110621 60.8739759022457,45.8302491652098 60.8753233751719,45.8289016922836</coordinates></LinearRing></innerBoundaryIs><innerBoundaryIs><LinearRing><coordinates>60.8578062271316,45.7655704647531 60.8564587542054,45.7669179376793 60.8564587542054,45.7648967282901 60.8578062271316,45.7655704647531</coordinates></LinearRing></innerBoundaryIs><innerBoundaryIs><LinearRing><coordinates>60.830856768608,45.7925199232767 60.8389416061651,45.7925199232767 60.8375941332389,45.7938673962029 60.830856768608,45.7925199232767</coordinates></LinearRing></innerBoundaryIs><innerBoundaryIs><LinearRing><coordinates>60.8968829419908,45.764222991827 60.898230414917,45.7682654106055 60.8968829419908,45.7696128835317 60.8955354690646,45.7655704647531 60.8968829419908,45.764222991827</coordinates></LinearRing></innerBoundaryIs></Polygon><Polygon><outerBoundaryIs><LinearRing><coordinates>60.8766708480981,45.8113845442432 60.8807132668766,45.8181219088741 60.8820607398028,45.816774435948 60.8807132668766,45.8100370713171 60.8766708480981,45.8113845442432</coordinates></LinearRing></outerBoundaryIs></Polygon><Polygon><outerBoundaryIs><LinearRing><coordinates>60.868586010541,45.8491137861763 60.8699334834672,45.8504612591024 60.8739759022457,45.8491137861763 60.8726284293195,45.8450713673977 60.868586010541,45.8491137861763</coordinates></LinearRing></outerBoundaryIs></Polygon><Polygon><outerBoundaryIs><LinearRing><coordinates>60.9102213862645,45.8092086789358 60.9102213862645,45.8074784104527 60.9090101983264,45.8086895983909 60.9102213862645,45.8092086789358</coordinates></LinearRing></outerBoundaryIs></Polygon></MultiGeometry>
  </Placemark>
</Folder>
</Document></kml>
