<?xml version="1.0" encoding="utf-8" ?>
<kml xmlns="http://www.opengis.net/kml/2.2">
<Document id="root_doc">
<Schema name="task_grid_v6_45.58_61.48" id="task_grid_v6_45.58_61.48">
	<SimpleField name="area_ha" type="float"></SimpleField>
	<SimpleField name="low_risk_ha" type="float"></SimpleField>
	<SimpleField name="moderate_risk_ha" type="float"></SimpleField>
	<SimpleField name="grid_cell_deg" type="string"></SimpleField>
</Schema>
<Folder><name>task_grid_v6_45.58_61.48</name>
  <Placemark id="task_grid_v6_45.58_61.48.1">
	<name>task_grid_v6_45.58_61.48</name>
	<name>12.6</name>
	<description>47.8</description>
	<Style><LineStyle><color>ff0000ff</color></LineStyle><PolyStyle><fill>0</fill></PolyStyle></Style>
	<ExtendedData><SchemaData schemaUrl="#task_grid_v6_45.58_61.48">
		<SimpleData name="area_ha">35.2</SimpleData>
		<SimpleData name="low_risk_ha">0.1</SimpleData>
	</SchemaData></ExtendedData>
      <MultiGeometry><Polygon><outerBoundaryIs><LinearRing><coordinates>61.4682114626908,45.5998312948331 61.4682114626908,45.5944414031284 61.4655165168384,45.5971363489807 61.4614740980599,45.5984838219069 61.4682114626908,45.5998312948331</coordinates></LinearRing></outerBoundaryIs></Polygon><Polygon><outerBoundaryIs><LinearRing><coordinates>61.4439569500196,45.6240858075043 61.4426094770934,45.6281282262829 61.4466518958719,45.629475699209 61.4479993687981,45.6281282262829 61.4439569500196,45.6240858075043</coordinates></LinearRing></outerBoundaryIs></Polygon><Polygon><outerBoundaryIs><LinearRing><coordinates>61.4336879994484,45.6343547580755 61.4345246395363,45.6335181179876 61.4331771666101,45.629475699209 61.4263910613787,45.6311722255169 61.4263910613787,45.6343547580755 61.4282981077437,45.6343547580755 61.4304822207578,45.6321706450614 61.4326663337719,45.6343547580755 61.4336879994484,45.6343547580755</coordinates></LinearRing></outerBoundaryIs></Polygon></MultiGeometry>
  </Placemark>
</Folder>
</Document></kml>
