<?xml version="1.0" encoding="utf-8" ?>
<kml xmlns="http://www.opengis.net/kml/2.2">
<Document id="root_doc">
<Schema name="task_grid_v6_46.31_60.06" id="task_grid_v6_46.31_60.06">
	<SimpleField name="area_ha" type="float"></SimpleField>
	<SimpleField name="low_risk_ha" type="float"></SimpleField>
	<SimpleField name="moderate_risk_ha" type="float"></SimpleField>
	<SimpleField name="grid_cell_deg" type="string"></SimpleField>
</Schema>
<Folder><name>task_grid_v6_46.31_60.06</name>
  <Placemark id="task_grid_v6_46.31_60.06.1">
	<name>task_grid_v6_46.31_60.06</name>
	<name>331.4</name>
	<description>331.4</description>
	<Style><LineStyle><color>ff0000ff</color></LineStyle><PolyStyle><fill>0</fill></PolyStyle></Style>
	<ExtendedData><SchemaData schemaUrl="#task_grid_v6_46.31_60.06">
		<SimpleData name="area_ha">0</SimpleData>
		<SimpleData name="low_risk_ha">0.1</SimpleData>
	</SchemaData></ExtendedData>
      <Polygon><outerBoundaryIs><LinearRing><coordinates>60.1059163343235,46.320729310339 60.1045688613974,46.3220767832652 60.0991789696926,46.3247717291175 60.0964840238403,46.3247717291175 60.0951365509141,46.3234242561914 60.0978314967665,46.320729310339 60.0937890779879,46.3193818374128 60.0883991862832,46.3247717291175 60.0803143487261,46.3274666749699 60.0789668758,46.3342040396008 60.0735769840952,46.3368989854532 60.0735769840952,46.3395939313055 60.0803143487261,46.3409414042317 60.0830092945785,46.3382464583793 60.0843567675047,46.3395939313055 60.0816618216523,46.3449838230102 60.0857042404309,46.3463312959364 60.0937890779879,46.335551512527 60.1005264426188,46.3342040396008 60.0964840238403,46.3301616208223 60.0937890779879,46.3328565666746 60.0924416050617,46.3315090937484 60.0964840238403,46.3274666749699 60.1072638072497,46.3274666749699 60.1102213862645,46.3245090959551 60.1102213862645,46.3216161899185 60.1072638072497,46.3166868915605 60.1032213884712,46.3180343644866 60.1059163343235,46.320729310339</coordinates></LinearRing></outerBoundaryIs></Polygon>
  </Placemark>
</Folder>
</Document></kml>
