<?xml version="1.0" encoding="utf-8" ?>
<kml xmlns="http://www.opengis.net/kml/2.2">
<Document id="root_doc">
<Schema name="task_grid_v6_44.91_60.96" id="task_grid_v6_44.91_60.96">
	<SimpleField name="area_ha" type="float"></SimpleField>
	<SimpleField name="low_risk_ha" type="float"></SimpleField>
	<SimpleField name="moderate_risk_ha" type="float"></SimpleField>
	<SimpleField name="grid_cell_deg" type="string"></SimpleField>
</Schema>
<Folder><name>task_grid_v6_44.91_60.96</name>
  <Placemark id="task_grid_v6_44.91_60.96.1">
	<name>task_grid_v6_44.91_60.96</name>
	<name>15.9</name>
	<description>1257.2</description>
	<Style><LineStyle><color>ff0000ff</color></LineStyle><PolyStyle><fill>0</fill></PolyStyle></Style>
	<ExtendedData><SchemaData schemaUrl="#task_grid_v6_44.91_60.96">
		<SimpleData name="area_ha">1241.3</SimpleData>
		<SimpleData name="low_risk_ha">0.1</SimpleData>
	</SchemaData></ExtendedData>
      <MultiGeometry><Polygon><outerBoundaryIs><LinearRing><coordinates>60.9307692242205,44.8625641451378 60.9305697651453,44.862763604213 60.9319172380714,44.8641110771392 60.93595965685,44.862763604213 60.9358931704916,44.8625641451378 60.9307692242205,44.8625641451378</coordinates></LinearRing></outerBoundaryIs></Polygon><Polygon><outerBoundaryIs><LinearRing><coordinates>60.9615616424474,44.8695009688439 60.9656040612259,44.862763604213 60.9655375748675,44.8625641451378 60.9604136285965,44.8625641451378 60.958866696595,44.8641110771392 60.9557728325922,44.8625641451378 60.9450092960496,44.8625641451378 60.9440444944071,44.8654585500654 60.9507818590379,44.8695009688439 60.9615616424474,44.8695009688439</coordinates></LinearRing></outerBoundaryIs></Polygon><Polygon><outerBoundaryIs><LinearRing><coordinates>60.9251798734405,44.8654585500654 60.9278748192929,44.862763604213 60.9276753602177,44.8625641451378 60.9102213862645,44.8625641451378 60.9102213862645,44.8760506098824 60.9144000900311,44.8735433876225 60.9117051441788,44.8708484417701 60.9130526171049,44.8695009688439 60.9278748192929,44.8681534959177 60.9251798734405,44.8654585500654</coordinates></LinearRing></outerBoundaryIs></Polygon><Polygon><outerBoundaryIs><LinearRing><coordinates>60.9265273463667,44.8721959146963 60.9251798734405,44.8735433876225 60.9319172380714,44.877585806401 60.9319172380714,44.8721959146963 60.9265273463667,44.8721959146963</coordinates></LinearRing></outerBoundaryIs></Polygon><Polygon><outerBoundaryIs><LinearRing><coordinates>60.9265273463667,44.8964504273675 60.9265273463667,44.8883655898104 60.9238324005144,44.8910605356628 60.9184425088096,44.8883655898104 60.9170950358835,44.8951029544413 60.9184425088096,44.8964504273675 60.9238324005144,44.8937554815152 60.9265273463667,44.8964504273675</coordinates></LinearRing></outerBoundaryIs></Polygon><Polygon><outerBoundaryIs><LinearRing><coordinates>60.9426970214809,44.9368746151529 60.9467394402594,44.930137250522 60.9426970214809,44.9260948317434 60.9386546027023,44.930137250522 60.9426970214809,44.9368746151529</coordinates></LinearRing></outerBoundaryIs></Polygon><Polygon><outerBoundaryIs><LinearRing><coordinates>60.9467394402594,44.9463069256361 60.9413495485547,44.9490018714885 60.9480869131856,44.9503493444147 60.9534768048903,44.9476543985623 60.9561717507427,44.953044290267 60.9682990070783,44.9436119797838 60.9709939529306,44.9328321963743 60.9669515341521,44.9287897775958 60.9642565882997,44.9368746151529 60.9629091153736,44.930137250522 60.9534768048903,44.9260948317434 60.9494343861118,44.930137250522 60.9521293319641,44.9328321963743 60.9467394402594,44.9355271422267 60.9440444944071,44.9409170339314 60.9467394402594,44.9463069256361</coordinates></LinearRing></outerBoundaryIs></Polygon><Polygon><outerBoundaryIs><LinearRing><coordinates>60.9709939529306,44.8681534959177 60.9750363717092,44.8721959146963 60.9804262634139,44.8721959146963 60.9817737363401,44.8681534959177 60.9777313175615,44.8641110771392 60.9709939529306,44.8681534959177</coordinates></LinearRing></outerBoundaryIs></Polygon><Polygon><outerBoundaryIs><LinearRing><coordinates>61.0102213862645,44.8694256096066 61.0100706677898,44.8695009688439 61.0060282490113,44.8762383334748 61.0100706677898,44.8802807522534 61.0102213862645,44.8801300337787 61.0102213862645,44.8694256096066</coordinates></LinearRing></outerBoundaryIs></Polygon><Polygon><outerBoundaryIs><LinearRing><coordinates>60.9709939529306,44.8977979002937 60.9790787904877,44.8897130627366 60.9723414258568,44.8856706439581 60.9669515341521,44.8856706439581 60.9602141695212,44.8951029544413 60.9669515341521,44.8964504273675 60.9696464800045,44.9018403190722 60.973688898783,44.900492846146 60.9709939529306,44.8977979002937</coordinates></LinearRing></outerBoundaryIs></Polygon><Polygon><outerBoundaryIs><LinearRing><coordinates>60.9575192236688,44.9139675754078 60.9521293319641,44.9220524129649 60.958866696595,44.9233998858911 60.9642565882997,44.9207049400387 60.9709939529306,44.9247473588173 60.9682990070783,44.9274423046696 60.9696464800045,44.9287897775958 60.9723414258568,44.9287897775958 60.9790787904877,44.9220524129649 60.9763838446354,44.9193574671126 60.9790787904877,44.9166625212602 60.9763838446354,44.9139675754078 60.9750363717092,44.9045352649246 60.9723414258568,44.9072302107769 60.9696464800045,44.9045352649246 60.9642565882997,44.9045352649246 60.958866696595,44.9072302107769 60.9548242778165,44.9112726295555 60.9575192236688,44.9139675754078</coordinates></LinearRing></outerBoundaryIs><innerBoundaryIs><LinearRing><coordinates>60.9682990070783,44.9139675754078 60.9671440302844,44.9105026450262 60.9709939529306,44.9112726295555 60.9682990070783,44.9139675754078</coordinates></LinearRing></innerBoundaryIs><innerBoundaryIs><LinearRing><coordinates>60.9669515341521,44.915315048334 60.9656040612259,44.914865890692 60.9682990070783,44.9139675754078 60.9669515341521,44.915315048334</coordinates></LinearRing></innerBoundaryIs><innerBoundaryIs><LinearRing><coordinates>60.9659409294575,44.9102620248608 60.9639197200682,44.9109357613239 60.9642565882997,44.9099251566293 60.9659409294575,44.9102620248608</coordinates></LinearRing></innerBoundaryIs><innerBoundaryIs><LinearRing><coordinates>60.9633582730156,44.9126201024817 60.9639197200682,44.9143044436394 60.9629091153736,44.9139675754078 60.9633582730156,44.9126201024817</coordinates></LinearRing></innerBoundaryIs></Polygon><Polygon><outerBoundaryIs><LinearRing><coordinates>61.0006383573066,44.9624766007503 61.0007259016941,44.9625641451378 61.0086356504762,44.9625641451378 61.0087231948637,44.9624766007503 61.0046807760851,44.9584341819718 61.0006383573066,44.9624766007503</coordinates></LinearRing></outerBoundaryIs></Polygon></MultiGeometry>
  </Placemark>
</Folder>
</Document></kml>
