<?xml version="1.0" encoding="utf-8" ?>
<kml xmlns="http://www.opengis.net/kml/2.2">
<Document id="root_doc">
<Schema name="task_grid_v6_44.51_60.86" id="task_grid_v6_44.51_60.86">
	<SimpleField name="area_ha" type="float"></SimpleField>
	<SimpleField name="low_risk_ha" type="float"></SimpleField>
	<SimpleField name="moderate_risk_ha" type="float"></SimpleField>
	<SimpleField name="grid_cell_deg" type="string"></SimpleField>
</Schema>
<Folder><name>task_grid_v6_44.51_60.86</name>
  <Placemark id="task_grid_v6_44.51_60.86.1">
	<name>task_grid_v6_44.51_60.86</name>
	<name>522.5</name>
	<description>2039</description>
	<Style><LineStyle><color>ff0000ff</color></LineStyle><PolyStyle><fill>0</fill></PolyStyle></Style>
	<ExtendedData><SchemaData schemaUrl="#task_grid_v6_44.51_60.86">
		<SimpleData name="area_ha">1516.5</SimpleData>
		<SimpleData name="low_risk_ha">0.1</SimpleData>
	</SchemaData></ExtendedData>
      <MultiGeometry><Polygon><outerBoundaryIs><LinearRing><coordinates>60.8372340768122,44.5060433352022 60.8341467367341,44.5079267542364 60.8348991873865,44.5083782246279 60.8372340768122,44.5060433352022</coordinates></LinearRing></outerBoundaryIs></Polygon><Polygon><outerBoundaryIs><LinearRing><coordinates>60.8102213862645,44.5258953726682 60.8119921476415,44.5258953726682 60.8106446747153,44.5272428455944 60.8102213862645,44.5268195571436 60.8102213862645,44.5326327372991 60.8102213862645,44.5407175748562 60.8214244581247,44.5407175748562 60.8254668769033,44.5366751560776 60.8241194039771,44.5326327372991 60.8295092956818,44.5326327372991 60.8322042415342,44.5299377914467 60.8375941332389,44.5326327372991 60.8416365520174,44.5312852643729 60.8348991873865,44.5218529538897 60.8322042415342,44.524547899742 60.830856768608,44.5232004268158 60.8335517144603,44.5205054809635 60.8322042415342,44.5137681163326 60.8268143498295,44.5191580080373 60.8254668769033,44.5151155892588 60.823600102759,44.5143155431969 60.8141791871832,44.5199975746528 60.8173820393462,44.5232004268158 60.81603456642,44.524547899742 60.8133396205677,44.5218529538897 60.8111029333316,44.5218529538897 60.8102213862645,44.5223846408711 60.8102213862645,44.5258953726682</coordinates></LinearRing></outerBoundaryIs><innerBoundaryIs><LinearRing><coordinates>60.8200769851986,44.5232004268158 60.8200769851986,44.5205054809635 60.8227719310509,44.5205054809635 60.8241194039771,44.524547899742 60.8268143498295,44.5218529538897 60.8281618227556,44.5232004268158 60.8268143498295,44.5299377914467 60.8200769851986,44.5232004268158</coordinates></LinearRing></innerBoundaryIs></Polygon><Polygon><outerBoundaryIs><LinearRing><coordinates>60.8389416061651,44.5258953726682 60.845678970796,44.5272428455944 60.845678970796,44.524547899742 60.853763808353,44.524547899742 60.8578062271316,44.5205054809635 60.8564587542054,44.5164630621849 60.8483739166483,44.5164630621849 60.845678970796,44.5191580080373 60.8416365520174,44.5178105351111 60.8470264437221,44.5097256975541 60.8470264437221,44.5043358058493 60.8483739166483,44.5110731704802 60.8524163354269,44.5070307517017 60.8483739166483,44.5029883329232 60.853763808353,44.5056832787755 60.8551112812792,44.501640859997 60.8464734629321,44.5004068859474 60.8376813391363,44.5057704846729 60.8389416061651,44.5070307517017 60.8362466603127,44.5097256975541 60.8362466603127,44.5151155892588 60.8389416061651,44.5178105351111 60.8362466603127,44.5205054809635 60.8375941332389,44.5218529538897 60.8429840249436,44.524547899742 60.8402890790912,44.524547899742 60.8389416061651,44.5258953726682</coordinates></LinearRing></outerBoundaryIs></Polygon><Polygon><outerBoundaryIs><LinearRing><coordinates>60.8322042415342,44.5380226290038 60.8362466603127,44.5366751560776 60.8348991873865,44.5326327372991 60.830856768608,44.5339802102253 60.8322042415342,44.5380226290038</coordinates></LinearRing></outerBoundaryIs></Polygon><Polygon><outerBoundaryIs><LinearRing><coordinates>60.8187295122724,44.5461074665609 60.8227719310509,44.5420650477824 60.8102213862645,44.5412283447966 60.8102213862645,44.5441440528668 60.8187295122724,44.5461074665609</coordinates></LinearRing></outerBoundaryIs></Polygon><Polygon><outerBoundaryIs><LinearRing><coordinates>60.8173820393462,44.5609296687489 60.8157475629573,44.5625641451378 60.821137454662,44.5625641451378 60.8268143498295,44.5568872499703 60.8295092956818,44.5595821958227 60.8322042415342,44.554192304118 60.8389416061651,44.5501498853394 60.8362466603127,44.53937010193 60.8322042415342,44.5380226290038 60.8254668769033,44.5420650477824 60.8254668769033,44.5474549394871 60.8214244581247,44.5488024124133 60.8173820393462,44.5555397770441 60.8173820393462,44.5609296687489</coordinates></LinearRing></outerBoundaryIs><innerBoundaryIs><LinearRing><coordinates>60.830856768608,44.5501498853394 60.8295092956818,44.5514973582656 60.8281618227556,44.5501498853394 60.830856768608,44.5501498853394</coordinates></LinearRing></innerBoundaryIs></Polygon><Polygon><outerBoundaryIs><LinearRing><coordinates>60.8260033648055,44.5625641451378 60.8279497288629,44.5625641451378 60.8268143498295,44.5568872499703 60.8260033648055,44.5625641451378</coordinates></LinearRing></outerBoundaryIs></Polygon><Polygon><outerBoundaryIs><LinearRing><coordinates>60.8968829419908,44.4975984412184 60.9022728336955,44.4975984412184 60.9102213862645,44.4936241649339 60.9102213862645,44.4900798498294 60.8995778878431,44.4922085495137 60.8968829419908,44.4949034953661 60.8847556856552,44.4962509682923 60.8887981044337,44.5002933870708 60.8914930502861,44.4975984412184 60.8968829419908,44.4975984412184</coordinates></LinearRing></outerBoundaryIs></Polygon><Polygon><outerBoundaryIs><LinearRing><coordinates>60.8631961188363,44.5070307517017 60.8658910646887,44.5097256975541 60.8658910646887,44.5151155892588 60.8699334834672,44.5164630621849 60.8726284293195,44.5137681163326 60.8887981044337,44.5137681163326 60.8914930502861,44.5110731704802 60.9102213862645,44.5098246147483 60.9102213862645,44.5096267803598 60.8914930502861,44.5083782246279 60.8901455773599,44.5070307517017 60.8941879961384,44.5056832787755 60.898230414917,44.4989459141446 60.8968829419908,44.4975984412184 60.8941879961384,44.5002933870708 60.8887981044337,44.5002933870708 60.8861031585813,44.5029883329232 60.8645435917625,44.5029883329232 60.8631961188363,44.5070307517017</coordinates></LinearRing></outerBoundaryIs><innerBoundaryIs><LinearRing><coordinates>60.8712809563934,44.5070307517017 60.8726284293195,44.5056832787755 60.8753233751719,44.5056832787755 60.8753233751719,44.5083782246279 60.8712809563934,44.5070307517017</coordinates></LinearRing></innerBoundaryIs></Polygon><Polygon><outerBoundaryIs><LinearRing><coordinates>60.8470264437221,44.5124206434064 60.853763808353,44.5137681163326 60.8551112812792,44.5124206434064 60.8510688625007,44.5083782246279 60.8483739166483,44.5110731704802 60.8470264437221,44.5124206434064</coordinates></LinearRing></outerBoundaryIs></Polygon><Polygon><outerBoundaryIs><LinearRing><coordinates>60.8429840249436,44.5461074665609 60.8497213895745,44.5474549394871 60.8416365520174,44.5528448311918 60.845678970796,44.5568872499703 60.8510688625007,44.5568872499703 60.8591537000578,44.562277141675 60.8631961188363,44.5555397770441 60.8578062271316,44.5474549394871 60.8672385376148,44.5461074665609 60.8699334834672,44.5488024124133 60.8753233751719,44.5407175748562 60.8820607398028,44.53937010193 60.8739759022457,44.5339802102253 60.8766708480981,44.5285903185206 60.8726284293195,44.524547899742 60.8699334834672,44.5272428455944 60.8564587542054,44.5272428455944 60.853763808353,44.5326327372991 60.8497213895745,44.5339802102253 60.8564587542054,44.5353276831515 60.85710554121,44.5366212571606 60.8402890790912,44.5353276831515 60.8389416061651,44.5366751560776 60.845678970796,44.5380226290038 60.8362466603127,44.53937010193 60.8402890790912,44.5407175748562 60.8429840249436,44.5461074665609</coordinates></LinearRing></outerBoundaryIs><innerBoundaryIs><LinearRing><coordinates>60.8618486459101,44.5380226290038 60.8631961188363,44.53937010193 60.8591537000578,44.5434125207085 60.853763808353,44.5407175748562 60.8510688625007,44.5434125207085 60.8524163354269,44.53937010193 60.8572672379611,44.5369446506629 60.8591537000578,44.5407175748562 60.8618486459101,44.5380226290038</coordinates></LinearRing></innerBoundaryIs></Polygon></MultiGeometry>
  </Placemark>
</Folder>
</Document></kml>
