<?xml version="1.0" encoding="utf-8" ?>
<kml xmlns="http://www.opengis.net/kml/2.2">
<Document id="root_doc">
<Schema name="task_grid_v6_45.38_61.18" id="task_grid_v6_45.38_61.18">
	<SimpleField name="area_ha" type="float"></SimpleField>
	<SimpleField name="low_risk_ha" type="float"></SimpleField>
	<SimpleField name="moderate_risk_ha" type="float"></SimpleField>
	<SimpleField name="grid_cell_deg" type="string"></SimpleField>
</Schema>
<Folder><name>task_grid_v6_45.38_61.18</name>
  <Placemark id="task_grid_v6_45.38_61.18.1">
	<name>task_grid_v6_45.38_61.18</name>
	<name>309.3</name>
	<description>1040.9</description>
	<Style><LineStyle><color>ff0000ff</color></LineStyle><PolyStyle><fill>0</fill></PolyStyle></Style>
	<ExtendedData><SchemaData schemaUrl="#task_grid_v6_45.38_61.18">
		<SimpleData name="area_ha">731.6</SimpleData>
		<SimpleData name="low_risk_ha">0.1</SimpleData>
	</SchemaData></ExtendedData>
      <MultiGeometry><Polygon><outerBoundaryIs><LinearRing><coordinates>61.1340381769983,45.3599811139732 61.1353856499245,45.358633641047 61.131343231146,45.3545912222685 61.1299957582198,45.358633641047 61.1340381769983,45.3599811139732</coordinates></LinearRing></outerBoundaryIs></Polygon><Polygon><outerBoundaryIs><LinearRing><coordinates>61.1488603791863,45.358633641047 61.1461654333339,45.3640235327517 61.1475129062601,45.3680659515303 61.1502078521125,45.3653710056779 61.1555977438172,45.3680659515303 61.1650300543005,45.358633641047 61.1609876355219,45.3492013305637 61.1596401625957,45.358633641047 61.1555977438172,45.3626760598255 61.1515553250387,45.3613285868994 61.1569452167434,45.358633641047 61.1529027979648,45.3545912222685 61.1488603791863,45.358633641047</coordinates></LinearRing></outerBoundaryIs></Polygon><Polygon><outerBoundaryIs><LinearRing><coordinates>61.1677250001528,45.3694134244564 61.1704199460052,45.3667184786041 61.1663775272266,45.3599811139732 61.1623351084481,45.3640235327517 61.1650300543005,45.3694134244564 61.1569452167434,45.3748033161612 61.1636825813743,45.3788457349397 61.1677250001528,45.3748033161612 61.1677250001528,45.3694134244564</coordinates></LinearRing></outerBoundaryIs></Polygon><Polygon><outerBoundaryIs><LinearRing><coordinates>61.1529027979648,45.3761507890873 61.1529027979648,45.373455843235 61.1475129062601,45.373455843235 61.1461654333339,45.3748033161612 61.1529027979648,45.3761507890873</coordinates></LinearRing></outerBoundaryIs></Polygon><Polygon><outerBoundaryIs><LinearRing><coordinates>61.131343231146,45.3788457349397 61.1367331228507,45.3842356266444 61.1407755416292,45.3828881537182 61.1340381769983,45.373455843235 61.131343231146,45.3761507890873 61.1273008123674,45.3721083703088 61.1273008123674,45.3667184786041 61.1299957582198,45.3640235327517 61.1286482852936,45.3599811139732 61.1263910613787,45.3599811139732 61.1263910613787,45.3900632402866 61.1286482852936,45.3923204642015 61.1326907040722,45.3909729912753 61.1299957582198,45.3882780454229 61.131343231146,45.3788457349397</coordinates></LinearRing></outerBoundaryIs></Polygon><Polygon><outerBoundaryIs><LinearRing><coordinates>61.1407755416292,45.3801932078659 61.1502078521125,45.381540680792 61.1502078521125,45.3788457349397 61.1421230145554,45.3788457349397 61.1407755416292,45.3801932078659</coordinates></LinearRing></outerBoundaryIs></Polygon><Polygon><outerBoundaryIs><LinearRing><coordinates>61.153801113249,45.4246598144298 61.1515553250387,45.426007287356 61.1549240073541,45.4280284967452 61.1529027979648,45.4300497061345 61.1475129062601,45.4273547602821 61.1434704874816,45.434092124913 61.1436747577191,45.4343547580755 61.1533937571759,45.4343547580755 61.1515553250387,45.434092124913 61.1596401625957,45.4313971790607 61.1582926896696,45.4300497061345 61.1596401625957,45.426007287356 61.1650300543005,45.4233123415036 61.1582926896696,45.4219648685774 61.1623351084481,45.4179224497989 61.1609876355219,45.4138800310204 61.1555977438172,45.4138800310204 61.1515553250387,45.4179224497989 61.154250270891,45.4206173956512 61.1515553250387,45.4233123415036 61.1529027979648,45.4246598144298 61.153801113249,45.4246598144298</coordinates></LinearRing></outerBoundaryIs></Polygon><Polygon><outerBoundaryIs><LinearRing><coordinates>61.1677250001528,45.4287022332083 61.1663775272266,45.4246598144298 61.1623351084481,45.426007287356 61.1636825813743,45.4300497061345 61.1677250001528,45.4287022332083</coordinates></LinearRing></outerBoundaryIs></Polygon><Polygon><outerBoundaryIs><LinearRing><coordinates>61.1785047835622,45.3397690200805 61.1798522564884,45.3411164930067 61.1852421481931,45.3411164930067 61.1879370940455,45.3384215471543 61.1892845669717,45.3397690200805 61.1865896211193,45.3424639659329 61.1933269857502,45.343811438859 61.1946744586764,45.3397690200805 61.2027592962335,45.3343791283758 61.2027227407831,45.3343547580755 61.1919307722235,45.3343547580755 61.191979512824,45.3343791283758 61.1906320398979,45.335726601302 61.187888353445,45.3343547580755 61.1839190455672,45.3343547580755 61.1785047835622,45.3397690200805</coordinates></LinearRing></outerBoundaryIs></Polygon><Polygon><outerBoundaryIs><LinearRing><coordinates>61.2014118233073,45.343811438859 61.2054542420858,45.3397690200805 61.2041067691597,45.335726601302 61.2000643503811,45.3397690200805 61.2014118233073,45.343811438859</coordinates></LinearRing></outerBoundaryIs></Polygon><Polygon><outerBoundaryIs><LinearRing><coordinates>61.2263910613787,45.3490563854837 61.2263910613787,45.3445361642592 61.2256663359785,45.343811438859 61.2256663359785,45.3492013305637 61.2263910613787,45.3490563854837</coordinates></LinearRing></outerBoundaryIs></Polygon><Polygon><outerBoundaryIs><LinearRing><coordinates>61.1892845669717,45.3532437493423 61.1892845669717,45.358633641047 61.1933269857502,45.3653710056779 61.1946744586764,45.3559386951946 61.2027592962335,45.3505488034899 61.1987168774549,45.3465063847114 61.1892845669717,45.3532437493423</coordinates></LinearRing></outerBoundaryIs></Polygon><Polygon><outerBoundaryIs><LinearRing><coordinates>61.2081491879382,45.3721083703088 61.2027592962335,45.3667184786041 61.2054542420858,45.3613285868994 61.2014118233073,45.3572861681208 61.1973694045288,45.3640235327517 61.2000643503811,45.3667184786041 61.1973694045288,45.3721083703088 61.1987168774549,45.3761507890873 61.2014118233073,45.3761507890873 61.2041067691597,45.3761507890873 61.206801715012,45.373455843235 61.2081491879382,45.3721083703088</coordinates></LinearRing></outerBoundaryIs></Polygon><Polygon><outerBoundaryIs><LinearRing><coordinates>61.2014118233073,45.3869305724968 61.2050692498212,45.3832731459828 61.206801715012,45.3842356266444 61.2108441337906,45.3801932078659 61.206801715012,45.373455843235 61.2041067691597,45.3788457349397 61.2014118233073,45.3761507890873 61.1946744586764,45.3774982620135 61.1977062727603,45.3791826031712 61.1946744586764,45.3801932078659 61.2014118233073,45.3869305724968</coordinates></LinearRing></outerBoundaryIs></Polygon><Polygon><outerBoundaryIs><LinearRing><coordinates>61.2027592962335,45.3882780454229 61.2041067691597,45.3923204642015 61.2081491879382,45.3909729912753 61.2108441337906,45.3855830995706 61.2094966608644,45.3842356266444 61.2027592962335,45.3882780454229</coordinates></LinearRing></outerBoundaryIs></Polygon><Polygon><outerBoundaryIs><LinearRing><coordinates>61.1785047835622,45.3936679371277 61.1744623647837,45.3896255183491 61.1731148918575,45.3936679371277 61.1771573106361,45.3950154100538 61.1785047835622,45.3936679371277</coordinates></LinearRing></outerBoundaryIs></Polygon><Polygon><outerBoundaryIs><LinearRing><coordinates>61.2108441337906,45.4071426663895 61.2148865525691,45.411185085168 61.2202764442738,45.4084901393156 61.2202764442738,45.4057951934633 61.2121916067167,45.4057951934633 61.2108441337906,45.4071426663895</coordinates></LinearRing></outerBoundaryIs></Polygon></MultiGeometry>
  </Placemark>
</Folder>
</Document></kml>
