<?xml version="1.0" encoding="utf-8" ?>
<kml xmlns="http://www.opengis.net/kml/2.2">
<Document id="root_doc">
<Schema name="task_grid_v6_45.18_60.98" id="task_grid_v6_45.18_60.98">
	<SimpleField name="area_ha" type="float"></SimpleField>
	<SimpleField name="low_risk_ha" type="float"></SimpleField>
	<SimpleField name="moderate_risk_ha" type="float"></SimpleField>
	<SimpleField name="grid_cell_deg" type="string"></SimpleField>
</Schema>
<Folder><name>task_grid_v6_45.18_60.98</name>
  <Placemark id="task_grid_v6_45.18_60.98.1">
	<name>task_grid_v6_45.18_60.98</name>
	<name>0</name>
	<description>321.7</description>
	<Style><LineStyle><color>ff0000ff</color></LineStyle><PolyStyle><fill>0</fill></PolyStyle></Style>
	<ExtendedData><SchemaData schemaUrl="#task_grid_v6_45.18_60.98">
		<SimpleData name="area_ha">321.7</SimpleData>
		<SimpleData name="low_risk_ha">0.1</SimpleData>
	</SchemaData></ExtendedData>
      <MultiGeometry><Polygon><outerBoundaryIs><LinearRing><coordinates>60.9602141695212,45.1699874313819 60.9642565882997,45.1740298501604 60.9656040612259,45.1726823772343 60.9642565882997,45.1686399584557 60.9602141695212,45.1699874313819</coordinates></LinearRing></outerBoundaryIs></Polygon><Polygon><outerBoundaryIs><LinearRing><coordinates>60.9750363717092,45.1686399584557 60.973688898783,45.1726823772343 60.9682990070783,45.1753773230866 60.9696464800045,45.1767247960128 60.9790787904877,45.1753773230866 60.9750363717092,45.1686399584557</coordinates></LinearRing></outerBoundaryIs></Polygon><Polygon><outerBoundaryIs><LinearRing><coordinates>60.9629091153736,45.1942419440531 60.9642565882997,45.1955894169793 60.9682990070783,45.1942419440531 60.9669515341521,45.1901995252746 60.9629091153736,45.1942419440531</coordinates></LinearRing></outerBoundaryIs></Polygon><Polygon><outerBoundaryIs><LinearRing><coordinates>60.9669515341521,45.2144540379458 60.9696464800045,45.2090641462411 60.9763838446354,45.2077166733149 60.9750363717092,45.2036742545364 60.9669515341521,45.2036742545364 60.9602141695212,45.2077166733149 60.9656040612259,45.2104116191673 60.9629091153736,45.2131065650196 60.9669515341521,45.2144540379458</coordinates></LinearRing></outerBoundaryIs></Polygon><Polygon><outerBoundaryIs><LinearRing><coordinates>60.9467394402594,45.2184964567244 60.9480869131856,45.2198439296505 60.9507818590379,45.2198439296505 60.9521293319641,45.215801510872 60.9575192236688,45.2131065650196 60.9507818590379,45.200979308684 60.9467394402594,45.2023267816102 60.9494343861118,45.2050217274626 60.9467394402594,45.2104116191673 60.9494343861118,45.215801510872 60.9467394402594,45.2184964567244</coordinates></LinearRing></outerBoundaryIs></Polygon><Polygon><outerBoundaryIs><LinearRing><coordinates>60.9871636280448,45.2184964567244 60.988511100971,45.2225388755029 60.9952484656019,45.2184964567244 60.9939009926757,45.2144540379458 60.9871636280448,45.2184964567244</coordinates></LinearRing></outerBoundaryIs></Polygon><Polygon><outerBoundaryIs><LinearRing><coordinates>60.9871636280448,45.2265812942814 60.988511100971,45.2279287672076 60.9925535197495,45.2265812942814 60.9912060468233,45.2225388755029 60.9871636280448,45.2265812942814</coordinates></LinearRing></outerBoundaryIs></Polygon><Polygon><outerBoundaryIs><LinearRing><coordinates>60.9669515341521,45.2252338213553 60.9521293319641,45.2292762401338 60.9543058396534,45.2343547580755 60.9599027957582,45.2343547580755 60.9575192236688,45.2319711859861 60.9669515341521,45.2279287672076 60.9669515341521,45.2252338213553</coordinates></LinearRing></outerBoundaryIs></Polygon><Polygon><outerBoundaryIs><LinearRing><coordinates>60.9659154349889,45.2343547580755 60.9723414258568,45.2343547580755 60.9723414258568,45.2333186589123 60.9669515341521,45.2333186589123 60.9659154349889,45.2343547580755</coordinates></LinearRing></outerBoundaryIs></Polygon></MultiGeometry>
  </Placemark>
</Folder>
</Document></kml>
