<?xml version="1.0" encoding="utf-8" ?>
<kml xmlns="http://www.opengis.net/kml/2.2">
<Document id="root_doc">
<Schema name="task_grid_v6_45.58_59.08" id="task_grid_v6_45.58_59.08">
	<SimpleField name="area_ha" type="float"></SimpleField>
	<SimpleField name="low_risk_ha" type="float"></SimpleField>
	<SimpleField name="moderate_risk_ha" type="float"></SimpleField>
	<SimpleField name="grid_cell_deg" type="string"></SimpleField>
</Schema>
<Folder><name>task_grid_v6_45.58_59.08</name>
  <Placemark id="task_grid_v6_45.58_59.08.1">
	<name>task_grid_v6_45.58_59.08</name>
	<name>0</name>
	<description>478.1</description>
	<Style><LineStyle><color>ff0000ff</color></LineStyle><PolyStyle><fill>0</fill></PolyStyle></Style>
	<ExtendedData><SchemaData schemaUrl="#task_grid_v6_45.58_59.08">
		<SimpleData name="area_ha">478.1</SimpleData>
		<SimpleData name="low_risk_ha">0.1</SimpleData>
	</SchemaData></ExtendedData>
      <MultiGeometry><Polygon><outerBoundaryIs><LinearRing><coordinates>59.0885742750582,45.5378475402288 59.0912692209105,45.5351525943765 59.0939641667629,45.5405424860812 59.0966591126153,45.5378475402288 59.10204900432,45.5378475402288 59.1033964772462,45.5365000673027 59.101251168019,45.5343547580755 59.0802146191885,45.5343547580755 59.0791419645749,45.5365000673027 59.0831843833535,45.5378475402288 59.0858793292058,45.5351525943765 59.0885742750582,45.5378475402288</coordinates></LinearRing></outerBoundaryIs></Polygon><Polygon><outerBoundaryIs><LinearRing><coordinates>59.1236085711388,45.5459323777859 59.1263910613787,45.5473236229058 59.1263910613787,45.5377599958414 59.1236085711388,45.5405424860812 59.1222610982127,45.539195013155 59.1263035169912,45.5351525943765 59.1263910613787,45.535240138764 59.1263910613787,45.5343547580755 59.1195661523603,45.5343547580755 59.1195661523603,45.5365000673027 59.1155237335818,45.5405424860812 59.1142861879806,45.5343547580755 59.1060914230985,45.5343547580755 59.1060914230985,45.539195013155 59.1033964772462,45.5418899590074 59.1101338418771,45.5459323777859 59.1236085711388,45.5459323777859</coordinates></LinearRing></outerBoundaryIs></Polygon><Polygon><outerBoundaryIs><LinearRing><coordinates>59.0306329392325,45.5472798507121 59.0319804121587,45.5486273236383 59.0360228309372,45.5472798507121 59.034675358011,45.5432374319336 59.0306329392325,45.5472798507121</coordinates></LinearRing></outerBoundaryIs></Polygon><Polygon><outerBoundaryIs><LinearRing><coordinates>59.0629722894608,45.5472798507121 59.064319762387,45.5513222694906 59.0683621811655,45.5472798507121 59.0670147082393,45.5432374319336 59.0629722894608,45.5472798507121</coordinates></LinearRing></outerBoundaryIs></Polygon><Polygon><outerBoundaryIs><LinearRing><coordinates>59.0764470187226,45.5499747965645 59.0804894375011,45.5567121611954 59.0845318562796,45.5526697424168 59.0804894375011,45.5486273236383 59.0764470187226,45.5499747965645</coordinates></LinearRing></outerBoundaryIs></Polygon><Polygon><outerBoundaryIs><LinearRing><coordinates>59.0710571270179,45.5580596341215 59.072404599944,45.5594071070477 59.0764470187226,45.5580596341215 59.0750995457964,45.554017215343 59.0710571270179,45.5580596341215</coordinates></LinearRing></outerBoundaryIs></Polygon><Polygon><outerBoundaryIs><LinearRing><coordinates>59.1101338418771,45.5674919446048 59.10204900432,45.5674919446048 59.0993540584676,45.5647969987524 59.0980065855414,45.568839417531 59.1047439501723,45.5728818363095 59.1074388960247,45.5782717280142 59.1168712065079,45.576924255088 59.1101338418771,45.5674919446048</coordinates></LinearRing></outerBoundaryIs></Polygon><Polygon><outerBoundaryIs><LinearRing><coordinates>59.1128287877294,45.5836616197189 59.1114813148032,45.5877040384975 59.1209136252865,45.5890515114237 59.1263910613787,45.5857650497683 59.1263910613787,45.5848945536871 59.1128287877294,45.5836616197189</coordinates></LinearRing></outerBoundaryIs></Polygon><Polygon><outerBoundaryIs><LinearRing><coordinates>59.0966591126153,45.5944414031284 59.0980065855414,45.5903989843498 59.0939641667629,45.5863565655713 59.0926166938367,45.5903989843498 59.0966591126153,45.5944414031284</coordinates></LinearRing></outerBoundaryIs></Polygon></MultiGeometry>
  </Placemark>
</Folder>
</Document></kml>
