<?xml version="1.0" encoding="utf-8" ?>
<kml xmlns="http://www.opengis.net/kml/2.2">
<Document id="root_doc">
<Schema name="task_grid_v6_46.01_59.46" id="task_grid_v6_46.01_59.46">
	<SimpleField name="area_ha" type="float"></SimpleField>
	<SimpleField name="low_risk_ha" type="float"></SimpleField>
	<SimpleField name="moderate_risk_ha" type="float"></SimpleField>
	<SimpleField name="grid_cell_deg" type="string"></SimpleField>
</Schema>
<Folder><name>task_grid_v6_46.01_59.46</name>
  <Placemark id="task_grid_v6_46.01_59.46.1">
	<name>task_grid_v6_46.01_59.46</name>
	<name>435.6</name>
	<description>435.6</description>
	<Style><LineStyle><color>ff0000ff</color></LineStyle><PolyStyle><fill>0</fill></PolyStyle></Style>
	<ExtendedData><SchemaData schemaUrl="#task_grid_v6_46.01_59.46">
		<SimpleData name="area_ha">0</SimpleData>
		<SimpleData name="low_risk_ha">0.1</SimpleData>
	</SchemaData></ExtendedData>
      <MultiGeometry><Polygon><outerBoundaryIs><LinearRing><coordinates>59.4160101961197,45.9838610787942 59.4146627231936,45.9744287683109 59.4119677773412,45.982513605868 59.4102213862645,45.979894019253 59.4102213862645,45.9850188407652 59.4160101961197,45.9838610787942</coordinates></LinearRing></outerBoundaryIs></Polygon><Polygon><outerBoundaryIs><LinearRing><coordinates>59.4240950336768,45.9838610787942 59.4267899795292,45.9865560246465 59.4160101961197,45.9919459163513 59.4200526148983,45.9959883351298 59.4267899795292,45.997335808056 59.4187051419721,46.0000307539083 59.4227475607506,46.0094630643916 59.4294849253815,46.0054206456131 59.4267899795292,46.0027256997607 59.4281374524554,46.0013782268345 59.4362222900124,46.0067681185392 59.440264708791,46.0000307539083 59.4375697629386,45.997335808056 59.4362222900124,45.982513605868 59.4335273441601,45.9798186600157 59.4308323983077,45.982513605868 59.425442506603,45.9798186600157 59.4240950336768,45.9838610787942</coordinates></LinearRing></outerBoundaryIs><innerBoundaryIs><LinearRing><coordinates>59.4294849253815,45.9946408622036 59.4321798712339,45.9946408622036 59.4308323983077,45.9986832809822 59.4294849253815,45.997335808056 59.4294849253815,45.9946408622036</coordinates></LinearRing></innerBoundaryIs><innerBoundaryIs><LinearRing><coordinates>59.4308323983077,45.9879034975727 59.4294849253815,45.9865560246465 59.4321798712339,45.9865560246465 59.4308323983077,45.9879034975727</coordinates></LinearRing></innerBoundaryIs></Polygon><Polygon><outerBoundaryIs><LinearRing><coordinates>59.4160101961197,46.0081155914654 59.4146627231936,46.0067681185392 59.4102213862645,46.0078784527715 59.4102213862645,46.0235530173024 59.4187051419721,46.0162004290225 59.4133152502674,46.0108105373178 59.4160101961197,46.0081155914654</coordinates></LinearRing></outerBoundaryIs></Polygon><Polygon><outerBoundaryIs><LinearRing><coordinates>59.4362222900124,46.020242847801 59.4335273441601,46.0229377936534 59.4294849253815,46.0242852665796 59.4362222900124,46.0256327395057 59.4362222900124,46.020242847801</coordinates></LinearRing></outerBoundaryIs></Polygon></MultiGeometry>
  </Placemark>
</Folder>
</Document></kml>
