<?xml version="1.0" encoding="utf-8" ?>
<kml xmlns="http://www.opengis.net/kml/2.2">
<Document id="root_doc">
<Schema name="task_grid_v6_45.41_60.66" id="task_grid_v6_45.41_60.66">
	<SimpleField name="area_ha" type="float"></SimpleField>
	<SimpleField name="low_risk_ha" type="float"></SimpleField>
	<SimpleField name="moderate_risk_ha" type="float"></SimpleField>
	<SimpleField name="grid_cell_deg" type="string"></SimpleField>
</Schema>
<Folder><name>task_grid_v6_45.41_60.66</name>
  <Placemark id="task_grid_v6_45.41_60.66.1">
	<name>task_grid_v6_45.41_60.66</name>
	<name>0</name>
	<description>37.9</description>
	<Style><LineStyle><color>ff0000ff</color></LineStyle><PolyStyle><fill>0</fill></PolyStyle></Style>
	<ExtendedData><SchemaData schemaUrl="#task_grid_v6_45.41_60.66">
		<SimpleData name="area_ha">37.9</SimpleData>
		<SimpleData name="low_risk_ha">0.1</SimpleData>
	</SchemaData></ExtendedData>
      <MultiGeometry><Polygon><outerBoundaryIs><LinearRing><coordinates>60.6490598382616,45.3625641451378 60.6488919662299,45.3625641451378 60.6489479235738,45.3626760598255 60.6490598382616,45.3625641451378</coordinates></LinearRing></outerBoundaryIs></Polygon><Polygon><outerBoundaryIs><LinearRing><coordinates>60.6839822196545,45.3707608973826 60.6866771655068,45.3680659515303 60.6920670572115,45.3680659515303 60.6920670572115,45.3626760598255 60.6866771655068,45.3626760598255 60.6826347467283,45.3694134244564 60.6839822196545,45.3707608973826</coordinates></LinearRing></outerBoundaryIs></Polygon></MultiGeometry>
  </Placemark>
</Folder>
</Document></kml>
