<?xml version="1.0" encoding="utf-8" ?>
<kml xmlns="http://www.opengis.net/kml/2.2">
<Document id="root_doc">
<Schema name="task_grid_v6_44.68_60.88" id="task_grid_v6_44.68_60.88">
	<SimpleField name="area_ha" type="float"></SimpleField>
	<SimpleField name="low_risk_ha" type="float"></SimpleField>
	<SimpleField name="moderate_risk_ha" type="float"></SimpleField>
	<SimpleField name="grid_cell_deg" type="string"></SimpleField>
</Schema>
<Folder><name>task_grid_v6_44.68_60.88</name>
  <Placemark id="task_grid_v6_44.68_60.88.1">
	<name>task_grid_v6_44.68_60.88</name>
	<name>0</name>
	<description>66</description>
	<Style><LineStyle><color>ff0000ff</color></LineStyle><PolyStyle><fill>0</fill></PolyStyle></Style>
	<ExtendedData><SchemaData schemaUrl="#task_grid_v6_44.68_60.88">
		<SimpleData name="area_ha">66</SimpleData>
		<SimpleData name="low_risk_ha">0.1</SimpleData>
	</SchemaData></ExtendedData>
      <MultiGeometry><Polygon><outerBoundaryIs><LinearRing><coordinates>60.8605011729839,44.6363881526149 60.8571121820849,44.6343547580755 60.8503829408875,44.6343547580755 60.853763808353,44.6377356255411 60.8605011729839,44.6363881526149</coordinates></LinearRing></outerBoundaryIs></Polygon><Polygon><outerBoundaryIs><LinearRing><coordinates>60.8672385376148,44.697024434293 60.8631961188363,44.6983719072192 60.8672385376148,44.7024143259977 60.8766708480981,44.7010668530715 60.8672385376148,44.697024434293</coordinates></LinearRing></outerBoundaryIs></Polygon><Polygon><outerBoundaryIs><LinearRing><coordinates>60.9049677795479,44.7131941094071 60.8968829419908,44.7131941094071 60.8955354690646,44.7145415823333 60.9049677795479,44.7158890552595 60.9049677795479,44.7131941094071</coordinates></LinearRing></outerBoundaryIs></Polygon></MultiGeometry>
  </Placemark>
</Folder>
</Document></kml>
