<?xml version="1.0" encoding="utf-8" ?>
<kml xmlns="http://www.opengis.net/kml/2.2">
<Document id="root_doc">
<Schema name="task_grid_v6_45.41_61.46" id="task_grid_v6_45.41_61.46">
	<SimpleField name="area_ha" type="float"></SimpleField>
	<SimpleField name="low_risk_ha" type="float"></SimpleField>
	<SimpleField name="moderate_risk_ha" type="float"></SimpleField>
	<SimpleField name="grid_cell_deg" type="string"></SimpleField>
</Schema>
<Folder><name>task_grid_v6_45.41_61.46</name>
  <Placemark id="task_grid_v6_45.41_61.46.1">
	<name>task_grid_v6_45.41_61.46</name>
	<name>12.6</name>
	<description>228.3</description>
	<Style><LineStyle><color>ff0000ff</color></LineStyle><PolyStyle><fill>0</fill></PolyStyle></Style>
	<ExtendedData><SchemaData schemaUrl="#task_grid_v6_45.41_61.46">
		<SimpleData name="area_ha">215.6</SimpleData>
		<SimpleData name="low_risk_ha">0.1</SimpleData>
	</SchemaData></ExtendedData>
      <MultiGeometry><Polygon><outerBoundaryIs><LinearRing><coordinates>61.4304822207578,45.3923204642015 61.4277872749054,45.3950154100538 61.4237448561269,45.39636288298 61.4304822207578,45.3977103559062 61.4304822207578,45.3923204642015</coordinates></LinearRing></outerBoundaryIs></Polygon><Polygon><outerBoundaryIs><LinearRing><coordinates>61.4304822207578,45.411185085168 61.4237448561269,45.4152275039465 61.4277872749054,45.4192699227251 61.4345246395363,45.4152275039465 61.4304822207578,45.411185085168</coordinates></LinearRing></outerBoundaryIs></Polygon><Polygon><outerBoundaryIs><LinearRing><coordinates>61.4250923290531,45.4462193812487 61.4291347478316,45.4421769624701 61.417007491496,45.4327446519869 61.4129650727174,45.434092124913 61.4183549644222,45.4421769624701 61.4156600185698,45.4448719083225 61.4250923290531,45.4462193812487</coordinates></LinearRing></outerBoundaryIs></Polygon><Polygon><outerBoundaryIs><LinearRing><coordinates>61.4857286107311,45.4529567458796 61.4803387190264,45.4502618000272 61.4789912461002,45.4462193812487 61.469558935617,45.4502618000272 61.4736013543955,45.4543042188057 61.4762963002479,45.4516092729534 61.4789912461002,45.4569991646581 61.4857286107311,45.4529567458796</coordinates></LinearRing></outerBoundaryIs></Polygon><Polygon><outerBoundaryIs><LinearRing><coordinates>61.5032457587715,45.4569991646581 61.4976807782918,45.4625641451378 61.5065847470593,45.4625641451378 61.5032457587715,45.4569991646581</coordinates></LinearRing></outerBoundaryIs></Polygon></MultiGeometry>
  </Placemark>
</Folder>
</Document></kml>
