<?xml version="1.0" encoding="utf-8" ?>
<kml xmlns="http://www.opengis.net/kml/2.2">
<Document id="root_doc">
<Schema name="task_grid_v6_45.01_61.26" id="task_grid_v6_45.01_61.26">
	<SimpleField name="area_ha" type="float"></SimpleField>
	<SimpleField name="low_risk_ha" type="float"></SimpleField>
	<SimpleField name="moderate_risk_ha" type="float"></SimpleField>
	<SimpleField name="grid_cell_deg" type="string"></SimpleField>
</Schema>
<Folder><name>task_grid_v6_45.01_61.26</name>
  <Placemark id="task_grid_v6_45.01_61.26.1">
	<name>task_grid_v6_45.01_61.26</name>
	<name>11.1</name>
	<description>1132.6</description>
	<Style><LineStyle><color>ff0000ff</color></LineStyle><PolyStyle><fill>0</fill></PolyStyle></Style>
	<ExtendedData><SchemaData schemaUrl="#task_grid_v6_45.01_61.26">
		<SimpleData name="area_ha">1121.4</SimpleData>
		<SimpleData name="low_risk_ha">0.1</SimpleData>
	</SchemaData></ExtendedData>
      <MultiGeometry><Polygon><outerBoundaryIs><LinearRing><coordinates>61.2283612818309,44.9692139653812 61.2472259027974,44.9665190195288 61.2538173601158,44.9625641451378 61.2102213862645,44.9625641451378 61.2102213862645,44.9633033040246 61.2121916067167,44.9692139653812 61.2229713901262,44.9692139653812 61.2256663359785,44.9719089112335 61.2283612818309,44.9692139653812</coordinates></LinearRing></outerBoundaryIs></Polygon><Polygon><outerBoundaryIs><LinearRing><coordinates>61.2102213862645,44.9811336392081 61.2102213862645,44.9816525954798 61.2108441337906,44.9813412217168 61.2102213862645,44.9811336392081</coordinates></LinearRing></outerBoundaryIs></Polygon><Polygon><outerBoundaryIs><LinearRing><coordinates>61.2256663359785,44.9880785863477 61.2324037006094,44.9840361675692 61.2310562276832,44.9799937487906 61.2243188630523,44.9840361675692 61.2256663359785,44.9880785863477</coordinates></LinearRing></outerBoundaryIs></Polygon><Polygon><outerBoundaryIs><LinearRing><coordinates>61.2108441337906,44.9948159509786 61.2108441337906,44.9867311134215 61.2102213862645,44.9864197396585 61.2102213862645,44.9954386985046 61.2108441337906,44.9948159509786</coordinates></LinearRing></outerBoundaryIs></Polygon><Polygon><outerBoundaryIs><LinearRing><coordinates>61.2270138089047,45.0082906802404 61.2297087547571,45.0029007885357 61.2229713901262,44.9934684780524 61.2121916067167,44.9988583697571 61.2102213862645,44.9982016296064 61.2102213862645,45.0157527702714 61.2121916067167,45.0177229907236 61.2175814984214,45.0150280448713 61.2229713901262,45.0042482614619 61.2256663359785,45.0096381531666 61.2270138089047,45.0082906802404</coordinates></LinearRing></outerBoundaryIs><innerBoundaryIs><LinearRing><coordinates>61.2175814984214,45.0042482614619 61.2189289713476,45.005595734388 61.2175814984214,45.0069432073142 61.2175814984214,45.0042482614619</coordinates></LinearRing></innerBoundaryIs></Polygon><Polygon><outerBoundaryIs><LinearRing><coordinates>61.2175814984214,45.0365876116902 61.2202764442738,45.0311977199854 61.2243188630523,45.0298502470593 61.2243188630523,45.0271553012069 61.2189289713476,45.0244603553545 61.2175814984214,45.0177229907236 61.2135390796429,45.0217654095022 61.2135390796429,45.0271553012069 61.2162340254953,45.0298502470593 61.2108441337906,45.0298502470593 61.2121916067167,45.0365876116902 61.2175814984214,45.0365876116902</coordinates></LinearRing></outerBoundaryIs></Polygon><Polygon><outerBoundaryIs><LinearRing><coordinates>61.2499208486498,45.0446724492472 61.2566582132806,45.035240138764 61.2539632674283,45.0325451929116 61.2566582132806,45.0271553012069 61.2526157945021,45.0258078282807 61.2499208486498,45.0311977199854 61.2472259027974,45.0231128824284 61.2404885381665,45.0271553012069 61.2472259027974,45.0365876116902 61.2499208486498,45.0338926658378 61.2512683215759,45.035240138764 61.2458784298712,45.0433249763211 61.2499208486498,45.0446724492472</coordinates></LinearRing></outerBoundaryIs></Polygon><Polygon><outerBoundaryIs><LinearRing><coordinates>61.2256663359785,45.0419775033949 61.2256663359785,45.0392825575425 61.2202764442738,45.0392825575425 61.2148865525691,45.0446724492472 61.2102213862645,45.0423398660949 61.2102213862645,45.0558145953567 61.2148865525691,45.058147178509 61.2189289713476,45.0514098138781 61.2108441337906,45.0487148680258 61.2175814984214,45.0473673950996 61.2256663359785,45.0419775033949</coordinates></LinearRing></outerBoundaryIs></Polygon><Polygon><outerBoundaryIs><LinearRing><coordinates>61.3011248198446,44.9638240736765 61.3102213862645,44.9653401680798 61.3102213862645,44.9625641451378 61.3003688627213,44.9625641451378 61.3011248198446,44.9638240736765</coordinates></LinearRing></outerBoundaryIs></Polygon><Polygon><outerBoundaryIs><LinearRing><coordinates>61.2668080324207,44.9625641451378 61.2596157922955,44.9625641451378 61.2633955779115,44.9638240736765 61.2687854696163,44.9719089112335 61.2836076718042,44.9705614383074 61.2687854696163,44.9665190195288 61.2668080324207,44.9625641451378</coordinates></LinearRing></outerBoundaryIs></Polygon><Polygon><outerBoundaryIs><LinearRing><coordinates>61.2539632674283,44.967866492455 61.2607006320592,44.9692139653812 61.2607006320592,44.9665190195288 61.2553107403545,44.9665190195288 61.2539632674283,44.967866492455</coordinates></LinearRing></outerBoundaryIs></Polygon><Polygon><outerBoundaryIs><LinearRing><coordinates>61.2512683215759,44.9759513300121 61.2539632674283,44.9732563841597 61.2472259027974,44.9692139653812 61.2431834840189,44.9732563841597 61.2512683215759,44.9813412217168 61.2526157945021,44.9934684780524 61.2566582132806,44.9894260592739 61.2566582132806,44.9840361675692 61.2512683215759,44.9759513300121</coordinates></LinearRing></outerBoundaryIs></Polygon><Polygon><outerBoundaryIs><LinearRing><coordinates>61.2580056862068,45.0150280448713 61.2647430508377,45.0109856260927 61.2674379966901,45.005595734388 61.2660905237639,45.0042482614619 61.2607006320592,45.0069432073142 61.2580056862068,45.0042482614619 61.2566582132806,45.005595734388 61.259353159133,45.0109856260927 61.2566582132806,45.0136805719451 61.2580056862068,45.0150280448713</coordinates></LinearRing></outerBoundaryIs></Polygon><Polygon><outerBoundaryIs><LinearRing><coordinates>61.2836076718042,45.035240138764 61.282260198878,45.0473673950996 61.2889975635089,45.0460199221734 61.2863026176566,45.0406300304687 61.2889975635089,45.035240138764 61.2836076718042,45.035240138764</coordinates></LinearRing></outerBoundaryIs></Polygon><Polygon><outerBoundaryIs><LinearRing><coordinates>61.2809127259519,45.0487148680258 61.2876500905828,45.0500623409519 61.2876500905828,45.0473673950996 61.282260198878,45.0473673950996 61.2809127259519,45.0487148680258</coordinates></LinearRing></outerBoundaryIs></Polygon></MultiGeometry>
  </Placemark>
</Folder>
</Document></kml>
