<?xml version="1.0" encoding="utf-8" ?>
<kml xmlns="http://www.opengis.net/kml/2.2">
<Document id="root_doc">
<Schema name="task_grid_v6_44.58_60.68" id="task_grid_v6_44.58_60.68">
	<SimpleField name="area_ha" type="float"></SimpleField>
	<SimpleField name="low_risk_ha" type="float"></SimpleField>
	<SimpleField name="moderate_risk_ha" type="float"></SimpleField>
	<SimpleField name="grid_cell_deg" type="string"></SimpleField>
</Schema>
<Folder><name>task_grid_v6_44.58_60.68</name>
  <Placemark id="task_grid_v6_44.58_60.68.1">
	<name>task_grid_v6_44.58_60.68</name>
	<name>16</name>
	<description>38.4</description>
	<Style><LineStyle><color>ff0000ff</color></LineStyle><PolyStyle><fill>0</fill></PolyStyle></Style>
	<ExtendedData><SchemaData schemaUrl="#task_grid_v6_44.58_60.68">
		<SimpleData name="area_ha">22.4</SimpleData>
		<SimpleData name="low_risk_ha">0.1</SimpleData>
	</SchemaData></ExtendedData>
      <MultiGeometry><Polygon><outerBoundaryIs><LinearRing><coordinates>60.7001518947686,44.6080912211651 60.7001518947686,44.6053962753128 60.6947620030639,44.6053962753128 60.6934145301377,44.606743748239 60.7001518947686,44.6080912211651</coordinates></LinearRing></outerBoundaryIs></Polygon><Polygon><outerBoundaryIs><LinearRing><coordinates>60.7217114615875,44.6053962753128 60.7163215698828,44.6053962753128 60.7149740969566,44.606743748239 60.7217114615875,44.6080912211651 60.7217114615875,44.6053962753128</coordinates></LinearRing></outerBoundaryIs></Polygon><Polygon><outerBoundaryIs><LinearRing><coordinates>60.7244064074398,44.6080912211651 60.7217114615875,44.6080912211651 60.7163215698828,44.6080912211651 60.7149740969566,44.6094386940913 60.7244064074398,44.6107861670175 60.7244064074398,44.6080912211651</coordinates></LinearRing></outerBoundaryIs></Polygon></MultiGeometry>
  </Placemark>
</Folder>
</Document></kml>
