<?xml version="1.0" encoding="utf-8" ?>
<kml xmlns="http://www.opengis.net/kml/2.2">
<Document id="root_doc">
<Schema name="task_grid_v6_45.38_59.38" id="task_grid_v6_45.38_59.38">
	<SimpleField name="area_ha" type="float"></SimpleField>
	<SimpleField name="low_risk_ha" type="float"></SimpleField>
	<SimpleField name="moderate_risk_ha" type="float"></SimpleField>
	<SimpleField name="grid_cell_deg" type="string"></SimpleField>
</Schema>
<Folder><name>task_grid_v6_45.38_59.38</name>
  <Placemark id="task_grid_v6_45.38_59.38.1">
	<name>task_grid_v6_45.38_59.38</name>
	<name>1542.5</name>
	<description>2121</description>
	<Style><LineStyle><color>ff0000ff</color></LineStyle><PolyStyle><fill>0</fill></PolyStyle></Style>
	<ExtendedData><SchemaData schemaUrl="#task_grid_v6_45.38_59.38">
		<SimpleData name="area_ha">578.5</SimpleData>
		<SimpleData name="low_risk_ha">0.1</SimpleData>
	</SchemaData></ExtendedData>
      <MultiGeometry><Polygon><outerBoundaryIs><LinearRing><coordinates>59.372891062482,45.3424639659329 59.3755860083344,45.3397690200805 59.372891062482,45.3370740742281 59.372891062482,45.3343547580755 59.3629689771896,45.3343547580755 59.3621275259394,45.3343547580755 59.3594407035205,45.3343547580755 59.3594407035205,45.3343547580755 59.3537459577655,45.3343547580755 59.3526789685893,45.335726601302 59.3522216875138,45.3343547580755 59.3453879926078,45.3343547580755 59.3486365498108,45.3397690200805 59.3486365498108,45.3451589117852 59.3418991851799,45.3465063847114 59.3405517122537,45.3505488034899 59.3445941310322,45.3545912222685 59.3432466581061,45.358633641047 59.3472890768846,45.3653710056779 59.3486365498108,45.358633641047 59.3486365498108,45.3667184786041 59.3540264415155,45.3694134244564 59.3540264415155,45.3721083703088 59.3486365498108,45.3721083703088 59.3513314956631,45.3774982620135 59.3486365498108,45.3801932078659 59.3486365498108,45.3855830995706 59.3513314956631,45.3882780454229 59.3513314956631,45.3936679371277 59.3486365498108,45.39636288298 59.3486365498108,45.4044477205371 59.3513314956631,45.4071426663895 59.3459416039584,45.4071426663895 59.3445941310322,45.4098376122418 59.3405517122537,45.4098376122418 59.3415997467518,45.4150777847325 59.3392042393275,45.4138800310204 59.3378567664014,45.4152275039465 59.3392042393275,45.4192699227251 59.3432466581061,45.4206173956512 59.3378567664014,45.426007287356 59.3378567664014,45.4313971790607 59.335161820549,45.434092124913 59.3364749863613,45.4343547580755 59.3429840249436,45.4343547580755 59.3472890768846,45.4300497061345 59.3486365498108,45.434092124913 59.3483739166483,45.4343547580755 59.3567213873679,45.4343547580755 59.3567213873679,45.434092124913 59.3594163332202,45.4287022332083 59.3567213873679,45.426007287356 59.3621112790726,45.4152275039465 59.3621112790726,45.4098376122418 59.3675011707773,45.4017527746847 59.3634587519988,45.3977103559062 59.358068860294,45.4004053017586 59.3540264415155,45.39636288298 59.358068860294,45.3950154100538 59.3607638061464,45.3977103559062 59.3634587519988,45.3950154100538 59.3661536978511,45.3977103559062 59.3675011707773,45.3882780454229 59.3607638061464,45.3869305724968 59.3567213873679,45.3828881537182 59.3567213873679,45.3801932078659 59.3567213873679,45.3774982620135 59.3607638061464,45.373455843235 59.3634587519988,45.3761507890873 59.3661536978511,45.3707608973826 59.3688486437035,45.3761507890873 59.3701961166296,45.3667184786041 59.3648062249249,45.3667184786041 59.3675011707773,45.3640235327517 59.3675011707773,45.3559386951946 59.3648062249249,45.3532437493423 59.3675011707773,45.3505488034899 59.3688486437035,45.3626760598255 59.3701961166296,45.3532437493423 59.372891062482,45.3505488034899 59.372891062482,45.3424639659329</coordinates></LinearRing></outerBoundaryIs><innerBoundaryIs><LinearRing><coordinates>59.3621112790726,45.3532437493423 59.3594163332202,45.3532437493423 59.358068860294,45.3465063847114 59.3567213873679,45.358633641047 59.3567213873679,45.3478538576376 59.3594163332202,45.3451589117852 59.3621112790726,45.3478538576376 59.3621112790726,45.3532437493423</coordinates></LinearRing></innerBoundaryIs><innerBoundaryIs><LinearRing><coordinates>59.3634587519988,45.3572861681208 59.3602248169759,45.3583641464618 59.3607638061464,45.3572861681208 59.3634587519988,45.3572861681208</coordinates></LinearRing></innerBoundaryIs><innerBoundaryIs><LinearRing><coordinates>59.3621112790726,45.3667184786041 59.3634587519988,45.3640235327517 59.3634587519988,45.3667184786041 59.3621112790726,45.3667184786041</coordinates></LinearRing></innerBoundaryIs><innerBoundaryIs><LinearRing><coordinates>59.3675011707773,45.3451589117852 59.3648062249249,45.3478538576376 59.3668274343142,45.343811438859 59.3675011707773,45.3451589117852</coordinates></LinearRing></innerBoundaryIs><innerBoundaryIs><LinearRing><coordinates>59.3621112790726,45.3397690200805 59.3607638061464,45.3411164930067 59.3594163332202,45.3397690200805 59.3621112790726,45.3397690200805</coordinates></LinearRing></innerBoundaryIs><innerBoundaryIs><LinearRing><coordinates>59.3425210957612,45.4155384592372 59.3439203945692,45.4132062945573 59.3459416039584,45.4152275039465 59.3445941310322,45.4165749768727 59.3425210957612,45.4155384592372</coordinates></LinearRing></innerBoundaryIs><innerBoundaryIs><LinearRing><coordinates>59.3553739144417,45.4219648685774 59.3526789685893,45.4219648685774 59.3523421003578,45.4209542638828 59.3553739144417,45.4219648685774</coordinates></LinearRing></innerBoundaryIs><innerBoundaryIs><LinearRing><coordinates>59.3517806533052,45.4192699227251 59.3513314956631,45.4179224497989 59.3526789685893,45.4165749768727 59.3517806533052,45.4192699227251</coordinates></LinearRing></innerBoundaryIs><innerBoundaryIs><LinearRing><coordinates>59.3418991851799,45.4300497061345 59.3405517122537,45.4287022332083 59.3418991851799,45.4273547602821 59.3418991851799,45.4300497061345</coordinates></LinearRing></innerBoundaryIs><innerBoundaryIs><LinearRing><coordinates>59.3513314956631,45.3532437493423 59.3526789685893,45.3518962764161 59.3540264415155,45.3532437493423 59.3513314956631,45.3532437493423</coordinates></LinearRing></innerBoundaryIs></Polygon><Polygon><outerBoundaryIs><LinearRing><coordinates>59.3472890768846,45.3869305724968 59.3486365498108,45.3855830995706 59.3472890768846,45.3707608973826 59.3459416039584,45.3721083703088 59.3472890768846,45.3869305724968</coordinates></LinearRing></outerBoundaryIs></Polygon><Polygon><outerBoundaryIs><LinearRing><coordinates>59.3607638061464,45.373455843235 59.3567213873679,45.3801932078659 59.3607638061464,45.3869305724968 59.3661536978511,45.3869305724968 59.3675011707773,45.3801932078659 59.3621112790726,45.3774982620135 59.3607638061464,45.373455843235</coordinates></LinearRing></outerBoundaryIs><innerBoundaryIs><LinearRing><coordinates>59.3648062249249,45.3828881537182 59.3634587519988,45.3842356266444 59.3621112790726,45.3828881537182 59.3648062249249,45.3828881537182</coordinates></LinearRing></innerBoundaryIs></Polygon><Polygon><outerBoundaryIs><LinearRing><coordinates>59.3675011707773,45.434092124913 59.3675011707773,45.4343547580755 59.3704587497921,45.4343547580755 59.3688486437035,45.4327446519869 59.3675011707773,45.434092124913</coordinates></LinearRing></outerBoundaryIs></Polygon><Polygon><outerBoundaryIs><LinearRing><coordinates>59.3850183188176,45.3572861681208 59.3890607375962,45.3559386951946 59.3863657917438,45.3505488034899 59.3917556834485,45.3397690200805 59.3912634778117,45.3343547580755 59.3893628838353,45.3343547580755 59.3890607375962,45.3370740742281 59.3850183188176,45.3384215471543 59.3809759000391,45.3451589117852 59.3836708458914,45.3505488034899 59.3809759000391,45.3532437493423 59.3850183188176,45.3572861681208</coordinates></LinearRing></outerBoundaryIs></Polygon><Polygon><outerBoundaryIs><LinearRing><coordinates>59.3755860083344,45.3748033161612 59.3755860083344,45.3801932078659 59.3850183188176,45.381540680792 59.3863657917438,45.3801932078659 59.3796284271129,45.373455843235 59.3755860083344,45.3748033161612</coordinates></LinearRing></outerBoundaryIs></Polygon><Polygon><outerBoundaryIs><LinearRing><coordinates>59.3796284271129,45.4031002476109 59.3809759000391,45.4017527746847 59.3796284271129,45.3896255183491 59.3755860083344,45.3990578288324 59.3796284271129,45.4031002476109</coordinates></LinearRing></outerBoundaryIs></Polygon><Polygon><outerBoundaryIs><LinearRing><coordinates>59.3850183188176,45.4031002476109 59.3850183188176,45.4031002476109 59.3836708458914,45.4044477205371 59.3850183188176,45.4084901393156 59.3890607375962,45.4044477205371 59.388012703098,45.4013036170427 59.3917556834485,45.3990578288324 59.3904082105223,45.3950154100538 59.3836708458914,45.3990578288324 59.3850183188176,45.4031002476109</coordinates></LinearRing></outerBoundaryIs></Polygon><Polygon><outerBoundaryIs><LinearRing><coordinates>59.372891062482,45.4233123415036 59.3755860083344,45.4206173956512 59.3742385354082,45.4031002476109 59.3701961166296,45.4044477205371 59.372891062482,45.4152275039465 59.3675011707773,45.4206173956512 59.3715435895558,45.4273547602821 59.3755860083344,45.426007287356 59.372891062482,45.4233123415036</coordinates></LinearRing></outerBoundaryIs></Polygon><Polygon><outerBoundaryIs><LinearRing><coordinates>59.3796284271129,45.4219648685774 59.3836708458914,45.4152275039465 59.3823233729653,45.4084901393156 59.3782809541867,45.4152275039465 59.3796284271129,45.4219648685774</coordinates></LinearRing></outerBoundaryIs></Polygon><Polygon><outerBoundaryIs><LinearRing><coordinates>59.3868996348472,45.4343547580755 59.3796284271129,45.4246598144298 59.3782809541867,45.434092124913 59.378412270768,45.4343547580755 59.3868996348472,45.4343547580755</coordinates></LinearRing></outerBoundaryIs></Polygon><Polygon><outerBoundaryIs><LinearRing><coordinates>59.3765421129023,45.4343547580755 59.3769334812606,45.4300497061345 59.3715435895558,45.4300497061345 59.3715435895558,45.4343547580755 59.3765421129023,45.4343547580755</coordinates></LinearRing></outerBoundaryIs></Polygon></MultiGeometry>
  </Placemark>
</Folder>
</Document></kml>
