<?xml version="1.0" encoding="utf-8" ?>
<kml xmlns="http://www.opengis.net/kml/2.2">
<Document id="root_doc">
<Schema name="task_grid_v6_46.08_60.08" id="task_grid_v6_46.08_60.08">
	<SimpleField name="area_ha" type="float"></SimpleField>
	<SimpleField name="low_risk_ha" type="float"></SimpleField>
	<SimpleField name="moderate_risk_ha" type="float"></SimpleField>
	<SimpleField name="grid_cell_deg" type="string"></SimpleField>
</Schema>
<Folder><name>task_grid_v6_46.08_60.08</name>
  <Placemark id="task_grid_v6_46.08_60.08.1">
	<name>task_grid_v6_46.08_60.08</name>
	<name>4092.9</name>
	<description>5143.7</description>
	<Style><LineStyle><color>ff0000ff</color></LineStyle><PolyStyle><fill>0</fill></PolyStyle></Style>
	<ExtendedData><SchemaData schemaUrl="#task_grid_v6_46.08_60.08">
		<SimpleData name="area_ha">1050.8</SimpleData>
		<SimpleData name="low_risk_ha">0.1</SimpleData>
	</SchemaData></ExtendedData>
      <MultiGeometry><Polygon><outerBoundaryIs><LinearRing><coordinates>60.0263910613787,46.0771551038066 60.0263910613787,46.0773951961112 60.0263910613787,46.0788457349397 60.0304578504575,46.0808791294791 60.0277629046051,46.0835740753315 60.0304578504575,46.0889639670362 60.0291103775313,46.0903114399623 60.0263910613787,46.0906999136984 60.0263910613787,46.1343547580755 60.1036446769219,46.1343547580755 60.118351652151,46.1343547580755 60.1180435906592,46.1334305736001 60.1234334823639,46.1334305736001 60.1263910613787,46.1304729945853 60.1263910613787,46.1226507901907 60.1263910613787,46.1186083714121 60.1263910613787,46.1175235316484 60.1263910613787,46.112938692988 60.12478095529,46.110523533855 60.1263910613787,46.1095574702019 60.1263910613787,46.0955262428921 60.1261284282162,46.0957013316671 60.1180435906592,46.0903114399623 60.1045688613974,46.0903114399623 60.0964840238403,46.0795316565529 60.0910941321356,46.0822266024053 60.0883991862832,46.0795316565529 60.0857042404309,46.0822266024053 60.0830092945785,46.0795316565529 60.0803143487261,46.0849215482576 60.0722295111691,46.0849215482576 60.0695345653167,46.0822266024053 60.0668396194643,46.0849215482576 60.064144673612,46.0795316565529 60.0533648902025,46.0795316565529 60.049322471424,46.0754892377744 60.0520174172764,46.072794291922 60.0506699443502,46.0714468189958 60.0587547819073,46.0714468189958 60.0587547819073,46.0687518731435 60.0533648902025,46.0660569272911 60.0506699443502,46.0687518731435 60.0452800526455,46.0660569272911 60.0425851067931,46.0687518731435 60.0398901609408,46.0660569272911 60.0318053233837,46.0660569272911 60.0277629046051,46.0620145085126 60.0318053233837,46.0552771438817 60.0371952150884,46.0552771438817 60.0425851067931,46.0606670355864 60.0466275255717,46.0566246168079 60.0439325797193,46.0539296709555 60.0452800526455,46.0471923063246 60.049322471424,46.0485397792508 60.0466275255717,46.0539296709555 60.0506699443502,46.0552771438817 60.0574073089811,46.0485397792508 60.0574073089811,46.0404549416937 60.0587547819073,46.0391074687675 60.064144673612,46.0418024146199 60.0668396194643,46.0364125229152 60.0702692275305,46.0343547580755 60.0540020712152,46.0343547580755 60.0547123631287,46.035065049989 60.0533648902025,46.0364125229152 60.0533648902025,46.0343547580755 60.0263910613787,46.0343547580755 60.0263910613787,46.0471679360243 60.0263910613787,46.0487357568546 60.0263910613787,46.049887252177 60.0263910613787,46.0771551038066</coordinates></LinearRing></outerBoundaryIs><innerBoundaryIs><LinearRing><coordinates>60.0439325797193,46.0431498875461 60.0425851067931,46.0444973604723 60.0412376338669,46.0431498875461 60.0439325797193,46.0431498875461</coordinates></LinearRing></innerBoundaryIs><innerBoundaryIs><LinearRing><coordinates>60.0506699443502,46.0418024146199 60.049322471424,46.0404549416937 60.0506699443502,46.0391074687675 60.0506699443502,46.0418024146199</coordinates></LinearRing></innerBoundaryIs><innerBoundaryIs><LinearRing><coordinates>60.0331527963099,46.0377599958414 60.034500269236,46.0364125229152 60.0358477421622,46.0377599958414 60.0331527963099,46.0377599958414</coordinates></LinearRing></innerBoundaryIs><innerBoundaryIs><LinearRing><coordinates>60.0614497277596,46.0903114399623 60.0587547819073,46.08761649411 60.0654921465382,46.0916589128885 60.0614497277596,46.0903114399623</coordinates></LinearRing></innerBoundaryIs><innerBoundaryIs><LinearRing><coordinates>60.0587547819073,46.0930063858147 60.0571378143959,46.0962403208375 60.0560598360549,46.0930063858147 60.0587547819073,46.08761649411 60.0587547819073,46.0930063858147</coordinates></LinearRing></innerBoundaryIs><innerBoundaryIs><LinearRing><coordinates>60.0560598360549,46.0983962775194 60.0506699443502,46.0983962775194 60.0479749984978,46.1010912233718 60.0371952150884,46.1010912233718 60.034500269236,46.1037861692241 60.0277629046051,46.0997437504456 60.0371952150884,46.0983962775194 60.0398901609408,46.0957013316671 60.0506699443502,46.0957013316671 60.0524665749184,46.0948030163829 60.0560598360549,46.0983962775194</coordinates></LinearRing></innerBoundaryIs><innerBoundaryIs><LinearRing><coordinates>60.1059163343235,46.1320831006739 60.0964840238403,46.1307356277477 60.0964840238403,46.1297250230531 60.1059163343235,46.1320831006739</coordinates></LinearRing></innerBoundaryIs><innerBoundaryIs><LinearRing><coordinates>60.1072638072497,46.1280406818954 60.0964840238403,46.1292384356075 60.0964840238403,46.1280406818954 60.1072638072497,46.1280406818954</coordinates></LinearRing></innerBoundaryIs><innerBoundaryIs><LinearRing><coordinates>60.1093368425208,46.1321867524375 60.1086112801759,46.1320831006739 60.1072638072497,46.1280406818954 60.1093368425208,46.1321867524375</coordinates></LinearRing></innerBoundaryIs><innerBoundaryIs><LinearRing><coordinates>60.1045688613974,46.0930063858147 60.1072638072497,46.0983962775194 60.1180435906592,46.1037861692241 60.1220860094377,46.110523533855 60.1180435906592,46.1118710067812 60.1072638072497,46.1037861692241 60.1045688613974,46.1064811150765 60.0883991862832,46.1064811150765 60.0857042404309,46.1091760609289 60.0843567675047,46.1078285880027 60.087051713357,46.1051336421503 60.1059163343235,46.1051336421503 60.0964840238403,46.0983962775194 60.1045688613974,46.1037861692241 60.1045688613974,46.0930063858147</coordinates></LinearRing></innerBoundaryIs><innerBoundaryIs><LinearRing><coordinates>60.0789668758,46.0970488045932 60.0816618216523,46.0997437504456 60.0753736146635,46.0959708262523 60.0803143487261,46.0930063858147 60.0816618216523,46.0943538587409 60.0789668758,46.0970488045932</coordinates></LinearRing></innerBoundaryIs><innerBoundaryIs><LinearRing><coordinates>60.0745394647568,46.0999362465779 60.0776194028738,46.1005522342013 60.0749244570214,46.1010912233718 60.0745394647568,46.0999362465779</coordinates></LinearRing></innerBoundaryIs><innerBoundaryIs><LinearRing><coordinates>60.0746998782004,46.0963750681302 60.0740261417373,46.0983962775194 60.0735769840952,46.0970488045932 60.0746998782004,46.0963750681302</coordinates></LinearRing></innerBoundaryIs><innerBoundaryIs><LinearRing><coordinates>60.0776194028738,46.1145659526336 60.0735769840952,46.110523533855 60.0776194028738,46.1064811150765 60.0816618216523,46.1078285880027 60.0762719299476,46.110523533855 60.0789668758,46.1132184797074 60.0776194028738,46.1145659526336</coordinates></LinearRing></innerBoundaryIs><innerBoundaryIs><LinearRing><coordinates>60.0843567675047,46.1239982631168 60.087051713357,46.1239982631168 60.0857042404309,46.125345736043 60.0843567675047,46.1239982631168</coordinates></LinearRing></innerBoundaryIs><innerBoundaryIs><LinearRing><coordinates>60.087051713357,46.0997437504456 60.0843567675047,46.0997437504456 60.0857042404309,46.0983962775194 60.087051713357,46.0997437504456</coordinates></LinearRing></innerBoundaryIs><innerBoundaryIs><LinearRing><coordinates>60.1180435906592,46.1010912233718 60.1180435906592,46.0983962775194 60.1193910635853,46.0997437504456 60.1180435906592,46.1010912233718</coordinates></LinearRing></innerBoundaryIs><innerBoundaryIs><LinearRing><coordinates>60.0991789696926,46.0957013316671 60.0991789696926,46.0930063858147 60.1005264426188,46.0943538587409 60.0991789696926,46.0957013316671</coordinates></LinearRing></innerBoundaryIs><innerBoundaryIs><LinearRing><coordinates>60.1086112801759,46.0943538587409 60.1113062260283,46.0943538587409 60.1099587531021,46.0957013316671 60.1086112801759,46.0943538587409</coordinates></LinearRing></innerBoundaryIs><innerBoundaryIs><LinearRing><coordinates>60.0722295111691,46.0903114399623 60.0722295111691,46.08761649411 60.0735769840952,46.0889639670362 60.0722295111691,46.0903114399623</coordinates></LinearRing></innerBoundaryIs><innerBoundaryIs><LinearRing><coordinates>60.0910941321356,46.0849215482576 60.0910941321356,46.08761649411 60.0897466592094,46.0862690211838 60.0910941321356,46.0849215482576</coordinates></LinearRing></innerBoundaryIs></Polygon><Polygon><outerBoundaryIs><LinearRing><coordinates>60.0614497277596,46.0633619814388 60.0614497277596,46.049887252177 60.0587547819073,46.049887252177 60.0466275255717,46.0620145085126 60.0506699443502,46.0633619814388 60.0533648902025,46.0606670355864 60.0560598360549,46.0660569272911 60.0614497277596,46.0633619814388</coordinates></LinearRing></outerBoundaryIs></Polygon><Polygon><outerBoundaryIs><LinearRing><coordinates>60.0263910613787,46.0867263022593 60.0277629046051,46.0862690211838 60.026415431679,46.0822266024053 60.0263910613787,46.0822509727056 60.0263910613787,46.0867263022593</coordinates></LinearRing></outerBoundaryIs></Polygon><Polygon><outerBoundaryIs><LinearRing><coordinates>60.1193910635853,46.0647094543649 60.1234334823639,46.0687518731435 60.1263910613787,46.0683293618557 60.1263910613787,46.0635195613362 60.1261284282162,46.0633619814388 60.1193910635853,46.0647094543649</coordinates></LinearRing></outerBoundaryIs></Polygon><Polygon><outerBoundaryIs><LinearRing><coordinates>60.1140011718806,46.0808791294791 60.116696117733,46.0862690211838 60.1207385365115,46.08761649411 60.1220860094377,46.0835740753315 60.1180435906592,46.0795316565529 60.1140011718806,46.0808791294791</coordinates></LinearRing></outerBoundaryIs></Polygon></MultiGeometry>
  </Placemark>
</Folder>
</Document></kml>
