<?xml version="1.0" encoding="utf-8" ?>
<kml xmlns="http://www.opengis.net/kml/2.2">
<Document id="root_doc">
<Schema name="task_grid_v6_45.71_59.86" id="task_grid_v6_45.71_59.86">
	<SimpleField name="area_ha" type="float"></SimpleField>
	<SimpleField name="low_risk_ha" type="float"></SimpleField>
	<SimpleField name="moderate_risk_ha" type="float"></SimpleField>
	<SimpleField name="grid_cell_deg" type="string"></SimpleField>
</Schema>
<Folder><name>task_grid_v6_45.71_59.86</name>
  <Placemark id="task_grid_v6_45.71_59.86.1">
	<name>task_grid_v6_45.71_59.86</name>
	<name>1361.4</name>
	<description>1770.5</description>
	<Style><LineStyle><color>ff0000ff</color></LineStyle><PolyStyle><fill>0</fill></PolyStyle></Style>
	<ExtendedData><SchemaData schemaUrl="#task_grid_v6_45.71_59.86">
		<SimpleData name="area_ha">409.2</SimpleData>
		<SimpleData name="low_risk_ha">0.1</SimpleData>
	</SchemaData></ExtendedData>
      <MultiGeometry><Polygon><outerBoundaryIs><LinearRing><coordinates>59.816209655195,45.6941543996656 59.8202520739735,45.6901119808871 59.8102213862645,45.6893403895249 59.8102213862645,45.6941543996656 59.816209655195,45.6941543996656</coordinates></LinearRing></outerBoundaryIs></Polygon><Polygon><outerBoundaryIs><LinearRing><coordinates>59.8404641678662,45.6914594538133 59.8404641678662,45.6941543996656 59.8364217490877,45.6955018725918 59.8377692220139,45.696849345518 59.8431591137186,45.6995442913704 59.8512439512757,45.6995442913704 59.8525914242018,45.6981968184442 59.8445065866448,45.6901119808871 59.8458540595709,45.6887645079609 59.8485490054233,45.6914594538133 59.8512439512757,45.6887645079609 59.853938897128,45.6941543996656 59.8566338429804,45.6914594538133 59.8674136263898,45.6914594538133 59.8701085722422,45.6941543996656 59.8741509910207,45.6901119808871 59.8674136263898,45.6860695621086 59.8593287888327,45.6860695621086 59.8566338429804,45.6887645079609 59.853938897128,45.6860695621086 59.8283369115306,45.6874170350347 59.8323793303091,45.6914594538133 59.8404641678662,45.6914594538133</coordinates></LinearRing></outerBoundaryIs></Polygon><Polygon><outerBoundaryIs><LinearRing><coordinates>59.8108197634903,45.6995442913704 59.8108197634903,45.696849345518 59.8102213862645,45.696849345518 59.8102213862645,45.6994588089095 59.8108197634903,45.6995442913704</coordinates></LinearRing></outerBoundaryIs></Polygon><Polygon><outerBoundaryIs><LinearRing><coordinates>59.8148621822688,45.7089766018536 59.8242944927521,45.7103240747798 59.8242944927521,45.7076291289274 59.816209655195,45.7076291289274 59.8148621822688,45.7089766018536</coordinates></LinearRing></outerBoundaryIs></Polygon><Polygon><outerBoundaryIs><LinearRing><coordinates>59.8754984639469,45.7184089123369 59.8781934097992,45.7211038581892 59.8822358285778,45.719756385263 59.8781934097992,45.7157139664845 59.8728035180945,45.7157139664845 59.8701085722422,45.7130190206322 59.8633712076113,45.7143664935583 59.8674136263898,45.7184089123369 59.8701085722422,45.7184089123369 59.868761099316,45.719756385263 59.8754984639469,45.7211038581892 59.8754984639469,45.7184089123369</coordinates></LinearRing></outerBoundaryIs></Polygon><Polygon><outerBoundaryIs><LinearRing><coordinates>59.8377692220139,45.7291886957463 59.816209655195,45.7291886957463 59.8102213862645,45.7317550967165 59.8102213862645,45.733723120461 59.816209655195,45.734578587451 59.8102213862645,45.734578587451 59.8102213862645,45.7447599936347 59.8108197634903,45.7453583708605 59.8135147093426,45.7426634250081 59.8121672364165,45.7467058437866 59.816209655195,45.7507482625652 59.8242944927521,45.7507482625652 59.8280674169454,45.7469753383719 59.8323793303091,45.7534432084175 59.8350742761615,45.7507482625652 59.8364217490877,45.7520957354914 59.8296843844568,45.7561381542699 59.8296843844568,45.7588331001222 59.8431591137186,45.7588331001222 59.8485490054233,45.7561381542699 59.8593287888327,45.7615280459746 59.8647186805375,45.7615280459746 59.865236730119,45.7625641451378 59.872647831213,45.7625641451378 59.8714560451683,45.7601805730484 59.8741509910207,45.7574856271961 59.8647186805375,45.7453583708605 59.8606762617589,45.7467058437866 59.8593287888327,45.7453583708605 59.8566338429804,45.7480533167128 59.8552863700542,45.7467058437866 59.853938897128,45.734578587451 59.8498964783495,45.7359260603772 59.8485490054233,45.734578587451 59.8458540595709,45.7372735333034 59.8431591137186,45.7318836415987 59.8377692220139,45.7318836415987 59.8377692220139,45.7291886957463</coordinates></LinearRing></outerBoundaryIs><innerBoundaryIs><LinearRing><coordinates>59.853938897128,45.7507482625652 59.8633712076113,45.749400789639 59.8620237346851,45.7507482625652 59.8512439512757,45.7534432084175 59.853938897128,45.7507482625652</coordinates></LinearRing></innerBoundaryIs><innerBoundaryIs><LinearRing><coordinates>59.8256419656782,45.7458075285025 59.8269894386044,45.7453583708605 59.8277594231337,45.7465133476543 59.8256419656782,45.7458075285025</coordinates></LinearRing></innerBoundaryIs></Polygon><Polygon><outerBoundaryIs><LinearRing><coordinates>59.8674136263898,45.7049341830751 59.8728035180945,45.7049341830751 59.8768459368731,45.7008917642965 59.8781934097992,45.6941543996656 59.8903206661349,45.6928069267395 59.883583301504,45.6887645079609 59.8781934097992,45.6887645079609 59.8701085722422,45.6995442913704 59.8620237346851,45.6995442913704 59.8579813159065,45.7035867101489 59.8647186805375,45.7076291289274 59.8674136263898,45.7049341830751</coordinates></LinearRing></outerBoundaryIs></Polygon><Polygon><outerBoundaryIs><LinearRing><coordinates>59.9102213862645,45.7046228093121 59.9102213862645,45.7025506109857 59.9091852871014,45.7035867101489 59.9102213862645,45.7046228093121</coordinates></LinearRing></outerBoundaryIs></Polygon><Polygon><outerBoundaryIs><LinearRing><coordinates>59.9037953953966,45.711671547706 59.8997529766181,45.7076291289274 59.8970580307657,45.7103240747798 59.8943630849134,45.7022392372227 59.891668139061,45.7076291289274 59.8889731932087,45.7049341830751 59.883583301504,45.7049341830751 59.8822358285778,45.7089766018536 59.891668139061,45.7103240747798 59.8997529766181,45.7157139664845 59.9037953953966,45.711671547706</coordinates></LinearRing></outerBoundaryIs></Polygon><Polygon><outerBoundaryIs><LinearRing><coordinates>59.9102213862645,45.7168520435218 59.9102213862645,45.70769140368 59.9037953953966,45.7089766018536 59.9091852871014,45.711671547706 59.9102213862645,45.7168520435218</coordinates></LinearRing></outerBoundaryIs></Polygon><Polygon><outerBoundaryIs><LinearRing><coordinates>59.8876257202825,45.7224513311154 59.8943630849134,45.7237988040416 59.8943630849134,45.7184089123369 59.891668139061,45.7184089123369 59.8876257202825,45.7224513311154</coordinates></LinearRing></outerBoundaryIs></Polygon><Polygon><outerBoundaryIs><LinearRing><coordinates>59.8768459368731,45.7224513311154 59.8862782473563,45.7237988040416 59.8862782473563,45.7211038581892 59.8781934097992,45.7211038581892 59.8768459368731,45.7224513311154</coordinates></LinearRing></outerBoundaryIs></Polygon><Polygon><outerBoundaryIs><LinearRing><coordinates>59.9078378141752,45.7291886957463 59.9091852871014,45.7251462769678 59.9024479224705,45.7211038581892 59.9011004495443,45.7278412228201 59.9078378141752,45.7291886957463</coordinates></LinearRing></outerBoundaryIs></Polygon><Polygon><outerBoundaryIs><LinearRing><coordinates>59.9102213862645,45.7247329253306 59.9091852871014,45.7278412228201 59.9102213862645,45.728462882318 59.9102213862645,45.7247329253306</coordinates></LinearRing></outerBoundaryIs></Polygon><Polygon><outerBoundaryIs><LinearRing><coordinates>59.8930156119872,45.7547906813437 59.891668139061,45.7507482625652 59.8876257202825,45.7520957354914 59.891668139061,45.7561381542699 59.8930156119872,45.7547906813437</coordinates></LinearRing></outerBoundaryIs></Polygon></MultiGeometry>
  </Placemark>
</Folder>
</Document></kml>
