<?xml version="1.0" encoding="utf-8" ?>
<kml xmlns="http://www.opengis.net/kml/2.2">
<Document id="root_doc">
<Schema name="task_grid_v6_44.91_61.06" id="task_grid_v6_44.91_61.06">
	<SimpleField name="area_ha" type="float"></SimpleField>
	<SimpleField name="low_risk_ha" type="float"></SimpleField>
	<SimpleField name="moderate_risk_ha" type="float"></SimpleField>
	<SimpleField name="grid_cell_deg" type="string"></SimpleField>
</Schema>
<Folder><name>task_grid_v6_44.91_61.06</name>
  <Placemark id="task_grid_v6_44.91_61.06.1">
	<name>task_grid_v6_44.91_61.06</name>
	<name>0</name>
	<description>1630.6</description>
	<Style><LineStyle><color>ff0000ff</color></LineStyle><PolyStyle><fill>0</fill></PolyStyle></Style>
	<ExtendedData><SchemaData schemaUrl="#task_grid_v6_44.91_61.06">
		<SimpleData name="area_ha">1630.6</SimpleData>
		<SimpleData name="low_risk_ha">0.1</SimpleData>
	</SchemaData></ExtendedData>
      <MultiGeometry><Polygon><outerBoundaryIs><LinearRing><coordinates>61.0381681401644,44.8625641451378 61.0330441938933,44.8625641451378 61.0329777075349,44.862763604213 61.0370201263134,44.8641110771392 61.0383675992396,44.862763604213 61.0381681401644,44.8625641451378</coordinates></LinearRing></outerBoundaryIs></Polygon><Polygon><outerBoundaryIs><LinearRing><coordinates>61.0154605594946,44.8802807522534 61.026240342904,44.8668060229916 61.0302827616825,44.8654585500654 61.0208504511993,44.8641110771392 61.0102213862645,44.8694256096066 61.0102213862645,44.8801300337787 61.0127656136422,44.877585806401 61.0154605594946,44.8802807522534</coordinates></LinearRing></outerBoundaryIs></Polygon><Polygon><outerBoundaryIs><LinearRing><coordinates>61.0585796931323,44.8964504273675 61.0572322202061,44.8977979002937 61.0612746389846,44.9018403190722 61.0653170577632,44.8977979002937 61.0585796931323,44.8964504273675</coordinates></LinearRing></outerBoundaryIs></Polygon><Polygon><outerBoundaryIs><LinearRing><coordinates>61.093613989213,44.8964504273675 61.0895715704344,44.900492846146 61.0990038809177,44.9018403190722 61.1003513538438,44.900492846146 61.093613989213,44.8964504273675</coordinates></LinearRing></outerBoundaryIs></Polygon><Polygon><outerBoundaryIs><LinearRing><coordinates>61.0855291516559,44.9207049400387 61.0828342058035,44.9233998858911 61.0774443140988,44.9180099941864 61.0720544223941,44.9180099941864 61.0707069494679,44.9193574671126 61.0734018953203,44.9220524129649 61.0760968411726,44.9328321963743 61.0720544223941,44.9368746151529 61.0707069494679,44.9355271422267 61.0734018953203,44.9328321963743 61.0693594765417,44.9287897775958 61.0653170577632,44.9328321963743 61.0680120036156,44.9355271422267 61.0666645306894,44.9368746151529 61.0599271660585,44.9382220880791 61.0666645306894,44.94495945271 61.0693594765417,44.9422645068576 61.0774443140988,44.9422645068576 61.0841816787297,44.9490018714885 61.0801392599512,44.9503493444147 61.0774443140988,44.9557392361194 61.0747493682464,44.953044290267 61.0707069494679,44.9570867090456 61.0739934111232,44.9625641451378 61.0760092967851,44.9625641451378 61.0774443140988,44.9611291278241 61.0788793314125,44.9625641451378 61.0813991884899,44.9625641451378 61.0828342058035,44.9611291278241 61.0882240975082,44.9611291278241 61.0896591148219,44.9625641451378 61.1102213862645,44.9625641451378 61.1102213862645,44.9188253393649 61.1070887184747,44.9207049400387 61.10169882677,44.9207049400387 61.1003513538438,44.9166625212602 61.1043937726224,44.9126201024817 61.1102213862645,44.9126201024817 61.1102213862645,44.9060400808679 61.1043937726224,44.9099251566293 61.0990038809177,44.9099251566293 61.0909190433606,44.9207049400387 61.0855291516559,44.9207049400387</coordinates></LinearRing></outerBoundaryIs><innerBoundaryIs><LinearRing><coordinates>61.0801392599512,44.9260948317434 61.0855291516559,44.9260948317434 61.0882240975082,44.9314847234482 61.0855291516559,44.9287897775958 61.0828342058035,44.9314847234482 61.0760968411726,44.9247473588173 61.0774443140988,44.9233998858911 61.0801392599512,44.9260948317434</coordinates></LinearRing></innerBoundaryIs></Polygon><Polygon><outerBoundaryIs><LinearRing><coordinates>61.0545372743538,44.9463069256361 61.0585796931323,44.9476543985623 61.0599271660585,44.9463069256361 61.0558847472799,44.9422645068576 61.0545372743538,44.9463069256361</coordinates></LinearRing></outerBoundaryIs></Polygon><Polygon><outerBoundaryIs><LinearRing><coordinates>61.0370201263134,44.9584341819718 61.0361941336802,44.9625641451378 61.039498104213,44.9625641451378 61.0370201263134,44.9584341819718</coordinates></LinearRing></outerBoundaryIs></Polygon></MultiGeometry>
  </Placemark>
</Folder>
</Document></kml>
