<?xml version="1.0" encoding="utf-8" ?>
<kml xmlns="http://www.opengis.net/kml/2.2">
<Document id="root_doc">
<Schema name="task_grid_v6_45.31_61.36" id="task_grid_v6_45.31_61.36">
	<SimpleField name="area_ha" type="float"></SimpleField>
	<SimpleField name="low_risk_ha" type="float"></SimpleField>
	<SimpleField name="moderate_risk_ha" type="float"></SimpleField>
	<SimpleField name="grid_cell_deg" type="string"></SimpleField>
</Schema>
<Folder><name>task_grid_v6_45.31_61.36</name>
  <Placemark id="task_grid_v6_45.31_61.36.1">
	<name>task_grid_v6_45.31_61.36</name>
	<name>0</name>
	<description>330.9</description>
	<Style><LineStyle><color>ff0000ff</color></LineStyle><PolyStyle><fill>0</fill></PolyStyle></Style>
	<ExtendedData><SchemaData schemaUrl="#task_grid_v6_45.31_61.36">
		<SimpleData name="area_ha">330.9</SimpleData>
		<SimpleData name="low_risk_ha">0.1</SimpleData>
	</SchemaData></ExtendedData>
      <MultiGeometry><Polygon><outerBoundaryIs><LinearRing><coordinates>61.3631085744488,45.2629630632883 61.3617611015226,45.2670054820668 61.3698459390797,45.2723953737715 61.3711934120059,45.2764377925501 61.3725408849321,45.2670054820668 61.3631085744488,45.2629630632883</coordinates></LinearRing></outerBoundaryIs></Polygon><Polygon><outerBoundaryIs><LinearRing><coordinates>61.3563712098179,45.2777852654762 61.3604136285965,45.2818276842548 61.3617611015226,45.2777852654762 61.3577186827441,45.2737428466977 61.3563712098179,45.2777852654762</coordinates></LinearRing></outerBoundaryIs></Polygon><Polygon><outerBoundaryIs><LinearRing><coordinates>61.4102213862645,45.2832238977815 61.4102213862645,45.2795981429113 61.4035327622342,45.2818276842548 61.402185289308,45.2858701030333 61.4035327622342,45.2872175759595 61.4089226539389,45.2845226301071 61.4102213862645,45.2832238977815</coordinates></LinearRing></outerBoundaryIs></Polygon><Polygon><outerBoundaryIs><LinearRing><coordinates>61.3738883578582,45.2872175759595 61.3698459390797,45.2885650488857 61.3765833037106,45.2953024135166 61.379278249563,45.2953024135166 61.3806257224891,45.2939549405904 61.3738883578582,45.2872175759595</coordinates></LinearRing></outerBoundaryIs></Polygon><Polygon><outerBoundaryIs><LinearRing><coordinates>61.3887105600462,45.291259994738 61.3981428705295,45.2979973593689 61.3994903434557,45.2939549405904 61.3954479246771,45.2899125218119 61.3887105600462,45.291259994738</coordinates></LinearRing></outerBoundaryIs></Polygon><Polygon><outerBoundaryIs><LinearRing><coordinates>61.4089226539389,45.2926074676642 61.4075751810127,45.2966498864428 61.4102213862645,45.2970279157644 61.4102213862645,45.2922827845828 61.4089226539389,45.2926074676642</coordinates></LinearRing></outerBoundaryIs></Polygon><Polygon><outerBoundaryIs><LinearRing><coordinates>61.4062277080865,45.3222518720402 61.4048802351604,45.3289892366711 61.4089226539389,45.3330316554496 61.4102213862645,45.3308671015735 61.4102213862645,45.324648078947 61.4062277080865,45.3222518720402</coordinates></LinearRing></outerBoundaryIs></Polygon><Polygon><outerBoundaryIs><LinearRing><coordinates>61.4008378163818,45.3465063847114 61.3981428705295,45.3492013305637 61.3954479246771,45.343811438859 61.3954479246771,45.3518962764161 61.4008378163818,45.3518962764161 61.4035327622342,45.3545912222685 61.4102213862645,45.3532534974624 61.4102213862645,45.3532089346276 61.4008378163818,45.3465063847114</coordinates></LinearRing></outerBoundaryIs></Polygon><Polygon><outerBoundaryIs><LinearRing><coordinates>61.3361591159252,45.3599811139732 61.3361591159252,45.3572861681208 61.3172944949587,45.3572861681208 61.3159470220325,45.358633641047 61.3226843866634,45.3599811139732 61.325267417828,45.3625641451378 61.3322845691783,45.3625641451378 61.3361591159252,45.3599811139732</coordinates></LinearRing></outerBoundaryIs></Polygon></MultiGeometry>
  </Placemark>
</Folder>
</Document></kml>
