<?xml version="1.0" encoding="utf-8" ?>
<kml xmlns="http://www.opengis.net/kml/2.2">
<Document id="root_doc">
<Schema name="task_grid_v6_46.11_60.46" id="task_grid_v6_46.11_60.46">
	<SimpleField name="area_ha" type="float"></SimpleField>
	<SimpleField name="low_risk_ha" type="float"></SimpleField>
	<SimpleField name="moderate_risk_ha" type="float"></SimpleField>
	<SimpleField name="grid_cell_deg" type="string"></SimpleField>
</Schema>
<Folder><name>task_grid_v6_46.11_60.46</name>
  <Placemark id="task_grid_v6_46.11_60.46.1">
	<name>task_grid_v6_46.11_60.46</name>
	<name>2651.7</name>
	<description>4914.4</description>
	<Style><LineStyle><color>ff0000ff</color></LineStyle><PolyStyle><fill>0</fill></PolyStyle></Style>
	<ExtendedData><SchemaData schemaUrl="#task_grid_v6_46.11_60.46">
		<SimpleData name="area_ha">2262.7</SimpleData>
		<SimpleData name="low_risk_ha">0.1</SimpleData>
	</SchemaData></ExtendedData>
      <MultiGeometry><Polygon><outerBoundaryIs><LinearRing><coordinates>60.4144876344186,46.0822266024053 60.4225724719757,46.08761649411 60.4320047824589,46.0808791294791 60.4279623636804,46.0768367107006 60.4239199449018,46.0781841836267 60.4225724719757,46.0822266024053 60.417182580271,46.0795316565529 60.4102213862645,46.0795316565529 60.4102213862645,46.0850707678413 60.4144876344186,46.0822266024053</coordinates></LinearRing></outerBoundaryIs></Polygon><Polygon><outerBoundaryIs><LinearRing><coordinates>60.4576067680563,46.0903114399623 60.4616491868349,46.0889639670362 60.4603017139087,46.0849215482576 60.4562592951302,46.0889639670362 60.4576067680563,46.0903114399623</coordinates></LinearRing></outerBoundaryIs></Polygon><Polygon><outerBoundaryIs><LinearRing><coordinates>60.4279623636804,46.08761649411 60.4266148907542,46.0889639670362 60.4306573095327,46.0930063858147 60.4360472012375,46.0930063858147 60.440089620016,46.0889639670362 60.4279623636804,46.08761649411</coordinates></LinearRing></outerBoundaryIs></Polygon><Polygon><outerBoundaryIs><LinearRing><coordinates>60.4102213862645,46.1156895961842 60.4117926885662,46.1172608984859 60.4144876344186,46.1118710067812 60.417182580271,46.1172608984859 60.4279623636804,46.1145659526336 60.4306573095327,46.1118710067812 60.4414370929422,46.1172608984859 60.4360472012375,46.1226507901907 60.4333522553851,46.1199558443383 60.4306573095327,46.1226507901907 60.4306573095327,46.1199558443383 60.425267417828,46.1199558443383 60.4239199449018,46.1213033172645 60.4225724719757,46.1199558443383 60.4198775261233,46.1226507901907 60.4144876344186,46.1226507901907 60.4144876344186,46.1199558443383 60.4102213862645,46.1199558443383 60.4102213862645,46.1226507901907 60.4102213862645,46.1415154111572 60.417182580271,46.1415154111572 60.4198775261233,46.1388204653048 60.4333522553851,46.1361255194524 60.4441320387945,46.1307356277477 60.454911822204,46.1307356277477 60.4576067680563,46.1280406818954 60.462996659761,46.1334305736001 60.4656916056134,46.1307356277477 60.4697340243919,46.1320831006739 60.4616491868349,46.140167938231 60.462996659761,46.1415154111572 60.4683865514658,46.1415154111572 60.4791663348752,46.1361255194524 60.4805138078014,46.1374729923786 60.4764713890228,46.1415154111572 60.4710814973181,46.1415154111572 60.454911822204,46.154990140419 60.4522168763516,46.1522951945666 60.4441320387945,46.1522951945666 60.4441320387945,46.1469053028619 60.4360472012375,46.1469053028619 60.4293098366066,46.1509477216404 60.425267417828,46.1576850862713 60.4212249990495,46.1590325591975 60.4224021943629,46.1625641451378 60.4461753701476,46.1625641451378 60.454911822204,46.1603800321237 60.4570959352181,46.1625641451378 60.4581176008946,46.1625641451378 60.4656916056134,46.154990140419 60.4710814973181,46.1576850862713 60.4737764431705,46.154990140419 60.4845562265799,46.154990140419 60.4863528571482,46.1522951945666 60.4872511724323,46.154990140419 60.4859036995061,46.1563376133451 60.4899461182846,46.1603800321237 60.4980309558417,46.1603800321237 60.5004564071088,46.1563376133451 60.5102213862645,46.1563376133451 60.5102213862645,46.1540547343662 60.5061157933988,46.1522951945666 60.5010627699256,46.1553270086505 60.5020733746202,46.1536426674928 60.4993784287679,46.1509477216404 60.5061157933988,46.1496002487142 60.5061157933988,46.1469053028619 60.4980309558417,46.1469053028619 60.5101582121773,46.1455578299357 60.5101582121773,46.140167938231 60.5102213862645,46.140483808667 60.5102213862645,46.1401363511874 60.5102213862645,46.1401300337787 60.5102213862645,46.1348096335699 60.5101582121773,46.1347780465263 60.5101582121773,46.1320831006739 60.5102213862645,46.1320515136303 60.5102213862645,46.1267563830564 60.5102213862645,46.1091760609289 60.5102213862645,46.1010912233718 60.5088107392511,46.1010912233718 60.507463266325,46.0997437504456 60.5102213862645,46.0988243771324 60.5102213862645,46.0822266024053 60.4845562265799,46.0822266024053 60.4818612807276,46.0849215482576 60.4710814973181,46.0849215482576 60.4656916056134,46.0903114399623 60.462996659761,46.08761649411 60.4616491868349,46.0889639670362 60.4603017139087,46.0903114399623 60.4576067680563,46.0903114399623 60.4495219304993,46.0903114399623 60.4453297925067,46.0965996469512 60.4441320387945,46.0930063858147 60.440089620016,46.0970488045932 60.4414370929422,46.0983962775194 60.4198775261233,46.0983962775194 60.4144876344186,46.0930063858147 60.4117926885662,46.0957013316671 60.4102213862645,46.0957013316671 60.4102213862645,46.1156895961842</coordinates></LinearRing></outerBoundaryIs><innerBoundaryIs><LinearRing><coordinates>60.4468269846469,46.1172608984859 60.4441320387945,46.1199558443383 60.4414370929422,46.1172608984859 60.4468269846469,46.1172608984859</coordinates></LinearRing></innerBoundaryIs><innerBoundaryIs><LinearRing><coordinates>60.454911822204,46.1226507901907 60.4565961633617,46.1192821078752 60.4589542409825,46.1239982631168 60.4576067680563,46.125345736043 60.4468269846469,46.1172608984859 60.454911822204,46.1226507901907</coordinates></LinearRing></innerBoundaryIs><innerBoundaryIs><LinearRing><coordinates>60.425267417828,46.1226507901907 60.4239199449019,46.1213033172645 60.4306573095327,46.1226507901907 60.425267417828,46.1226507901907</coordinates></LinearRing></innerBoundaryIs><innerBoundaryIs><LinearRing><coordinates>60.4939885370632,46.1509477216404 60.4966834829155,46.1536426674928 60.4953360099894,46.154990140419 60.4904851074551,46.1525646891518 60.4980309558417,46.1469053028619 60.4939885370632,46.1509477216404</coordinates></LinearRing></innerBoundaryIs><innerBoundaryIs><LinearRing><coordinates>60.4449020233238,46.0972413007256 60.4441320387945,46.0983962775194 60.4414370929422,46.0983962775194 60.4449020233238,46.0972413007256</coordinates></LinearRing></innerBoundaryIs><innerBoundaryIs><LinearRing><coordinates>60.4656916056134,46.1172608984859 60.456984857475,46.1185047196486 60.4576067680563,46.1172608984859 60.4656916056134,46.1172608984859</coordinates></LinearRing></innerBoundaryIs><innerBoundaryIs><LinearRing><coordinates>60.4764713890228,46.125345736043 60.4737764431705,46.1226507901907 60.477818861949,46.1246719995799 60.4764713890228,46.125345736043</coordinates></LinearRing></innerBoundaryIs><innerBoundaryIs><LinearRing><coordinates>60.4953360099894,46.1172608984859 60.492641064137,46.1172608984859 60.4912935912108,46.1186083714121 60.4941810331955,46.1203408366029 60.4912935912108,46.1213033172645 60.4899461182846,46.1199558443383 60.4890478030005,46.1226507901907 60.4872511724323,46.1199558443383 60.4845562265799,46.1213033172645 60.4916045465015,46.1160170773233 60.4953360099894,46.1172608984859</coordinates></LinearRing></innerBoundaryIs><innerBoundaryIs><LinearRing><coordinates>60.4993784287679,46.1186083714121 60.4980309558417,46.1226507901907 60.4980309558417,46.1181592137701 60.4993784287679,46.1186083714121</coordinates></LinearRing></innerBoundaryIs><innerBoundaryIs><LinearRing><coordinates>60.4710814973181,46.1064811150765 60.4710814973181,46.1145659526336 60.4683865514658,46.1118710067812 60.4576067680563,46.1118710067812 60.454911822204,46.1145659526336 60.4508694034254,46.1132184797074 60.462996659761,46.1064811150765 60.4710814973181,46.1064811150765</coordinates></LinearRing></innerBoundaryIs><innerBoundaryIs><LinearRing><coordinates>60.5047683204726,46.102438696298 60.5034208475464,46.102438696298 60.5034208475464,46.1010912233718 60.5047683204726,46.102438696298</coordinates></LinearRing></innerBoundaryIs><innerBoundaryIs><LinearRing><coordinates>60.5007259016941,46.0983962775194 60.4980309558417,46.0983962775194 60.4980309558417,46.0957013316671 60.5020733746202,46.0970488045932 60.5007259016941,46.0983962775194</coordinates></LinearRing></innerBoundaryIs><innerBoundaryIs><LinearRing><coordinates>60.4832087536537,46.1159134255598 60.4845562265799,46.1145659526336 60.4845562265799,46.1172608984859 60.4832087536537,46.1159134255598</coordinates></LinearRing></innerBoundaryIs><innerBoundaryIs><LinearRing><coordinates>60.4468269846469,46.1118710067812 60.4481744575731,46.1132184797074 60.4454795117207,46.1132184797074 60.4468269846469,46.1118710067812</coordinates></LinearRing></innerBoundaryIs><innerBoundaryIs><LinearRing><coordinates>60.4872511724323,46.0983962775194 60.4885986453585,46.0997437504456 60.4859036995061,46.0997437504456 60.4872511724323,46.0983962775194</coordinates></LinearRing></innerBoundaryIs><innerBoundaryIs><LinearRing><coordinates>60.4993784287679,46.0916589128885 60.4980309558417,46.0930063858147 60.4980309558417,46.0903114399623 60.4993784287679,46.0916589128885</coordinates></LinearRing></innerBoundaryIs><innerBoundaryIs><LinearRing><coordinates>60.5088107392511,46.0903114399623 60.507463266325,46.0889639670362 60.5101582121773,46.0889639670362 60.5088107392511,46.0903114399623</coordinates></LinearRing></innerBoundaryIs><innerBoundaryIs><LinearRing><coordinates>60.4387421470898,46.1522951945666 60.4360472012375,46.154990140419 60.4320047824589,46.1563376133451 60.4387421470898,46.1522951945666</coordinates></LinearRing></innerBoundaryIs><innerBoundaryIs><LinearRing><coordinates>60.4387421470898,46.1576850862713 60.4333522553851,46.1576850862713 60.4320047824589,46.1563376133451 60.4387421470898,46.1576850862713</coordinates></LinearRing></innerBoundaryIs><innerBoundaryIs><LinearRing><coordinates>60.5101582121773,46.1213033172645 60.5088107392511,46.1226507901907 60.507463266325,46.1213033172645 60.5101582121773,46.1213033172645</coordinates></LinearRing></innerBoundaryIs></Polygon><Polygon><outerBoundaryIs><LinearRing><coordinates>60.4589542409825,46.140167938231 60.454911822204,46.1361255194524 60.4535643492778,46.140167938231 60.4576067680563,46.1415154111572 60.4589542409825,46.140167938231</coordinates></LinearRing></outerBoundaryIs></Polygon><Polygon><outerBoundaryIs><LinearRing><coordinates>60.5102213862645,46.1320620426448 60.5101582121773,46.1320831006739 60.5102213862645,46.1322726229355 60.5102213862645,46.1320620426448</coordinates></LinearRing></outerBoundaryIs></Polygon><Polygon><outerBoundaryIs><LinearRing><coordinates>60.5012367345323,46.1625641451378 60.5020733746202,46.1617275050499 60.4899461182846,46.1603800321237 60.4877620052705,46.1625641451378 60.5012367345323,46.1625641451378</coordinates></LinearRing></outerBoundaryIs></Polygon></MultiGeometry>
  </Placemark>
</Folder>
</Document></kml>
