<?xml version="1.0" encoding="utf-8" ?>
<kml xmlns="http://www.opengis.net/kml/2.2">
<Document id="root_doc">
<Schema name="task_grid_v6_45.11_61.26" id="task_grid_v6_45.11_61.26">
	<SimpleField name="area_ha" type="float"></SimpleField>
	<SimpleField name="low_risk_ha" type="float"></SimpleField>
	<SimpleField name="moderate_risk_ha" type="float"></SimpleField>
	<SimpleField name="grid_cell_deg" type="string"></SimpleField>
</Schema>
<Folder><name>task_grid_v6_45.11_61.26</name>
  <Placemark id="task_grid_v6_45.11_61.26.1">
	<name>task_grid_v6_45.11_61.26</name>
	<name>36.9</name>
	<description>2232.7</description>
	<Style><LineStyle><color>ff0000ff</color></LineStyle><PolyStyle><fill>0</fill></PolyStyle></Style>
	<ExtendedData><SchemaData schemaUrl="#task_grid_v6_45.11_61.26">
		<SimpleData name="area_ha">2195.8</SimpleData>
		<SimpleData name="low_risk_ha">0.1</SimpleData>
	</SchemaData></ExtendedData>
      <MultiGeometry><Polygon><outerBoundaryIs><LinearRing><coordinates>61.2243188630523,45.0648845431399 61.2310562276832,45.0689269619185 61.2324037006094,45.0675794889923 61.2283612818309,45.0635370702137 61.2243188630523,45.0648845431399</coordinates></LinearRing></outerBoundaryIs></Polygon><Polygon><outerBoundaryIs><LinearRing><coordinates>61.2863026176566,45.0783592724017 61.2903450364351,45.0797067453279 61.2916925093613,45.0756643265494 61.2876500905828,45.0716219077708 61.2863026176566,45.0783592724017</coordinates></LinearRing></outerBoundaryIs></Polygon><Polygon><outerBoundaryIs><LinearRing><coordinates>61.2889975635089,45.0864441099588 61.2903450364351,45.087791582885 61.2943874552137,45.0864441099588 61.2930399822875,45.0824016911803 61.2889975635089,45.0864441099588</coordinates></LinearRing></outerBoundaryIs></Polygon><Polygon><outerBoundaryIs><LinearRing><coordinates>61.282260198878,45.1066562038515 61.2849551447304,45.1066562038515 61.2930399822875,45.095876420442 61.3092096574016,45.1039612579991 61.3102213862645,45.0989026136846 61.3102213862645,45.0972238933682 61.3051672386231,45.0972238933682 61.3092096574016,45.0904865287373 61.3102213862645,45.090149285783 61.3102213862645,45.0887061001089 61.3038197656969,45.087791582885 61.3011248198446,45.0904865287373 61.2984298739922,45.087791582885 61.2701329425424,45.0999188392206 61.2795652530257,45.1012663121468 61.282260198878,45.1066562038515</coordinates></LinearRing></outerBoundaryIs></Polygon><Polygon><outerBoundaryIs><LinearRing><coordinates>61.2324037006094,45.1295632435965 61.2324037006094,45.1214784060395 61.2418360110927,45.1174359872609 61.2472259027974,45.1093511497038 61.2499208486498,45.1120460955562 61.2526157945021,45.1093511497038 61.2553107403545,45.1147410414085 61.2607006320592,45.1147410414085 61.2714804154686,45.1093511497038 61.2809127259519,45.1080036767777 61.2768703071733,45.1039612579991 61.2714804154686,45.1066562038515 61.2674379966901,45.1026137850729 61.2701329425424,45.0972238933682 61.2687854696163,45.095876420442 61.2660905237639,45.095876420442 61.2633955779115,45.1012663121468 61.2580056862068,45.0985713662944 61.2499208486498,45.1039612579991 61.2485733757236,45.1026137850729 61.2512683215759,45.0999188392206 61.2458784298712,45.0972238933682 61.2526157945021,45.095876420442 61.2526157945021,45.0931814745897 61.244530956945,45.0931814745897 61.2377935923141,45.0891390558111 61.236446119388,45.0850966370326 61.2283612818309,45.0824016911803 61.2256663359785,45.0689269619185 61.2229713901262,45.0743168536232 61.2202764442738,45.0716219077708 61.2175814984214,45.0743168536232 61.2108441337906,45.0675794889923 61.2108441337906,45.0648845431399 61.2102213862645,45.0645731693769 61.2102213862645,45.1066562038515 61.2102213862645,45.1154657668087 61.2102213862645,45.1165916070671 61.2102213862645,45.127800605653 61.2148865525691,45.1309107165227 61.2337511735356,45.1363006082274 61.2350986464618,45.1322581894489 61.2324037006094,45.1295632435965</coordinates></LinearRing></outerBoundaryIs><innerBoundaryIs><LinearRing><coordinates>61.2212389249354,45.0952989320451 61.2202764442738,45.095876420442 61.2189289713476,45.0945289475159 61.2212389249354,45.0952989320451</coordinates></LinearRing></innerBoundaryIs><innerBoundaryIs><LinearRing><coordinates>61.2121916067167,45.1066562038515 61.2135390796429,45.1160885143347 61.2121916067167,45.1174359872609 61.2121916067167,45.1066562038515</coordinates></LinearRing></innerBoundaryIs><innerBoundaryIs><LinearRing><coordinates>61.2108441337906,45.0837491641064 61.2121916067167,45.0797067453279 61.2135390796429,45.0810542182541 61.2135390796429,45.0837491641064 61.2108441337906,45.0837491641064</coordinates></LinearRing></innerBoundaryIs><innerBoundaryIs><LinearRing><coordinates>61.2553107403545,45.1039612579991 61.2553107403545,45.1066562038515 61.2539632674283,45.1053087309253 61.2553107403545,45.1039612579991</coordinates></LinearRing></innerBoundaryIs><innerBoundaryIs><LinearRing><coordinates>61.2620481049854,45.1053087309253 61.259353159133,45.1053087309253 61.2607006320592,45.1039612579991 61.2620481049854,45.1053087309253</coordinates></LinearRing></innerBoundaryIs><innerBoundaryIs><LinearRing><coordinates>61.2310562276832,45.0904865287373 61.2310562276832,45.0931814745897 61.2297087547571,45.0918340016635 61.2310562276832,45.0904865287373</coordinates></LinearRing></innerBoundaryIs></Polygon><Polygon><outerBoundaryIs><LinearRing><coordinates>61.2957349281398,45.1147410414085 61.2930399822875,45.1174359872609 61.2876500905828,45.1120460955562 61.2863026176566,45.1160885143347 61.2930399822875,45.1228258789656 61.3011248198446,45.1201309331133 61.3051672386231,45.1160885143347 61.2957349281398,45.1147410414085</coordinates></LinearRing></outerBoundaryIs></Polygon><Polygon><outerBoundaryIs><LinearRing><coordinates>61.2121916067167,45.1363006082274 61.2102213862645,45.1382708286796 61.2102213862645,45.1410337597814 61.2121916067167,45.1416904999321 61.2189289713476,45.1376480811536 61.2121916067167,45.1363006082274</coordinates></LinearRing></outerBoundaryIs></Polygon><Polygon><outerBoundaryIs><LinearRing><coordinates>61.2102213862645,45.146559621985 61.2102213862645,45.149050612089 61.2108441337906,45.148427864563 61.2102213862645,45.146559621985</coordinates></LinearRing></outerBoundaryIs></Polygon></MultiGeometry>
  </Placemark>
</Folder>
</Document></kml>
