<?xml version="1.0" encoding="utf-8" ?>
<kml xmlns="http://www.opengis.net/kml/2.2">
<Document id="root_doc">
<Schema name="task_grid_v6_45.31_61.06" id="task_grid_v6_45.31_61.06">
	<SimpleField name="area_ha" type="float"></SimpleField>
	<SimpleField name="low_risk_ha" type="float"></SimpleField>
	<SimpleField name="moderate_risk_ha" type="float"></SimpleField>
	<SimpleField name="grid_cell_deg" type="string"></SimpleField>
</Schema>
<Folder><name>task_grid_v6_45.31_61.06</name>
  <Placemark id="task_grid_v6_45.31_61.06.1">
	<name>task_grid_v6_45.31_61.06</name>
	<name>240.3</name>
	<description>1506.6</description>
	<Style><LineStyle><color>ff0000ff</color></LineStyle><PolyStyle><fill>0</fill></PolyStyle></Style>
	<ExtendedData><SchemaData schemaUrl="#task_grid_v6_45.31_61.06">
		<SimpleData name="area_ha">1266.4</SimpleData>
		<SimpleData name="low_risk_ha">0.1</SimpleData>
	</SchemaData></ExtendedData>
      <MultiGeometry><Polygon><outerBoundaryIs><LinearRing><coordinates>61.0693594765417,45.2872175759595 61.0680120036156,45.2885650488857 61.0747493682464,45.2926074676642 61.0801392599512,45.2899125218119 61.0801392599512,45.2872175759595 61.0693594765417,45.2872175759595</coordinates></LinearRing></outerBoundaryIs></Polygon><Polygon><outerBoundaryIs><LinearRing><coordinates>61.0329777075349,45.2939549405904 61.0289352887564,45.2899125218119 61.0275878158302,45.291259994738 61.0289352887564,45.2979973593689 61.0329777075349,45.2939549405904</coordinates></LinearRing></outerBoundaryIs></Polygon><Polygon><outerBoundaryIs><LinearRing><coordinates>61.0747493682464,45.3141670344831 61.0841816787297,45.3047347239998 61.0801392599512,45.3033872510737 61.0734018953203,45.3101246157045 61.0747493682464,45.3141670344831</coordinates></LinearRing></outerBoundaryIs></Polygon><Polygon><outerBoundaryIs><LinearRing><coordinates>61.0141130865684,45.3074296698522 61.0181555053469,45.3141670344831 61.0248928699778,45.3074296698522 61.0141130865684,45.3074296698522</coordinates></LinearRing></outerBoundaryIs></Polygon><Polygon><outerBoundaryIs><LinearRing><coordinates>61.0127656136422,45.3222518720402 61.0102213862645,45.3222518720402 61.0102213862645,45.324437972417 61.0127656136422,45.3249468178925 61.0127656136422,45.3222518720402</coordinates></LinearRing></outerBoundaryIs></Polygon><Polygon><outerBoundaryIs><LinearRing><coordinates>61.0195029782731,45.3343791283758 61.0181555053469,45.3222518720402 61.0141130865684,45.3289892366711 61.0154605594946,45.335726601302 61.0195029782731,45.3343791283758</coordinates></LinearRing></outerBoundaryIs></Polygon><Polygon><outerBoundaryIs><LinearRing><coordinates>61.0814867328773,45.3397690200805 61.0828342058035,45.343811438859 61.0882240975082,45.3411164930067 61.0963089350653,45.3465063847114 61.0976564079915,45.3424639659329 61.0909190433606,45.3384215471543 61.0895715704344,45.3343791283758 61.0922665162868,45.3343791283758 61.093613989213,45.3384215471543 61.0976564079915,45.3343791283758 61.0922665162868,45.3289892366711 61.0922665162868,45.3235993449663 61.0882240975082,45.3168619803354 61.0801392599512,45.3168619803354 61.0774443140988,45.3195569261878 61.0774443140988,45.3222518720402 61.0814867328773,45.3235993449663 61.0760968411726,45.3289892366711 61.0841816787297,45.3343791283758 61.0814867328773,45.3397690200805</coordinates></LinearRing></outerBoundaryIs></Polygon><Polygon><outerBoundaryIs><LinearRing><coordinates>61.0102213862645,45.3394675831311 61.011418140716,45.3370740742281 61.0102213862645,45.3358773197766 61.0102213862645,45.3394675831311</coordinates></LinearRing></outerBoundaryIs></Polygon><Polygon><outerBoundaryIs><LinearRing><coordinates>61.0168080324207,45.3478538576376 61.0102213862645,45.3434627602001 61.0102213862645,45.3489856246216 61.0154605594946,45.3518962764161 61.0168080324207,45.3478538576376</coordinates></LinearRing></outerBoundaryIs></Polygon><Polygon><outerBoundaryIs><LinearRing><coordinates>61.0545372743538,45.3613285868994 61.0631861820227,45.3625641451378 61.063969584837,45.3625641451378 61.063969584837,45.3559386951946 61.0653170577632,45.3559386951946 61.0653170577632,45.3613285868994 61.0640814995248,45.3625641451378 61.0719425077063,45.3625641451378 61.0707069494679,45.3613285868994 61.0720544223941,45.3599811139732 61.0746374535587,45.3625641451378 61.080195217295,45.3625641451378 61.0964208497531,45.3625641451378 61.0974034757758,45.3625641451378 61.1062277080865,45.3625641451378 61.1063590246678,45.3625641451378 61.1102213862645,45.3625641451378 61.1102213862645,45.3586405024698 61.1102213862645,45.3584147800783 61.1102213862645,45.3545912222685 61.1097836643271,45.3545912222685 61.1070887184747,45.3518962764161 61.10169882677,45.3518962764161 61.0990038809177,45.3545912222685 61.0976564079915,45.3559386951946 61.0963089350653,45.3545912222685 61.0949614621391,45.3572861681208 61.0949614621391,45.3532437493423 61.0855291516559,45.343811438859 61.0841816787297,45.3505488034899 61.0801392599512,45.3518962764161 61.0774443140988,45.3572861681208 61.0693594765417,45.3572861681208 61.0653170577632,45.3505488034899 61.0666645306894,45.3492013305637 61.0720544223941,45.3518962764161 61.0760968411726,45.3478538576376 61.0720544223941,45.3465063847114 61.0693594765417,45.3411164930067 61.0666645306894,45.343811438859 61.0612746389846,45.3411164930067 61.0572322202061,45.3451589117852 61.0572322202061,45.3559386951946 61.0612746389846,45.3559386951946 61.0585796931323,45.3572861681208 61.0545372743538,45.3613285868994</coordinates></LinearRing></outerBoundaryIs><innerBoundaryIs><LinearRing><coordinates>61.0941529783834,45.3589031356322 61.093613989213,45.3599811139732 61.092536010872,45.3594421248027 61.0941529783834,45.3589031356322</coordinates></LinearRing></innerBoundaryIs><innerBoundaryIs><LinearRing><coordinates>61.1057412455486,45.3613285868994 61.1068641396537,45.3606548504363 61.106280234719,45.3624065652403 61.1057412455486,45.3613285868994</coordinates></LinearRing></innerBoundaryIs></Polygon><Polygon><outerBoundaryIs><LinearRing><coordinates>61.0342132657733,45.3625641451378 61.034362485357,45.3625641451378 61.0356726533872,45.358633641047 61.0289352887564,45.3518962764161 61.0248928699778,45.3532437493423 61.0342132657733,45.3625641451378</coordinates></LinearRing></outerBoundaryIs></Polygon><Polygon><outerBoundaryIs><LinearRing><coordinates>61.0477999097229,45.3545912222685 61.0464524367967,45.3613285868994 61.0451049638705,45.3545912222685 61.041062545092,45.358633641047 61.0430277971373,45.3625641451378 61.0471937717397,45.3625641451378 61.047276142289,45.3625641451378 61.0550431387852,45.3625641451378 61.049147382649,45.358633641047 61.0477999097229,45.3545912222685</coordinates></LinearRing></outerBoundaryIs></Polygon><Polygon><outerBoundaryIs><LinearRing><coordinates>61.0356726533872,45.358633641047 61.0356726533872,45.3625641451378 61.0383675992396,45.3625641451378 61.0383675992396,45.358633641047 61.0356726533872,45.358633641047</coordinates></LinearRing></outerBoundaryIs></Polygon><Polygon><outerBoundaryIs><LinearRing><coordinates>61.1074876366253,45.2625641451378 61.1066898003242,45.2625641451378 61.1070887184747,45.2629630632883 61.1074876366253,45.2625641451378</coordinates></LinearRing></outerBoundaryIs></Polygon><Polygon><outerBoundaryIs><LinearRing><coordinates>61.0922665162868,45.2643105362145 61.0916843859279,45.2625641451378 61.0878251793577,45.2625641451378 61.0909190433606,45.2656580091406 61.0922665162868,45.2643105362145</coordinates></LinearRing></outerBoundaryIs></Polygon><Polygon><outerBoundaryIs><LinearRing><coordinates>61.1070887184747,45.268352954993 61.1102213862645,45.2673087323964 61.1102213862645,45.2642762291006 61.1097836643271,45.2629630632883 61.1057412455486,45.2670054820668 61.1070887184747,45.268352954993</coordinates></LinearRing></outerBoundaryIs></Polygon><Polygon><outerBoundaryIs><LinearRing><coordinates>61.0868766245821,45.2723953737715 61.093613989213,45.2791327384024 61.0963089350653,45.2791327384024 61.0976564079915,45.2750903196239 61.0922665162868,45.2723953737715 61.0909190433606,45.2656580091406 61.0868766245821,45.2723953737715</coordinates></LinearRing></outerBoundaryIs></Polygon><Polygon><outerBoundaryIs><LinearRing><coordinates>61.1057412455486,45.2750903196239 61.10169882677,45.2710479008453 61.1003513538438,45.2750903196239 61.1043937726224,45.2764377925501 61.1057412455486,45.2750903196239</coordinates></LinearRing></outerBoundaryIs></Polygon><Polygon><outerBoundaryIs><LinearRing><coordinates>61.1084361914009,45.2804802113286 61.1070887184747,45.2764377925501 61.1030462996962,45.2777852654762 61.1043937726224,45.2818276842548 61.1084361914009,45.2804802113286</coordinates></LinearRing></outerBoundaryIs></Polygon><Polygon><outerBoundaryIs><LinearRing><coordinates>61.1057412455486,45.2885650488857 61.1070887184747,45.2926074676642 61.1102213862645,45.2882217327585 61.1102213862645,45.2819735915673 61.1097836643271,45.2818276842548 61.1057412455486,45.2885650488857</coordinates></LinearRing></outerBoundaryIs></Polygon><Polygon><outerBoundaryIs><LinearRing><coordinates>61.1043937726224,45.3006923052213 61.1084361914009,45.2939549405904 61.1070887184747,45.2926074676642 61.1057412455486,45.291259994738 61.1057412455486,45.2885650488857 61.1057412455486,45.2858701030333 61.10169882677,45.2818276842548 61.0990038809177,45.2845226301071 61.093613989213,45.2818276842548 61.0895715704344,45.2858701030333 61.0895715704344,45.291259994738 61.093613989213,45.2953024135166 61.10169882677,45.2926074676642 61.1043937726224,45.3006923052213</coordinates></LinearRing></outerBoundaryIs></Polygon><Polygon><outerBoundaryIs><LinearRing><coordinates>61.0963089350653,45.3006923052213 61.0963089350653,45.2979973593689 61.0909190433606,45.2979973593689 61.0895715704344,45.2993448322951 61.0963089350653,45.3006923052213</coordinates></LinearRing></outerBoundaryIs></Polygon><Polygon><outerBoundaryIs><LinearRing><coordinates>61.1097836643271,45.3033872510737 61.1057412455486,45.3047347239998 61.1084361914009,45.3074296698522 61.1057412455486,45.3101246157045 61.1070887184747,45.3141670344831 61.1102213862645,45.3110343666933 61.1102213862645,45.3055758607608 61.1097836643271,45.3033872510737</coordinates></LinearRing></outerBoundaryIs></Polygon><Polygon><outerBoundaryIs><LinearRing><coordinates>61.1057412455486,45.3155145074093 61.10169882677,45.3114720886307 61.1003513538438,45.3155145074093 61.1043937726224,45.3168619803354 61.1057412455486,45.3155145074093</coordinates></LinearRing></outerBoundaryIs></Polygon><Polygon><outerBoundaryIs><LinearRing><coordinates>61.1003513538438,45.3316841825234 61.10169882677,45.3411164930067 61.1057412455486,45.3316841825234 61.1003513538438,45.3316841825234</coordinates></LinearRing></outerBoundaryIs></Polygon></MultiGeometry>
  </Placemark>
</Folder>
</Document></kml>
