<?xml version="1.0" encoding="utf-8" ?>
<kml xmlns="http://www.opengis.net/kml/2.2">
<Document id="root_doc">
<Schema name="task_grid_v6_45.91_60.06" id="task_grid_v6_45.91_60.06">
	<SimpleField name="area_ha" type="float"></SimpleField>
	<SimpleField name="low_risk_ha" type="float"></SimpleField>
	<SimpleField name="moderate_risk_ha" type="float"></SimpleField>
	<SimpleField name="grid_cell_deg" type="string"></SimpleField>
</Schema>
<Folder><name>task_grid_v6_45.91_60.06</name>
  <Placemark id="task_grid_v6_45.91_60.06.1">
	<name>task_grid_v6_45.91_60.06</name>
	<name>1108.1</name>
	<description>2944.5</description>
	<Style><LineStyle><color>ff0000ff</color></LineStyle><PolyStyle><fill>0</fill></PolyStyle></Style>
	<ExtendedData><SchemaData schemaUrl="#task_grid_v6_45.91_60.06">
		<SimpleData name="area_ha">1836.4</SimpleData>
		<SimpleData name="low_risk_ha">0.1</SimpleData>
	</SchemaData></ExtendedData>
      <MultiGeometry><Polygon><outerBoundaryIs><LinearRing><coordinates>60.0520174172764,45.8787581905522 60.0237204858266,45.8828006093307 60.0183305941219,45.8908854468878 60.0156356482695,45.8908854468878 60.0129407024172,45.8908854468878 60.0102213862645,45.8936047630405 60.0102213862645,45.895368899875 60.0120423871331,45.8959759001645 60.0102213862645,45.8971899007435 60.0102213862645,45.9016896005975 60.0129407024172,45.8989702844449 60.0156356482695,45.9016652302973 60.0318053233837,45.9016652302973 60.0304578504575,45.9030127032234 60.0318053233837,45.9043601761496 60.0353424398149,45.9031811373392 60.0358477421622,45.9057076490758 60.0304578504575,45.9084025949281 60.03119283569,45.9096275703156 60.011593229491,45.9057076490758 60.011593229491,45.9084025949281 60.0169831211957,45.9137924866329 60.0102457565648,45.9097500678543 60.0102213862645,45.9098231787552 60.0102213862645,45.9144540379458 60.0142881753433,45.9164874324852 60.0142881753433,45.9218773241899 60.0183305941219,45.9232247971161 60.0196780670481,45.9218773241899 60.0183305941219,45.9205298512638 60.0210255399742,45.9178349054114 60.0237204858266,45.9205298512638 60.0237204858266,45.9205298512638 60.0196780670481,45.9272672158947 60.0318053233837,45.9340045805256 60.0331527963099,45.9272672158947 60.0303785873442,45.925285638062 60.034500269236,45.9232247971161 60.0398901609408,45.9259197429685 60.0466275255717,45.9191823783376 60.0425851067931,45.915139959559 60.0371952150884,45.9178349054114 60.034500269236,45.915139959559 60.0398901609408,45.915139959559 60.0412376338669,45.9137924866329 60.0385426880146,45.9110975407805 60.0439325797193,45.9084025949281 60.0439325797193,45.9030127032234 60.0466275255717,45.9003177573711 60.0439325797193,45.892232919814 60.0398901609408,45.8881905010355 60.0358477421622,45.8895379739616 60.0385426880146,45.892232919814 60.0371952150884,45.8935803927402 60.0291103775313,45.8935803927402 60.026415431679,45.8962753385925 60.0210255399742,45.8935803927402 60.0183305941219,45.8989702844449 60.0156356482695,45.8935803927402 60.0183305941219,45.8962753385925 60.026415431679,45.8854955551831 60.034500269236,45.8854955551831 60.0398901609408,45.8828006093307 60.0506699443502,45.8881905010355 60.0560598360549,45.8881905010355 60.064144673612,45.8989702844449 60.0681870923905,45.8976228115187 60.0695345653167,45.9016652302973 60.0857042404309,45.9043601761496 60.0883991862832,45.907055122002 60.0924416050617,45.9030127032234 60.0878318292617,45.9002468377434 60.0991789696926,45.9016652302973 60.101873915545,45.9043601761496 60.1072638072497,45.9043601761496 60.1059163343235,45.9057076490758 60.1102213862645,45.9063226564959 60.1102213862645,45.9043601761496 60.1102213862645,45.9003834156617 60.1045688613974,45.8989702844449 60.1004799780352,45.8956248344213 60.1099587531021,45.8908854468878 60.1102213862645,45.8911480800503 60.1102213862645,45.8830632424932 60.1086112801759,45.8814531364046 60.1099587531021,45.8801056634784 60.1102213862645,45.8801662711313 60.1102213862645,45.8708046695764 60.101873915545,45.8666309342166 60.0937890779879,45.8666309342166 60.0910941321356,45.8639359883642 60.0857042404309,45.8639359883642 60.0816618216523,45.8679784071428 60.0843567675047,45.8706733529951 60.0830092945785,45.8720208259213 60.0803143487261,45.8693258800689 60.0749244570214,45.8693258800689 60.0654921465382,45.8733682988475 60.0673786086348,45.8747157717737 60.0425851067931,45.8747157717737 60.0425851067931,45.877410717626 60.0398901609408,45.8747157717737 60.0331527963099,45.8787581905522 60.0520174172764,45.8787581905522</coordinates></LinearRing></outerBoundaryIs><innerBoundaryIs><LinearRing><coordinates>60.0318053233837,45.9178349054114 60.0318053233837,45.9106483831384 60.034500269236,45.915139959559 60.0318053233837,45.9178349054114</coordinates></LinearRing></innerBoundaryIs><innerBoundaryIs><LinearRing><coordinates>60.0722295111691,45.8962753385925 60.0722295111691,45.8935803927402 60.0722295111691,45.8908854468878 60.0668396194643,45.8908854468878 60.0661658830012,45.8915591833509 60.0654921465382,45.8895379739616 60.0601022548334,45.8868430281093 60.0547123631287,45.8787581905522 60.0587547819073,45.8828006093307 60.0601022548334,45.8814531364046 60.0587547819073,45.877410717626 60.0614497277596,45.8828006093307 60.064144673612,45.8801056634784 60.087051713357,45.8895379739616 60.0803143487261,45.8908854468878 60.0762719299476,45.8949278656664 60.0776194028738,45.8989702844449 60.0749244570214,45.8935803927402 60.0722295111691,45.8989702844449 60.0702083017798,45.8969490750556 60.0722295111691,45.8962753385925</coordinates></LinearRing></innerBoundaryIs><innerBoundaryIs><LinearRing><coordinates>60.0668396194643,45.8935803927402 60.0664546271997,45.8924254159463 60.0722295111691,45.8935803927402 60.0668396194643,45.8935803927402</coordinates></LinearRing></innerBoundaryIs><innerBoundaryIs><LinearRing><coordinates>60.0971577603034,45.8929066562771 60.0991789696926,45.8908854468878 60.0991789696926,45.8945603730501 60.0971577603034,45.8929066562771</coordinates></LinearRing></innerBoundaryIs><innerBoundaryIs><LinearRing><coordinates>60.0897466592094,45.8868430281093 60.0910941321356,45.8854955551831 60.0964840238403,45.8881905010355 60.0964840238403,45.8828006093307 60.0978314967665,45.8868430281093 60.0954842858628,45.8915374499166 60.0897466592094,45.8868430281093</coordinates></LinearRing></innerBoundaryIs><innerBoundaryIs><LinearRing><coordinates>60.0757536711298,45.8796910564242 60.0803143487261,45.877410717626 60.0816618216523,45.8787581905522 60.0789668758,45.8814531364046 60.0830092945785,45.8854955551831 60.0757536711298,45.8796910564242</coordinates></LinearRing></innerBoundaryIs><innerBoundaryIs><LinearRing><coordinates>60.0277629046051,45.9137924866329 60.026415431679,45.915139959559 60.0250679587528,45.9137924866329 60.0277629046051,45.9137924866329</coordinates></LinearRing></innerBoundaryIs><innerBoundaryIs><LinearRing><coordinates>60.0857042404309,45.8801056634784 60.0843567675047,45.8787581905522 60.087051713357,45.8787581905522 60.0857042404309,45.8801056634784</coordinates></LinearRing></innerBoundaryIs></Polygon><Polygon><outerBoundaryIs><LinearRing><coordinates>60.0156356482695,45.8908854468878 60.0169831211957,45.8895379739616 60.0142881753433,45.8868430281093 60.0183305941219,45.8828006093307 60.0331527963099,45.8814531364046 60.026415431679,45.8801056634784 60.0237204858266,45.8720208259213 60.0210255399742,45.8801056634784 60.0156356482695,45.877410717626 60.0129407024172,45.8801056634784 60.0102457565648,45.877410717626 60.0102213862645,45.8774269644929 60.0102213862645,45.8872759388845 60.0156356482695,45.8908854468878</coordinates></LinearRing></outerBoundaryIs></Polygon><Polygon><outerBoundaryIs><LinearRing><coordinates>60.0708820382429,45.9245722700423 60.0627972006858,45.929962161747 60.0681870923905,45.9326571075994 60.064144673612,45.9366995263779 60.0614497277596,45.9340045805256 60.0601022548334,45.9380469993041 60.0668396194643,45.9420894180826 60.0789668758,45.929962161747 60.0789668758,45.9245722700423 60.0857042404309,45.9205298512638 60.0857042404309,45.9178349054114 60.0803143487261,45.9178349054114 60.0776194028738,45.9205298512638 60.0668396194643,45.9205298512638 60.0668396194643,45.9221468187752 60.064144673612,45.9205298512638 60.0574073089811,45.9218773241899 60.064144673612,45.9259197429685 60.0708820382429,45.9245722700423</coordinates></LinearRing></outerBoundaryIs></Polygon><Polygon><outerBoundaryIs><LinearRing><coordinates>60.0318053233837,45.9474793097873 60.0385426880146,45.9407419451565 60.0318053233837,45.9393944722303 60.0277629046051,45.9434368910088 60.0318053233837,45.9474793097873</coordinates></LinearRing></outerBoundaryIs></Polygon><Polygon><outerBoundaryIs><LinearRing><coordinates>60.0563818572726,45.9625641451378 60.0626658841046,45.9625641451378 60.0654921465382,45.9569116202706 60.064144673612,45.9555641473444 60.0614497277596,45.9582590931968 60.0587547819073,45.9528692014921 60.0560598360549,45.9528692014921 60.0547123631287,45.9569116202706 60.049322471424,45.959606566123 60.0478436819166,45.9625641451378 60.053644676922,45.9625641451378 60.0560598360549,45.9609540390491 60.0563818572726,45.9625641451378</coordinates></LinearRing></outerBoundaryIs></Polygon><Polygon><outerBoundaryIs><LinearRing><coordinates>60.0358477421622,45.959606566123 60.0358477421622,45.9625641451378 60.038805321177,45.9625641451378 60.0385426880146,45.9623015119753 60.0412376338669,45.959606566123 60.0358477421622,45.959606566123</coordinates></LinearRing></outerBoundaryIs></Polygon><Polygon><outerBoundaryIs><LinearRing><coordinates>60.0776194028738,45.9097500678543 60.0749244570214,45.907055122002 60.0708820382429,45.9110975407805 60.0722295111691,45.915139959559 60.0749244570214,45.9124450137067 60.0776194028738,45.915139959559 60.0843567675047,45.9137924866329 60.0830092945785,45.9097500678543 60.0776194028738,45.9097500678543</coordinates></LinearRing></outerBoundaryIs></Polygon><Polygon><outerBoundaryIs><LinearRing><coordinates>60.1099587531021,45.9178349054114 60.0991789696926,45.9178349054114 60.0978314967665,45.9191823783376 60.1045688613974,45.9205298512638 60.1102213862645,45.9242982011752 60.1102213862645,45.9180975385739 60.1099587531021,45.9178349054114</coordinates></LinearRing></outerBoundaryIs></Polygon><Polygon><outerBoundaryIs><LinearRing><coordinates>60.1102213862645,45.9267305138651 60.1086112801759,45.9272672158947 60.1102213862645,45.9288773219833 60.1102213862645,45.9267305138651</coordinates></LinearRing></outerBoundaryIs></Polygon><Polygon><outerBoundaryIs><LinearRing><coordinates>60.1102213862645,45.9310470015107 60.1086112801759,45.9326571075994 60.1102213862645,45.9333471530659 60.1102213862645,45.9310470015107</coordinates></LinearRing></outerBoundaryIs></Polygon><Polygon><outerBoundaryIs><LinearRing><coordinates>60.0924416050617,45.9461318368612 60.0964840238403,45.9501742556397 60.1032213884712,45.9461318368612 60.101873915545,45.9366995263779 60.1005264426188,45.9407419451565 60.0924416050617,45.9461318368612</coordinates></LinearRing></outerBoundaryIs></Polygon><Polygon><outerBoundaryIs><LinearRing><coordinates>60.0964840238403,45.9555641473444 60.0964840238403,45.9528692014921 60.0857042404309,45.9528692014921 60.0843567675047,45.9542166744182 60.0964840238403,45.9555641473444</coordinates></LinearRing></outerBoundaryIs></Polygon><Polygon><outerBoundaryIs><LinearRing><coordinates>60.1086112801759,45.9569116202706 60.1045688613974,45.9528692014921 60.1005264426188,45.9542166744182 60.1072638072497,45.9609540390491 60.1086112801759,45.9569116202706</coordinates></LinearRing></outerBoundaryIs></Polygon></MultiGeometry>
  </Placemark>
</Folder>
</Document></kml>
