<?xml version="1.0" encoding="utf-8" ?>
<kml xmlns="http://www.opengis.net/kml/2.2">
<Document id="root_doc">
<Schema name="task_grid_v6_45.91_59.66" id="task_grid_v6_45.91_59.66">
	<SimpleField name="area_ha" type="float"></SimpleField>
	<SimpleField name="low_risk_ha" type="float"></SimpleField>
	<SimpleField name="moderate_risk_ha" type="float"></SimpleField>
	<SimpleField name="grid_cell_deg" type="string"></SimpleField>
</Schema>
<Folder><name>task_grid_v6_45.91_59.66</name>
  <Placemark id="task_grid_v6_45.91_59.66.1">
	<name>task_grid_v6_45.91_59.66</name>
	<name>849.5</name>
	<description>1006.5</description>
	<Style><LineStyle><color>ff0000ff</color></LineStyle><PolyStyle><fill>0</fill></PolyStyle></Style>
	<ExtendedData><SchemaData schemaUrl="#task_grid_v6_45.91_59.66">
		<SimpleData name="area_ha">157</SimpleData>
		<SimpleData name="low_risk_ha">0.1</SimpleData>
	</SchemaData></ExtendedData>
      <MultiGeometry><Polygon><outerBoundaryIs><LinearRing><coordinates>59.6105804126,45.8625641451378 59.6113937704157,45.8666309342166 59.6127412433419,45.8652834612904 59.6139301900415,45.8680576702561 59.6127412433419,45.8787581905522 59.6154361891943,45.8814531364046 59.6127412433419,45.8868430281093 59.6154361891943,45.8895379739616 59.6102213862645,45.8973601783563 59.6102213862645,45.8977979002937 59.6127412433419,45.9003177573711 59.6127412433419,45.9137924866329 59.6167836621205,45.9178349054114 59.6181311350466,45.9164874324852 59.6181311350466,45.9084025949281 59.6154361891943,45.9057076490758 59.6167836621205,45.8962753385925 59.6289109184561,45.9137924866329 59.6289109184561,45.9218773241899 59.6369957560131,45.9272672158947 59.6396907018655,45.9353520534517 59.6531654311273,45.9515217285659 59.6531654311273,45.9569116202706 59.6599027957582,45.9609540390491 59.6612502686844,45.9569116202706 59.658555322832,45.9542166744182 59.658555322832,45.9488267827135 59.6558603769797,45.9434368910088 59.6504704852749,45.9407419451565 59.6531654311273,45.9380469993041 59.6504704852749,45.9353520534517 59.6531654311273,45.9326571075994 59.6450805935702,45.9245722700423 59.6396907018655,45.9110975407805 59.6289109184561,45.9030127032234 59.6262159726037,45.8895379739616 59.6289109184561,45.8868430281093 59.620826080899,45.8814531364046 59.6174573985836,45.8740420353106 59.620826080899,45.8706733529951 59.617350706103,45.8625641451378 59.6154605594946,45.8625641451378 59.6154361891943,45.862588515438 59.615411818894,45.8625641451378 59.6105804126,45.8625641451378</coordinates></LinearRing></outerBoundaryIs><innerBoundaryIs><LinearRing><coordinates>59.635648283087,45.9178349054114 59.635648283087,45.915139959559 59.6369957560131,45.9164874324852 59.635648283087,45.9178349054114</coordinates></LinearRing></innerBoundaryIs><innerBoundaryIs><LinearRing><coordinates>59.620826080899,45.8949278656664 59.6235210267514,45.8949278656664 59.6221735538252,45.8962753385925 59.620826080899,45.8949278656664</coordinates></LinearRing></innerBoundaryIs></Polygon><Polygon><outerBoundaryIs><LinearRing><coordinates>59.6629163321169,45.8625641451378 59.6679876333153,45.8693258800689 59.6693351062415,45.8625885154381 59.6693229210913,45.8625641451378 59.6629163321169,45.8625641451378</coordinates></LinearRing></outerBoundaryIs></Polygon><Polygon><outerBoundaryIs><LinearRing><coordinates>59.6693351062415,45.9057076490758 59.6706825791676,45.9097500678543 59.6747249979462,45.9084025949281 59.67337752502,45.9043601761496 59.6693351062415,45.9057076490758</coordinates></LinearRing></outerBoundaryIs></Polygon><Polygon><outerBoundaryIs><LinearRing><coordinates>59.6814623625771,45.9205298512638 59.6774199437985,45.9218773241899 59.6828098355032,45.929962161747 59.6895472001341,45.9313096346732 59.6908946730603,45.9272672158947 59.6814623625771,45.9205298512638</coordinates></LinearRing></outerBoundaryIs></Polygon><Polygon><outerBoundaryIs><LinearRing><coordinates>59.7057168752483,45.9313096346732 59.7043694023221,45.9326571075994 59.7102213862645,45.9351651007176 59.7102213862645,45.9313096346732 59.7057168752483,45.9313096346732</coordinates></LinearRing></outerBoundaryIs></Polygon><Polygon><outerBoundaryIs><LinearRing><coordinates>59.6625977416106,45.9609540390491 59.6622757203928,45.9625641451378 59.6637478173881,45.9625641451378 59.6625977416106,45.9609540390491</coordinates></LinearRing></outerBoundaryIs></Polygon></MultiGeometry>
  </Placemark>
</Folder>
</Document></kml>
