<?xml version="1.0" encoding="utf-8" ?>
<kml xmlns="http://www.opengis.net/kml/2.2">
<Document id="root_doc">
<Schema name="task_grid_v6_46.21_59.86" id="task_grid_v6_46.21_59.86">
	<SimpleField name="area_ha" type="float"></SimpleField>
	<SimpleField name="low_risk_ha" type="float"></SimpleField>
	<SimpleField name="moderate_risk_ha" type="float"></SimpleField>
	<SimpleField name="grid_cell_deg" type="string"></SimpleField>
</Schema>
<Folder><name>task_grid_v6_46.21_59.86</name>
  <Placemark id="task_grid_v6_46.21_59.86.1">
	<name>task_grid_v6_46.21_59.86</name>
	<name>1168.6</name>
	<description>1213</description>
	<Style><LineStyle><color>ff0000ff</color></LineStyle><PolyStyle><fill>0</fill></PolyStyle></Style>
	<ExtendedData><SchemaData schemaUrl="#task_grid_v6_46.21_59.86">
		<SimpleData name="area_ha">44.4</SimpleData>
		<SimpleData name="low_risk_ha">0.1</SimpleData>
	</SchemaData></ExtendedData>
      <MultiGeometry><Polygon><outerBoundaryIs><LinearRing><coordinates>59.8606762617589,46.1671173967546 59.8606762617589,46.1625641451378 59.8544497299663,46.1625641451378 59.8525914242018,46.1644224509022 59.8566338429804,46.1711598155331 59.8606762617589,46.1671173967546</coordinates></LinearRing></outerBoundaryIs></Polygon><Polygon><outerBoundaryIs><LinearRing><coordinates>59.816209655195,46.1819395989425 59.8189046010474,46.1792446530902 59.8108197634903,46.192719382352 59.8102213862645,46.1909242506748 59.8102213862645,46.2389080096923 59.8121672364165,46.2398809347683 59.8121672364165,46.2425758806206 59.8189046010474,46.2493132452515 59.8202520739735,46.245270826473 59.8175571281212,46.2398809347683 59.8202520739735,46.2371859889159 59.8202520739735,46.2291011513588 59.8175571281212,46.2264062055065 59.8175571281212,46.2183213679494 59.8229470198259,46.215626422097 59.8202520739735,46.2129314762447 59.8202520739735,46.1994567469829 59.8269894386044,46.1900244364996 59.8296843844568,46.1900244364996 59.8377692220139,46.1819395989425 59.8458540595709,46.1792446530902 59.8525914242018,46.1725072884593 59.8512439512757,46.1684648696807 59.8458540595709,46.1738547613855 59.8445065866448,46.1725072884593 59.8445065866448,46.1625641451378 59.8148621822688,46.1625641451378 59.8148621822688,46.1671173967546 59.8121672364165,46.1698123426069 59.8121672364165,46.177897180164 59.8135147093426,46.1792446530902 59.8148621822688,46.177897180164 59.816209655195,46.1819395989425</coordinates></LinearRing></outerBoundaryIs><innerBoundaryIs><LinearRing><coordinates>59.8148621822688,46.1994567469829 59.8135147093426,46.2008042199091 59.8121672364165,46.1967618011305 59.8135147093426,46.1954143282043 59.8148621822688,46.1994567469829</coordinates></LinearRing></innerBoundaryIs><innerBoundaryIs><LinearRing><coordinates>59.8189046010474,46.1873294906473 59.8202520739735,46.1886769635734 59.816209655195,46.192719382352 59.8148621822688,46.1913719094258 59.8189046010474,46.1873294906473</coordinates></LinearRing></innerBoundaryIs><innerBoundaryIs><LinearRing><coordinates>59.8404641678662,46.1684648696807 59.8404641678662,46.1711598155331 59.83911669494,46.1698123426069 59.8404641678662,46.1684648696807</coordinates></LinearRing></innerBoundaryIs></Polygon><Polygon><outerBoundaryIs><LinearRing><coordinates>59.8102213862645,46.1771480844636 59.8102213862645,46.1840361675692 59.8108197634903,46.1846345447949 59.8121672364165,46.1832870718687 59.8108197634903,46.1765497072378 59.8102213862645,46.1771480844636</coordinates></LinearRing></outerBoundaryIs></Polygon><Polygon><outerBoundaryIs><LinearRing><coordinates>59.8102213862645,46.187927867873 59.8121672364165,46.1859820177211 59.8102213862645,46.1853334010038 59.8102213862645,46.187927867873</coordinates></LinearRing></outerBoundaryIs></Polygon><Polygon><outerBoundaryIs><LinearRing><coordinates>59.816209655195,46.2520081911039 59.8102213862645,46.25320584489 59.8102213862645,46.2544793075807 59.8148621822688,46.2614405015871 59.8126148951675,46.2625641451378 59.816209655195,46.2625641451378 59.816209655195,46.2520081911039</coordinates></LinearRing></outerBoundaryIs></Polygon></MultiGeometry>
  </Placemark>
</Folder>
</Document></kml>
