<?xml version="1.0" encoding="utf-8" ?>
<kml xmlns="http://www.opengis.net/kml/2.2">
<Document id="root_doc">
<Schema name="task_grid_v6_45.81_60.76" id="task_grid_v6_45.81_60.76">
	<SimpleField name="area_ha" type="float"></SimpleField>
	<SimpleField name="low_risk_ha" type="float"></SimpleField>
	<SimpleField name="moderate_risk_ha" type="float"></SimpleField>
	<SimpleField name="grid_cell_deg" type="string"></SimpleField>
</Schema>
<Folder><name>task_grid_v6_45.81_60.76</name>
  <Placemark id="task_grid_v6_45.81_60.76.1">
	<name>task_grid_v6_45.81_60.76</name>
	<name>556.7</name>
	<description>655.4</description>
	<Style><LineStyle><color>ff0000ff</color></LineStyle><PolyStyle><fill>0</fill></PolyStyle></Style>
	<ExtendedData><SchemaData schemaUrl="#task_grid_v6_45.81_60.76">
		<SimpleData name="area_ha">98.7</SimpleData>
		<SimpleData name="low_risk_ha">0.1</SimpleData>
	</SchemaData></ExtendedData>
      <MultiGeometry><Polygon><outerBoundaryIs><LinearRing><coordinates>60.7102213862645,45.7692159527439 60.7102213862645,45.7696128835317 60.7102213862645,45.7810217245204 60.7163215698828,45.7884775044982 60.7190165157351,45.7857825586458 60.7244064074398,45.7884775044982 60.7284488262184,45.7844350857197 60.7273708478774,45.7795841831854 60.7297962991445,45.7803926669411 60.7311437720707,45.7790451940149 60.7271013532922,45.7696128835317 60.72633973816,45.774944189457 60.7235886172002,45.7625641451378 60.7124348379857,45.7625641451378 60.7102213862645,45.7625641451378 60.7102213862645,45.7692159527439</coordinates></LinearRing></outerBoundaryIs></Polygon><Polygon><outerBoundaryIs><LinearRing><coordinates>60.8012123642321,45.7952148691291 60.7958224725273,45.7979098149814 60.7998648913059,45.8073421254647 60.7985174183797,45.8086895983909 60.8052547830106,45.8100370713171 60.8052547830106,45.8073421254647 60.8102213862645,45.8103220874171 60.8102213862645,45.7754260636872 60.8092972017891,45.7763502481626 60.8092972017891,45.7790451940149 60.7985174183797,45.7898249774244 60.8012123642321,45.7952148691291</coordinates></LinearRing></outerBoundaryIs></Polygon><Polygon><outerBoundaryIs><LinearRing><coordinates>60.7163215698828,45.7965623420553 60.7149740969566,45.7979098149814 60.7190165157351,45.80195223376 60.7230589345137,45.7979098149814 60.7163215698828,45.7965623420553</coordinates></LinearRing></outerBoundaryIs></Polygon><Polygon><outerBoundaryIs><LinearRing><coordinates>60.7102213862645,45.8012711862068 60.7136266240304,45.80195223376 60.7136266240304,45.7992572879076 60.7102213862645,45.7992572879076 60.7102213862645,45.8012711862068</coordinates></LinearRing></outerBoundaryIs></Polygon><Polygon><outerBoundaryIs><LinearRing><coordinates>60.725753880366,45.8032997066862 60.7271013532922,45.8073421254647 60.7311437720707,45.8059946525385 60.7297962991445,45.80195223376 60.725753880366,45.8032997066862</coordinates></LinearRing></outerBoundaryIs></Polygon><Polygon><outerBoundaryIs><LinearRing><coordinates>60.8092972017891,45.8140794900956 60.8092972017891,45.8194693818003 60.8102213862645,45.8196542186954 60.8102213862645,45.8131553056202 60.8092972017891,45.8140794900956</coordinates></LinearRing></outerBoundaryIs></Polygon></MultiGeometry>
  </Placemark>
</Folder>
</Document></kml>
