<?xml version="1.0" encoding="utf-8" ?>
<kml xmlns="http://www.opengis.net/kml/2.2">
<Document id="root_doc">
<Schema name="task_grid_v6_45.08_60.28" id="task_grid_v6_45.08_60.28">
	<SimpleField name="area_ha" type="float"></SimpleField>
	<SimpleField name="low_risk_ha" type="float"></SimpleField>
	<SimpleField name="moderate_risk_ha" type="float"></SimpleField>
	<SimpleField name="grid_cell_deg" type="string"></SimpleField>
</Schema>
<Folder><name>task_grid_v6_45.08_60.28</name>
  <Placemark id="task_grid_v6_45.08_60.28.1">
	<name>task_grid_v6_45.08_60.28</name>
	<name>70</name>
	<description>1109.8</description>
	<Style><LineStyle><color>ff0000ff</color></LineStyle><PolyStyle><fill>0</fill></PolyStyle></Style>
	<ExtendedData><SchemaData schemaUrl="#task_grid_v6_45.08_60.28">
		<SimpleData name="area_ha">1039.8</SimpleData>
		<SimpleData name="low_risk_ha">0.1</SimpleData>
	</SchemaData></ExtendedData>
      <MultiGeometry><Polygon><outerBoundaryIs><LinearRing><coordinates>60.282435287653,45.0608421243614 60.2851302335054,45.058147178509 60.2864777064316,45.0594946514352 60.2837827605792,45.0675794889923 60.2891726522839,45.0756643265494 60.2864777064316,45.0810542182541 60.2932150710625,45.0824016911803 60.2945625439886,45.0783592724017 60.2918675981363,45.072969380697 60.3053423273981,45.0648845431399 60.2999524356934,45.0621895972876 60.3066898003242,45.058147178509 60.312079692029,45.058147178509 60.3161221108075,45.0541047597305 60.3134271649552,45.0514098138781 60.3161221108075,45.0487148680258 60.3161221108075,45.0433249763211 60.3093847461766,45.0419775033949 60.3080372732504,45.0487148680258 60.3039948544719,45.0527572868043 60.2986049627672,45.0554522326567 60.2945625439886,45.0541047597305 60.2945625439886,45.0514098138781 60.3026473815457,45.0460199221734 60.3066898003242,45.0365876116902 60.3093847461766,45.0392825575425 60.3147746378813,45.0365876116902 60.3228594754384,45.0473673950996 60.3263910613787,45.0452484435354 60.3263910613787,45.0417220869757 60.3242069483646,45.0406300304687 60.3263910613787,45.0384459174546 60.3263910613787,45.0374242517781 60.3233215676761,45.0343547580755 60.2927529788248,45.0343547580755 60.2918675981363,45.035240138764 60.297257489841,45.0433249763211 60.2905201252101,45.0473673950996 60.2878251793577,45.0419775033949 60.2851302335054,45.0419775033949 60.2837827605792,45.0514098138781 60.2756979230222,45.0567997055828 60.2783928688745,45.0541047597305 60.2770453959483,45.0473673950996 60.2676130854651,45.0514098138781 60.2689605583912,45.058147178509 60.274350450096,45.058147178509 60.2756979230221,45.0567997055828 60.282435287653,45.0608421243614</coordinates></LinearRing></outerBoundaryIs></Polygon><Polygon><outerBoundaryIs><LinearRing><coordinates>60.2541383562033,45.0594946514352 60.2581807749818,45.0635370702137 60.2622231937603,45.0594946514352 60.2581807749818,45.0554522326567 60.2541383562033,45.0594946514352</coordinates></LinearRing></outerBoundaryIs></Polygon><Polygon><outerBoundaryIs><LinearRing><coordinates>60.3107322191028,45.072969380697 60.3012999086195,45.0689269619185 60.2999524356934,45.072969380697 60.3039948544719,45.0743168536232 60.3066898003242,45.0797067453279 60.3093847461766,45.0797067453279 60.3107322191028,45.072969380697</coordinates></LinearRing></outerBoundaryIs></Polygon><Polygon><outerBoundaryIs><LinearRing><coordinates>60.2487484644985,45.0837491641064 60.2500959374247,45.087791582885 60.2568333020556,45.0837491641064 60.2554858291294,45.0797067453279 60.2487484644985,45.0837491641064</coordinates></LinearRing></outerBoundaryIs></Polygon><Polygon><outerBoundaryIs><LinearRing><coordinates>60.2891726522839,45.0918340016635 60.2905201252101,45.095876420442 60.2945625439886,45.0918340016635 60.2932150710625,45.0850966370326 60.2891726522839,45.0918340016635</coordinates></LinearRing></outerBoundaryIs></Polygon><Polygon><outerBoundaryIs><LinearRing><coordinates>60.2851302335054,45.095876420442 60.2783928688745,45.0999188392206 60.2878251793577,45.1012663121468 60.2878251793577,45.095876420442 60.2851302335054,45.095876420442</coordinates></LinearRing></outerBoundaryIs></Polygon><Polygon><outerBoundaryIs><LinearRing><coordinates>60.2635706666865,45.1039612579991 60.2649181396127,45.0999188392206 60.2581807749818,45.0931814745897 60.2554858291294,45.0931814745897 60.2541383562033,45.0972238933682 60.2487484644985,45.0999188392206 60.2554858291294,45.1039612579991 60.2635706666865,45.1039612579991</coordinates></LinearRing></outerBoundaryIs></Polygon></MultiGeometry>
  </Placemark>
</Folder>
</Document></kml>
