<?xml version="1.0" encoding="utf-8" ?>
<kml xmlns="http://www.opengis.net/kml/2.2">
<Document id="root_doc">
<Schema name="task_grid_v6_46.08_60.18" id="task_grid_v6_46.08_60.18">
	<SimpleField name="area_ha" type="float"></SimpleField>
	<SimpleField name="low_risk_ha" type="float"></SimpleField>
	<SimpleField name="moderate_risk_ha" type="float"></SimpleField>
	<SimpleField name="grid_cell_deg" type="string"></SimpleField>
</Schema>
<Folder><name>task_grid_v6_46.08_60.18</name>
  <Placemark id="task_grid_v6_46.08_60.18.1">
	<name>task_grid_v6_46.08_60.18</name>
	<name>1971.6</name>
	<description>3280.2</description>
	<Style><LineStyle><color>ff0000ff</color></LineStyle><PolyStyle><fill>0</fill></PolyStyle></Style>
	<ExtendedData><SchemaData schemaUrl="#task_grid_v6_46.08_60.18">
		<SimpleData name="area_ha">1308.6</SimpleData>
		<SimpleData name="low_risk_ha">0.1</SimpleData>
	</SchemaData></ExtendedData>
      <MultiGeometry><Polygon><outerBoundaryIs><LinearRing><coordinates>60.1584677784445,46.0418024146199 60.1571203055184,46.0485397792508 60.1638576701492,46.0525821980293 60.1679000889278,46.0458448333984 60.1631839336862,46.0438236240092 60.1665526160016,46.0444973604723 60.1665526160016,46.0391074687675 60.1638576701492,46.0391074687675 60.1603542405412,46.0426108983756 60.1584677784445,46.0418024146199</coordinates></LinearRing></outerBoundaryIs></Polygon><Polygon><outerBoundaryIs><LinearRing><coordinates>60.1732899806325,46.0539296709555 60.169247561854,46.049887252177 60.1679000889278,46.0539296709555 60.1719425077063,46.0552771438817 60.1732899806325,46.0539296709555</coordinates></LinearRing></outerBoundaryIs></Polygon><Polygon><outerBoundaryIs><LinearRing><coordinates>60.1355607386995,46.0539296709555 60.1315183199209,46.049887252177 60.1301708469948,46.0539296709555 60.1342132657733,46.0579720897341 60.1355607386995,46.0539296709555</coordinates></LinearRing></outerBoundaryIs></Polygon><Polygon><outerBoundaryIs><LinearRing><coordinates>60.1449930491827,46.0418024146199 60.1382556845518,46.0458448333984 60.1436455762566,46.0566246168079 60.1382556845518,46.0593195626602 60.1355607386995,46.0647094543649 60.1369082116257,46.0660569272911 60.139603157478,46.0660569272911 60.1422981033304,46.0606670355864 60.1476879950351,46.0606670355864 60.1503829408875,46.0633619814388 60.1530778867398,46.0606670355864 60.1705950347801,46.0593195626602 60.1571203055184,46.0485397792508 60.1557728325922,46.0418024146199 60.1490354679613,46.0431498875461 60.154425359666,46.0458448333984 60.1530778867398,46.0525821980293 60.1476879950351,46.0525821980293 60.1436455762566,46.0485397792508 60.1490354679613,46.0458448333984 60.1449930491827,46.0418024146199</coordinates></LinearRing></outerBoundaryIs></Polygon><Polygon><outerBoundaryIs><LinearRing><coordinates>60.1263910613787,46.0683293618557 60.1328657928471,46.0674044002173 60.1263910613787,46.0635195613362 60.1263910613787,46.0683293618557</coordinates></LinearRing></outerBoundaryIs></Polygon><Polygon><outerBoundaryIs><LinearRing><coordinates>60.1800273452634,46.0983962775194 60.1800273452634,46.0930063858147 60.177332399411,46.0957013316671 60.1732899806325,46.0970488045932 60.1800273452634,46.0983962775194</coordinates></LinearRing></outerBoundaryIs></Polygon><Polygon><outerBoundaryIs><LinearRing><coordinates>60.1827222911158,46.1064811150765 60.1840697640419,46.1051336421503 60.177332399411,46.1010912233718 60.1732899806325,46.1051336421503 60.1827222911158,46.1064811150765</coordinates></LinearRing></outerBoundaryIs></Polygon><Polygon><outerBoundaryIs><LinearRing><coordinates>60.1263910613787,46.112938692988 60.1263910613787,46.1175235316484 60.1263910613787,46.1186083714121 60.1263910613787,46.1226507901907 60.1263910613787,46.1304729945853 60.1288233740686,46.1280406818954 60.1288233740686,46.1334305736001 60.1342132657733,46.1307356277477 60.1369082116257,46.1334305736001 60.1517304138136,46.1320831006739 60.1449930491827,46.1280406818954 60.139603157478,46.1307356277477 60.1463405221089,46.1266932089692 60.1369082116257,46.125345736043 60.1449930491827,46.125345736043 60.1476879950351,46.1280406818954 60.1503829408875,46.1226507901907 60.154425359666,46.1213033172645 60.1517304138136,46.1186083714121 60.1530778867398,46.1172608984859 60.1571203055184,46.1213033172645 60.1517304138136,46.1266932089692 60.154425359666,46.1320831006739 60.1611627242969,46.1334305736001 60.1638576701492,46.1280406818954 60.1665526160016,46.1307356277477 60.169247561854,46.1280406818954 60.1746374535587,46.1280406818954 60.1827222911158,46.1226507901907 60.1881121828205,46.1226507901907 60.1908071286728,46.1172608984859 60.1988919662299,46.1172608984859 60.2008519268498,46.1133409772461 60.206976803787,46.1145659526336 60.206976803787,46.1118710067812 60.2096717496393,46.1145659526336 60.2244939518273,46.1051336421503 60.2177565871964,46.1010912233718 60.2096717496393,46.1064811150765 60.2083242767132,46.1051336421503 60.2137141684179,46.102438696298 60.2096717496393,46.1010912233718 60.2096717496393,46.0983962775194 60.2263910613787,46.0974127885936 60.2263910613787,46.096849200464 60.1908071286728,46.0957013316671 60.1894596557467,46.0943538587409 60.2042818579346,46.0957013316671 60.2042818579346,46.0930063858147 60.1908071286728,46.0930063858147 60.1894596557467,46.0943538587409 60.1881121828205,46.0930063858147 60.1800273452634,46.0983962775194 60.1705950347801,46.0997437504456 60.1854172369681,46.1010912233718 60.1881121828205,46.1037861692241 60.1908071286728,46.1010912233718 60.192154601599,46.102438696298 60.1881121828205,46.1064811150765 60.1854172369681,46.1037861692241 60.1827222911158,46.1064811150765 60.1746374535587,46.1064811150765 60.1719425077063,46.1037861692241 60.1665526160016,46.1037861692241 60.1638576701492,46.1064811150765 60.1611627242969,46.1037861692241 60.1584677784445,46.1064811150765 60.1503829408875,46.1064811150765 60.1476879950351,46.0983962775194 60.1355607386995,46.0970488045932 60.1409506304042,46.0916589128885 60.139603157478,46.0903114399623 60.1342132657733,46.0903114399623 60.1263910613787,46.0955262428921 60.1263910613787,46.1095574702019 60.1315183199209,46.1064811150765 60.1328657928471,46.1078285880027 60.1301708469948,46.1132184797074 60.1315183199209,46.1145659526336 60.1297858547301,46.1180308830152 60.1263910613787,46.112938692988</coordinates></LinearRing></outerBoundaryIs><innerBoundaryIs><LinearRing><coordinates>60.1679000889278,46.1239982631168 60.1611627242969,46.125345736043 60.1598152513707,46.1213033172645 60.1665526160016,46.1199558443383 60.1679000889278,46.1239982631168</coordinates></LinearRing></innerBoundaryIs><innerBoundaryIs><LinearRing><coordinates>60.2042818579346,46.1064811150765 60.2002394391561,46.1059036266796 60.2056293308608,46.1051336421503 60.2042818579346,46.1064811150765</coordinates></LinearRing></innerBoundaryIs><innerBoundaryIs><LinearRing><coordinates>60.1584677784445,46.1280406818954 60.1598152513707,46.1293881548215 60.1571203055184,46.1293881548215 60.1584677784445,46.1280406818954</coordinates></LinearRing></innerBoundaryIs><innerBoundaryIs><LinearRing><coordinates>60.1598152513707,46.1132184797074 60.1584677784445,46.1145659526336 60.1584677784445,46.1118710067812 60.1598152513707,46.1132184797074</coordinates></LinearRing></innerBoundaryIs><innerBoundaryIs><LinearRing><coordinates>60.1961970203776,46.1145659526336 60.1948495474514,46.1132184797074 60.1975444933037,46.1132184797074 60.1961970203776,46.1145659526336</coordinates></LinearRing></innerBoundaryIs><innerBoundaryIs><LinearRing><coordinates>60.1503829408875,46.1091760609289 60.1517304138136,46.110523533855 60.1490354679613,46.110523533855 60.1503829408875,46.1091760609289</coordinates></LinearRing></innerBoundaryIs><innerBoundaryIs><LinearRing><coordinates>60.1382556845518,46.1078285880027 60.1369082116257,46.1091760609289 60.1369082116257,46.1064811150765 60.1382556845518,46.1078285880027</coordinates></LinearRing></innerBoundaryIs><innerBoundaryIs><LinearRing><coordinates>60.2042818579346,46.1010912233718 60.2029343850084,46.0997437504456 60.2056293308608,46.0997437504456 60.2042818579346,46.1010912233718</coordinates></LinearRing></innerBoundaryIs><innerBoundaryIs><LinearRing><coordinates>60.1294971105317,46.1186083714121 60.1288233740686,46.1199558443383 60.1274759011424,46.1186083714121 60.1294971105317,46.1186083714121</coordinates></LinearRing></innerBoundaryIs></Polygon><Polygon><outerBoundaryIs><LinearRing><coordinates>60.1522313098383,46.1343547580755 60.1503829408875,46.1334305736001 60.149458756412,46.1343547580755 60.1522313098383,46.1343547580755</coordinates></LinearRing></outerBoundaryIs></Polygon><Polygon><outerBoundaryIs><LinearRing><coordinates>60.1611627242969,46.1334305736001 60.1584677784445,46.1334305736001 60.1575435939691,46.1343547580755 60.1647818546247,46.1343547580755 60.1638576701492,46.1334305736001 60.1611627242969,46.1334305736001</coordinates></LinearRing></outerBoundaryIs></Polygon><Polygon><outerBoundaryIs><LinearRing><coordinates>60.1881121828205,46.1343547580755 60.1881121828205,46.1334305736001 60.1827222911158,46.1334305736001 60.1817981066403,46.1343547580755 60.1881121828205,46.1343547580755</coordinates></LinearRing></outerBoundaryIs></Polygon><Polygon><outerBoundaryIs><LinearRing><coordinates>60.1944262590006,46.1343547580755 60.1935020745252,46.1334305736001 60.1916537055744,46.1343547580755 60.1944262590006,46.1343547580755</coordinates></LinearRing></outerBoundaryIs></Polygon><Polygon><outerBoundaryIs><LinearRing><coordinates>60.2164091142702,46.035065049989 60.2152252944144,46.0343547580755 60.2076139847997,46.0343547580755 60.2096717496393,46.0364125229152 60.2164091142702,46.035065049989</coordinates></LinearRing></outerBoundaryIs></Polygon><Polygon><outerBoundaryIs><LinearRing><coordinates>60.2171194061837,46.0343547580755 60.2164091142702,46.035065049989 60.2150616413441,46.0364125229152 60.2096717496393,46.0364125229152 60.20555621996,46.0343547580755 60.2039632674283,46.0343547580755 60.2015869120823,46.0391074687675 60.1988919662299,46.0364125229152 60.1935020745252,46.0391074687675 60.1908071286728,46.0364125229152 60.1827222911158,46.0444973604723 60.1786798723372,46.0431498875461 60.177332399411,46.0391074687675 60.1719425077063,46.0391074687675 60.1705950347801,46.0485397792508 60.1719425077063,46.049887252177 60.1746374535587,46.0471923063246 60.1800273452634,46.0471923063246 60.1854172369681,46.049887252177 60.1881121828205,46.0471923063246 60.1908071286728,46.049887252177 60.1935020745252,46.0471923063246 60.1988919662299,46.0471923063246 60.206976803787,46.0525821980293 60.2096717496393,46.049887252177 60.2096717496393,46.0606670355864 60.2150616413441,46.0525821980293 60.2244939518273,46.0512347251031 60.2244939518273,46.0485397792508 60.2244939518273,46.0458448333984 60.2263910613787,46.0439477238471 60.2263910613787,46.0423520512451 60.2263910613787,46.0373425362592 60.221799005975,46.0377599958414 60.2183937682091,46.0343547580755 60.2171194061837,46.0343547580755</coordinates></LinearRing></outerBoundaryIs><innerBoundaryIs><LinearRing><coordinates>60.2056293308608,46.0404549416937 60.2096717496393,46.0391074687675 60.2137141684179,46.0458448333984 60.2123666954917,46.0471923063246 60.2096717496393,46.0444973604723 60.2042818579346,46.0471923063246 60.2029343850084,46.0458448333984 60.2083242767132,46.0431498875461 60.2056293308608,46.0404549416937</coordinates></LinearRing></innerBoundaryIs></Polygon><Polygon><outerBoundaryIs><LinearRing><coordinates>60.2258414247535,46.0525821980293 60.2263910613787,46.0527935967313 60.2263910613787,46.044745560148 60.2244939518273,46.0485397792508 60.2258414247535,46.0525821980293</coordinates></LinearRing></outerBoundaryIs></Polygon><Polygon><outerBoundaryIs><LinearRing><coordinates>60.2123666954917,46.0606670355864 60.2096717496393,46.0633619814388 60.2042818579346,46.0633619814388 60.2002394391561,46.0674044002173 60.206976803787,46.0687518731435 60.2123666954917,46.0660569272911 60.2150616413441,46.0687518731435 60.2177565871964,46.0660569272911 60.2263910613787,46.0660569272911 60.2263910613787,46.0532973011051 60.2244939518273,46.0539296709555 60.2240447941853,46.0561754591658 60.2204515330488,46.0525821980293 60.2150616413441,46.0525821980293 60.2110192225655,46.0593195626602 60.2231464789011,46.0579720897341 60.2238202153642,46.057298353271 60.2231464789011,46.0606670355864 60.2177565871964,46.0633619814388 60.2123666954917,46.0606670355864</coordinates></LinearRing></outerBoundaryIs></Polygon><Polygon><outerBoundaryIs><LinearRing><coordinates>60.2204515330488,46.0795316565529 60.2204515330488,46.0768367107006 60.2123666954917,46.0768367107006 60.2110192225655,46.0781841836267 60.2204515330488,46.0795316565529</coordinates></LinearRing></outerBoundaryIs></Polygon><Polygon><outerBoundaryIs><LinearRing><coordinates>60.2263910613787,46.0950098666557 60.2263910613787,46.0930063858147 60.2231464789011,46.0930063858147 60.221799005975,46.0943538587409 60.2263910613787,46.0950098666557</coordinates></LinearRing></outerBoundaryIs></Polygon><Polygon><outerBoundaryIs><LinearRing><coordinates>60.221799005975,46.1159134255598 60.2177565871964,46.1118710067812 60.2137141684179,46.1132184797074 60.2204515330488,46.1172608984859 60.221799005975,46.1159134255598</coordinates></LinearRing></outerBoundaryIs></Polygon><Polygon><outerBoundaryIs><LinearRing><coordinates>60.2177565871964,46.1226507901907 60.2263910613787,46.1226507901907 60.2263910613787,46.1194062077131 60.2258414247535,46.1199558443383 60.2150616413441,46.1199558443383 60.2123666954917,46.1145659526336 60.2029343850084,46.1213033172645 60.2150616413441,46.125345736043 60.2177565871964,46.1226507901907</coordinates></LinearRing></outerBoundaryIs></Polygon><Polygon><outerBoundaryIs><LinearRing><coordinates>60.2042818579346,46.1334305736001 60.2033576734592,46.1343547580755 60.2263910613787,46.1343547580755 60.2263910613787,46.1274910452702 60.2258414247535,46.1280406818954 60.2204515330488,46.1280406818954 60.2186549024805,46.1316339430319 60.2150616413441,46.1280406818954 60.2137141684179,46.1320831006739 60.2177565871964,46.1334305736001 60.2042818579346,46.1334305736001</coordinates></LinearRing></outerBoundaryIs></Polygon><Polygon><outerBoundaryIs><LinearRing><coordinates>60.1966591126153,46.1343547580755 60.1961970203776,46.1334305736001 60.1956425096923,46.1343547580755 60.1966591126153,46.1343547580755</coordinates></LinearRing></outerBoundaryIs></Polygon></MultiGeometry>
  </Placemark>
</Folder>
</Document></kml>
