<?xml version="1.0" encoding="utf-8" ?>
<kml xmlns="http://www.opengis.net/kml/2.2">
<Document id="root_doc">
<Schema name="task_grid_v6_45.81_61.26" id="task_grid_v6_45.81_61.26">
	<SimpleField name="area_ha" type="float"></SimpleField>
	<SimpleField name="low_risk_ha" type="float"></SimpleField>
	<SimpleField name="moderate_risk_ha" type="float"></SimpleField>
	<SimpleField name="grid_cell_deg" type="string"></SimpleField>
</Schema>
<Folder><name>task_grid_v6_45.81_61.26</name>
  <Placemark id="task_grid_v6_45.81_61.26.1">
	<name>task_grid_v6_45.81_61.26</name>
	<name>128.6</name>
	<description>846.6</description>
	<Style><LineStyle><color>ff0000ff</color></LineStyle><PolyStyle><fill>0</fill></PolyStyle></Style>
	<ExtendedData><SchemaData schemaUrl="#task_grid_v6_45.81_61.26">
		<SimpleData name="area_ha">718</SimpleData>
		<SimpleData name="low_risk_ha">0.1</SimpleData>
	</SchemaData></ExtendedData>
      <MultiGeometry><Polygon><outerBoundaryIs><LinearRing><coordinates>61.2148865525691,45.839681475693 61.2175814984214,45.8423764215454 61.2216239172,45.8383340027668 61.2175814984214,45.8315966381359 61.2148865525691,45.8342915839883 61.2121916067167,45.8315966381359 61.2102213862645,45.8319906822264 61.2102213862645,45.8420140588453 61.2148865525691,45.839681475693</coordinates></LinearRing></outerBoundaryIs></Polygon><Polygon><outerBoundaryIs><LinearRing><coordinates>61.2102213862645,45.8514463693285 61.2121916067167,45.8504612591024 61.2162340254953,45.8464188403239 61.2148865525691,45.8450713673977 61.2189289713476,45.8437238944715 61.2102213862645,45.8427563850179 61.2102213862645,45.8466264228326 61.2102213862645,45.8514463693285</coordinates></LinearRing></outerBoundaryIs></Polygon><Polygon><outerBoundaryIs><LinearRing><coordinates>61.2297087547571,45.8464188403239 61.2283612818309,45.8423764215454 61.2243188630523,45.8437238944715 61.2229713901262,45.8504612591024 61.2202764442738,45.8477663132501 61.2189289713476,45.8491137861763 61.2198272866317,45.8518087320286 61.2175814984214,45.8504612591024 61.2162340254953,45.854503677881 61.2216239172,45.8571986237333 61.2162583957955,45.8625641451378 61.2296925078902,45.8625641451378 61.2277487941372,45.8596485745082 61.2318305930186,45.8625641451378 61.2340941343422,45.8625641451378 61.236446119388,45.8531562049548 61.2391410652403,45.8558511508072 61.244530956945,45.8558511508072 61.2485733757236,45.8518087320286 61.2472259027974,45.8477663132501 61.2485733757236,45.8464188403239 61.2458784298712,45.8437238944715 61.2485733757236,45.8437238944715 61.2512683215759,45.8356390569145 61.2499208486498,45.8342915839883 61.2418360110927,45.839681475693 61.2391410652403,45.8315966381359 61.2324037006094,45.8383340027668 61.2350986464618,45.8410289486192 61.2320668323779,45.8481031814816 61.2310562276832,45.8450713673977 61.2297087547571,45.8464188403239</coordinates></LinearRing></outerBoundaryIs><innerBoundaryIs><LinearRing><coordinates>61.2315053853253,45.8494132246043 61.2310562276832,45.8504612591024 61.2297087547571,45.8500121014604 61.2315053853253,45.8494132246043</coordinates></LinearRing></innerBoundaryIs><innerBoundaryIs><LinearRing><coordinates>61.2220730748421,45.8531562049548 61.2283612818309,45.8531562049548 61.2310562276832,45.8558511508072 61.2310562276832,45.8585460966595 61.2283612818309,45.8558511508072 61.2257888335173,45.8567086335784 61.2243188630523,45.854503677881 61.2220730748421,45.8531562049548</coordinates></LinearRing></innerBoundaryIs><innerBoundaryIs><LinearRing><coordinates>61.244530956945,45.8504612591024 61.2431834840189,45.8491137861763 61.2431834840189,45.8437238944715 61.244530956945,45.8504612591024</coordinates></LinearRing></innerBoundaryIs><innerBoundaryIs><LinearRing><coordinates>61.2377935923141,45.8491137861763 61.236446119388,45.8504612591024 61.2350986464618,45.8491137861763 61.2377935923141,45.8491137861763</coordinates></LinearRing></innerBoundaryIs></Polygon><Polygon><outerBoundaryIs><LinearRing><coordinates>61.2175814984214,45.8558511508072 61.2135390796429,45.8598935695857 61.2175814984214,45.8612410425119 61.2216239172,45.8571986237333 61.2175814984214,45.8558511508072</coordinates></LinearRing></outerBoundaryIs></Polygon><Polygon><outerBoundaryIs><LinearRing><coordinates>61.2337511735356,45.8154269630218 61.2350986464618,45.8140794900956 61.2337511735356,45.8100370713171 61.2297087547571,45.8113845442432 61.2337511735356,45.8154269630218</coordinates></LinearRing></outerBoundaryIs></Polygon><Polygon><outerBoundaryIs><LinearRing><coordinates>61.2418360110927,45.8154269630218 61.2350986464618,45.816774435948 61.2350986464618,45.824859273505 61.2431834840189,45.8275542193574 61.244530956945,45.8342915839883 61.2499208486498,45.8315966381359 61.2607006320592,45.8342915839883 61.2620481049854,45.8275542193574 61.2539632674283,45.8221643276527 61.259353159133,45.816774435948 61.2485733757236,45.816774435948 61.2512683215759,45.8194693818003 61.2485733757236,45.824859273505 61.2512683215759,45.8275542193574 61.2499208486498,45.8289016922836 61.2418360110927,45.8154269630218</coordinates></LinearRing></outerBoundaryIs></Polygon><Polygon><outerBoundaryIs><LinearRing><coordinates>61.259353159133,45.824859273505 61.2620481049854,45.8275542193574 61.2633955779115,45.8289016922836 61.2647430508377,45.8275542193574 61.2633955779115,45.8235118005789 61.259353159133,45.824859273505</coordinates></LinearRing></outerBoundaryIs></Polygon></MultiGeometry>
  </Placemark>
</Folder>
</Document></kml>
