<?xml version="1.0" encoding="utf-8" ?>
<kml xmlns="http://www.opengis.net/kml/2.2">
<Document id="root_doc">
<Schema name="task_grid_v6_46.48_59.88" id="task_grid_v6_46.48_59.88">
	<SimpleField name="area_ha" type="float"></SimpleField>
	<SimpleField name="low_risk_ha" type="float"></SimpleField>
	<SimpleField name="moderate_risk_ha" type="float"></SimpleField>
	<SimpleField name="grid_cell_deg" type="string"></SimpleField>
</Schema>
<Folder><name>task_grid_v6_46.48_59.88</name>
  <Placemark id="task_grid_v6_46.48_59.88.1">
	<name>task_grid_v6_46.48_59.88</name>
	<name>469.1</name>
	<description>546.6</description>
	<Style><LineStyle><color>ff0000ff</color></LineStyle><PolyStyle><fill>0</fill></PolyStyle></Style>
	<ExtendedData><SchemaData schemaUrl="#task_grid_v6_46.48_59.88">
		<SimpleData name="area_ha">77.5</SimpleData>
		<SimpleData name="low_risk_ha">0.1</SimpleData>
	</SchemaData></ExtendedData>
      <MultiGeometry><Polygon><outerBoundaryIs><LinearRing><coordinates>59.8337268032353,46.4581715488093 59.8377692220139,46.4622139675878 59.8431591137186,46.4622139675878 59.8512439512757,46.4568240758831 59.8674136263898,46.4541291300308 59.868761099316,46.4527816571046 59.8660661534636,46.4500867112522 59.868761099316,46.4446968195475 59.8647186805375,46.440654400769 59.8579813159065,46.4420018736951 59.8566338429804,46.4514341841784 59.8512439512757,46.4541291300308 59.8377692220139,46.4541291300308 59.8337268032353,46.4581715488093</coordinates></LinearRing></outerBoundaryIs></Polygon><Polygon><outerBoundaryIs><LinearRing><coordinates>59.8795408827254,46.4743412239234 59.883583301504,46.4837735344067 59.8876257202825,46.4770361697758 59.883583301504,46.4729937509973 59.8795408827254,46.4743412239234</coordinates></LinearRing></outerBoundaryIs></Polygon><Polygon><outerBoundaryIs><LinearRing><coordinates>59.8997529766181,46.4945533178161 59.8957105578396,46.501290682447 59.9105327600275,46.5026381553732 59.9145751788061,46.4985957365947 59.8997529766181,46.4945533178161</coordinates></LinearRing></outerBoundaryIs></Polygon><Polygon><outerBoundaryIs><LinearRing><coordinates>59.831031857383,46.501290682447 59.8350742761615,46.5026381553732 59.8364217490877,46.501290682447 59.8323793303091,46.4972482636685 59.831031857383,46.501290682447</coordinates></LinearRing></outerBoundaryIs></Polygon><Polygon><outerBoundaryIs><LinearRing><coordinates>59.8795408827254,46.5066805741518 59.8808883556516,46.5107229929303 59.8930156119872,46.5093755200041 59.8808883556516,46.5026381553732 59.8674136263898,46.5026381553732 59.8660661534636,46.5093755200041 59.8701085722422,46.5107229929303 59.8754984639469,46.5053331012256 59.8795408827254,46.5066805741518</coordinates></LinearRing></outerBoundaryIs></Polygon><Polygon><outerBoundaryIs><LinearRing><coordinates>59.831031857383,46.5093755200041 59.8263910613787,46.5065910424015 59.8263910613787,46.5140163160084 59.831031857383,46.5093755200041</coordinates></LinearRing></outerBoundaryIs></Polygon><Polygon><outerBoundaryIs><LinearRing><coordinates>59.8458540595709,46.5080280470779 59.8445065866448,46.5093755200041 59.8485490054233,46.5134179387826 59.8525914242018,46.5093755200041 59.8458540595709,46.5080280470779</coordinates></LinearRing></outerBoundaryIs></Polygon><Polygon><outerBoundaryIs><LinearRing><coordinates>59.9118802329537,46.5147654117088 59.9159226517323,46.5188078304874 59.9226600163632,46.5120704658565 59.9186175975846,46.5107229929303 59.9118802329537,46.5147654117088</coordinates></LinearRing></outerBoundaryIs></Polygon><Polygon><outerBoundaryIs><LinearRing><coordinates>59.8903206661349,46.5174603575612 59.9024479224705,46.5188078304874 59.9024479224705,46.516112884635 59.891668139061,46.516112884635 59.8903206661349,46.5174603575612</coordinates></LinearRing></outerBoundaryIs></Polygon></MultiGeometry>
  </Placemark>
</Folder>
</Document></kml>
