<?xml version="1.0" encoding="utf-8" ?>
<kml xmlns="http://www.opengis.net/kml/2.2">
<Document id="root_doc">
<Schema name="task_grid_v6_46.01_60.76" id="task_grid_v6_46.01_60.76">
	<SimpleField name="area_ha" type="float"></SimpleField>
	<SimpleField name="low_risk_ha" type="float"></SimpleField>
	<SimpleField name="moderate_risk_ha" type="float"></SimpleField>
	<SimpleField name="grid_cell_deg" type="string"></SimpleField>
</Schema>
<Folder><name>task_grid_v6_46.01_60.76</name>
  <Placemark id="task_grid_v6_46.01_60.76.1">
	<name>task_grid_v6_46.01_60.76</name>
	<name>81.2</name>
	<description>692.2</description>
	<Style><LineStyle><color>ff0000ff</color></LineStyle><PolyStyle><fill>0</fill></PolyStyle></Style>
	<ExtendedData><SchemaData schemaUrl="#task_grid_v6_46.01_60.76">
		<SimpleData name="area_ha">611</SimpleData>
		<SimpleData name="low_risk_ha">0.1</SimpleData>
	</SchemaData></ExtendedData>
      <MultiGeometry><Polygon><outerBoundaryIs><LinearRing><coordinates>60.778305324487,46.0391074687675 60.7756103786346,46.0337175770628 60.7715679598561,46.0404549416937 60.778305324487,46.0444973604723 60.7823477432655,46.0404549416937 60.778305324487,46.0391074687675</coordinates></LinearRing></outerBoundaryIs></Polygon><Polygon><outerBoundaryIs><LinearRing><coordinates>60.7324912449969,46.0364125229152 60.7271013532922,46.0310226312105 60.7244064074398,46.0337175770628 60.7190165157351,46.0310226312105 60.7163215698828,46.0418024146199 60.710931678178,46.0364125229152 60.7102213862645,46.0364125229152 60.7102213862645,46.0421210051262 60.7122791511042,46.0431498875461 60.7102213862645,46.0472654172254 60.7102213862645,46.0496017476053 60.7136266240304,46.0552771438817 60.7163215698828,46.0552771438817 60.7190165157351,46.049887252177 60.7217114615875,46.0525821980293 60.7230589345137,46.0485397792508 60.7241818286188,46.0478660427877 60.7230589345137,46.0512347251031 60.7297962991445,46.0525821980293 60.7338387179231,46.0485397792508 60.7330302341674,46.0461143279837 60.7351861908493,46.0471923063246 60.7365336637754,46.0458448333984 60.7486609201111,46.0525821980293 60.7500083930372,46.0512347251031 60.7459659742587,46.0471923063246 60.7513558659634,46.0444973604723 60.7540508118158,46.0391074687675 60.7607881764467,46.0377599958414 60.763483122299,46.0323701041366 60.7621356493729,46.0310226312105 60.7540508118158,46.0364125229152 60.7432710284063,46.0364125229152 60.740576082554,46.0337175770628 60.7351861908493,46.0337175770628 60.7324912449969,46.0364125229152</coordinates></LinearRing></outerBoundaryIs><innerBoundaryIs><LinearRing><coordinates>60.7378811367016,46.0444973604723 60.7432710284063,46.0444973604723 60.7365336637754,46.0458448333984 60.7378811367016,46.0444973604723</coordinates></LinearRing></innerBoundaryIs><innerBoundaryIs><LinearRing><coordinates>60.7297962991445,46.0444973604723 60.7308742774855,46.0450363496427 60.7264276168291,46.0465185698615 60.7297962991445,46.0444973604723</coordinates></LinearRing></innerBoundaryIs></Polygon><Polygon><outerBoundaryIs><LinearRing><coordinates>60.7648305952252,46.0418024146199 60.763483122299,46.0431498875461 60.7702204869299,46.0444973604723 60.7702204869299,46.0418024146199 60.7648305952252,46.0418024146199</coordinates></LinearRing></outerBoundaryIs></Polygon><Polygon><outerBoundaryIs><LinearRing><coordinates>60.7527033388896,46.0458448333984 60.7540508118158,46.049887252177 60.7580932305943,46.0485397792508 60.7567457576681,46.0444973604723 60.7527033388896,46.0458448333984</coordinates></LinearRing></outerBoundaryIs></Polygon><Polygon><outerBoundaryIs><LinearRing><coordinates>60.7473134471849,46.0566246168079 60.7486609201111,46.0606670355864 60.7527033388896,46.0539296709555 60.7513558659634,46.049887252177 60.7486609201111,46.0525821980293 60.7432710284063,46.049887252177 60.7419235554802,46.0512347251031 60.7419235554802,46.0539296709555 60.7473134471849,46.0566246168079</coordinates></LinearRing></outerBoundaryIs></Polygon></MultiGeometry>
  </Placemark>
</Folder>
</Document></kml>
