<?xml version="1.0" encoding="utf-8" ?>
<kml xmlns="http://www.opengis.net/kml/2.2">
<Document id="root_doc">
<Schema name="task_grid_v6_45.71_59.76" id="task_grid_v6_45.71_59.76">
	<SimpleField name="area_ha" type="float"></SimpleField>
	<SimpleField name="low_risk_ha" type="float"></SimpleField>
	<SimpleField name="moderate_risk_ha" type="float"></SimpleField>
	<SimpleField name="grid_cell_deg" type="string"></SimpleField>
</Schema>
<Folder><name>task_grid_v6_45.71_59.76</name>
  <Placemark id="task_grid_v6_45.71_59.76.1">
	<name>task_grid_v6_45.71_59.76</name>
	<name>764.5</name>
	<description>1510.5</description>
	<Style><LineStyle><color>ff0000ff</color></LineStyle><PolyStyle><fill>0</fill></PolyStyle></Style>
	<ExtendedData><SchemaData schemaUrl="#task_grid_v6_45.71_59.76">
		<SimpleData name="area_ha">746</SimpleData>
		<SimpleData name="low_risk_ha">0.1</SimpleData>
	</SchemaData></ExtendedData>
      <MultiGeometry><Polygon><outerBoundaryIs><LinearRing><coordinates>59.7385869118817,45.6625641451378 59.7361103753247,45.6625641451378 59.7380562254766,45.6645099952897 59.7385869118817,45.6625641451378</coordinates></LinearRing></outerBoundaryIs></Polygon><Polygon><outerBoundaryIs><LinearRing><coordinates>59.740751171329,45.6725948328468 59.7420986442551,45.6712473599206 59.7358963479817,45.6625641451378 59.7352114604841,45.6625641451378 59.7340138066981,45.6685524140682 59.740751171329,45.6725948328468</coordinates></LinearRing></outerBoundaryIs></Polygon><Polygon><outerBoundaryIs><LinearRing><coordinates>59.7340138066981,45.6793321974777 59.7380562254766,45.6860695621086 59.7434461171813,45.6860695621086 59.7461410630337,45.6887645079609 59.7501834818122,45.6847220891824 59.740751171329,45.6779847245515 59.7340138066981,45.6793321974777</coordinates></LinearRing></outerBoundaryIs></Polygon><Polygon><outerBoundaryIs><LinearRing><coordinates>59.7394036984028,45.7089766018536 59.7353612796242,45.7049341830751 59.7299713879195,45.7049341830751 59.7272764420672,45.7022392372227 59.7245814962148,45.7049341830751 59.7191916045101,45.7022392372227 59.7178441315839,45.7035867101489 59.7205390774363,45.7062816560013 59.7178441315839,45.7089766018536 59.7394036984028,45.7089766018536</coordinates></LinearRing></outerBoundaryIs></Polygon><Polygon><outerBoundaryIs><LinearRing><coordinates>59.7156544880789,45.721272292305 59.7164966586577,45.7237988040416 59.7173949739418,45.7243976808977 59.7151491857315,45.7251462769678 59.7138017128054,45.7237988040416 59.7102213862645,45.7249922462219 59.7102213862645,45.7260704614432 59.7124542398792,45.7305361686725 59.7102213862645,45.7316525954798 59.7102213862645,45.7357720296313 59.7178441315839,45.7332311145248 59.7178441315839,45.7314344839566 59.7191916045101,45.734578587451 59.7218865503624,45.7318836415987 59.7299713879195,45.7372735333034 59.7313188608457,45.7359260603772 59.7326663337719,45.7399684791557 59.7394036984028,45.7332311145248 59.7382059446906,45.7314344839566 59.7390187061382,45.728996199614 59.740751171329,45.7318836415987 59.7420986442551,45.7305361686725 59.740751171329,45.7237988040416 59.7367087525504,45.7251462769678 59.7353612796242,45.7237988040416 59.7367087525504,45.7224513311154 59.7380562254766,45.7237988040416 59.7420986442551,45.7224513311154 59.740751171329,45.7184089123369 59.7434461171813,45.7237988040416 59.7528784276646,45.719756385263 59.7501834818122,45.7170614394107 59.7528784276646,45.711671547706 59.7501834818122,45.7089766018536 59.7501834818122,45.7035867101489 59.7367087525504,45.7035867101489 59.7447935901075,45.7062816560013 59.7417617760236,45.7133558888637 59.740751171329,45.7103240747798 59.7191916045101,45.7103240747798 59.7164966586577,45.7076291289274 59.7124542398792,45.711671547706 59.7102213862645,45.7109272631678 59.7102213862645,45.7139044013206 59.7102213862645,45.7249152308489 59.7151491857315,45.7224513311154 59.7156544880789,45.721272292305</coordinates></LinearRing></outerBoundaryIs><innerBoundaryIs><LinearRing><coordinates>59.7346126835541,45.7260445922519 59.7340138066981,45.7251462769678 59.7353612796242,45.7237988040416 59.7346126835541,45.7260445922519</coordinates></LinearRing></innerBoundaryIs><innerBoundaryIs><LinearRing><coordinates>59.731511356978,45.7145589896906 59.7191916045101,45.7130190206322 59.7299713879195,45.7130190206322 59.731511356978,45.7145589896906</coordinates></LinearRing></innerBoundaryIs><innerBoundaryIs><LinearRing><coordinates>59.740751171329,45.7157139664845 59.7364392579652,45.715174977314 59.7412784433435,45.7144836651171 59.740751171329,45.7157139664845</coordinates></LinearRing></innerBoundaryIs><innerBoundaryIs><LinearRing><coordinates>59.725928969141,45.719756385263 59.7232340232886,45.7224513311154 59.7205390774363,45.719756385263 59.725928969141,45.719756385263</coordinates></LinearRing></innerBoundaryIs><innerBoundaryIs><LinearRing><coordinates>59.7286239149933,45.7305361686725 59.7274261612812,45.719756385263 59.7286239149933,45.719756385263 59.7286239149933,45.7305361686725</coordinates></LinearRing></innerBoundaryIs><innerBoundaryIs><LinearRing><coordinates>59.7447935901075,45.7143664935583 59.7461410630337,45.7130190206322 59.7474885359599,45.7170614394107 59.7461410630337,45.7184089123369 59.7447935901075,45.7143664935583</coordinates></LinearRing></innerBoundaryIs></Polygon><Polygon><outerBoundaryIs><LinearRing><coordinates>59.7102213862645,45.7418878970807 59.7178441315839,45.7386210062296 59.7102213862645,45.7360800911231 59.7102213862645,45.7418878970807</coordinates></LinearRing></outerBoundaryIs></Polygon><Polygon><outerBoundaryIs><LinearRing><coordinates>59.7232340232886,45.7413159520819 59.7124542398792,45.7413159520819 59.7164966586577,45.7480533167128 59.7232340232886,45.7413159520819</coordinates></LinearRing></outerBoundaryIs></Polygon><Polygon><outerBoundaryIs><LinearRing><coordinates>59.7542259005907,45.6645099952897 59.7555733735169,45.6631625223635 59.7552143471815,45.6625641451378 59.7503031572574,45.6625641451378 59.7501834818122,45.6631625223635 59.7542259005907,45.6645099952897</coordinates></LinearRing></outerBoundaryIs></Polygon><Polygon><outerBoundaryIs><LinearRing><coordinates>59.7555733735169,45.6847220891824 59.7515309547384,45.6779847245515 59.7474885359599,45.68202714333 59.7542259005907,45.6860695621086 59.7555733735169,45.6847220891824</coordinates></LinearRing></outerBoundaryIs></Polygon><Polygon><outerBoundaryIs><LinearRing><coordinates>59.7744379944834,45.6928069267395 59.7744379944834,45.6766372516253 59.7677006298525,45.6752897786991 59.763658211074,45.68202714333 59.7650056840002,45.6860695621086 59.7677006298525,45.6833746162562 59.7717430486311,45.6847220891824 59.7730905215573,45.6941543996656 59.7744379944834,45.6928069267395</coordinates></LinearRing></outerBoundaryIs><innerBoundaryIs><LinearRing><coordinates>59.7703955757049,45.6806796704038 59.7690481027787,45.6793321974777 59.7717430486311,45.6793321974777 59.7703955757049,45.6806796704038</coordinates></LinearRing></innerBoundaryIs></Polygon><Polygon><outerBoundaryIs><LinearRing><coordinates>59.7650056840002,45.696849345518 59.7677006298525,45.696849345518 59.7690481027787,45.6928069267395 59.7623107381478,45.6860695621086 59.7609632652216,45.6901119808871 59.7650056840002,45.696849345518</coordinates></LinearRing></outerBoundaryIs></Polygon><Polygon><outerBoundaryIs><LinearRing><coordinates>59.8102213862645,45.6941543996656 59.8102213862645,45.6893403895249 59.8027349259332,45.6887645079609 59.8000399800808,45.6914594538133 59.7757854674096,45.6941543996656 59.7717430486311,45.7008917642965 59.7811753591143,45.7022392372227 59.7946500883761,45.6941543996656 59.8102213862645,45.6941543996656</coordinates></LinearRing></outerBoundaryIs></Polygon><Polygon><outerBoundaryIs><LinearRing><coordinates>59.8102213862645,45.6994588089095 59.8102213862645,45.696849345518 59.8027349259332,45.696849345518 59.801387453007,45.6981968184442 59.8102213862645,45.6994588089095</coordinates></LinearRing></outerBoundaryIs></Polygon><Polygon><outerBoundaryIs><LinearRing><coordinates>59.7596157922955,45.6941543996656 59.7569208464431,45.696849345518 59.7542259005907,45.6941543996656 59.7528784276646,45.6955018725918 59.7569208464431,45.7022392372227 59.763658211074,45.6981968184442 59.7596157922955,45.6941543996656</coordinates></LinearRing></outerBoundaryIs></Polygon><Polygon><outerBoundaryIs><LinearRing><coordinates>59.7946500883761,45.7022392372227 59.7946500883761,45.6995442913704 59.7892601966714,45.6995442913704 59.7879127237452,45.7008917642965 59.7946500883761,45.7022392372227</coordinates></LinearRing></outerBoundaryIs></Polygon><Polygon><outerBoundaryIs><LinearRing><coordinates>59.7690481027787,45.7035867101489 59.7650056840002,45.6995442913704 59.7609632652216,45.7008917642965 59.7677006298525,45.7049341830751 59.7690481027787,45.7035867101489</coordinates></LinearRing></outerBoundaryIs></Polygon><Polygon><outerBoundaryIs><LinearRing><coordinates>59.8102213862645,45.7317550967165 59.8067773447117,45.7332311145248 59.8102213862645,45.733723120461 59.8102213862645,45.7317550967165</coordinates></LinearRing></outerBoundaryIs></Polygon><Polygon><outerBoundaryIs><LinearRing><coordinates>59.8081248176379,45.734578587451 59.8067773447117,45.7332311145248 59.8054298717856,45.7318836415987 59.8040823988594,45.7386210062296 59.8027349259332,45.7291886957463 59.7986925071547,45.7332311145248 59.7986925071547,45.7386210062296 59.8054298717856,45.7426634250081 59.8067773447117,45.7413159520819 59.8102213862645,45.7447599936347 59.8102213862645,45.734578587451 59.8081248176379,45.734578587451</coordinates></LinearRing></outerBoundaryIs></Polygon><Polygon><outerBoundaryIs><LinearRing><coordinates>59.8084701840256,45.7625641451378 59.8081248176379,45.7615280459746 59.8050165201484,45.7625641451378 59.8084701840256,45.7625641451378</coordinates></LinearRing></outerBoundaryIs></Polygon></MultiGeometry>
  </Placemark>
</Folder>
</Document></kml>
