<?xml version="1.0" encoding="utf-8" ?>
<kml xmlns="http://www.opengis.net/kml/2.2">
<Document id="root_doc">
<Schema name="task_grid_v6_46.38_59.88" id="task_grid_v6_46.38_59.88">
	<SimpleField name="area_ha" type="float"></SimpleField>
	<SimpleField name="low_risk_ha" type="float"></SimpleField>
	<SimpleField name="moderate_risk_ha" type="float"></SimpleField>
	<SimpleField name="grid_cell_deg" type="string"></SimpleField>
</Schema>
<Folder><name>task_grid_v6_46.38_59.88</name>
  <Placemark id="task_grid_v6_46.38_59.88.1">
	<name>task_grid_v6_46.38_59.88</name>
	<name>116.5</name>
	<description>116.5</description>
	<Style><LineStyle><color>ff0000ff</color></LineStyle><PolyStyle><fill>0</fill></PolyStyle></Style>
	<ExtendedData><SchemaData schemaUrl="#task_grid_v6_46.38_59.88">
		<SimpleData name="area_ha">0</SimpleData>
		<SimpleData name="low_risk_ha">0.1</SimpleData>
	</SchemaData></ExtendedData>
      <Polygon><outerBoundaryIs><LinearRing><coordinates>59.8876257202825,46.4096625234668 59.8943630849134,46.411009996393 59.9051428683228,46.4002302129836 59.9186175975846,46.4002302129836 59.9186175975846,46.3975352671312 59.8997529766181,46.3975352671312 59.8876257202825,46.4096625234668</coordinates></LinearRing></outerBoundaryIs></Polygon>
  </Placemark>
</Folder>
</Document></kml>
