<?xml version="1.0" encoding="utf-8" ?>
<kml xmlns="http://www.opengis.net/kml/2.2">
<Document id="root_doc">
<Schema name="task_grid_v6_45.41_58.96" id="task_grid_v6_45.41_58.96">
	<SimpleField name="area_ha" type="float"></SimpleField>
	<SimpleField name="low_risk_ha" type="float"></SimpleField>
	<SimpleField name="moderate_risk_ha" type="float"></SimpleField>
	<SimpleField name="grid_cell_deg" type="string"></SimpleField>
</Schema>
<Folder><name>task_grid_v6_45.41_58.96</name>
  <Placemark id="task_grid_v6_45.41_58.96.1">
	<name>task_grid_v6_45.41_58.96</name>
	<name>0</name>
	<description>2753.5</description>
	<Style><LineStyle><color>ff0000ff</color></LineStyle><PolyStyle><fill>0</fill></PolyStyle></Style>
	<ExtendedData><SchemaData schemaUrl="#task_grid_v6_45.41_58.96">
		<SimpleData name="area_ha">2753.5</SimpleData>
		<SimpleData name="low_risk_ha">0.1</SimpleData>
	</SchemaData></ExtendedData>
      <MultiGeometry><Polygon><outerBoundaryIs><LinearRing><coordinates>58.9470896178094,45.4098376122418 58.9511320365879,45.4138800310204 58.9524795095141,45.4125325580942 58.9511320365879,45.4084901393156 58.9470896178094,45.4098376122418</coordinates></LinearRing></outerBoundaryIs></Polygon><Polygon><outerBoundaryIs><LinearRing><coordinates>58.9349623614737,45.4192699227251 58.9363098343999,45.4179224497989 58.9322674156214,45.4138800310204 58.9282249968428,45.4179224497989 58.9349623614737,45.4192699227251</coordinates></LinearRing></outerBoundaryIs></Polygon><Polygon><outerBoundaryIs><LinearRing><coordinates>58.9120553217287,45.4206173956512 58.9117067995575,45.420036525366 58.9102213862645,45.4208169460179 58.9102213862645,45.4231849053011 58.9120553217287,45.4206173956512</coordinates></LinearRing></outerBoundaryIs></Polygon><Polygon><outerBoundaryIs><LinearRing><coordinates>58.9147502675811,45.4233123415036 58.9160977405072,45.4273547602821 58.9201401592858,45.426007287356 58.9187926863596,45.4219648685774 58.9147502675811,45.4233123415036</coordinates></LinearRing></outerBoundaryIs></Polygon><Polygon><outerBoundaryIs><LinearRing><coordinates>58.9578694012188,45.4287022332083 58.9565219282926,45.4300497061345 58.9457421448832,45.4273547602821 58.9390047802523,45.4313971790607 58.9470896178094,45.434092124913 58.9416997261046,45.4394820166178 58.944394671957,45.4421769624701 58.9430471990308,45.4435244353963 58.9376573073261,45.4354395978392 58.9349623614737,45.4381345436916 58.9336148885476,45.4367870707654 58.9363098343999,45.434092124913 58.9349623614737,45.4327446519869 58.9282249968428,45.434092124913 58.9309199426952,45.4367870707654 58.9309199426952,45.4421769624701 58.9268775239167,45.4516092729534 58.9187926863596,45.4516092729534 58.9134027946549,45.448914327101 58.9107078488025,45.4435244353963 58.9102213862645,45.4444973604723 58.9102213862645,45.4625641451378 58.9132277058799,45.4625641451378 58.9160977405072,45.4596941105104 58.9160977405072,45.4625641451378 58.9503504471538,45.4625641451378 58.9484370907355,45.4596941105104 58.9430471990308,45.4596941105104 58.9403522531785,45.4569991646581 58.9376573073261,45.4596941105104 58.9336148885476,45.4556516917319 58.9363098343999,45.4529567458796 58.9309199426952,45.4475668541748 58.9322674156214,45.4462193812487 58.9416997261046,45.4475668541748 58.9390047802523,45.4529567458796 58.9403522531785,45.4543042188057 58.944394671957,45.4529567458796 58.9457421448832,45.448914327101 58.9538269824403,45.4543042188057 58.9565219282926,45.4516092729534 58.9578694012188,45.4529567458796 58.9524795095141,45.4610415834366 58.9540020712152,45.4625641451378 58.9638454849991,45.4625641451378 58.9659542387759,45.4583466375843 58.9659542387759,45.4421769624701 58.9605643470711,45.434092124913 58.9632592929235,45.4313971790607 58.9632592929235,45.426007287356 58.959216874145,45.4192699227251 58.9565219282926,45.4192699227251 58.9524795095141,45.426007287356 58.9578694012188,45.4287022332083</coordinates></LinearRing></outerBoundaryIs><innerBoundaryIs><LinearRing><coordinates>58.9497845636617,45.4421769624701 58.9524795095141,45.4367870707654 58.9565219282926,45.4354395978392 58.9578694012188,45.4367870707654 58.9538269824403,45.4435244353963 58.9497845636617,45.4421769624701</coordinates></LinearRing></innerBoundaryIs><innerBoundaryIs><LinearRing><coordinates>58.9214876322119,45.4596941105104 58.9201401592858,45.4556516917319 58.9214876322119,45.4543042188057 58.9228351051381,45.4583466375843 58.9214876322119,45.4596941105104</coordinates></LinearRing></innerBoundaryIs></Polygon><Polygon><outerBoundaryIs><LinearRing><coordinates>58.9174452134334,45.4394820166178 58.9214876322119,45.4462193812487 58.9241825780643,45.4462193812487 58.9255300509905,45.4421769624701 58.9214876322119,45.4381345436916 58.9174452134334,45.4394820166178</coordinates></LinearRing></outerBoundaryIs></Polygon><Polygon><outerBoundaryIs><LinearRing><coordinates>58.996946116078,45.3788457349397 59.0036834807089,45.3748033161612 59.0031241753869,45.3720067895513 58.9945906145511,45.3764902334128 58.996946116078,45.3788457349397</coordinates></LinearRing></outerBoundaryIs></Polygon><Polygon><outerBoundaryIs><LinearRing><coordinates>58.9696101231085,45.3896147230804 58.9699966575544,45.3923204642015 58.970833822568,45.3889718041471 58.9696101231085,45.3896147230804</coordinates></LinearRing></outerBoundaryIs></Polygon><Polygon><outerBoundaryIs><LinearRing><coordinates>59.0036834807089,45.3936679371277 59.0090733724136,45.3882780454229 59.0023360077827,45.3869305724968 58.9982935890042,45.3909729912753 58.9955986431518,45.39636288298 58.996946116078,45.4004053017586 59.0063784265612,45.39636288298 59.0036834807089,45.3936679371277</coordinates></LinearRing></outerBoundaryIs></Polygon><Polygon><outerBoundaryIs><LinearRing><coordinates>58.9646067658497,45.3950154100538 58.9619118199973,45.4004053017586 58.959216874145,45.3977103559062 58.9542013040497,45.3977103559062 58.9446394839694,45.4027340364505 58.944394671957,45.4044477205371 58.9390047802523,45.4071426663895 58.9390047802523,45.4125325580942 58.9403522531785,45.4138800310204 58.9484370907355,45.4057951934633 58.9511320365879,45.4057951934633 58.9538269824403,45.4004053017586 58.959216874145,45.4031002476109 58.967301711702,45.4031002476109 58.9713441304806,45.4098376122418 58.9686491846282,45.4125325580942 58.9740390763329,45.4152275039465 58.9713441304806,45.4179224497989 58.9740390763329,45.4233123415036 58.9713441304806,45.426007287356 58.9726916034068,45.4300497061345 58.9780814951115,45.4246598144298 58.9834713868162,45.4246598144298 58.9861663326686,45.4165749768727 58.9888612785209,45.4327446519869 58.9929036972995,45.4313971790607 58.9942511702256,45.4246598144298 58.996946116078,45.4300497061345 59.0077258994874,45.4273547602821 59.0102213862645,45.4298502470592 59.0102213862645,45.4134811128699 59.0077258994874,45.4084901393156 59.0102213862645,45.4084901393156 59.0102213862645,45.405595734388 59.0090733724136,45.4044477205371 59.0102213862645,45.4040650492535 59.0102213862645,45.3989508151609 58.9942511702256,45.4057951934633 58.9915562243733,45.4031002476109 58.9915562243733,45.4165749768727 58.9848188597424,45.4098376122418 58.9848188597424,45.4044477205371 58.9929036972995,45.3936679371277 58.9929036972995,45.3882780454229 58.9982935890042,45.3855830995706 58.9942511702256,45.3788457349397 58.9915562243733,45.381540680792 58.9902087514471,45.3801932078659 58.9929036972995,45.3774982620135 58.9928481604622,45.3774057006181 58.9861663326686,45.3809162632521 58.9861663326686,45.381540680792 58.9857569831148,45.3811313312383 58.978427452439,45.3849821902114 58.9794289680377,45.3855830995706 58.9740390763329,45.3882780454229 58.9740390763329,45.3909729912753 58.967301711702,45.3977103559062 58.9646067658497,45.3950154100538</coordinates></LinearRing></outerBoundaryIs><innerBoundaryIs><LinearRing><coordinates>58.9780814951115,45.3977103559062 58.98212391389,45.4044477205371 58.9807764409638,45.4057951934633 58.9780814951115,45.4004053017586 58.9753865492591,45.4031002476109 58.9740390763329,45.3990578288324 58.9780814951115,45.3977103559062</coordinates></LinearRing></innerBoundaryIs><innerBoundaryIs><LinearRing><coordinates>59.0090733724136,45.4179224497989 59.0063784265612,45.4179224497989 59.0077258994874,45.4165749768727 59.0090733724136,45.4179224497989</coordinates></LinearRing></innerBoundaryIs></Polygon><Polygon><outerBoundaryIs><LinearRing><coordinates>58.9875138055947,45.4502618000272 58.98212391389,45.4529567458796 58.9875138055947,45.4556516917319 58.9875138055947,45.4610415834366 58.9890363672959,45.4625641451378 58.9957559861689,45.4625641451378 58.9982935890042,45.4610415834366 58.9929036972995,45.4502618000272 58.9982935890042,45.4475668541748 58.9996410619303,45.4408294895439 59.0023360077827,45.4435244353963 59.0063784265612,45.4421769624701 59.0077258994874,45.4300497061345 59.0036834807089,45.4313971790607 59.0023360077827,45.4381345436916 58.9888612785209,45.4381345436916 58.9794289680377,45.4448719083225 58.9875138055947,45.4475668541748 58.9875138055947,45.4502618000272</coordinates></LinearRing></outerBoundaryIs></Polygon><Polygon><outerBoundaryIs><LinearRing><coordinates>59.0063784265612,45.4475668541748 59.0077258994874,45.4543042188057 59.0102213862645,45.4518087320286 59.0102213862645,45.4470178599315 59.0063784265612,45.4475668541748</coordinates></LinearRing></outerBoundaryIs></Polygon></MultiGeometry>
  </Placemark>
</Folder>
</Document></kml>
