<?xml version="1.0" encoding="utf-8" ?>
<kml xmlns="http://www.opengis.net/kml/2.2">
<Document id="root_doc">
<Schema name="task_grid_v6_45.98_59.88" id="task_grid_v6_45.98_59.88">
	<SimpleField name="area_ha" type="float"></SimpleField>
	<SimpleField name="low_risk_ha" type="float"></SimpleField>
	<SimpleField name="moderate_risk_ha" type="float"></SimpleField>
	<SimpleField name="grid_cell_deg" type="string"></SimpleField>
</Schema>
<Folder><name>task_grid_v6_45.98_59.88</name>
  <Placemark id="task_grid_v6_45.98_59.88.1">
	<name>task_grid_v6_45.98_59.88</name>
	<name>108.5</name>
	<description>792.5</description>
	<Style><LineStyle><color>ff0000ff</color></LineStyle><PolyStyle><fill>0</fill></PolyStyle></Style>
	<ExtendedData><SchemaData schemaUrl="#task_grid_v6_45.98_59.88">
		<SimpleData name="area_ha">684</SimpleData>
		<SimpleData name="low_risk_ha">0.1</SimpleData>
	</SchemaData></ExtendedData>
      <MultiGeometry><Polygon><outerBoundaryIs><LinearRing><coordinates>59.8768459368731,45.9515217285659 59.8808883556516,45.9555641473444 59.8822358285778,45.9515217285659 59.8876257202825,45.9488267827135 59.883583301504,45.944784363935 59.8768459368731,45.9515217285659</coordinates></LinearRing></outerBoundaryIs></Polygon><Polygon><outerBoundaryIs><LinearRing><coordinates>59.831031857383,45.9515217285659 59.8377692220139,45.9528692014921 59.8377692220139,45.9501742556397 59.8323793303091,45.9501742556397 59.831031857383,45.9515217285659</coordinates></LinearRing></outerBoundaryIs></Polygon><Polygon><outerBoundaryIs><LinearRing><coordinates>59.8620237346851,45.9744287683109 59.8660661534636,45.9730812953848 59.8647186805375,45.9690388766062 59.8606762617589,45.9703863495324 59.8620237346851,45.9744287683109</coordinates></LinearRing></outerBoundaryIs></Polygon><Polygon><outerBoundaryIs><LinearRing><coordinates>59.8647186805375,45.9798186600157 59.868761099316,45.9784711870895 59.8674136263898,45.9744287683109 59.8633712076113,45.9784711870895 59.8647186805375,45.9798186600157</coordinates></LinearRing></outerBoundaryIs></Polygon><Polygon><outerBoundaryIs><LinearRing><coordinates>59.8593287888327,45.9932933892774 59.8579813159065,45.997335808056 59.8593287888327,45.9986832809822 59.8647186805375,45.9959883351298 59.8647186805375,45.9932933892774 59.8593287888327,45.9932933892774</coordinates></LinearRing></outerBoundaryIs></Polygon><Polygon><outerBoundaryIs><LinearRing><coordinates>59.8283369115306,46.0188953748749 59.8269894386044,46.0148529560963 59.8263910613787,46.0150524151716 59.8263910613787,46.0195439915922 59.8283369115306,46.0188953748749</coordinates></LinearRing></outerBoundaryIs></Polygon><Polygon><outerBoundaryIs><LinearRing><coordinates>59.8404641678662,46.012158010244 59.831031857383,46.0135054831701 59.8377692220139,46.0175479019487 59.8431591137186,46.0175479019487 59.8458540595709,46.0229377936534 59.8498964783495,46.0188953748749 59.8404641678662,46.012158010244</coordinates></LinearRing></outerBoundaryIs></Polygon><Polygon><outerBoundaryIs><LinearRing><coordinates>59.8404641678662,46.0256327395057 59.8418116407924,46.0242852665796 59.8404641678662,46.020242847801 59.8364217490877,46.0215903207272 59.8404641678662,46.0256327395057</coordinates></LinearRing></outerBoundaryIs></Polygon><Polygon><outerBoundaryIs><LinearRing><coordinates>59.8350742761615,46.0337175770628 59.8357114571742,46.0343547580755 59.8418847516932,46.0343547580755 59.8431591137186,46.0337175770628 59.8441148852376,46.0343547580755 59.8505482815423,46.0343547580755 59.8485490054233,46.0310226312105 59.8377692220139,46.0310226312105 59.8350742761615,46.0283276853581 59.8323793303091,46.0310226312105 59.8269894386044,46.0283276853581 59.8263910613787,46.0285271444334 59.8263910613787,46.0331191998371 59.8269894386044,46.0337175770628 59.8350742761615,46.0337175770628</coordinates></LinearRing></outerBoundaryIs></Polygon><Polygon><outerBoundaryIs><LinearRing><coordinates>59.9226600163632,45.9569116202706 59.9253549622155,45.9542166744182 59.9199650705108,45.9542166744182 59.9199650705108,45.959606566123 59.9263910613787,45.9634621606437 59.9263910613787,45.9558755211074 59.9240074892893,45.9582590931968 59.9226600163632,45.9569116202706</coordinates></LinearRing></outerBoundaryIs></Polygon><Polygon><outerBoundaryIs><LinearRing><coordinates>59.8862782473563,45.9663439307539 59.8876257202825,45.9649964578277 59.883583301504,45.9555641473444 59.8795408827254,45.9623015119753 59.8862782473563,45.9663439307539</coordinates></LinearRing></outerBoundaryIs></Polygon><Polygon><outerBoundaryIs><LinearRing><coordinates>59.891668139061,45.9609540390491 59.8876257202825,45.9623015119753 59.8903206661349,45.9649964578277 59.8903206661349,45.9703863495324 59.8943630849134,45.9717338224586 59.8957105578396,45.9649964578277 59.891668139061,45.9609540390491</coordinates></LinearRing></outerBoundaryIs></Polygon><Polygon><outerBoundaryIs><LinearRing><coordinates>59.9263910613787,45.972113181471 59.9263910613787,45.9693502503692 59.9253549622155,45.9703863495324 59.9263910613787,45.972113181471</coordinates></LinearRing></outerBoundaryIs></Polygon><Polygon><outerBoundaryIs><LinearRing><coordinates>59.9051428683228,45.9690388766062 59.9024479224705,45.9663439307539 59.9011004495443,45.9703863495324 59.9037953953966,45.9757762412371 59.9132277058799,45.9798186600157 59.9145751788061,45.9730812953848 59.9105327600275,45.9690388766062 59.9051428683228,45.9690388766062</coordinates></LinearRing></outerBoundaryIs></Polygon><Polygon><outerBoundaryIs><LinearRing><coordinates>59.8741509910207,45.9784711870895 59.8808883556516,45.982513605868 59.883583301504,45.9798186600157 59.8862782473563,45.982513605868 59.891668139061,45.982513605868 59.8957105578396,45.9919459163513 59.9037953953966,45.997335808056 59.9051428683228,46.0013782268345 59.9091852871014,46.0000307539083 59.906490341249,45.9919459163513 59.9105327600275,45.9905984434251 59.9132277058799,46.0067681185392 59.9145751788061,45.9946408622036 59.9159226517323,45.9932933892774 59.921312543437,45.9959883351298 59.9226600163632,45.9919459163513 59.9024479224705,45.9852085517204 59.9024479224705,45.9932933892774 59.8957105578396,45.9838610787942 59.8984055036919,45.9784711870895 59.8943630849134,45.9744287683109 59.891668139061,45.9771237141633 59.8889731932087,45.9717338224586 59.8849307744301,45.9730812953848 59.8876257202825,45.9757762412371 59.8862782473563,45.9771237141633 59.883583301504,45.9744287683109 59.8781934097992,45.9744287683109 59.8741509910207,45.9784711870895</coordinates></LinearRing></outerBoundaryIs></Polygon><Polygon><outerBoundaryIs><LinearRing><coordinates>59.9263910613787,46.0014820180889 59.9226600163632,46.0027256997607 59.9263910613787,46.0114314714636 59.9263910613787,46.0014820180889</coordinates></LinearRing></outerBoundaryIs></Polygon><Polygon><outerBoundaryIs><LinearRing><coordinates>59.9240074892893,46.0337175770628 59.9240074892893,46.0310226312105 59.9186175975846,46.0310226312105 59.9172701246584,46.0323701041366 59.9240074892893,46.0337175770628</coordinates></LinearRing></outerBoundaryIs></Polygon></MultiGeometry>
  </Placemark>
</Folder>
</Document></kml>
