<?xml version="1.0" encoding="utf-8" ?>
<kml xmlns="http://www.opengis.net/kml/2.2">
<Document id="root_doc">
<Schema name="task_grid_v6_44.91_61.56" id="task_grid_v6_44.91_61.56">
	<SimpleField name="area_ha" type="float"></SimpleField>
	<SimpleField name="low_risk_ha" type="float"></SimpleField>
	<SimpleField name="moderate_risk_ha" type="float"></SimpleField>
	<SimpleField name="grid_cell_deg" type="string"></SimpleField>
</Schema>
<Folder><name>task_grid_v6_44.91_61.56</name>
  <Placemark id="task_grid_v6_44.91_61.56.1">
	<name>task_grid_v6_44.91_61.56</name>
	<name>0</name>
	<description>25.5</description>
	<Style><LineStyle><color>ff0000ff</color></LineStyle><PolyStyle><fill>0</fill></PolyStyle></Style>
	<ExtendedData><SchemaData schemaUrl="#task_grid_v6_44.91_61.56">
		<SimpleData name="area_ha">25.5</SimpleData>
		<SimpleData name="low_risk_ha">0.1</SimpleData>
	</SchemaData></ExtendedData>
      <MultiGeometry><Polygon><outerBoundaryIs><LinearRing><coordinates>61.5315426902212,44.8843231710319 61.530195217295,44.8802807522534 61.5261527985165,44.8843231710319 61.5275002714427,44.8856706439581 61.5315426902212,44.8843231710319</coordinates></LinearRing></outerBoundaryIs></Polygon><Polygon><outerBoundaryIs><LinearRing><coordinates>61.5935264448255,44.9139675754078 61.5921789718993,44.9099251566293 61.5881365531207,44.9112726295555 61.5921789718993,44.915315048334 61.5935264448255,44.9139675754078</coordinates></LinearRing></outerBoundaryIs></Polygon></MultiGeometry>
  </Placemark>
</Folder>
</Document></kml>
