<?xml version="1.0" encoding="utf-8" ?>
<kml xmlns="http://www.opengis.net/kml/2.2">
<Document id="root_doc">
<Schema name="task_grid_v6_45.78_59.58" id="task_grid_v6_45.78_59.58">
	<SimpleField name="area_ha" type="float"></SimpleField>
	<SimpleField name="low_risk_ha" type="float"></SimpleField>
	<SimpleField name="moderate_risk_ha" type="float"></SimpleField>
	<SimpleField name="grid_cell_deg" type="string"></SimpleField>
</Schema>
<Folder><name>task_grid_v6_45.78_59.58</name>
  <Placemark id="task_grid_v6_45.78_59.58.1">
	<name>task_grid_v6_45.78_59.58</name>
	<name>28.3</name>
	<description>390.2</description>
	<Style><LineStyle><color>ff0000ff</color></LineStyle><PolyStyle><fill>0</fill></PolyStyle></Style>
	<ExtendedData><SchemaData schemaUrl="#task_grid_v6_45.78_59.58">
		<SimpleData name="area_ha">361.9</SimpleData>
		<SimpleData name="low_risk_ha">0.1</SimpleData>
	</SchemaData></ExtendedData>
      <MultiGeometry><Polygon><outerBoundaryIs><LinearRing><coordinates>59.6073513516372,45.749400789639 59.6113937704157,45.7534432084175 59.606003878711,45.7507482625652 59.6019614599325,45.7574856271961 59.606003878711,45.7615280459746 59.6154361891943,45.7547906813437 59.6140887162681,45.7507482625652 59.6154361891943,45.749400789639 59.6140887162681,45.7453583708605 59.6073513516372,45.749400789639</coordinates></LinearRing></outerBoundaryIs></Polygon><Polygon><outerBoundaryIs><LinearRing><coordinates>59.5777069472613,45.7709603564579 59.5844443118922,45.7750027752364 59.5857917848183,45.7736553023102 59.5817493660398,45.7696128835317 59.5777069472613,45.7709603564579</coordinates></LinearRing></outerBoundaryIs></Polygon><Polygon><outerBoundaryIs><LinearRing><coordinates>59.5723170555565,45.7763502481626 59.5790544201874,45.7776977210888 59.5804018931136,45.7763502481626 59.5763594743351,45.772307829384 59.5723170555565,45.7763502481626</coordinates></LinearRing></outerBoundaryIs></Polygon><Polygon><outerBoundaryIs><LinearRing><coordinates>59.5884867306707,45.7763502481626 59.5925291494492,45.7803926669411 59.5965715682278,45.7763502481626 59.5898342035969,45.772307829384 59.5884867306707,45.7763502481626</coordinates></LinearRing></outerBoundaryIs></Polygon><Polygon><outerBoundaryIs><LinearRing><coordinates>59.5413251782544,45.7776977210888 59.5399777053282,45.7817401398673 59.5467150699591,45.7830876127935 59.5467150699591,45.7776977210888 59.5413251782544,45.7776977210888</coordinates></LinearRing></outerBoundaryIs></Polygon><Polygon><outerBoundaryIs><LinearRing><coordinates>59.568274636778,45.8100370713171 59.5669271638518,45.8113845442432 59.5736645284827,45.8154269630218 59.5736645284827,45.8100370713171 59.568274636778,45.8100370713171</coordinates></LinearRing></outerBoundaryIs></Polygon><Polygon><outerBoundaryIs><LinearRing><coordinates>59.5844443118922,45.8315966381359 59.583096838966,45.8302491652098 59.5857917848183,45.8275542193574 59.5817493660398,45.8262067464312 59.5804018931136,45.8329441110621 59.5827529714693,45.8343547580755 59.6002490614805,45.8343547580755 59.5911816765231,45.8275542193574 59.5884867306707,45.8221643276527 59.5911816765231,45.8194693818003 59.5804018931136,45.8086895983909 59.5750120014089,45.8086895983909 59.583096838966,45.8194693818003 59.5804018931136,45.8221643276527 59.5884867306707,45.8275542193574 59.5844443118922,45.8315966381359</coordinates></LinearRing></outerBoundaryIs></Polygon></MultiGeometry>
  </Placemark>
</Folder>
</Document></kml>
