<?xml version="1.0" encoding="utf-8" ?>
<kml xmlns="http://www.opengis.net/kml/2.2">
<Document id="root_doc">
<Schema name="task_grid_v6_46.11_60.36" id="task_grid_v6_46.11_60.36">
	<SimpleField name="area_ha" type="float"></SimpleField>
	<SimpleField name="low_risk_ha" type="float"></SimpleField>
	<SimpleField name="moderate_risk_ha" type="float"></SimpleField>
	<SimpleField name="grid_cell_deg" type="string"></SimpleField>
</Schema>
<Folder><name>task_grid_v6_46.11_60.36</name>
  <Placemark id="task_grid_v6_46.11_60.36.1">
	<name>task_grid_v6_46.11_60.36</name>
	<name>2540.1</name>
	<description>4066.1</description>
	<Style><LineStyle><color>ff0000ff</color></LineStyle><PolyStyle><fill>0</fill></PolyStyle></Style>
	<ExtendedData><SchemaData schemaUrl="#task_grid_v6_46.11_60.36">
		<SimpleData name="area_ha">1526</SimpleData>
		<SimpleData name="low_risk_ha">0.1</SimpleData>
	</SchemaData></ExtendedData>
      <MultiGeometry><Polygon><outerBoundaryIs><LinearRing><coordinates>60.3102213862645,46.0625641451378 60.3102213862645,46.0660050840788 60.3146454506173,46.0625641451378 60.3102213862645,46.0625641451378</coordinates></LinearRing></outerBoundaryIs></Polygon><Polygon><outerBoundaryIs><LinearRing><coordinates>60.3444190422573,46.0714468189958 60.3511564068882,46.0700993460697 60.3471139881096,46.0660569272911 60.3430715693311,46.0700993460697 60.3444190422573,46.0714468189958</coordinates></LinearRing></outerBoundaryIs></Polygon><Polygon><outerBoundaryIs><LinearRing><coordinates>60.334986731774,46.0889639670362 60.3390291505526,46.0903114399623 60.3430715693311,46.0862690211838 60.3390291505526,46.0849215482576 60.334986731774,46.0889639670362</coordinates></LinearRing></outerBoundaryIs></Polygon><Polygon><outerBoundaryIs><LinearRing><coordinates>60.3309443129955,46.0903114399623 60.3336392588478,46.0930063858147 60.3376816776264,46.0916589128885 60.334986731774,46.0889639670362 60.3336392588478,46.08761649411 60.3174695837337,46.08761649411 60.3147746378813,46.0849215482576 60.3102213862645,46.0849215482576 60.3102213862645,46.0894747998744 60.312079692029,46.08761649411 60.3147746378813,46.0903114399623 60.3255544212908,46.0903114399623 60.3282493671431,46.0930063858147 60.3309443129955,46.0903114399623</coordinates></LinearRing></outerBoundaryIs></Polygon><Polygon><outerBoundaryIs><LinearRing><coordinates>60.3102213862645,46.096537971755 60.3102213862645,46.0968163151257 60.3102213862645,46.0975596374315 60.3102213862645,46.1017106586266 60.312079692029,46.1010912233718 60.3147746378813,46.1037861692241 60.320164529586,46.1010912233718 60.3242069483646,46.1051336421503 60.320164529586,46.1091760609289 60.312079692029,46.1091760609289 60.3102213862645,46.1110343666933 60.3102213862645,46.1150679366863 60.3138763225972,46.1172608984859 60.3102213862645,46.1172608984859 60.3102213862645,46.1190451940149 60.3147746378813,46.1199558443383 60.3102213862645,46.1199558443383 60.3102213862645,46.1388204653048 60.3102213862645,46.1442103570095 60.320164529586,46.1442103570095 60.3228594754384,46.1469053028619 60.3322917859217,46.1455578299357 60.3309443129955,46.1442103570095 60.3336392588478,46.1415154111572 60.3363342047002,46.1442103570095 60.3471139881096,46.1442103570095 60.3430715693311,46.1482527757881 60.349808933962,46.1522951945666 60.3525038798143,46.1522951945666 60.3605887173714,46.1442103570095 60.3767583924856,46.1469053028619 60.3794533383379,46.1442103570095 60.3848432300426,46.1442103570095 60.387538175895,46.1388204653048 60.3929280675997,46.1469053028619 60.4064027968615,46.1469053028619 60.4064027968615,46.1415154111572 60.4102213862645,46.1415154111572 60.4102213862645,46.1226507901907 60.4102213862645,46.1199558443383 60.4090977427139,46.1199558443383 60.4050553239353,46.1159134255598 60.4090977427139,46.1145659526336 60.4102213862645,46.1156895961842 60.4102213862645,46.0957013316671 60.4010129051568,46.0957013316671 60.3821482841903,46.1037861692241 60.349808933962,46.1064811150765 60.3471139881096,46.1118710067812 60.3390291505526,46.1091760609289 60.3336392588478,46.1118710067812 60.3309443129955,46.1091760609289 60.3228594754384,46.1145659526336 60.3215120025122,46.1132184797074 60.3309443129955,46.1010912233718 60.3363342047002,46.0983962775194 60.3390291505526,46.1037861692241 60.3457665151834,46.102438696298 60.3390291505526,46.0930063858147 60.3309443129955,46.0957013316671 60.3282493671431,46.0930063858147 60.3228594754384,46.0930063858147 60.3215120025122,46.0943538587409 60.3269018942169,46.0997437504456 60.3255544212908,46.1010912233718 60.3228594754384,46.0983962775194 60.312079692029,46.0957013316671 60.3103953508712,46.0967119363617 60.3102213862645,46.096537971755</coordinates></LinearRing></outerBoundaryIs><innerBoundaryIs><LinearRing><coordinates>60.3147746378813,46.1177998876564 60.3161221108075,46.1186083714121 60.3147746378813,46.1199558443383 60.3147746378813,46.1177998876564</coordinates></LinearRing></innerBoundaryIs><innerBoundaryIs><LinearRing><coordinates>60.3282493671431,46.1213033172645 60.3295968400693,46.1213033172645 60.3282493671431,46.1226507901907 60.3282493671431,46.1213033172645</coordinates></LinearRing></innerBoundaryIs><innerBoundaryIs><LinearRing><coordinates>60.3551988256667,46.1199558443383 60.3516055645302,46.1199558443383 60.3578937715191,46.1172608984859 60.3605887173714,46.1226507901907 60.3659786090761,46.1226507901907 60.3578937715191,46.1245757515138 60.3578937715191,46.1226507901907 60.3551988256667,46.122265797926 60.3551988256667,46.1199558443383</coordinates></LinearRing></innerBoundaryIs><innerBoundaryIs><LinearRing><coordinates>60.3700210278547,46.1186083714121 60.3659786090761,46.1172608984859 60.3632836632238,46.1199558443383 60.3619361902976,46.1159134255598 60.3713685007809,46.1118710067812 60.3740634466332,46.1145659526336 60.3767583924856,46.1118710067812 60.3781058654118,46.1132184797074 60.372715973707,46.1186083714121 60.3713685007809,46.1172608984859 60.3659786090761,46.1226507901907 60.3700210278547,46.1186083714121</coordinates></LinearRing></innerBoundaryIs><innerBoundaryIs><LinearRing><coordinates>60.3740634466332,46.1199558443383 60.3826872733608,46.1177998876564 60.3794533383379,46.1199558443383 60.3740634466332,46.1199558443383</coordinates></LinearRing></innerBoundaryIs><innerBoundaryIs><LinearRing><coordinates>60.387538175895,46.1145659526336 60.3902331217474,46.1118710067812 60.3902331217474,46.1172608984859 60.387538175895,46.1145659526336</coordinates></LinearRing></innerBoundaryIs><innerBoundaryIs><LinearRing><coordinates>60.3983179593044,46.1199558443383 60.3915805946735,46.1266932089692 60.3942755405259,46.1293881548215 60.3929280675997,46.1307356277477 60.3902331217474,46.1280406818954 60.3983179593044,46.1172608984859 60.4010129051568,46.1226507901907 60.3983179593044,46.1199558443383</coordinates></LinearRing></innerBoundaryIs><innerBoundaryIs><LinearRing><coordinates>60.3295968400693,46.1320831006739 60.3255544212908,46.1334305736001 60.3242069483646,46.1320831006739 60.3282493671431,46.1307356277477 60.3295968400693,46.1320831006739</coordinates></LinearRing></innerBoundaryIs><innerBoundaryIs><LinearRing><coordinates>60.3295968400693,46.1266932089692 60.3309443129955,46.125345736043 60.3322917859217,46.1266932089692 60.3295968400693,46.1266932089692</coordinates></LinearRing></innerBoundaryIs><innerBoundaryIs><LinearRing><coordinates>60.3363342047002,46.1226507901907 60.3376816776264,46.1239982631168 60.3363342047002,46.125345736043 60.3363342047002,46.1226507901907</coordinates></LinearRing></innerBoundaryIs><innerBoundaryIs><LinearRing><coordinates>60.3848432300426,46.1091760609289 60.3861907029688,46.110523533855 60.3848432300426,46.1118710067812 60.3848432300426,46.1091760609289</coordinates></LinearRing></innerBoundaryIs><innerBoundaryIs><LinearRing><coordinates>60.3619361902976,46.1293881548215 60.3564238010541,46.1282856769729 60.3632836632238,46.125345736043 60.36463113615,46.1266932089692 60.3619361902976,46.1293881548215</coordinates></LinearRing></innerBoundaryIs><innerBoundaryIs><LinearRing><coordinates>60.3929280675997,46.1415154111572 60.3915805946735,46.140167938231 60.3942755405259,46.140167938231 60.3929280675997,46.1415154111572</coordinates></LinearRing></innerBoundaryIs><innerBoundaryIs><LinearRing><coordinates>60.3484614610358,46.1320831006739 60.349808933962,46.1307356277477 60.349808933962,46.1334305736001 60.3484614610358,46.1320831006739</coordinates></LinearRing></innerBoundaryIs><innerBoundaryIs><LinearRing><coordinates>60.3686735549285,46.1307356277477 60.3700210278547,46.1320831006739 60.3673260820023,46.1320831006739 60.3686735549285,46.1307356277477</coordinates></LinearRing></innerBoundaryIs><innerBoundaryIs><LinearRing><coordinates>60.3754109195594,46.1293881548215 60.3740634466332,46.1307356277477 60.3740634466332,46.1280406818954 60.3754109195594,46.1293881548215</coordinates></LinearRing></innerBoundaryIs></Polygon><Polygon><outerBoundaryIs><LinearRing><coordinates>60.3326175931713,46.1625641451378 60.3282493671431,46.1603800321237 60.3282493671431,46.154990140419 60.312079692029,46.1522951945666 60.3102213862645,46.1532243474488 60.3102213862645,46.1625641451378 60.3326175931713,46.1625641451378</coordinates></LinearRing></outerBoundaryIs></Polygon><Polygon><outerBoundaryIs><LinearRing><coordinates>60.3929280675997,46.0849215482576 60.3902331217474,46.08761649411 60.387538175895,46.0849215482576 60.3848432300426,46.0903114399623 60.3821482841903,46.08761649411 60.3767583924856,46.08761649411 60.372715973707,46.0970488045932 60.3794533383379,46.0983962775194 60.3848432300426,46.0930063858147 60.387538175895,46.0957013316671 60.3902331217474,46.0930063858147 60.4050553239353,46.0889639670362 60.3956230134521,46.08761649411 60.3942755405259,46.0862690211838 60.4064027968615,46.08761649411 60.4102213862645,46.0850707678413 60.4102213862645,46.0795316565529 60.4064027968615,46.0795316565529 60.4037078510092,46.0822266024053 60.3983179593044,46.0822266024053 60.3942755405259,46.0862690211838 60.3929280675997,46.0849215482576</coordinates></LinearRing></outerBoundaryIs></Polygon><Polygon><outerBoundaryIs><LinearRing><coordinates>60.3538513527405,46.0997437504456 60.349808933962,46.0983962775194 60.3471139881096,46.0957013316671 60.3471139881096,46.1010912233718 60.3538513527405,46.0997437504456</coordinates></LinearRing></outerBoundaryIs></Polygon><Polygon><outerBoundaryIs><LinearRing><coordinates>60.3605887173714,46.1010912233718 60.3673260820023,46.0997437504456 60.3632836632238,46.0957013316671 60.3592412444452,46.0997437504456 60.3605887173714,46.1010912233718</coordinates></LinearRing></outerBoundaryIs></Polygon><Polygon><outerBoundaryIs><LinearRing><coordinates>60.3821482841903,46.1603800321237 60.3821482841903,46.1576850862713 60.3767583924856,46.1576850862713 60.3754109195594,46.1590325591975 60.3821482841903,46.1603800321237</coordinates></LinearRing></outerBoundaryIs></Polygon></MultiGeometry>
  </Placemark>
</Folder>
</Document></kml>
