<?xml version="1.0" encoding="utf-8" ?>
<kml xmlns="http://www.opengis.net/kml/2.2">
<Document id="root_doc">
<Schema name="task_grid_v6_45.98_60.28" id="task_grid_v6_45.98_60.28">
	<SimpleField name="area_ha" type="float"></SimpleField>
	<SimpleField name="low_risk_ha" type="float"></SimpleField>
	<SimpleField name="moderate_risk_ha" type="float"></SimpleField>
	<SimpleField name="grid_cell_deg" type="string"></SimpleField>
</Schema>
<Folder><name>task_grid_v6_45.98_60.28</name>
  <Placemark id="task_grid_v6_45.98_60.28.1">
	<name>task_grid_v6_45.98_60.28</name>
	<name>164.4</name>
	<description>438</description>
	<Style><LineStyle><color>ff0000ff</color></LineStyle><PolyStyle><fill>0</fill></PolyStyle></Style>
	<ExtendedData><SchemaData schemaUrl="#task_grid_v6_45.98_60.28">
		<SimpleData name="area_ha">273.6</SimpleData>
		<SimpleData name="low_risk_ha">0.1</SimpleData>
	</SchemaData></ExtendedData>
      <MultiGeometry><Polygon><outerBoundaryIs><LinearRing><coordinates>60.2325787893844,45.9488267827135 60.2393161540153,45.9528692014921 60.2406636269415,45.9488267827135 60.2339262623106,45.9393944722303 60.2325787893844,45.9488267827135</coordinates></LinearRing></outerBoundaryIs></Polygon><Polygon><outerBoundaryIs><LinearRing><coordinates>60.2271888976797,45.9542166744182 60.2285363706059,45.9582590931968 60.2325787893844,45.9542166744182 60.2312313164582,45.9501742556397 60.2271888976797,45.9542166744182</coordinates></LinearRing></outerBoundaryIs></Polygon><Polygon><outerBoundaryIs><LinearRing><coordinates>60.297257489841,46.0296751582843 60.2905201252101,46.0229377936534 60.274350450096,46.0229377936534 60.2730029771698,46.0242852665796 60.2851302335054,46.0256327395057 60.2959100169148,46.0310226312105 60.297257489841,46.0296751582843</coordinates></LinearRing></outerBoundaryIs></Polygon><Polygon><outerBoundaryIs><LinearRing><coordinates>60.2388669963732,46.0341667347049 60.2386789730026,46.0343547580755 60.2389610080585,46.0343547580755 60.2395285476862,46.0343547580755 60.2529768082003,46.0343547580755 60.259528247908,46.0296751582843 60.2689605583912,46.0337175770628 60.2770453959483,46.0283276853581 60.2797403418007,46.0310226312105 60.2851302335054,46.0310226312105 60.2864777064316,46.0296751582843 60.282435287653,46.0256327395057 60.2608757208342,46.0256327395057 60.2703080313174,46.0242852665796 60.2635706666865,46.020242847801 60.2608757208342,46.0229377936534 60.2527908832771,46.0229377936534 60.24470604572,46.0310226312105 60.2393161540153,46.0310226312105 60.2379686810891,46.0323701041366 60.2388669963732,46.0341667347049</coordinates></LinearRing></outerBoundaryIs></Polygon><Polygon><outerBoundaryIs><LinearRing><coordinates>60.3026473815457,46.0323701041366 60.3066898003242,46.0337175770628 60.3080372732504,46.0296751582843 60.3039948544719,46.0256327395057 60.3026473815457,46.0323701041366</coordinates></LinearRing></outerBoundaryIs></Polygon><Polygon><outerBoundaryIs><LinearRing><coordinates>60.312079692029,46.0310226312105 60.3107322191028,46.0323701041366 60.320164529586,46.0337175770628 60.320164529586,46.0310226312105 60.312079692029,46.0310226312105</coordinates></LinearRing></outerBoundaryIs></Polygon><Polygon><outerBoundaryIs><LinearRing><coordinates>60.3242069483646,46.0323701041366 60.3248684996775,46.0343547580755 60.3263910613787,46.0343547580755 60.3263910613787,46.0316420664653 60.3242069483646,46.0323701041366</coordinates></LinearRing></outerBoundaryIs></Polygon><Polygon><outerBoundaryIs><LinearRing><coordinates>60.2305941354455,46.0343547580755 60.2366212081629,46.0343547580755 60.2366212081629,46.0337175770628 60.2312313164582,46.0337175770628 60.2305941354455,46.0343547580755</coordinates></LinearRing></outerBoundaryIs></Polygon></MultiGeometry>
  </Placemark>
</Folder>
</Document></kml>
