<?xml version="1.0" encoding="utf-8" ?>
<kml xmlns="http://www.opengis.net/kml/2.2">
<Document id="root_doc">
<Schema name="task_grid_v6_45.61_60.26" id="task_grid_v6_45.61_60.26">
	<SimpleField name="area_ha" type="float"></SimpleField>
	<SimpleField name="low_risk_ha" type="float"></SimpleField>
	<SimpleField name="moderate_risk_ha" type="float"></SimpleField>
	<SimpleField name="grid_cell_deg" type="string"></SimpleField>
</Schema>
<Folder><name>task_grid_v6_45.61_60.26</name>
  <Placemark id="task_grid_v6_45.61_60.26.1">
	<name>task_grid_v6_45.61_60.26</name>
	<name>1455.4</name>
	<description>4673.1</description>
	<Style><LineStyle><color>ff0000ff</color></LineStyle><PolyStyle><fill>0</fill></PolyStyle></Style>
	<ExtendedData><SchemaData schemaUrl="#task_grid_v6_45.61_60.26">
		<SimpleData name="area_ha">3217.7</SimpleData>
		<SimpleData name="low_risk_ha">0.1</SimpleData>
	</SchemaData></ExtendedData>
      <MultiGeometry><Polygon><outerBoundaryIs><LinearRing><coordinates>60.229883843532,45.5823141467928 60.2244939518273,45.5796192009404 60.2231464789011,45.5755767821619 60.2164091142702,45.576924255088 60.221799005975,45.5850090926451 60.2191040601226,45.5877040384975 60.2204515330488,45.5890515114237 60.2231464789011,45.5890515114237 60.229883843532,45.5823141467928</coordinates></LinearRing></outerBoundaryIs></Polygon><Polygon><outerBoundaryIs><LinearRing><coordinates>60.2102213862645,45.6456453743232 60.2102213862645,45.6476488551642 60.2150616413441,45.6483403201755 60.2150616413441,45.6456453743232 60.2177565871964,45.6483403201755 60.2193735547078,45.6472623418346 60.2204515330488,45.6483403201755 60.2285363706059,45.6483403201755 60.2312313164582,45.6402554826185 60.2420110998676,45.6375605367661 60.2474009915724,45.629475699209 60.2500959374247,45.6321706450614 60.2581807749818,45.6321706450614 60.2622231937603,45.6362130638399 60.259528247908,45.6389080096923 60.2608757208342,45.6402554826185 60.2689605583912,45.6402554826185 60.2770453959483,45.6456453743232 60.278147873797,45.6423379407771 60.282435287653,45.6483403201755 60.2878251793577,45.6510352660279 60.2986049627672,45.6483403201755 60.3012999086195,45.6456453743232 60.3039948544719,45.6483403201755 60.3066898003242,45.6456453743232 60.3102213862645,45.6474111672933 60.3102213862645,45.6386653304685 60.3080372732504,45.6389080096923 60.3093847461766,45.6348655909138 60.3102213862645,45.6345070308761 60.3102213862645,45.625665769898 60.3053423273981,45.6227383345781 60.3102213862645,45.6202988051449 60.3102213862645,45.6195325558875 60.3080372732504,45.6173484428734 60.3102213862645,45.6151643298593 60.3102213862645,45.6087527724781 60.3093847461766,45.6079161323902 60.3026473815457,45.6146534970211 60.3093847461766,45.6052211865378 60.3102213862645,45.6055000665671 60.3102213862645,45.5925830973639 60.3093847461766,45.591746457276 60.3066898003242,45.5998312948331 60.2999524356934,45.6011787677593 60.3053423273981,45.606568659464 60.3039948544719,45.6079161323902 60.297257489841,45.6038737136116 60.3012999086195,45.6052211865378 60.3026473815457,45.6038737136116 60.2990541204092,45.6002804524752 60.2999524356934,45.5984838219069 60.2959100169148,45.5944414031284 60.2905201252101,45.5944414031284 60.2810878147268,45.5877040384975 60.2837827605792,45.5850090926451 60.282435287653,45.5809666738666 60.2730029771698,45.5930939302022 60.2756979230221,45.5957888760546 60.2662656125389,45.5998312948331 60.2608757208342,45.5971363489807 60.2581807749818,45.591746457276 60.2487484644985,45.5930939302022 60.2541383562033,45.5984838219069 60.2527908832771,45.5998312948331 60.24470604572,45.5998312948331 60.2393161540153,45.5971363489807 60.2379686810891,45.5930939302022 60.2433585727938,45.5903989843498 60.2420110998676,45.5863565655713 60.2339262623106,45.5890515114237 60.2312313164582,45.5863565655713 60.2258414247535,45.591746457276 60.2123666954917,45.591746457276 60.2102213862645,45.5906738026624 60.2102213862645,45.5981043999966 60.2150616413441,45.5971363489807 60.2191040601226,45.6038737136116 60.2150616413441,45.6052211865378 60.2102213862645,45.6003809314583 60.2102213862645,45.6160009699472 60.2123666954917,45.6160009699472 60.2137141684179,45.6173484428734 60.2102213862645,45.6185127035912 60.2102213862645,45.6216656799646 60.2102213862645,45.6456453743232</coordinates></LinearRing></outerBoundaryIs><innerBoundaryIs><LinearRing><coordinates>60.2568333020556,45.6073386439932 60.2527908832771,45.6079161323902 60.2514434103509,45.606568659464 60.2568333020556,45.6073386439932</coordinates></LinearRing></innerBoundaryIs><innerBoundaryIs><LinearRing><coordinates>60.2608757208342,45.6025262406854 60.2622231937603,45.606568659464 60.2608757208342,45.6067611555963 60.2608757208342,45.6025262406854</coordinates></LinearRing></innerBoundaryIs><innerBoundaryIs><LinearRing><coordinates>60.2285363706059,45.6079161323902 60.2258414247535,45.6052211865378 60.2244939518273,45.6060296702935 60.2244939518273,45.6011787677593 60.221799005975,45.5984838219069 60.2231464789011,45.5971363489807 60.2271888976797,45.5984838219069 60.2312313164582,45.6052211865378 60.2366212081629,45.6025262406854 60.2285363706059,45.6079161323902</coordinates></LinearRing></innerBoundaryIs><innerBoundaryIs><LinearRing><coordinates>60.2285363706059,45.6375605367661 60.2325787893844,45.6362130638399 60.2269643188586,45.6407046402605 60.2285363706059,45.6375605367661</coordinates></LinearRing></innerBoundaryIs><innerBoundaryIs><LinearRing><coordinates>60.2177565871964,45.6402554826185 60.2164091142702,45.6389080096923 60.2204515330488,45.6375605367661 60.221799005975,45.6389080096923 60.2177565871964,45.6402554826185</coordinates></LinearRing></innerBoundaryIs><innerBoundaryIs><LinearRing><coordinates>60.2932150710625,45.6079161323902 60.2999524356934,45.6092636053164 60.2932150710625,45.6133060240949 60.2918675981363,45.6119585511687 60.2932150710625,45.6079161323902</coordinates></LinearRing></innerBoundaryIs><innerBoundaryIs><LinearRing><coordinates>60.2730029771698,45.6362130638399 60.2716555042436,45.6375605367661 60.2716555042436,45.6348655909138 60.2730029771698,45.6362130638399</coordinates></LinearRing></innerBoundaryIs><innerBoundaryIs><LinearRing><coordinates>60.2352737352368,45.6173484428734 60.2366212081629,45.6160009699472 60.2366212081629,45.6186959157996 60.2352737352368,45.6173484428734</coordinates></LinearRing></innerBoundaryIs><innerBoundaryIs><LinearRing><coordinates>60.2662656125389,45.6079161323902 60.2676130854651,45.6092636053164 60.2649181396127,45.6092636053164 60.2662656125389,45.6079161323902</coordinates></LinearRing></innerBoundaryIs><innerBoundaryIs><LinearRing><coordinates>60.2703080313174,45.6038737136116 60.2689605583912,45.6052211865378 60.2689605583912,45.6025262406854 60.2703080313174,45.6038737136116</coordinates></LinearRing></innerBoundaryIs></Polygon><Polygon><outerBoundaryIs><LinearRing><coordinates>60.24470604572,45.6510352660279 60.24470604572,45.6456453743232 60.2366212081629,45.6456453743232 60.2352737352368,45.6469928472494 60.24470604572,45.6510352660279</coordinates></LinearRing></outerBoundaryIs></Polygon><Polygon><outerBoundaryIs><LinearRing><coordinates>60.2527908832771,45.6564251577326 60.2474009915724,45.6564251577326 60.2487484644985,45.6550776848064 60.2393161540153,45.6537302118803 60.2379686810891,45.6604675765112 60.2393161540153,45.6618150494373 60.24470604572,45.659120103585 60.2412620041672,45.6625641451378 60.252690404294,45.6625641451378 60.2608757208342,45.6564251577326 60.2635706666865,45.6618150494373 60.2635706666865,45.6483403201755 60.2608757208342,45.6483403201755 60.259528247908,45.6496877931017 60.2581807749818,45.6456453743232 60.2541383562033,45.6469928472494 60.2581807749818,45.6510352660279 60.2527908832771,45.6564251577326</coordinates></LinearRing></outerBoundaryIs></Polygon><Polygon><outerBoundaryIs><LinearRing><coordinates>60.2164091142702,45.6550776848064 60.2102213862645,45.6546017057291 60.2102213862645,45.659120103585 60.2150616413441,45.659120103585 60.2164091142702,45.6550776848064</coordinates></LinearRing></outerBoundaryIs></Polygon><Polygon><outerBoundaryIs><LinearRing><coordinates>60.2331771666101,45.6625641451378 60.2341759608774,45.6625641451378 60.2339262623106,45.6618150494373 60.2331771666101,45.6625641451378</coordinates></LinearRing></outerBoundaryIs></Polygon><Polygon><outerBoundaryIs><LinearRing><coordinates>60.2986049627672,45.5863565655713 60.2986049627672,45.5782717280142 60.2905201252101,45.5782717280142 60.2891726522839,45.5823141467928 60.2986049627672,45.5863565655713</coordinates></LinearRing></outerBoundaryIs></Polygon><Polygon><outerBoundaryIs><LinearRing><coordinates>60.2608757208342,45.5890515114237 60.2649181396127,45.5850090926451 60.2554858291294,45.5836616197189 60.2541383562033,45.5850090926451 60.2608757208342,45.5890515114237</coordinates></LinearRing></outerBoundaryIs></Polygon><Polygon><outerBoundaryIs><LinearRing><coordinates>60.3102213862645,45.6518719061158 60.3102213862645,45.6492509704989 60.3080372732504,45.6496877931017 60.3102213862645,45.6518719061158</coordinates></LinearRing></outerBoundaryIs></Polygon><Polygon><outerBoundaryIs><LinearRing><coordinates>60.3093847461766,45.6564251577326 60.3102213862645,45.6555885176447 60.3102213862645,45.6545668519682 60.3066898003242,45.6510352660279 60.3053423273981,45.6550776848064 60.3093847461766,45.6564251577326</coordinates></LinearRing></outerBoundaryIs></Polygon><Polygon><outerBoundaryIs><LinearRing><coordinates>60.274350450096,45.659120103585 60.2783928688745,45.6550776848064 60.2770453959483,45.6510352660279 60.2716555042436,45.6510352660279 60.2689605583912,45.6537302118803 60.2662656125389,45.6510352660279 60.2649181396127,45.6577726306588 60.2689605583912,45.659120103585 60.2716555042436,45.6564251577326 60.274350450096,45.659120103585</coordinates></LinearRing></outerBoundaryIs></Polygon><Polygon><outerBoundaryIs><LinearRing><coordinates>60.2797403418007,45.6483403201755 60.2783928688745,45.6550776848064 60.2809653171881,45.6569151478876 60.2783928688745,45.6577726306588 60.282435287653,45.6618150494373 60.2837827605792,45.6604675765112 60.2831090241161,45.6584463671219 60.2878251793577,45.6618150494373 60.2918675981363,45.6550776848064 60.2851302335054,45.6510352660279 60.282435287653,45.6537302118803 60.2797403418007,45.6483403201755</coordinates></LinearRing></outerBoundaryIs></Polygon><Polygon><outerBoundaryIs><LinearRing><coordinates>60.2622231937603,45.6604675765112 60.2608757208342,45.6564251577326 60.2568333020556,45.6604675765112 60.2581807749818,45.6618150494373 60.2622231937603,45.6604675765112</coordinates></LinearRing></outerBoundaryIs></Polygon></MultiGeometry>
  </Placemark>
</Folder>
</Document></kml>
