<?xml version="1.0" encoding="utf-8" ?>
<kml xmlns="http://www.opengis.net/kml/2.2">
<Document id="root_doc">
<Schema name="task_grid_v6_46.18_60.48" id="task_grid_v6_46.18_60.48">
	<SimpleField name="area_ha" type="float"></SimpleField>
	<SimpleField name="low_risk_ha" type="float"></SimpleField>
	<SimpleField name="moderate_risk_ha" type="float"></SimpleField>
	<SimpleField name="grid_cell_deg" type="string"></SimpleField>
</Schema>
<Folder><name>task_grid_v6_46.18_60.48</name>
  <Placemark id="task_grid_v6_46.18_60.48.1">
	<name>task_grid_v6_46.18_60.48</name>
	<name>375.5</name>
	<description>1494</description>
	<Style><LineStyle><color>ff0000ff</color></LineStyle><PolyStyle><fill>0</fill></PolyStyle></Style>
	<ExtendedData><SchemaData schemaUrl="#task_grid_v6_46.18_60.48">
		<SimpleData name="area_ha">1118.4</SimpleData>
		<SimpleData name="low_risk_ha">0.1</SimpleData>
	</SchemaData></ExtendedData>
      <MultiGeometry><Polygon><outerBoundaryIs><LinearRing><coordinates>60.5007259016941,46.1442103570095 60.5020733746202,46.140167938231 60.5034208475464,46.1469053028619 60.5088107392511,46.1469053028619 60.5101582121773,46.140167938231 60.5047683204726,46.1374729923786 60.5044218499945,46.1343547580755 60.5018617303949,46.1343547580755 60.5020733746202,46.1347780465263 60.5017911823197,46.1343547580755 60.4902024413938,46.1343547580755 60.4872511724323,46.1361255194524 60.4854804110553,46.1343547580755 60.4839401035963,46.1343547580755 60.4791663348752,46.1415154111572 60.4737764431705,46.1442103570095 60.4710814973181,46.1415154111572 60.4683865514658,46.1469053028619 60.4603017139087,46.1496002487142 60.454911822204,46.154990140419 60.4495219304993,46.1522951945666 60.4481744575731,46.1590325591975 60.4576067680563,46.163074977976 60.4656916056134,46.154990140419 60.4710814973181,46.1576850862713 60.4737764431705,46.154990140419 60.4845562265799,46.154990140419 60.4845562265799,46.1469053028619 60.4859036995061,46.1455578299357 60.4892723818215,46.1489265122512 60.4859036995061,46.1509477216404 60.4872511724323,46.154990140419 60.4859036995061,46.1563376133451 60.4899461182846,46.1603800321237 60.4980309558417,46.1603800321237 60.5004564071088,46.1563376133451 60.515548103882,46.1563376133451 60.5061157933988,46.1522951945666 60.5010627699256,46.1553270086505 60.5020733746202,46.1536426674928 60.4980309558417,46.1496002487142 60.4939885370632,46.1509477216404 60.492641064137,46.1469053028619 60.4953360099894,46.1442103570095 60.5007259016941,46.1442103570095</coordinates></LinearRing></outerBoundaryIs><innerBoundaryIs><LinearRing><coordinates>60.4966834829155,46.1536426674928 60.4953360099894,46.154990140419 60.4909260985946,46.1527851847216 60.4939885370632,46.1509477216404 60.4966834829155,46.1536426674928</coordinates></LinearRing></innerBoundaryIs></Polygon><Polygon><outerBoundaryIs><LinearRing><coordinates>60.4346997283113,46.1671173967546 60.4263910613787,46.1687791301411 60.4263910613787,46.1749784049361 60.4279623636804,46.1765497072378 60.4427845658684,46.177897180164 60.4427845658684,46.1725072884593 60.4481744575731,46.1671173967546 60.4427845658684,46.1644224509022 60.4481744575731,46.1617275050499 60.4427845658684,46.1590325591975 60.4441320387945,46.1469053028619 60.4360472012375,46.1469053028619 60.4293098366066,46.1509477216404 60.4263910613787,46.1558123470202 60.4263910613787,46.163074977976 60.4279623636804,46.163074977976 60.4346997283113,46.1671173967546</coordinates></LinearRing></outerBoundaryIs><innerBoundaryIs><LinearRing><coordinates>60.4387421470898,46.1540918251348 60.440089620016,46.1536426674928 60.4387421470898,46.1576850862713 60.4387421470898,46.1540918251348</coordinates></LinearRing></innerBoundaryIs><innerBoundaryIs><LinearRing><coordinates>60.4346997283113,46.1725072884593 60.4333522553851,46.1738547613855 60.4320047824589,46.1725072884593 60.4346997283113,46.1725072884593</coordinates></LinearRing></innerBoundaryIs></Polygon><Polygon><outerBoundaryIs><LinearRing><coordinates>60.4764713890228,46.1738547613855 60.4737764431705,46.1711598155331 60.4724289702443,46.1752022343116 60.4791663348752,46.1765497072378 60.4845562265799,46.1738547613855 60.4899461182846,46.1657699238284 60.4953360099894,46.1684648696807 60.5020733746202,46.1617275050499 60.4899461182846,46.1603800321237 60.4845562265799,46.1657699238284 60.4791663348752,46.1657699238284 60.477818861949,46.1671173967546 60.4805138078014,46.1698123426069 60.4764713890228,46.1738547613855</coordinates></LinearRing></outerBoundaryIs></Polygon><Polygon><outerBoundaryIs><LinearRing><coordinates>60.462996659761,46.1819395989425 60.4724289702443,46.1752022343116 60.4724289702443,46.1698123426069 60.4683865514658,46.1657699238284 60.462996659761,46.1711598155331 60.4576067680563,46.1711598155331 60.4508694034254,46.1752022343116 60.4576067680563,46.1765497072378 60.4603017139087,46.1819395989425 60.462996659761,46.1819395989425</coordinates></LinearRing></outerBoundaryIs><innerBoundaryIs><LinearRing><coordinates>60.4670390785396,46.1752022343116 60.4656916056134,46.1765497072378 60.4643441326872,46.1752022343116 60.4670390785396,46.1752022343116</coordinates></LinearRing></innerBoundaryIs></Polygon><Polygon><outerBoundaryIs><LinearRing><coordinates>60.4427845658684,46.177897180164 60.4522168763516,46.1792446530902 60.4535643492778,46.177897180164 60.4468269846469,46.1738547613855 60.4427845658684,46.177897180164</coordinates></LinearRing></outerBoundaryIs></Polygon><Polygon><outerBoundaryIs><LinearRing><coordinates>60.4263910613787,46.1977054818461 60.4263910613787,46.2000405020285 60.4293098366066,46.1994567469829 60.4263910613787,46.1977054818461</coordinates></LinearRing></outerBoundaryIs></Polygon><Polygon><outerBoundaryIs><LinearRing><coordinates>60.5128531580297,46.1347780465263 60.5142006309559,46.1361255194524 60.5159713923328,46.1343547580755 60.5130648022551,46.1343547580755 60.5128531580297,46.1347780465263</coordinates></LinearRing></outerBoundaryIs></Polygon><Polygon><outerBoundaryIs><LinearRing><coordinates>60.5234659760976,46.1343547580755 60.5187439457591,46.1343547580755 60.5222854685129,46.1361255194524 60.5234659760976,46.1343547580755</coordinates></LinearRing></outerBoundaryIs></Polygon><Polygon><outerBoundaryIs><LinearRing><coordinates>60.5115056851035,46.1469053028619 60.5182430497344,46.1428628840833 60.5168955768082,46.1361255194524 60.5101582121773,46.140167938231 60.5115056851035,46.1469053028619</coordinates></LinearRing></outerBoundaryIs></Polygon><Polygon><outerBoundaryIs><LinearRing><coordinates>60.5263910613787,46.2087055862034 60.5263910613787,46.2066362499128 60.5182430497344,46.2075415845399 60.5263910613787,46.2087055862034</coordinates></LinearRing></outerBoundaryIs></Polygon></MultiGeometry>
  </Placemark>
</Folder>
</Document></kml>
