<?xml version="1.0" encoding="utf-8" ?>
<kml xmlns="http://www.opengis.net/kml/2.2">
<Document id="root_doc">
<Schema name="task_grid_v6_46.08_60.58" id="task_grid_v6_46.08_60.58">
	<SimpleField name="area_ha" type="float"></SimpleField>
	<SimpleField name="low_risk_ha" type="float"></SimpleField>
	<SimpleField name="moderate_risk_ha" type="float"></SimpleField>
	<SimpleField name="grid_cell_deg" type="string"></SimpleField>
</Schema>
<Folder><name>task_grid_v6_46.08_60.58</name>
  <Placemark id="task_grid_v6_46.08_60.58.1">
	<name>task_grid_v6_46.08_60.58</name>
	<name>1472.2</name>
	<description>2227.2</description>
	<Style><LineStyle><color>ff0000ff</color></LineStyle><PolyStyle><fill>0</fill></PolyStyle></Style>
	<ExtendedData><SchemaData schemaUrl="#task_grid_v6_46.08_60.58">
		<SimpleData name="area_ha">755</SimpleData>
		<SimpleData name="low_risk_ha">0.1</SimpleData>
	</SchemaData></ExtendedData>
      <MultiGeometry><Polygon><outerBoundaryIs><LinearRing><coordinates>60.5802268043387,46.0754892377744 60.5842692231172,46.0795316565529 60.5874133266116,46.0781841836267 60.582921750191,46.0808791294791 60.5923540606743,46.0822266024053 60.5923540606743,46.0768367107006 60.590557430106,46.0768367107006 60.5937015336004,46.0754892377744 60.5896591148219,46.0714468189958 60.5842692231172,46.0714468189958 60.5815742772648,46.0687518731435 60.5802268043387,46.0754892377744</coordinates></LinearRing></outerBoundaryIs></Polygon><Polygon><outerBoundaryIs><LinearRing><coordinates>60.5707944938554,46.0795316565529 60.5707944938554,46.0714468189958 60.5654046021507,46.0768367107006 60.5613621833721,46.0781841836267 60.5707944938554,46.0795316565529</coordinates></LinearRing></outerBoundaryIs></Polygon><Polygon><outerBoundaryIs><LinearRing><coordinates>60.5263910613787,46.0844232552144 60.5344127248486,46.0781841836267 60.5276753602177,46.0768367107006 60.5263910613787,46.0794053083785 60.5263910613787,46.0844232552144</coordinates></LinearRing></outerBoundaryIs></Polygon><Polygon><outerBoundaryIs><LinearRing><coordinates>60.5505823999627,46.0754892377744 60.5505823999627,46.0781841836267 60.5559722916674,46.0835740753315 60.5573197645936,46.0903114399623 60.5586672375198,46.0781841836267 60.5546248187412,46.0741417648482 60.5505823999627,46.0754892377744</coordinates></LinearRing></outerBoundaryIs></Polygon><Polygon><outerBoundaryIs><LinearRing><coordinates>60.5707944938554,46.0849215482576 60.5707944938554,46.0795316565529 60.5654046021507,46.0795316565529 60.5640571292245,46.0835740753315 60.5707944938554,46.0849215482576</coordinates></LinearRing></outerBoundaryIs></Polygon><Polygon><outerBoundaryIs><LinearRing><coordinates>60.5734894397077,46.0957013316671 60.5748369126339,46.0889639670362 60.568099548003,46.0849215482576 60.5667520750769,46.0889639670362 60.5734894397077,46.0957013316671</coordinates></LinearRing></outerBoundaryIs></Polygon><Polygon><outerBoundaryIs><LinearRing><coordinates>60.5330652519224,46.08761649411 60.5290228331438,46.0916589128885 60.53037030607,46.0957013316671 60.5344127248486,46.0916589128885 60.5330652519224,46.08761649411</coordinates></LinearRing></outerBoundaryIs></Polygon><Polygon><outerBoundaryIs><LinearRing><coordinates>60.5465399811842,46.0849215482576 60.5438450353318,46.0849215482576 60.5424975624056,46.0889639670362 60.545192508258,46.0916589128885 60.545192508258,46.0970488045932 60.5492349270365,46.0983962775194 60.5532773458151,46.0916589128885 60.5478874541103,46.0889639670362 60.5465399811842,46.0849215482576</coordinates></LinearRing></outerBoundaryIs></Polygon><Polygon><outerBoundaryIs><LinearRing><coordinates>60.5263910613787,46.1299671301538 60.5276753602177,46.1280406818954 60.5344127248486,46.1266932089692 60.5290228331438,46.1213033172645 60.5371076707009,46.1293881548215 60.5371076707009,46.1343547580755 60.5510056884135,46.1343547580755 60.5519298728889,46.1334305736001 60.5528540573643,46.1343547580755 60.5553837164742,46.1343547580755 60.5586672375198,46.1266932089692 60.5478874541103,46.1186083714121 60.5519298728889,46.1145659526336 60.5654046021507,46.1334305736001 60.5627096562983,46.1307356277477 60.5615032795224,46.1343547580755 60.5663287866261,46.1343547580755 60.5654046021507,46.1334305736001 60.568099548003,46.1280406818954 60.5721419667816,46.1266932089692 60.5721419667816,46.1239982631168 60.568099548003,46.1226507901907 60.5640571292245,46.1159134255598 60.568099548003,46.1199558443383 60.5694470209292,46.1186083714121 60.568099548003,46.1145659526336 60.5707944938554,46.1199558443383 60.5748369126339,46.1132184797074 60.560014710446,46.1064811150765 60.560014710446,46.1091760609289 60.5573197645936,46.1064811150765 60.5532773458151,46.1078285880027 60.5586672375198,46.1051336421503 60.5532773458151,46.102438696298 60.5492349270365,46.1028061889142 60.5492349270365,46.0983962775194 60.5465399811842,46.0983962775194 60.5424975624056,46.102438696298 60.5458662447211,46.1031124327611 60.5384551436271,46.1037861692241 60.5357601977747,46.1010912233718 60.5330652519224,46.102438696298 60.5371076707009,46.0997437504456 60.5357601977747,46.0957013316671 60.5330652519224,46.0957013316671 60.5276753602177,46.1010912233718 60.5276753602177,46.0957013316671 60.5263910613787,46.0960224063768 60.5263910613787,46.1010912233718 60.5263910613787,46.1012339232428 60.5263910613787,46.1299671301538</coordinates></LinearRing></outerBoundaryIs><innerBoundaryIs><LinearRing><coordinates>60.5411500894794,46.1280406818954 60.5398026165533,46.1266932089692 60.5424975624056,46.1266932089692 60.5411500894794,46.1280406818954</coordinates></LinearRing></innerBoundaryIs></Polygon><Polygon><outerBoundaryIs><LinearRing><coordinates>60.5342716286983,46.1343547580755 60.5330652519224,46.1307356277477 60.5294461215946,46.1343547580755 60.5342716286983,46.1343547580755</coordinates></LinearRing></outerBoundaryIs></Polygon><Polygon><outerBoundaryIs><LinearRing><coordinates>60.5887349303465,46.1343547580755 60.5910065877481,46.1320831006739 60.5815742772648,46.1307356277477 60.5788793314125,46.1334305736001 60.5707944938554,46.1307356277477 60.5671753635276,46.1343547580755 60.5833450386418,46.1343547580755 60.5842692231172,46.1334305736001 60.5851934075926,46.1343547580755 60.5887349303465,46.1343547580755</coordinates></LinearRing></outerBoundaryIs></Polygon><Polygon><outerBoundaryIs><LinearRing><coordinates>60.6152611004193,46.0700993460697 60.6112186816408,46.0660569272911 60.6098712087146,46.0700993460697 60.6139136274931,46.0714468189958 60.6152611004193,46.0700993460697</coordinates></LinearRing></outerBoundaryIs></Polygon><Polygon><outerBoundaryIs><LinearRing><coordinates>60.6246934109026,46.0714468189958 60.6246934109026,46.0687518731435 60.6193035191978,46.0687518731435 60.6179560462717,46.0700993460697 60.6246934109026,46.0714468189958</coordinates></LinearRing></outerBoundaryIs></Polygon><Polygon><outerBoundaryIs><LinearRing><coordinates>60.6044813170099,46.072794291922 60.6004388982313,46.0687518731435 60.5937015336004,46.072794291922 60.597743952379,46.0768367107006 60.6044813170099,46.072794291922</coordinates></LinearRing></outerBoundaryIs></Polygon><Polygon><outerBoundaryIs><LinearRing><coordinates>60.6260408838287,46.0754892377744 60.6246934109026,46.0714468189958 60.620650992124,46.072794291922 60.6219984650502,46.0768367107006 60.6260408838287,46.0754892377744</coordinates></LinearRing></outerBoundaryIs></Polygon><Polygon><outerBoundaryIs><LinearRing><coordinates>60.6233459379764,46.0781841836267 60.6263910613787,46.0800112576681 60.6263910613787,46.0771691424926 60.6233459379764,46.0781841836267</coordinates></LinearRing></outerBoundaryIs></Polygon><Polygon><outerBoundaryIs><LinearRing><coordinates>60.6233459379764,46.0835740753315 60.6193035191978,46.0795316565529 60.6179560462717,46.0835740753315 60.6219984650502,46.0849215482576 60.6233459379764,46.0835740753315</coordinates></LinearRing></outerBoundaryIs></Polygon><Polygon><outerBoundaryIs><LinearRing><coordinates>60.6098712087146,46.0862690211838 60.6085237357884,46.0822266024053 60.6044813170099,46.0835740753315 60.6085237357884,46.08761649411 60.6098712087146,46.0862690211838</coordinates></LinearRing></outerBoundaryIs></Polygon><Polygon><outerBoundaryIs><LinearRing><coordinates>60.5883116418957,46.0862690211838 60.5856166960434,46.0889639670362 60.5869641689695,46.0930063858147 60.5937015336004,46.0916589128885 60.5923540606743,46.0822266024053 60.5856166960434,46.0835740753315 60.5883116418957,46.0862690211838</coordinates></LinearRing></outerBoundaryIs></Polygon><Polygon><outerBoundaryIs><LinearRing><coordinates>60.5950490065266,46.0957013316671 60.5950490065266,46.0903114399623 60.5937015336004,46.0916589128885 60.5923540606743,46.0930063858147 60.5856166960434,46.0943538587409 60.5950490065266,46.0957013316671</coordinates></LinearRing></outerBoundaryIs></Polygon><Polygon><outerBoundaryIs><LinearRing><coordinates>60.6017863711575,46.0970488045932 60.5937015336004,46.0997437504456 60.5963964794528,46.0970488045932 60.5856166960434,46.0970488045932 60.5888506310662,46.0986657721047 60.5856166960434,46.0997437504456 60.5865150113275,46.1012409425858 60.582921750191,46.102438696298 60.5869641689695,46.1118710067812 60.5896591148219,46.1091760609289 60.5950490065266,46.1145659526336 60.6017863711575,46.110523533855 60.6017863711575,46.1051336421503 60.5997651617682,46.1037861692241 60.6058287899361,46.1037861692241 60.6044813170099,46.1078285880027 60.6085237357884,46.1118710067812 60.6031338440837,46.1118710067812 60.6017863711575,46.1132184797074 60.6139136274931,46.1145659526336 60.6139136274931,46.1118710067812 60.6193035191978,46.1118710067812 60.620650992124,46.110523533855 60.6166085733455,46.1037861692241 60.6139136274931,46.1091760609289 60.6112186816408,46.1037861692241 60.6085237357884,46.1037861692241 60.6112186816408,46.0957013316671 60.6166085733455,46.0957013316671 60.6193035191978,46.0983962775194 60.6219984650502,46.0957013316671 60.6263910613787,46.0989957789134 60.6263910613787,46.0909940493044 60.6233459379764,46.0889639670362 60.6219984650502,46.0849215482576 60.6193035191978,46.0930063858147 60.6112186816408,46.08761649411 60.6085237357884,46.08761649411 60.6058287899361,46.0930063858147 60.6031338440837,46.08761649411 60.5990914253052,46.0916589128885 60.6017863711575,46.0970488045932</coordinates></LinearRing></outerBoundaryIs><innerBoundaryIs><LinearRing><coordinates>60.5910065877481,46.0997437504456 60.5937015336004,46.1051336421503 60.5902366032188,46.099358758181 60.5910065877481,46.0997437504456</coordinates></LinearRing></innerBoundaryIs></Polygon><Polygon><outerBoundaryIs><LinearRing><coordinates>60.6179560462717,46.102438696298 60.6166085733455,46.0983962775194 60.6125661545669,46.102438696298 60.6139136274931,46.1037861692241 60.6179560462717,46.102438696298</coordinates></LinearRing></outerBoundaryIs></Polygon><Polygon><outerBoundaryIs><LinearRing><coordinates>60.6179560462717,46.1266932089692 60.6085237357884,46.1199558443383 60.6058287899361,46.1226507901907 60.6031338440837,46.1199558443383 60.6017863711575,46.1266932089692 60.6058287899361,46.1280406818954 60.6085237357884,46.125345736043 60.6139136274931,46.1307356277477 60.6179560462717,46.1266932089692</coordinates></LinearRing></outerBoundaryIs></Polygon><Polygon><outerBoundaryIs><LinearRing><coordinates>60.5923540606743,46.125345736043 60.5883116418957,46.1266932089692 60.5923540606743,46.1307356277477 60.5937015336004,46.1293881548215 60.5923540606743,46.125345736043</coordinates></LinearRing></outerBoundaryIs></Polygon><Polygon><outerBoundaryIs><LinearRing><coordinates>60.6263910613787,46.1343547580755 60.6263910613787,46.1319482352307 60.6246934109026,46.1307356277477 60.620650992124,46.1320831006739 60.6240584782264,46.1343547580755 60.6263910613787,46.1343547580755</coordinates></LinearRing></outerBoundaryIs></Polygon></MultiGeometry>
  </Placemark>
</Folder>
</Document></kml>
