<?xml version="1.0" encoding="utf-8" ?>
<kml xmlns="http://www.opengis.net/kml/2.2">
<Document id="root_doc">
<Schema name="task_grid_v6_45.88_60.88" id="task_grid_v6_45.88_60.88">
	<SimpleField name="area_ha" type="float"></SimpleField>
	<SimpleField name="low_risk_ha" type="float"></SimpleField>
	<SimpleField name="moderate_risk_ha" type="float"></SimpleField>
	<SimpleField name="grid_cell_deg" type="string"></SimpleField>
</Schema>
<Folder><name>task_grid_v6_45.88_60.88</name>
  <Placemark id="task_grid_v6_45.88_60.88.1">
	<name>task_grid_v6_45.88_60.88</name>
	<name>359.5</name>
	<description>430.5</description>
	<Style><LineStyle><color>ff0000ff</color></LineStyle><PolyStyle><fill>0</fill></PolyStyle></Style>
	<ExtendedData><SchemaData schemaUrl="#task_grid_v6_45.88_60.88">
		<SimpleData name="area_ha">71</SimpleData>
		<SimpleData name="low_risk_ha">0.1</SimpleData>
	</SchemaData></ExtendedData>
      <MultiGeometry><Polygon><outerBoundaryIs><LinearRing><coordinates>60.8281934097992,45.8343547580755 60.8295092956818,45.8369865298406 60.832141067447,45.8343547580755 60.8281934097992,45.8343547580755</coordinates></LinearRing></outerBoundaryIs></Polygon><Polygon><outerBoundaryIs><LinearRing><coordinates>60.8669226671788,45.8343547580755 60.8617854718229,45.8343547580755 60.8322674156214,45.8343547580755 60.8402890790912,45.8423764215454 60.853763808353,45.8423764215454 60.8564587542054,45.8504612591024 60.8672385376148,45.8504612591024 60.8726284293195,45.8450713673977 60.8753233751719,45.8504612591024 60.8766708480981,45.8437238944715 60.8753233751719,45.8423764215454 60.8753233751719,45.8423764215454 60.8793657939504,45.8356390569145 60.8789376943375,45.8343547580755 60.8752602010847,45.8343547580755 60.8752602010847,45.8343547580755 60.8673648857893,45.8343547580755 60.8726284293195,45.8369865298406 60.868586010541,45.8383340027668 60.8712809563934,45.8399509702782 60.8605011729839,45.8356390569145 60.8672385376148,45.8369865298406 60.8672385376148,45.8343547580755 60.8669226671788,45.8343547580755</coordinates></LinearRing></outerBoundaryIs></Polygon><Polygon><outerBoundaryIs><LinearRing><coordinates>60.8820607398028,45.8343547580755 60.8820607398028,45.8356390569145 60.8887981044337,45.8369865298406 60.8887981044337,45.8343547580755 60.8820607398028,45.8343547580755</coordinates></LinearRing></outerBoundaryIs></Polygon><Polygon><outerBoundaryIs><LinearRing><coordinates>60.868586010541,45.8491137861763 60.8699334834672,45.8504612591024 60.8739759022457,45.8491137861763 60.8726284293195,45.8450713673977 60.868586010541,45.8491137861763</coordinates></LinearRing></outerBoundaryIs></Polygon></MultiGeometry>
  </Placemark>
</Folder>
</Document></kml>
