<?xml version="1.0" encoding="utf-8" ?>
<kml xmlns="http://www.opengis.net/kml/2.2">
<Document id="root_doc">
<Schema name="task_grid_v6_46.01_60.66" id="task_grid_v6_46.01_60.66">
	<SimpleField name="area_ha" type="float"></SimpleField>
	<SimpleField name="low_risk_ha" type="float"></SimpleField>
	<SimpleField name="moderate_risk_ha" type="float"></SimpleField>
	<SimpleField name="grid_cell_deg" type="string"></SimpleField>
</Schema>
<Folder><name>task_grid_v6_46.01_60.66</name>
  <Placemark id="task_grid_v6_46.01_60.66.1">
	<name>task_grid_v6_46.01_60.66</name>
	<name>262.5</name>
	<description>1096.2</description>
	<Style><LineStyle><color>ff0000ff</color></LineStyle><PolyStyle><fill>0</fill></PolyStyle></Style>
	<ExtendedData><SchemaData schemaUrl="#task_grid_v6_46.01_60.66">
		<SimpleData name="area_ha">833.7</SimpleData>
		<SimpleData name="low_risk_ha">0.1</SimpleData>
	</SchemaData></ExtendedData>
      <MultiGeometry><Polygon><outerBoundaryIs><LinearRing><coordinates>60.6278154312376,45.9625641451378 60.6300833026073,45.9663439307539 60.6314307755335,45.9649964578277 60.6309443129955,45.9625641451378 60.6278154312376,45.9625641451378</coordinates></LinearRing></outerBoundaryIs></Polygon><Polygon><outerBoundaryIs><LinearRing><coordinates>60.6462529777214,45.9717338224586 60.6543378152785,45.9717338224586 60.6597277069832,45.9744287683109 60.6597277069832,45.9663439307539 60.6543378152785,45.9690388766062 60.6516428694261,45.9663439307539 60.6381681401644,45.9663439307539 60.6368206672382,45.9703863495324 60.6435580318691,45.9744287683109 60.6462529777214,45.9717338224586</coordinates></LinearRing></outerBoundaryIs></Polygon><Polygon><outerBoundaryIs><LinearRing><coordinates>60.673202436245,45.982513605868 60.6745499091712,45.9811661329418 60.6705074903927,45.9771237141633 60.6691600174665,45.9811661329418 60.673202436245,45.982513605868</coordinates></LinearRing></outerBoundaryIs></Polygon><Polygon><outerBoundaryIs><LinearRing><coordinates>60.635473194312,45.982513605868 60.635473194312,45.9879034975727 60.6462529777214,45.982513605868 60.6556852882047,45.9811661329418 60.6489479235738,45.9771237141633 60.6462529777214,45.9798186600157 60.635473194312,45.9798186600157 60.6246934109026,45.9744287683109 60.620650992124,45.9811661329418 60.6246934109026,45.982513605868 60.6273883567549,45.9798186600157 60.6273883567549,45.9852085517204 60.6327782484596,45.9852085517204 60.635473194312,45.982513605868</coordinates></LinearRing></outerBoundaryIs></Polygon><Polygon><outerBoundaryIs><LinearRing><coordinates>60.6273883567549,45.9959883351298 60.6368206672382,45.9946408622036 60.6273883567549,45.9879034975727 60.620650992124,45.9919459163513 60.6273883567549,45.9959883351298</coordinates></LinearRing></outerBoundaryIs></Polygon><Polygon><outerBoundaryIs><LinearRing><coordinates>60.6381681401644,46.0013782268345 60.6529903423523,46.0000307539083 60.6435580318691,45.9932933892774 60.6368206672382,45.997335808056 60.6381681401644,46.0013782268345</coordinates></LinearRing></outerBoundaryIs></Polygon><Polygon><outerBoundaryIs><LinearRing><coordinates>60.6273883567549,46.0067681185392 60.6300833026073,46.0040731726869 60.635473194312,46.0040731726869 60.635473194312,45.9986832809822 60.6327782484596,46.0013782268345 60.6273883567549,46.0013782268345 60.6246934109026,45.9986832809822 60.620650992124,46.0000307539083 60.6233459379764,46.0054206456131 60.6273883567549,46.0067681185392</coordinates></LinearRing></outerBoundaryIs></Polygon><Polygon><outerBoundaryIs><LinearRing><coordinates>60.6624226528356,45.9959883351298 60.6610751799094,45.997335808056 60.6664650716141,46.0054206456131 60.6651175986879,46.0067681185392 60.6570327611309,46.0013782268345 60.6529903423523,46.0027256997607 60.6597277069832,46.0094630643916 60.6678125445403,46.0094630643916 60.6705074903927,46.012158010244 60.6758973820974,46.0094630643916 60.6920670572115,46.0229377936534 60.6934145301377,46.0162004290225 60.6812872738021,46.0094630643916 60.6799398008759,46.0054206456131 60.6718549633188,46.0000307539083 60.6758973820974,45.9986832809822 60.6866771655068,46.0040731726869 60.6907195842853,46.0000307539083 60.6839822196545,45.9932933892774 60.6705074903927,45.9905984434251 60.6678125445403,45.9879034975727 60.6610751799094,45.9892509704989 60.6678125445403,45.9959883351298 60.6705074903927,45.9932933892774 60.6718549633188,45.9946408622036 60.6678125445403,45.9986832809822 60.6624226528356,45.9959883351298</coordinates></LinearRing></outerBoundaryIs></Polygon><Polygon><outerBoundaryIs><LinearRing><coordinates>60.6907195842853,45.9919459163513 60.6974569489162,45.9932933892774 60.6974569489162,45.9905984434251 60.6920670572115,45.9905984434251 60.6907195842853,45.9919459163513</coordinates></LinearRing></outerBoundaryIs></Polygon><Polygon><outerBoundaryIs><LinearRing><coordinates>60.6934145301377,46.0296751582843 60.6866771655068,46.0229377936534 60.6678125445403,46.0175479019487 60.6651175986879,46.0148529560963 60.6610751799094,46.0162004290225 60.6651175986879,46.020242847801 60.6758973820974,46.0229377936534 60.6839822196545,46.0283276853581 60.6866771655068,46.0337175770628 60.6934145301377,46.0296751582843</coordinates></LinearRing></outerBoundaryIs></Polygon><Polygon><outerBoundaryIs><LinearRing><coordinates>60.7001518947686,46.0310226312105 60.7041943135471,46.0269802124319 60.7001518947686,46.0229377936534 60.6961094759901,46.0242852665796 60.7001518947686,46.0310226312105</coordinates></LinearRing></outerBoundaryIs></Polygon><Polygon><outerBoundaryIs><LinearRing><coordinates>60.7055417864733,46.0283276853581 60.7014993676948,46.0323701041366 60.7041943135471,46.0377599958414 60.7014993676948,46.0404549416937 60.702846840621,46.0418024146199 60.7068892593995,46.0404549416937 60.7055417864733,46.0283276853581</coordinates></LinearRing></outerBoundaryIs></Polygon><Polygon><outerBoundaryIs><LinearRing><coordinates>60.6934145301377,46.0404549416937 60.6974569489162,46.0418024146199 60.7014993676948,46.0377599958414 60.6974569489162,46.0364125229152 60.6934145301377,46.0404549416937</coordinates></LinearRing></outerBoundaryIs></Polygon><Polygon><outerBoundaryIs><LinearRing><coordinates>60.7082367323257,46.0364125229152 60.7068892593995,46.0404549416937 60.7102213862645,46.0421210051262 60.7102213862645,46.0364125229152 60.7082367323257,46.0364125229152</coordinates></LinearRing></outerBoundaryIs></Polygon><Polygon><outerBoundaryIs><LinearRing><coordinates>60.7102213862645,46.0496017476053 60.7102213862645,46.0472654172254 60.7095842052519,46.0485397792508 60.7102213862645,46.0496017476053</coordinates></LinearRing></outerBoundaryIs></Polygon></MultiGeometry>
  </Placemark>
</Folder>
</Document></kml>
