<?xml version="1.0" encoding="utf-8" ?>
<kml xmlns="http://www.opengis.net/kml/2.2">
<Document id="root_doc">
<Schema name="task_grid_v6_46.28_59.88" id="task_grid_v6_46.28_59.88">
	<SimpleField name="area_ha" type="float"></SimpleField>
	<SimpleField name="low_risk_ha" type="float"></SimpleField>
	<SimpleField name="moderate_risk_ha" type="float"></SimpleField>
	<SimpleField name="grid_cell_deg" type="string"></SimpleField>
</Schema>
<Folder><name>task_grid_v6_46.28_59.88</name>
  <Placemark id="task_grid_v6_46.28_59.88.1">
	<name>task_grid_v6_46.28_59.88</name>
	<name>108.9</name>
	<description>143.1</description>
	<Style><LineStyle><color>ff0000ff</color></LineStyle><PolyStyle><fill>0</fill></PolyStyle></Style>
	<ExtendedData><SchemaData schemaUrl="#task_grid_v6_46.28_59.88">
		<SimpleData name="area_ha">34.3</SimpleData>
		<SimpleData name="low_risk_ha">0.1</SimpleData>
	</SchemaData></ExtendedData>
      <MultiGeometry><Polygon><outerBoundaryIs><LinearRing><coordinates>59.8472015324971,46.2614405015871 59.8431591137186,46.2573980828086 59.8377692220139,46.2573980828086 59.8364217490877,46.2614405015871 59.8458540595709,46.2627879745133 59.8472015324971,46.2614405015871</coordinates></LinearRing></outerBoundaryIs></Polygon><Polygon><outerBoundaryIs><LinearRing><coordinates>59.8350742761615,46.2600930286609 59.8350742761615,46.268177866218 59.8472015324971,46.2641354474395 59.8377692220139,46.2627879745133 59.8350742761615,46.2600930286609</coordinates></LinearRing></outerBoundaryIs></Polygon><Polygon><outerBoundaryIs><LinearRing><coordinates>59.8269894386044,46.2789576496275 59.8323793303091,46.2789576496275 59.8350742761615,46.2816525954798 59.8364217490877,46.2722202849966 59.8323793303091,46.268177866218 59.8269894386044,46.2762627037751 59.8263910613787,46.2764621628503 59.8263910613787,46.2793850619315 59.8269894386044,46.2789576496275</coordinates></LinearRing></outerBoundaryIs></Polygon><Polygon><outerBoundaryIs><LinearRing><coordinates>59.8458540595709,46.2816525954798 59.8431591137186,46.2843475413322 59.83911669494,46.2856950142583 59.8458540595709,46.2870424871845 59.8458540595709,46.2816525954798</coordinates></LinearRing></outerBoundaryIs></Polygon></MultiGeometry>
  </Placemark>
</Folder>
</Document></kml>
