<?xml version="1.0" encoding="utf-8" ?>
<kml xmlns="http://www.opengis.net/kml/2.2">
<Document id="root_doc">
<Schema name="task_grid_v6_45.81_61.06" id="task_grid_v6_45.81_61.06">
	<SimpleField name="area_ha" type="float"></SimpleField>
	<SimpleField name="low_risk_ha" type="float"></SimpleField>
	<SimpleField name="moderate_risk_ha" type="float"></SimpleField>
	<SimpleField name="grid_cell_deg" type="string"></SimpleField>
</Schema>
<Folder><name>task_grid_v6_45.81_61.06</name>
  <Placemark id="task_grid_v6_45.81_61.06.1">
	<name>task_grid_v6_45.81_61.06</name>
	<name>959.6</name>
	<description>1548.9</description>
	<Style><LineStyle><color>ff0000ff</color></LineStyle><PolyStyle><fill>0</fill></PolyStyle></Style>
	<ExtendedData><SchemaData schemaUrl="#task_grid_v6_45.81_61.06">
		<SimpleData name="area_ha">589.3</SimpleData>
		<SimpleData name="low_risk_ha">0.1</SimpleData>
	</SchemaData></ExtendedData>
      <MultiGeometry><Polygon><outerBoundaryIs><LinearRing><coordinates>61.0370201263134,45.7696128835317 61.0383675992396,45.7682654106055 61.0370201263134,45.764222991827 61.0329777075349,45.7655704647531 61.0370201263134,45.7696128835317</coordinates></LinearRing></outerBoundaryIs></Polygon><Polygon><outerBoundaryIs><LinearRing><coordinates>61.0451049638705,45.7776977210888 61.049147382649,45.7736553023102 61.0424100180181,45.772307829384 61.041062545092,45.7763502481626 61.0451049638705,45.7776977210888</coordinates></LinearRing></outerBoundaryIs></Polygon><Polygon><outerBoundaryIs><LinearRing><coordinates>61.0154605594946,45.7884775044982 61.0168080324207,45.787130031572 61.0168080324207,45.7817401398673 61.011418140716,45.7709603564579 61.0102213862645,45.7703619792321 61.0102213862645,45.8018015152853 61.0127656136422,45.7992572879076 61.0154605594946,45.80195223376 61.0195029782731,45.7979098149814 61.011418140716,45.7898249774244 61.0127656136422,45.7857825586458 61.0154605594946,45.7884775044982</coordinates></LinearRing></outerBoundaryIs></Polygon><Polygon><outerBoundaryIs><LinearRing><coordinates>61.0558847472799,45.8100370713171 61.0558847472799,45.80195223376 61.049147382649,45.8032997066862 61.0545372743538,45.8059946525385 61.0558847472799,45.8100370713171</coordinates></LinearRing></outerBoundaryIs></Polygon><Polygon><outerBoundaryIs><LinearRing><coordinates>61.0154605594946,45.8100370713171 61.0195029782731,45.8059946525385 61.0127656136422,45.8046471796123 61.011418140716,45.8059946525385 61.0154605594946,45.8100370713171</coordinates></LinearRing></outerBoundaryIs></Polygon><Polygon><outerBoundaryIs><LinearRing><coordinates>61.0248928699778,45.816774435948 61.0208504511993,45.8100370713171 61.0195029782731,45.816774435948 61.0235453970516,45.8181219088741 61.0248928699778,45.816774435948</coordinates></LinearRing></outerBoundaryIs></Polygon><Polygon><outerBoundaryIs><LinearRing><coordinates>61.0397150721658,45.8181219088741 61.0383675992396,45.8221643276527 61.0424100180181,45.8235118005789 61.0356726533872,45.824859273505 61.0383675992396,45.8275542193574 61.0383675992396,45.8329441110621 61.0397150721658,45.8342915839883 61.0424100180181,45.8315966381359 61.0477999097229,45.8342915839883 61.049147382649,45.8329441110621 61.0464524367967,45.8302491652098 61.049147382649,45.8275542193574 61.0504948555752,45.8342915839883 61.0518423285014,45.8329441110621 61.0572322202061,45.8356390569145 61.0545372743538,45.8383340027668 61.0585796931323,45.839681475693 61.0680120036156,45.8329441110621 61.0680120036156,45.8302491652098 61.0734018953203,45.8275542193574 61.0747493682464,45.8235118005789 61.0895715704344,45.8235118005789 61.0868766245821,45.824859273505 61.0882240975082,45.8342915839883 61.0963089350653,45.8262067464312 61.0976564079915,45.8275542193574 61.0949614621391,45.8329441110621 61.0963089350653,45.8342915839883 61.1003513538438,45.8302491652098 61.1003513538438,45.8194693818003 61.093613989213,45.8127320171694 61.0922665162868,45.8221643276527 61.0910226951241,45.822786238234 61.0922665162868,45.8140794900956 61.0855291516559,45.8073421254647 61.0828342058035,45.8073421254647 61.0814867328773,45.8113845442432 61.0868766245821,45.8140794900956 61.0801392599512,45.8154269630218 61.0734018953203,45.8113845442432 61.0760968411726,45.8059946525385 61.0693594765417,45.80195223376 61.0612746389846,45.8154269630218 61.0518423285014,45.8140794900956 61.0612746389846,45.8127320171694 61.0612746389846,45.8100370713171 61.0558847472799,45.8100370713171 61.0504948555752,45.8100370713171 61.0451049638705,45.8127320171694 61.0437574909443,45.816774435948 61.0464524367967,45.8194693818003 61.0437574909443,45.8221643276527 61.0397150721658,45.8181219088741</coordinates></LinearRing></outerBoundaryIs><innerBoundaryIs><LinearRing><coordinates>61.0653170577632,45.8275542193574 61.063969584837,45.8289016922836 61.0612746389846,45.8235118005789 61.0653170577632,45.8275542193574</coordinates></LinearRing></innerBoundaryIs><innerBoundaryIs><LinearRing><coordinates>61.0828342058035,45.8208168547265 61.0828342058035,45.8181219088741 61.0855291516559,45.8181219088741 61.0868766245821,45.8194693818003 61.0828342058035,45.8208168547265</coordinates></LinearRing></innerBoundaryIs><innerBoundaryIs><LinearRing><coordinates>61.0720544223941,45.8154269630218 61.0747493682464,45.8154269630218 61.0747493682464,45.8181219088741 61.0707069494679,45.816774435948 61.0720544223941,45.8154269630218</coordinates></LinearRing></innerBoundaryIs></Polygon><Polygon><outerBoundaryIs><LinearRing><coordinates>61.0316302346087,45.8262067464312 61.0329777075349,45.824859273505 61.0289352887564,45.8208168547265 61.0275878158302,45.824859273505 61.0316302346087,45.8262067464312</coordinates></LinearRing></outerBoundaryIs></Polygon><Polygon><outerBoundaryIs><LinearRing><coordinates>61.0168080324207,45.8275542193574 61.0127656136422,45.8235118005789 61.011418140716,45.8275542193574 61.0154605594946,45.8289016922836 61.0168080324207,45.8275542193574</coordinates></LinearRing></outerBoundaryIs></Polygon><Polygon><outerBoundaryIs><LinearRing><coordinates>61.0154605594946,45.8315966381359 61.0181555053469,45.8342915839883 61.0208504511993,45.8289016922836 61.0275878158302,45.8275542193574 61.026240342904,45.8235118005789 61.0235453970516,45.8262067464312 61.0208504511993,45.8235118005789 61.0154605594946,45.8289016922836 61.0102213862645,45.8289016922836 61.0102213862645,45.8337827385128 61.0127656136422,45.8342915839883 61.0154605594946,45.8315966381359</coordinates></LinearRing></outerBoundaryIs></Polygon><Polygon><outerBoundaryIs><LinearRing><coordinates>61.0383675992396,45.8410289486192 61.0397150721658,45.8423764215454 61.041062545092,45.8410289486192 61.0397150721658,45.8369865298406 61.0356726533873,45.8383340027668 61.0343251804611,45.8369865298406 61.0302827616825,45.8383340027668 61.0370201263134,45.8423764215454 61.0383675992396,45.8410289486192</coordinates></LinearRing></outerBoundaryIs></Polygon><Polygon><outerBoundaryIs><LinearRing><coordinates>61.0208504511993,45.8423764215454 61.0208504511993,45.839681475693 61.0154605594946,45.839681475693 61.0141130865684,45.8410289486192 61.0208504511993,45.8423764215454</coordinates></LinearRing></outerBoundaryIs></Polygon><Polygon><outerBoundaryIs><LinearRing><coordinates>61.0666645306894,45.7669179376793 61.0707069494679,45.7628755189008 61.0703955757049,45.7625641451378 61.0640522551644,45.7625641451378 61.0666645306894,45.7669179376793</coordinates></LinearRing></outerBoundaryIs></Polygon><Polygon><outerBoundaryIs><LinearRing><coordinates>61.0963089350653,45.7669179376793 61.0968479242358,45.7663789485089 61.093613989213,45.7696128835317 61.0868766245821,45.7709603564579 61.0882240975082,45.772307829384 61.0841816787297,45.7763502481626 61.0855291516559,45.7776977210888 61.0895715704344,45.7763502481626 61.0882240975082,45.772307829384 61.0909190433606,45.7750027752364 61.0963089350653,45.772307829384 61.1003513538438,45.7682654106055 61.0996776173808,45.7662442012162 61.10169882677,45.7696128835317 61.1057412455486,45.7628755189008 61.0976564079915,45.7628755189008 61.0986670126861,45.7645598600585 61.0976564079915,45.7655704647531 61.0958526162223,45.7625641451378 61.0898829441974,45.7625641451378 61.0895715704344,45.7628755189008 61.0963089350653,45.7669179376793</coordinates></LinearRing></outerBoundaryIs></Polygon><Polygon><outerBoundaryIs><LinearRing><coordinates>61.1097836643271,45.772307829384 61.1097836643271,45.7696128835317 61.10169882677,45.7696128835317 61.1003513538438,45.7709603564579 61.1097836643271,45.772307829384</coordinates></LinearRing></outerBoundaryIs></Polygon><Polygon><outerBoundaryIs><LinearRing><coordinates>61.1102213862645,45.7793002218526 61.1102213862645,45.7776977210888 61.1097836643271,45.7776977210888 61.1084361914009,45.7790451940149 61.1102213862645,45.7793002218526</coordinates></LinearRing></outerBoundaryIs></Polygon><Polygon><outerBoundaryIs><LinearRing><coordinates>61.0882240975082,45.7830876127935 61.0922665162868,45.7817401398673 61.0909190433606,45.7776977210888 61.0868766245821,45.7817401398673 61.0882240975082,45.7830876127935</coordinates></LinearRing></outerBoundaryIs></Polygon><Polygon><outerBoundaryIs><LinearRing><coordinates>61.0760968411726,45.8006047608338 61.0760968411726,45.7952148691291 61.078791787025,45.7925199232767 61.0774443140988,45.7884775044982 61.0707069494679,45.7952148691291 61.0734018953203,45.7979098149814 61.0720544223941,45.7992572879076 61.0693594765417,45.7965623420553 61.0653170577632,45.7979098149814 61.0693594765417,45.80195223376 61.0760968411726,45.8006047608338</coordinates></LinearRing></outerBoundaryIs></Polygon><Polygon><outerBoundaryIs><LinearRing><coordinates>61.1102213862645,45.7988195659702 61.1084361914009,45.8006047608338 61.1102213862645,45.8009617998065 61.1102213862645,45.7988195659702</coordinates></LinearRing></outerBoundaryIs></Polygon><Polygon><outerBoundaryIs><LinearRing><coordinates>61.0963089350653,45.8423764215454 61.1003513538438,45.8383340027668 61.0963089350653,45.8369865298406 61.0922665162868,45.8410289486192 61.0963089350653,45.8423764215454</coordinates></LinearRing></outerBoundaryIs></Polygon><Polygon><outerBoundaryIs><LinearRing><coordinates>61.0668535453502,45.8625641451378 61.0666645306894,45.8612410425119 61.0662234964807,45.8625641451378 61.0668535453502,45.8625641451378</coordinates></LinearRing></outerBoundaryIs></Polygon></MultiGeometry>
  </Placemark>
</Folder>
</Document></kml>
