<?xml version="1.0" encoding="utf-8" ?>
<kml xmlns="http://www.opengis.net/kml/2.2">
<Document id="root_doc">
<Schema name="task_grid_v6_44.61_61.16" id="task_grid_v6_44.61_61.16">
	<SimpleField name="area_ha" type="float"></SimpleField>
	<SimpleField name="low_risk_ha" type="float"></SimpleField>
	<SimpleField name="moderate_risk_ha" type="float"></SimpleField>
	<SimpleField name="grid_cell_deg" type="string"></SimpleField>
</Schema>
<Folder><name>task_grid_v6_44.61_61.16</name>
  <Placemark id="task_grid_v6_44.61_61.16.1">
	<name>task_grid_v6_44.61_61.16</name>
	<name>0</name>
	<description>70.40000000000001</description>
	<Style><LineStyle><color>ff0000ff</color></LineStyle><PolyStyle><fill>0</fill></PolyStyle></Style>
	<ExtendedData><SchemaData schemaUrl="#task_grid_v6_44.61_61.16">
		<SimpleData name="area_ha">70.4</SimpleData>
		<SimpleData name="low_risk_ha">0.1</SimpleData>
	</SchemaData></ExtendedData>
      <MultiGeometry><Polygon><outerBoundaryIs><LinearRing><coordinates>61.131343231146,44.6485154089505 61.1353856499245,44.644472990172 61.1286482852936,44.6431255172458 61.1273008123674,44.644472990172 61.131343231146,44.6485154089505</coordinates></LinearRing></outerBoundaryIs></Polygon><Polygon><outerBoundaryIs><LinearRing><coordinates>61.1555977438172,44.6539053006552 61.1609876355219,44.6539053006552 61.1623351084481,44.6498628818767 61.1582926896696,44.6458204630982 61.1555977438172,44.6485154089505 61.1488603791863,44.6498628818767 61.1555977438172,44.6539053006552</coordinates></LinearRing></outerBoundaryIs></Polygon></MultiGeometry>
  </Placemark>
</Folder>
</Document></kml>
