<?xml version="1.0" encoding="utf-8" ?>
<kml xmlns="http://www.opengis.net/kml/2.2">
<Document id="root_doc">
<Schema name="task_grid_v6_45.78_59.98" id="task_grid_v6_45.78_59.98">
	<SimpleField name="area_ha" type="float"></SimpleField>
	<SimpleField name="low_risk_ha" type="float"></SimpleField>
	<SimpleField name="moderate_risk_ha" type="float"></SimpleField>
	<SimpleField name="grid_cell_deg" type="string"></SimpleField>
</Schema>
<Folder><name>task_grid_v6_45.78_59.98</name>
  <Placemark id="task_grid_v6_45.78_59.98.1">
	<name>task_grid_v6_45.78_59.98</name>
	<name>383.3</name>
	<description>856.5</description>
	<Style><LineStyle><color>ff0000ff</color></LineStyle><PolyStyle><fill>0</fill></PolyStyle></Style>
	<ExtendedData><SchemaData schemaUrl="#task_grid_v6_45.78_59.98">
		<SimpleData name="area_ha">473.1</SimpleData>
		<SimpleData name="low_risk_ha">0.1</SimpleData>
	</SchemaData></ExtendedData>
      <MultiGeometry><Polygon><outerBoundaryIs><LinearRing><coordinates>59.9263910613787,45.7343547580755 59.9263910613787,45.7357166644884 59.9267024351417,45.7372735333034 59.9293973809941,45.734578587451 59.9309641866227,45.7343547580755 59.9263910613787,45.7343547580755</coordinates></LinearRing></outerBoundaryIs></Polygon><Polygon><outerBoundaryIs><LinearRing><coordinates>59.9263910613787,45.7859382455273 59.9267024351417,45.7857825586458 59.9307448539202,45.7817401398673 59.9280499080679,45.7763502481626 59.9320923268464,45.772307829384 59.9320923268464,45.7776977210888 59.9342482835283,45.7782367102592 59.9280499080679,45.7844350857197 59.9388296914773,45.7925199232767 59.9374822185511,45.7938673962029 59.9347872726988,45.7911724503506 59.9334397997726,45.7952148691291 59.9320923268464,45.7938673962029 59.9267024351417,45.7965623420553 59.9263910613787,45.7963547595466 59.9263910613787,45.801640859997 59.9320923268464,45.8073421254647 59.9347872726988,45.8073421254647 59.9374822185511,45.80195223376 59.9361347456249,45.8059946525385 59.9401771644035,45.8073421254647 59.9415246373297,45.8059946525385 59.9401771644035,45.8046471796123 59.9415246373297,45.8032997066862 59.9403696605358,45.7975248227168 59.9415246373297,45.7979098149814 59.9428721102558,45.8046471796123 59.9496094748867,45.7979098149814 59.944219583182,45.7952148691291 59.9388296914773,45.787130031572 59.9388296914773,45.7817401398673 59.9356855879829,45.7785960363729 59.9428721102558,45.7803926669411 59.9496094748867,45.7736553023102 59.9482620019606,45.7669179376793 59.9464653713923,45.7660196223952 59.9509569478129,45.7669179376793 59.9509569478129,45.764222991827 59.9455670561082,45.764222991827 59.9446687408241,45.7651213071111 59.9428721102558,45.764222991827 59.9411700391912,45.7653577058701 59.9347872726988,45.7615280459746 59.9263910613787,45.7615280459746 59.9263910613787,45.764845739353 59.9263910613787,45.7859382455273</coordinates></LinearRing></outerBoundaryIs><innerBoundaryIs><LinearRing><coordinates>59.9374822185511,45.7965623420553 59.9347872726988,45.7965623420553 59.9334397997726,45.7952148691291 59.9374822185511,45.7965623420553</coordinates></LinearRing></innerBoundaryIs><innerBoundaryIs><LinearRing><coordinates>59.9267024351417,45.764222991827 59.9320923268464,45.7669179376793 59.9406671545585,45.7656929622919 59.9347872726988,45.7696128835317 59.9267024351417,45.764222991827</coordinates></LinearRing></innerBoundaryIs><innerBoundaryIs><LinearRing><coordinates>59.944219583182,45.7709603564579 59.9401771644035,45.772307829384 59.9401771644035,45.7696128835317 59.9428721102558,45.7696128835317 59.944219583182,45.7709603564579</coordinates></LinearRing></innerBoundaryIs></Polygon><Polygon><outerBoundaryIs><LinearRing><coordinates>59.9263910613787,45.8132795918679 59.9263910613787,45.8143164681941 59.9276007504258,45.814143655473 59.9293973809941,45.8154269630218 59.9307448539202,45.8113845442432 59.9263910613787,45.8087722687183 59.9263910613787,45.8130841820821 59.9263910613787,45.8132795918679</coordinates></LinearRing></outerBoundaryIs></Polygon><Polygon><outerBoundaryIs><LinearRing><coordinates>59.9482620019606,45.8154269630218 59.95904178537,45.8208168547265 59.9644316770747,45.8208168547265 59.9657791500009,45.8194693818003 59.9536518936653,45.8073421254647 59.9509569478129,45.8127320171694 59.9455670561082,45.8127320171694 59.9428721102558,45.8100370713171 59.9374822185511,45.8154269630218 59.9280499080679,45.816774435948 59.9311940115623,45.8181219088741 59.9293973809941,45.8181219088741 59.9280499080679,45.8194693818003 59.9374822185511,45.8235118005789 59.9388296914773,45.8221643276527 59.9374822185511,45.8208168547265 59.9482620019606,45.8154269630218</coordinates></LinearRing></outerBoundaryIs></Polygon><Polygon><outerBoundaryIs><LinearRing><coordinates>59.9644316770747,45.7343547580755 59.957621201543,45.7343547580755 59.9644316770747,45.7372735333034 59.9644316770747,45.7343547580755</coordinates></LinearRing></outerBoundaryIs></Polygon><Polygon><outerBoundaryIs><LinearRing><coordinates>59.9940760814507,45.7372735333034 59.9806013521889,45.7372735333034 59.9792538792627,45.7386210062296 59.9859912438936,45.7426634250081 59.9886861897459,45.7399684791557 59.9940760814507,45.7399684791557 59.9940760814507,45.7372735333034</coordinates></LinearRing></outerBoundaryIs></Polygon><Polygon><outerBoundaryIs><LinearRing><coordinates>59.9509569478129,45.7750027752364 59.9549993665915,45.7736553023102 59.9536518936653,45.7696128835317 59.9496094748867,45.7709603564579 59.9509569478129,45.7750027752364</coordinates></LinearRing></outerBoundaryIs></Polygon><Polygon><outerBoundaryIs><LinearRing><coordinates>59.9536518936653,45.8046471796123 59.9549993665915,45.8032997066862 59.9509569478129,45.7992572879076 59.9496094748867,45.8032997066862 59.9536518936653,45.8046471796123</coordinates></LinearRing></outerBoundaryIs></Polygon></MultiGeometry>
  </Placemark>
</Folder>
</Document></kml>
