<?xml version="1.0" encoding="utf-8" ?>
<kml xmlns="http://www.opengis.net/kml/2.2">
<Document id="root_doc">
<Schema name="task_grid_v6_46.01_59.26" id="task_grid_v6_46.01_59.26">
	<SimpleField name="area_ha" type="float"></SimpleField>
	<SimpleField name="low_risk_ha" type="float"></SimpleField>
	<SimpleField name="moderate_risk_ha" type="float"></SimpleField>
	<SimpleField name="grid_cell_deg" type="string"></SimpleField>
</Schema>
<Folder><name>task_grid_v6_46.01_59.26</name>
  <Placemark id="task_grid_v6_46.01_59.26.1">
	<name>task_grid_v6_46.01_59.26</name>
	<name>522.2</name>
	<description>789.7</description>
	<Style><LineStyle><color>ff0000ff</color></LineStyle><PolyStyle><fill>0</fill></PolyStyle></Style>
	<ExtendedData><SchemaData schemaUrl="#task_grid_v6_46.01_59.26">
		<SimpleData name="area_ha">267.5</SimpleData>
		<SimpleData name="low_risk_ha">0.1</SimpleData>
	</SchemaData></ExtendedData>
      <MultiGeometry><Polygon><outerBoundaryIs><LinearRing><coordinates>59.2135030287853,45.9706266606621 59.2102213862645,45.9698062500319 59.2102213862645,45.9732685693099 59.2233215676761,45.9798186600157 59.2246690406023,45.9784711870895 59.2212512895576,45.9750534360448 59.2135030287853,45.9706266606621</coordinates></LinearRing></outerBoundaryIs></Polygon><Polygon><outerBoundaryIs><LinearRing><coordinates>59.244881134495,46.012158010244 59.2529659720521,46.0175479019487 59.2615407997641,46.0163229265612 59.2637457554615,46.0175479019487 59.2785679576495,46.0162004290225 59.2718305930186,46.012158010244 59.2691356471662,46.0148529560963 59.2691356471662,46.0094630643916 59.2610508096091,46.0094630643916 59.260152494325,46.0103613796757 59.2583558637568,46.0094630643916 59.2524111302589,46.0106520110912 59.2502710261997,46.0094630643916 59.2478755187754,46.0088641875355 59.2516184991259,46.0081155914654 59.244881134495,46.0040731726869 59.2381437698641,46.0054206456131 59.2327538781594,46.0000307539083 59.2354488240117,45.997335808056 59.2287114593808,45.9905984434251 59.2273639864546,45.997335808056 59.2219740947499,46.0000307539083 59.2287114593808,46.0067681185392 59.2394912427903,46.012158010244 59.244881134495,46.012158010244</coordinates></LinearRing></outerBoundaryIs><innerBoundaryIs><LinearRing><coordinates>59.2410312118487,46.0071531108039 59.2394912427903,46.0067681185392 59.2381437698641,46.0054206456131 59.2410312118487,46.0071531108039</coordinates></LinearRing></innerBoundaryIs></Polygon><Polygon><outerBoundaryIs><LinearRing><coordinates>59.2516184991259,46.0081155914654 59.2583558637568,46.0094630643916 59.2583558637568,46.0067681185392 59.2529659720521,46.0067681185392 59.2516184991259,46.0081155914654</coordinates></LinearRing></outerBoundaryIs></Polygon><Polygon><outerBoundaryIs><LinearRing><coordinates>59.2745255388709,46.0094630643916 59.2731780659447,46.0108105373178 59.2772204847233,46.0148529560963 59.2812629035018,46.0108105373178 59.2745255388709,46.0094630643916</coordinates></LinearRing></outerBoundaryIs></Polygon><Polygon><outerBoundaryIs><LinearRing><coordinates>59.2960851056898,46.0148529560963 59.2933901598374,46.0175479019487 59.2880002681327,46.0148529560963 59.2842273439394,46.0186258802896 59.282610376428,46.0175479019487 59.2623982825353,46.0188953748749 59.2718305930186,46.020242847801 59.2745255388709,46.0229377936534 59.282610376428,46.0229377936534 59.2933901598374,46.0283276853581 59.2987800515422,46.0256327395057 59.3014749973945,46.0310226312105 59.3068648890992,46.0310226312105 59.3095598349516,46.0337175770628 59.3102213862645,46.0337175770628 59.3102213862645,46.0256327395057 59.3102213862645,46.0119926224157 59.3095598349516,46.012158010244 59.3082123620254,46.0135054831701 59.3041699432469,46.012158010244 59.297432578616,46.0162004290225 59.2960851056898,46.0148529560963</coordinates></LinearRing></outerBoundaryIs><innerBoundaryIs><LinearRing><coordinates>59.297432578616,46.0162004290225 59.3041699432469,46.0175479019487 59.2987800515422,46.0175479019487 59.297432578616,46.0162004290225</coordinates></LinearRing></innerBoundaryIs></Polygon></MultiGeometry>
  </Placemark>
</Folder>
</Document></kml>
