<?xml version="1.0" encoding="utf-8" ?>
<kml xmlns="http://www.opengis.net/kml/2.2">
<Document id="root_doc">
<Schema name="task_grid_v6_45.68_60.08" id="task_grid_v6_45.68_60.08">
	<SimpleField name="area_ha" type="float"></SimpleField>
	<SimpleField name="low_risk_ha" type="float"></SimpleField>
	<SimpleField name="moderate_risk_ha" type="float"></SimpleField>
	<SimpleField name="grid_cell_deg" type="string"></SimpleField>
</Schema>
<Folder><name>task_grid_v6_45.68_60.08</name>
  <Placemark id="task_grid_v6_45.68_60.08.1">
	<name>task_grid_v6_45.68_60.08</name>
	<name>2285.2</name>
	<description>3933.8</description>
	<Style><LineStyle><color>ff0000ff</color></LineStyle><PolyStyle><fill>0</fill></PolyStyle></Style>
	<ExtendedData><SchemaData schemaUrl="#task_grid_v6_45.68_60.08">
		<SimpleData name="area_ha">1648.6</SimpleData>
		<SimpleData name="low_risk_ha">0.1</SimpleData>
	</SchemaData></ExtendedData>
      <MultiGeometry><Polygon><outerBoundaryIs><LinearRing><coordinates>60.0263910613787,45.6343547580755 60.0263910613787,45.6375361664658 60.0263910613787,45.6510230808778 60.026415431679,45.6510352660279 60.0291103775313,45.6483403201755 60.0304578504575,45.6496877931017 60.0277629046051,45.6523827389541 60.034500269236,45.6564251577326 60.0385426880146,45.6550776848064 60.0358477421622,45.6523827389541 60.0398901609408,45.6483403201755 60.0479749984978,45.6483403201755 60.0533648902025,45.6510352660279 60.0547123631287,45.6550776848064 60.0479749984978,45.6564251577326 60.0439325797193,45.6604675765112 60.0452800526455,45.6618150494373 60.0587547819073,45.6618150494373 60.0587547819073,45.6564251577326 60.0614497277596,45.659120103585 60.064144673612,45.6564251577326 60.0654921465382,45.6577726306588 60.0601022548334,45.6631625223635 60.0614497277596,45.6645099952897 60.0722295111691,45.6645099952897 60.0776194028738,45.6618150494373 60.0789668758,45.6631625223635 60.0735769840952,45.6658574682159 60.0758227723055,45.6672049411421 60.0533648902025,45.6672049411421 60.0506699443502,45.6645099952897 60.0385426880146,45.6658574682159 60.0479749984978,45.6698998869944 60.0560598360549,45.6698998869944 60.0587547819073,45.6725948328468 60.0789668758,45.6712473599206 60.0780685605158,45.6685524140682 60.0803143487261,45.6698998869944 60.0964840238403,45.6698998869944 60.0991789696926,45.6672049411421 60.1045688613974,45.6672049411421 60.1005264426188,45.673942305773 60.1072638072497,45.6833746162562 60.1099587531021,45.6806796704038 60.1126536989544,45.6833746162562 60.1140011718806,45.6766372516253 60.1140011718806,45.68202714333 60.1180435906592,45.6833746162562 60.1193910635853,45.68202714333 60.1207385365115,45.6833746162562 60.1263910613787,45.6833746162562 60.1263910613787,45.6744847256548 60.1261284282162,45.674616042236 60.1261284282162,45.6737498096406 60.1263910613787,45.6737873286638 60.1263910613787,45.6618150494373 60.1234334823639,45.6618150494373 60.1263910613787,45.6610756546836 60.1263910613787,45.6561625245702 60.1261284282162,45.6564251577326 60.1193910635853,45.6523827389541 60.1220860094377,45.6496877931017 60.1207385365115,45.6456453743232 60.1180435906592,45.6473603398656 60.1180435906592,45.6429504284708 60.1234334823639,45.6429504284708 60.1261284282162,45.6456453743232 60.1263910613787,45.6456078553 60.1263910613787,45.6403680396881 60.1261284282162,45.6402554826185 60.1263910613787,45.639992849456 60.1263910613787,45.6343547580755 60.0851934075926,45.6343547580755 60.0626121750972,45.6343547580755 60.0577331162308,45.6343547580755 60.0342683164271,45.6343547580755 60.0439325797193,45.6416029555446 60.0425851067931,45.6429504284708 60.034500269236,45.6402554826185 60.0291103775313,45.6348655909138 60.0371952150884,45.6402554826185 60.0385426880146,45.6389080096923 60.0339894363978,45.6343547580755 60.0263910613787,45.6343547580755</coordinates></LinearRing></outerBoundaryIs><innerBoundaryIs><LinearRing><coordinates>60.1072638072497,45.6672049411421 60.109285016639,45.6658574682159 60.1072638072497,45.6698998869944 60.1045688613974,45.6672049411421 60.1072638072497,45.6672049411421</coordinates></LinearRing></innerBoundaryIs><innerBoundaryIs><LinearRing><coordinates>60.1059163343235,45.6550776848064 60.1099587531021,45.6564251577326 60.1099587531021,45.659120103585 60.0991789696926,45.6645099952897 60.0964840238403,45.6618150494373 60.0830092945785,45.6618150494373 60.0830092945785,45.6564251577326 60.0695345653167,45.6537302118803 60.0654921465382,45.6496877931017 60.0681870923905,45.6469928472494 60.0668396194643,45.6456453743232 60.0614497277596,45.6456453743232 60.0574073089811,45.6416029555446 60.0614497277596,45.6402554826185 60.064144673612,45.6429504284708 60.0668396194643,45.6402554826185 60.0722295111691,45.6402554826185 60.0722295111691,45.6375605367661 60.0749244570214,45.6402554826185 60.0735769840952,45.6416029555446 60.0830092945785,45.6483403201755 60.087051713357,45.644297901397 60.0863261510122,45.6437796425792 60.0937890779879,45.6456453743232 60.0964840238403,45.6483403201755 60.101873915545,45.6483403201755 60.1005264426188,45.6496877931017 60.1099587531021,45.6510352660279 60.1099587531021,45.6483403201755 60.1165036216007,45.6483403201755 60.1059163343235,45.6550776848064</coordinates></LinearRing></innerBoundaryIs><innerBoundaryIs><LinearRing><coordinates>60.0883991862832,45.6645099952897 60.0897466592094,45.6658574682159 60.087051713357,45.6658574682159 60.0883991862832,45.6645099952897</coordinates></LinearRing></innerBoundaryIs><innerBoundaryIs><LinearRing><coordinates>60.0951365509141,45.6658574682159 60.0937890779879,45.6672049411421 60.0937890779879,45.6645099952897 60.0951365509141,45.6658574682159</coordinates></LinearRing></innerBoundaryIs><innerBoundaryIs><LinearRing><coordinates>60.0722295111691,45.659120103585 60.0708820382429,45.6577726306588 60.0735769840952,45.6577726306588 60.0722295111691,45.659120103585</coordinates></LinearRing></innerBoundaryIs></Polygon><Polygon><outerBoundaryIs><LinearRing><coordinates>60.0587547819073,45.6914594538133 60.0627972006858,45.6928069267395 60.0601022548334,45.6981968184442 60.0614497277596,45.7022392372227 60.0654921465382,45.7008917642965 60.0663006302939,45.6990053021999 60.0668396194643,45.6995442913704 60.0708820382429,45.6981968184442 60.0695345653167,45.6914594538133 60.0722295111691,45.6995442913704 60.0749244570214,45.6941543996656 60.0789668758,45.6928069267395 60.0614497277596,45.6806796704038 60.0587547819073,45.6833746162562 60.0506699443502,45.6779847245515 60.0425851067931,45.6779847245515 60.0398901609408,45.6806796704038 60.0398901609408,45.6752897786991 60.0263910613787,45.67143289311 60.0263910613787,45.7046869725157 60.0291103775313,45.7049341830751 60.0318053233837,45.7076291289274 60.0533648902025,45.7076291289274 60.0547123631287,45.7008917642965 60.049322471424,45.6981968184442 60.0587547819073,45.6914594538133</coordinates></LinearRing></outerBoundaryIs><innerBoundaryIs><LinearRing><coordinates>60.0452800526455,45.6887645079609 60.0412376338669,45.6847220891824 60.0466275255717,45.6874170350347 60.0452800526455,45.6887645079609</coordinates></LinearRing></innerBoundaryIs><innerBoundaryIs><LinearRing><coordinates>60.0331527963099,45.6981968184442 60.034500269236,45.696849345518 60.034500269236,45.6995442913704 60.0331527963099,45.6981968184442</coordinates></LinearRing></innerBoundaryIs></Polygon><Polygon><outerBoundaryIs><LinearRing><coordinates>60.0291103775313,45.7103240747798 60.0291103775313,45.7049341830751 60.0263910613787,45.7049341830751 60.0263910613787,45.7086924850882 60.0291103775313,45.7103240747798</coordinates></LinearRing></outerBoundaryIs></Polygon><Polygon><outerBoundaryIs><LinearRing><coordinates>60.0439325797193,45.7170614394107 60.0479749984978,45.7211038581892 60.0533648902025,45.7211038581892 60.0533648902025,45.7157139664845 60.0452800526455,45.7157139664845 60.0439325797193,45.7170614394107</coordinates></LinearRing></outerBoundaryIs></Polygon><Polygon><outerBoundaryIs><LinearRing><coordinates>60.0601022548334,45.7224513311154 60.0587547819073,45.7184089123369 60.0547123631287,45.7224513311154 60.0560598360549,45.7237988040416 60.0601022548334,45.7224513311154</coordinates></LinearRing></outerBoundaryIs></Polygon><Polygon><outerBoundaryIs><LinearRing><coordinates>60.026415431679,45.7184089123369 60.0263910613787,45.7184137863969 60.0263910613787,45.7257202838932 60.0318053233837,45.7264937498939 60.034500269236,45.7291886957463 60.0358477421622,45.7251462769678 60.0291103775313,45.7237988040416 60.026415431679,45.7184089123369</coordinates></LinearRing></outerBoundaryIs></Polygon><Polygon><outerBoundaryIs><LinearRing><coordinates>60.0533648902025,45.7291886957463 60.0533648902025,45.7264937498939 60.0479749984978,45.7264937498939 60.0466275255717,45.7278412228201 60.0533648902025,45.7291886957463</coordinates></LinearRing></outerBoundaryIs></Polygon><Polygon><outerBoundaryIs><LinearRing><coordinates>60.0398901609408,45.7318836415987 60.0390664554485,45.7343547580755 60.0477511691223,45.7343547580755 60.0452800526455,45.7318836415987 60.0398901609408,45.7318836415987</coordinates></LinearRing></outerBoundaryIs></Polygon><Polygon><outerBoundaryIs><LinearRing><coordinates>60.0547123631287,45.7332311145248 60.0533648902025,45.7318836415987 60.0484226572489,45.7343547580755 60.0535887195781,45.7343547580755 60.0547123631287,45.7332311145248</coordinates></LinearRing></outerBoundaryIs></Polygon><Polygon><outerBoundaryIs><LinearRing><coordinates>60.0937890779879,45.6860695621086 60.0978314967665,45.68202714333 60.0937890779879,45.6806796704038 60.0897466592094,45.6847220891824 60.0937890779879,45.6860695621086</coordinates></LinearRing></outerBoundaryIs></Polygon><Polygon><outerBoundaryIs><LinearRing><coordinates>60.0897466592094,45.6874170350347 60.0964840238403,45.6887645079609 60.0964840238403,45.6860695621086 60.0937890779879,45.6860695621086 60.0910941321356,45.6860695621086 60.0897466592094,45.6874170350347</coordinates></LinearRing></outerBoundaryIs></Polygon><Polygon><outerBoundaryIs><LinearRing><coordinates>60.0816618216523,45.7062816560013 60.0830092945785,45.7076291289274 60.0857042404309,45.7049341830751 60.087051713357,45.7062816560013 60.0843567675047,45.7089766018536 60.0910941321356,45.7130190206322 60.0964840238403,45.7049341830751 60.101873915545,45.7022392372227 60.1045688613974,45.7049341830751 60.1180435906592,45.7049341830751 60.1203535442469,45.7037792062812 60.1261284282162,45.7049341830751 60.1261284282162,45.7022392372227 60.1234334823639,45.7022392372227 60.1263910613787,45.7007604477153 60.1263910613787,45.6914594538133 60.1207385365115,45.6914594538133 60.1180435906592,45.6941543996656 60.1153486448068,45.6914594538133 60.1099587531021,45.6941543996656 60.0910941321356,45.6941543996656 60.0816618216523,45.7035867101489 60.0816618216523,45.7062816560013</coordinates></LinearRing></outerBoundaryIs></Polygon><Polygon><outerBoundaryIs><LinearRing><coordinates>60.1099587531021,45.7291886957463 60.1140011718806,45.7251462769678 60.1072638072497,45.7237988040416 60.1059163343235,45.7278412228201 60.1099587531021,45.7291886957463</coordinates></LinearRing></outerBoundaryIs></Polygon><Polygon><outerBoundaryIs><LinearRing><coordinates>60.0937890779879,45.7264937498939 60.0924416050617,45.7278412228201 60.0964840238403,45.7318836415987 60.1045688613974,45.7318836415987 60.1059163343235,45.7305361686725 60.101873915545,45.7264937498939 60.0937890779879,45.7264937498939</coordinates></LinearRing></outerBoundaryIs></Polygon></MultiGeometry>
  </Placemark>
</Folder>
</Document></kml>
