<?xml version="1.0" encoding="utf-8" ?>
<kml xmlns="http://www.opengis.net/kml/2.2">
<Document id="root_doc">
<Schema name="task_grid_v6_46.21_60.76" id="task_grid_v6_46.21_60.76">
	<SimpleField name="area_ha" type="float"></SimpleField>
	<SimpleField name="low_risk_ha" type="float"></SimpleField>
	<SimpleField name="moderate_risk_ha" type="float"></SimpleField>
	<SimpleField name="grid_cell_deg" type="string"></SimpleField>
</Schema>
<Folder><name>task_grid_v6_46.21_60.76</name>
  <Placemark id="task_grid_v6_46.21_60.76.1">
	<name>task_grid_v6_46.21_60.76</name>
	<name>202.6</name>
	<description>488</description>
	<Style><LineStyle><color>ff0000ff</color></LineStyle><PolyStyle><fill>0</fill></PolyStyle></Style>
	<ExtendedData><SchemaData schemaUrl="#task_grid_v6_46.21_60.76">
		<SimpleData name="area_ha">285.4</SimpleData>
		<SimpleData name="low_risk_ha">0.1</SimpleData>
	</SchemaData></ExtendedData>
      <MultiGeometry><Polygon><outerBoundaryIs><LinearRing><coordinates>60.7836952161917,46.163074977976 60.7840017158947,46.1625641451378 60.782843828128,46.1625641451378 60.7836952161917,46.163074977976</coordinates></LinearRing></outerBoundaryIs></Polygon><Polygon><outerBoundaryIs><LinearRing><coordinates>60.8066022559368,46.1913719094258 60.8102213862645,46.1935433876225 60.8102213862645,46.1719152269448 60.8025598371582,46.163074977976 60.8012123642321,46.1671173967546 60.8066022559368,46.1752022343116 60.8066022559368,46.1859820177211 60.8092972017891,46.1886769635734 60.8066022559368,46.1913719094258</coordinates></LinearRing></outerBoundaryIs></Polygon><Polygon><outerBoundaryIs><LinearRing><coordinates>60.7877376349703,46.1886769635734 60.7917800537488,46.1900244364996 60.793127526675,46.1886769635734 60.7890851078964,46.1819395989425 60.7877376349703,46.1886769635734</coordinates></LinearRing></outerBoundaryIs></Polygon><Polygon><outerBoundaryIs><LinearRing><coordinates>60.7756103786346,46.192719382352 60.7796527974132,46.1859820177211 60.7729154327823,46.1819395989425 60.7688730140037,46.1886769635734 60.7756103786346,46.192719382352</coordinates></LinearRing></outerBoundaryIs></Polygon><Polygon><outerBoundaryIs><LinearRing><coordinates>60.8102213862645,46.1962072904453 60.8092972017891,46.1967618011305 60.8102213862645,46.1976859856059 60.8102213862645,46.1962072904453</coordinates></LinearRing></outerBoundaryIs></Polygon><Polygon><outerBoundaryIs><LinearRing><coordinates>60.7850426891179,46.2021516928352 60.7917800537488,46.2061941116138 60.793127526675,46.2021516928352 60.7863901620441,46.1954143282043 60.7850426891179,46.2021516928352</coordinates></LinearRing></outerBoundaryIs></Polygon><Polygon><outerBoundaryIs><LinearRing><coordinates>60.8092972017891,46.2021516928352 60.8102213862645,46.2030758773106 60.8102213862645,46.2012275083598 60.8092972017891,46.2021516928352</coordinates></LinearRing></outerBoundaryIs></Polygon><Polygon><outerBoundaryIs><LinearRing><coordinates>60.7850426891179,46.2075415845399 60.7917800537488,46.2115840033185 60.7971699454535,46.2115840033185 60.7985174183797,46.2183213679494 60.8025598371582,46.2196688408756 60.8012123642321,46.2210163138017 60.8025598371582,46.2277536784326 60.8102213862645,46.2222811433567 60.8102213862645,46.2192455524248 60.8102213862645,46.2144200453211 60.8066022559368,46.215626422097 60.8102213862645,46.2138168569331 60.8102213862645,46.2111607148677 60.8092972017891,46.2102365303923 60.8102213862645,46.2093123459169 60.8102213862645,46.2069513307476 60.8083172214792,46.2063166091525 60.8092972017891,46.2048466386876 60.8079497288629,46.2008042199091 60.8052547830106,46.2034991657614 60.7944749996011,46.2008042199091 60.7917800537488,46.2061941116138 60.7863901620441,46.2034991657614 60.7850426891179,46.2075415845399</coordinates></LinearRing></outerBoundaryIs><innerBoundaryIs><LinearRing><coordinates>60.8039073100844,46.2129314762447 60.8039073100844,46.2183213679494 60.8025598371582,46.2196688408756 60.8039073100844,46.2129314762447</coordinates></LinearRing></innerBoundaryIs></Polygon></MultiGeometry>
  </Placemark>
</Folder>
</Document></kml>
