<?xml version="1.0" encoding="utf-8" ?>
<kml xmlns="http://www.opengis.net/kml/2.2">
<Document id="root_doc">
<Schema name="task_grid_v6_45.48_61.18" id="task_grid_v6_45.48_61.18">
	<SimpleField name="area_ha" type="float"></SimpleField>
	<SimpleField name="low_risk_ha" type="float"></SimpleField>
	<SimpleField name="moderate_risk_ha" type="float"></SimpleField>
	<SimpleField name="grid_cell_deg" type="string"></SimpleField>
</Schema>
<Folder><name>task_grid_v6_45.48_61.18</name>
  <Placemark id="task_grid_v6_45.48_61.18.1">
	<name>task_grid_v6_45.48_61.18</name>
	<name>77.3</name>
	<description>1476.8</description>
	<Style><LineStyle><color>ff0000ff</color></LineStyle><PolyStyle><fill>0</fill></PolyStyle></Style>
	<ExtendedData><SchemaData schemaUrl="#task_grid_v6_45.48_61.18">
		<SimpleData name="area_ha">1399.5</SimpleData>
		<SimpleData name="low_risk_ha">0.1</SimpleData>
	</SchemaData></ExtendedData>
      <MultiGeometry><Polygon><outerBoundaryIs><LinearRing><coordinates>61.1263910613787,45.4593716499512 61.1286482852936,45.4596941105104 61.131343231146,45.4623890563628 61.139428068703,45.4623890563628 61.1448179604078,45.4596941105104 61.1461654333339,45.4583466375843 61.1367331228507,45.448914327101 61.1326907040722,45.4502618000272 61.1353856499245,45.4529567458796 61.1340381769983,45.4569991646581 61.1286482852936,45.4569991646581 61.1263910613787,45.4547419407432 61.1263910613787,45.4593716499512</coordinates></LinearRing></outerBoundaryIs></Polygon><Polygon><outerBoundaryIs><LinearRing><coordinates>61.1367331228507,45.4812536773293 61.1367331228507,45.4758637856246 61.1286482852936,45.4758637856246 61.1273008123674,45.4772112585508 61.1367331228507,45.4812536773293</coordinates></LinearRing></outerBoundaryIs></Polygon><Polygon><outerBoundaryIs><LinearRing><coordinates>61.1273008123674,45.4879910419602 61.139428068703,45.4893385148864 61.1407755416292,45.4960758795173 61.1440094766521,45.4976928470287 61.1407755416292,45.4987708253696 61.1421230145554,45.5028132441482 61.139428068703,45.4974233524435 61.1367331228507,45.5028132441482 61.1299957582198,45.5041607170744 61.1326907040722,45.5068556629267 61.131343231146,45.5082031358529 61.1263910613787,45.5082031358529 61.1263910613787,45.5108980817053 61.1421230145554,45.5108980817053 61.1448179604078,45.5082031358529 61.1596401625957,45.5068556629267 61.1623351084481,45.501465771222 61.1609876355219,45.5001182982958 61.1555977438172,45.5001182982958 61.1529027979648,45.5028132441482 61.1488603791863,45.4987708253696 61.154250270891,45.4987708253696 61.1515553250387,45.4933809336649 61.1569452167434,45.4906859878126 61.154250270891,45.4879910419602 61.1582926896696,45.4839486231817 61.1650300543005,45.4826011502555 61.1596401625957,45.4745163126984 61.154250270891,45.4718213668461 61.1582926896696,45.4704738939199 61.1555977438172,45.4623890563628 61.1502078521125,45.4677789480675 61.1421230145554,45.4677789480675 61.1380805957769,45.4718213668461 61.1380805957769,45.4799062044031 61.1407755416292,45.4826011502555 61.139428068703,45.4839486231817 61.1367331228507,45.4812536773293 61.1351161553393,45.4844876123521 61.1340381769983,45.4812536773293 61.1299957582198,45.4826011502555 61.131343231146,45.4839486231817 61.1273008123674,45.4879910419602</coordinates></LinearRing></outerBoundaryIs><innerBoundaryIs><LinearRing><coordinates>61.1461654333339,45.501465771222 61.145087454993,45.4982318361992 61.1461654333339,45.4987708253696 61.1488603791863,45.5041607170744 61.1475129062601,45.5055081900005 61.1421230145554,45.5028132441482 61.1461654333339,45.501465771222</coordinates></LinearRing></innerBoundaryIs><innerBoundaryIs><LinearRing><coordinates>61.1488603791863,45.4718213668461 61.1448179604078,45.4758637856246 61.1434704874816,45.4718213668461 61.1475129062601,45.4704738939199 61.1488603791863,45.4718213668461</coordinates></LinearRing></innerBoundaryIs><innerBoundaryIs><LinearRing><coordinates>61.1569452167434,45.4799062044031 61.1555977438172,45.4812536773293 61.1515553250387,45.4772112585508 61.1529027979648,45.4758637856246 61.1569452167434,45.4799062044031</coordinates></LinearRing></innerBoundaryIs><innerBoundaryIs><LinearRing><coordinates>61.1461654333339,45.4826011502555 61.1448179604078,45.4839486231817 61.1434704874816,45.4826011502555 61.1461654333339,45.4826011502555</coordinates></LinearRing></innerBoundaryIs></Polygon><Polygon><outerBoundaryIs><LinearRing><coordinates>61.1263910613787,45.4915957388013 61.1273008123674,45.4906859878126 61.1263910613787,45.4897762368238 61.1263910613787,45.4915957388013</coordinates></LinearRing></outerBoundaryIs></Polygon><Polygon><outerBoundaryIs><LinearRing><coordinates>61.1263910613787,45.4965307550117 61.1273008123674,45.4960758795173 61.1263910613787,45.4951661285285 61.1263910613787,45.4965307550117</coordinates></LinearRing></outerBoundaryIs></Polygon><Polygon><outerBoundaryIs><LinearRing><coordinates>61.1263910613787,45.5050704680631 61.1273008123674,45.5041607170744 61.1263910613787,45.5032509660856 61.1263910613787,45.5050704680631</coordinates></LinearRing></outerBoundaryIs></Polygon><Polygon><outerBoundaryIs><LinearRing><coordinates>61.1502078521125,45.5189829192623 61.1502078521125,45.51628797341 61.1448179604078,45.51628797341 61.1434704874816,45.5176354463362 61.1502078521125,45.5189829192623</coordinates></LinearRing></outerBoundaryIs></Polygon><Polygon><outerBoundaryIs><LinearRing><coordinates>61.1263910613787,45.5239350890296 61.1299957582198,45.5203303921885 61.1263910613787,45.5196094528203 61.1263910613787,45.5239350890296</coordinates></LinearRing></outerBoundaryIs></Polygon><Polygon><outerBoundaryIs><LinearRing><coordinates>61.1353856499245,45.5284152297456 61.131343231146,45.5243728109671 61.1299957582198,45.5284152297456 61.1340381769983,45.5297627026718 61.1353856499245,45.5284152297456</coordinates></LinearRing></outerBoundaryIs></Polygon><Polygon><outerBoundaryIs><LinearRing><coordinates>61.130545394845,45.5343547580755 61.1286482852936,45.5324576485241 61.1276997305179,45.5343547580755 61.130545394845,45.5343547580755</coordinates></LinearRing></outerBoundaryIs></Polygon><Polygon><outerBoundaryIs><LinearRing><coordinates>61.1265857092917,45.5343547580755 61.1263910613787,45.5337708143364 61.1263910613787,45.5343547580755 61.1265857092917,45.5343547580755</coordinates></LinearRing></outerBoundaryIs></Polygon><Polygon><outerBoundaryIs><LinearRing><coordinates>61.1436747577191,45.4343547580755 61.1529027979648,45.4462193812487 61.1623351084481,45.4421769624701 61.1609876355219,45.4354395978392 61.1533937571759,45.4343547580755 61.1436747577191,45.4343547580755</coordinates></LinearRing></outerBoundaryIs><innerBoundaryIs><LinearRing><coordinates>61.1569452167434,45.4394820166178 61.1555977438172,45.4408294895439 61.154250270891,45.4394820166178 61.1569452167434,45.4394820166178</coordinates></LinearRing></innerBoundaryIs></Polygon><Polygon><outerBoundaryIs><LinearRing><coordinates>61.1731148918575,45.4421769624701 61.1717674189314,45.4381345436916 61.1677250001528,45.4394820166178 61.1717674189314,45.4435244353963 61.1731148918575,45.4421769624701</coordinates></LinearRing></outerBoundaryIs></Polygon><Polygon><outerBoundaryIs><LinearRing><coordinates>61.1515553250387,45.4502618000272 61.1475129062601,45.4462193812487 61.1461654333339,45.4502618000272 61.1502078521125,45.4543042188057 61.1515553250387,45.4502618000272</coordinates></LinearRing></outerBoundaryIs></Polygon><Polygon><outerBoundaryIs><LinearRing><coordinates>61.1609876355219,45.4543042188057 61.1555977438172,45.4543042188057 61.154250270891,45.4583466375843 61.1555977438172,45.4596941105104 61.1582926896696,45.4569991646581 61.1609876355219,45.4596941105104 61.1609876355219,45.4543042188057</coordinates></LinearRing></outerBoundaryIs></Polygon><Polygon><outerBoundaryIs><LinearRing><coordinates>61.1623351084481,45.463736529289 61.1663775272266,45.4704738939199 61.169072473079,45.4650840022152 61.1744623647837,45.4650840022152 61.1771573106361,45.4596941105104 61.1852421481931,45.4543042188057 61.1879370940455,45.4569991646581 61.1892845669717,45.4556516917319 61.1892845669717,45.4529567458796 61.1825472023408,45.4462193812487 61.1771573106361,45.4462193812487 61.1758098377099,45.4502618000272 61.1704199460052,45.4529567458796 61.1758098377099,45.4556516917319 61.1717674189314,45.4623890563628 61.1663775272266,45.4596941105104 61.1623351084481,45.463736529289</coordinates></LinearRing></outerBoundaryIs></Polygon><Polygon><outerBoundaryIs><LinearRing><coordinates>61.2216239172,45.4852960961079 61.2202764442738,45.4812536773293 61.2135390796429,45.4852960961079 61.2148865525691,45.4893385148864 61.2216239172,45.4852960961079</coordinates></LinearRing></outerBoundaryIs></Polygon><Polygon><outerBoundaryIs><LinearRing><coordinates>61.1609876355219,45.4947284065911 61.1650300543005,45.4933809336649 61.1636825813743,45.4893385148864 61.1596401625957,45.4933809336649 61.1609876355219,45.4947284065911</coordinates></LinearRing></outerBoundaryIs></Polygon><Polygon><outerBoundaryIs><LinearRing><coordinates>61.2256663359785,45.5028132441482 61.2256663359785,45.5001182982958 61.2202764442738,45.5001182982958 61.2189289713476,45.501465771222 61.2256663359785,45.5028132441482</coordinates></LinearRing></outerBoundaryIs></Polygon><Polygon><outerBoundaryIs><LinearRing><coordinates>61.2121916067167,45.5055081900005 61.2162340254953,45.501465771222 61.2094966608644,45.5001182982958 61.2081491879382,45.501465771222 61.2121916067167,45.5055081900005</coordinates></LinearRing></outerBoundaryIs></Polygon><Polygon><outerBoundaryIs><LinearRing><coordinates>61.2263910613787,45.5101733563051 61.2243188630523,45.5122455546314 61.2263910613787,45.5129362874069 61.2263910613787,45.5101733563051</coordinates></LinearRing></outerBoundaryIs></Polygon><Polygon><outerBoundaryIs><LinearRing><coordinates>61.2081491879382,45.5230253380409 61.206801715012,45.5189829192623 61.2041067691597,45.5216778651147 61.1987168774549,45.5216778651147 61.1987168774549,45.51628797341 61.1933269857502,45.51628797341 61.191979512824,45.5176354463362 61.1946744586764,45.5203303921885 61.1892845669717,45.5230253380409 61.1933269857502,45.5270677568194 61.2041067691597,45.5270677568194 61.2081491879382,45.5230253380409</coordinates></LinearRing></outerBoundaryIs></Polygon><Polygon><outerBoundaryIs><LinearRing><coordinates>61.1658811278751,45.5343547580755 61.1582926896696,45.5324576485241 61.1576603198191,45.5343547580755 61.1658811278751,45.5343547580755</coordinates></LinearRing></outerBoundaryIs></Polygon><Polygon><outerBoundaryIs><LinearRing><coordinates>61.1834957571165,45.5343547580755 61.1825472023408,45.5324576485241 61.1717674189314,45.5324576485241 61.1717674189314,45.5343547580755 61.1834957571165,45.5343547580755</coordinates></LinearRing></outerBoundaryIs></Polygon></MultiGeometry>
  </Placemark>
</Folder>
</Document></kml>
