<?xml version="1.0" encoding="utf-8" ?>
<kml xmlns="http://www.opengis.net/kml/2.2">
<Document id="root_doc">
<Schema name="task_grid_v6_44.68_61.18" id="task_grid_v6_44.68_61.18">
	<SimpleField name="area_ha" type="float"></SimpleField>
	<SimpleField name="low_risk_ha" type="float"></SimpleField>
	<SimpleField name="moderate_risk_ha" type="float"></SimpleField>
	<SimpleField name="grid_cell_deg" type="string"></SimpleField>
</Schema>
<Folder><name>task_grid_v6_44.68_61.18</name>
  <Placemark id="task_grid_v6_44.68_61.18.1">
	<name>task_grid_v6_44.68_61.18</name>
	<name>0</name>
	<description>190.3</description>
	<Style><LineStyle><color>ff0000ff</color></LineStyle><PolyStyle><fill>0</fill></PolyStyle></Style>
	<ExtendedData><SchemaData schemaUrl="#task_grid_v6_44.68_61.18">
		<SimpleData name="area_ha">190.3</SimpleData>
		<SimpleData name="low_risk_ha">0.1</SimpleData>
	</SchemaData></ExtendedData>
      <MultiGeometry><Polygon><outerBoundaryIs><LinearRing><coordinates>61.1353856499245,44.644472990172 61.1286482852936,44.6431255172458 61.1273008123674,44.644472990172 61.131343231146,44.6485154089505 61.1353856499245,44.644472990172</coordinates></LinearRing></outerBoundaryIs></Polygon><Polygon><outerBoundaryIs><LinearRing><coordinates>61.1623351084481,44.6525578277291 61.1582926896696,44.6458204630982 61.1488603791863,44.6498628818767 61.1502078521125,44.6566002465076 61.1529027979648,44.6512103548029 61.1555977438172,44.6539053006552 61.1623351084481,44.6525578277291</coordinates></LinearRing></outerBoundaryIs></Polygon><Polygon><outerBoundaryIs><LinearRing><coordinates>61.1407755416292,44.6552527735814 61.1448179604078,44.65929519236 61.1461654333339,44.6579477194338 61.1448179604078,44.6512103548029 61.1407755416292,44.6552527735814</coordinates></LinearRing></outerBoundaryIs></Polygon><Polygon><outerBoundaryIs><LinearRing><coordinates>61.1785047835622,44.6741173945479 61.1717674189314,44.667380029917 61.1677250001528,44.6714224486956 61.1717674189314,44.6754648674741 61.1771573106361,44.6754648674741 61.1785047835622,44.6741173945479</coordinates></LinearRing></outerBoundaryIs></Polygon><Polygon><outerBoundaryIs><LinearRing><coordinates>61.1529027979648,44.6997193801453 61.1515553250387,44.7010668530715 61.1636825813743,44.70510927185 61.1677250001528,44.7010668530715 61.1529027979648,44.6997193801453</coordinates></LinearRing></outerBoundaryIs></Polygon><Polygon><outerBoundaryIs><LinearRing><coordinates>61.1892845669717,44.7037617989239 61.1933269857502,44.7078042177024 61.1946744586764,44.7064567447762 61.1933269857502,44.7024143259977 61.1892845669717,44.7037617989239</coordinates></LinearRing></outerBoundaryIs></Polygon></MultiGeometry>
  </Placemark>
</Folder>
</Document></kml>
