<?xml version="1.0" encoding="utf-8" ?>
<kml xmlns="http://www.opengis.net/kml/2.2">
<Document id="root_doc">
<Schema name="task_grid_v6_45.91_60.16" id="task_grid_v6_45.91_60.16">
	<SimpleField name="area_ha" type="float"></SimpleField>
	<SimpleField name="low_risk_ha" type="float"></SimpleField>
	<SimpleField name="moderate_risk_ha" type="float"></SimpleField>
	<SimpleField name="grid_cell_deg" type="string"></SimpleField>
</Schema>
<Folder><name>task_grid_v6_45.91_60.16</name>
  <Placemark id="task_grid_v6_45.91_60.16.1">
	<name>task_grid_v6_45.91_60.16</name>
	<name>1856.3</name>
	<description>3935.2</description>
	<Style><LineStyle><color>ff0000ff</color></LineStyle><PolyStyle><fill>0</fill></PolyStyle></Style>
	<ExtendedData><SchemaData schemaUrl="#task_grid_v6_45.91_60.16">
		<SimpleData name="area_ha">2078.9</SimpleData>
		<SimpleData name="low_risk_ha">0.1</SimpleData>
	</SchemaData></ExtendedData>
      <MultiGeometry><Polygon><outerBoundaryIs><LinearRing><coordinates>60.1476879950351,45.8666309342166 60.1503829408875,45.8666309342166 60.154425359666,45.8625885154381 60.1543847424989,45.8625641451378 60.1436212059563,45.8625641451378 60.1476879950351,45.8666309342166</coordinates></LinearRing></outerBoundaryIs></Polygon><Polygon><outerBoundaryIs><LinearRing><coordinates>60.1598152513707,45.8787581905522 60.1557728325922,45.8747157717737 60.154425359666,45.8787581905522 60.1584677784445,45.8801056634784 60.1598152513707,45.8787581905522</coordinates></LinearRing></outerBoundaryIs></Polygon><Polygon><outerBoundaryIs><LinearRing><coordinates>60.1598152513707,45.8787581905522 60.169247561854,45.8828006093307 60.1705950347801,45.8814531364046 60.169247561854,45.8801056634784 60.1705950347801,45.8787581905522 60.1746374535587,45.8828006093307 60.1786798723372,45.8787581905522 60.1719425077063,45.877410717626 60.1800273452634,45.877410717626 60.1813748181896,45.8760632446998 60.1759849264849,45.8733682988475 60.1781898821822,45.8689583874527 60.1800273452634,45.8720208259213 60.1813748181896,45.8706733529951 60.1827222911158,45.8720208259213 60.1894596557467,45.8706733529951 60.1881121828205,45.8639359883642 60.1840697640419,45.8652834612904 60.1835307748715,45.8663614396314 60.1827222911158,45.8639359883642 60.1759849264849,45.8652834612904 60.1638576701492,45.8666309342166 60.1598152513707,45.8760632446998 60.1629593548651,45.877410717626 60.1611627242969,45.877410717626 60.1598152513707,45.8787581905522</coordinates></LinearRing></outerBoundaryIs><innerBoundaryIs><LinearRing><coordinates>60.1776018939963,45.8679784071428 60.1732899806325,45.8679784071428 60.1759849264849,45.8652834612904 60.1776018939963,45.8679784071428</coordinates></LinearRing></innerBoundaryIs></Polygon><Polygon><outerBoundaryIs><LinearRing><coordinates>60.1625101972231,45.892232919814 60.1652051430754,45.8895379739616 60.1584677784445,45.8854955551831 60.1503829408875,45.8854955551831 60.1476879950351,45.8828006093307 60.1422981033304,45.8854955551831 60.1409506304042,45.8841480822569 60.1463405221089,45.8814531364046 60.139603157478,45.877410717626 60.1355607386995,45.8787581905522 60.1382556845518,45.8814531364046 60.1369082116257,45.8828006093307 60.1328657928471,45.8787581905522 60.1355607386995,45.8760632446998 60.1342132657733,45.8747157717737 60.1288233740686,45.8747157717737 60.1261284282162,45.8720208259213 60.1126536989544,45.8720208259213 60.1102213862645,45.8708046695764 60.1102213862645,45.8801662711313 60.1274759011424,45.8841480822569 60.1153486448068,45.8881905010355 60.1102213862645,45.8830632424932 60.1102213862645,45.8911480800503 60.1126536989544,45.8935803927402 60.1153486448068,45.8908854468878 60.1140011718806,45.892232919814 60.1234334823639,45.8962753385925 60.1315183199209,45.8962753385925 60.1220860094377,45.8976228115187 60.1315183199209,45.9043601761496 60.1342132657733,45.8989702844449 60.1382556845518,45.8976228115187 60.1369082116257,45.8935803927402 60.139603157478,45.8989702844449 60.1422981033304,45.8962753385925 60.1449930491827,45.8989702844449 60.1530778867398,45.8935803927402 60.1584677784445,45.8935803927402 60.1584677784445,45.8908854468878 60.1611627242969,45.8962753385925 60.1652051430754,45.8949278656664 60.1625101972231,45.892232919814</coordinates></LinearRing></outerBoundaryIs><innerBoundaryIs><LinearRing><coordinates>60.1476879950351,45.8908854468878 60.1503829408875,45.8881905010355 60.1530778867398,45.8908854468878 60.1476879950351,45.8908854468878</coordinates></LinearRing></innerBoundaryIs></Polygon><Polygon><outerBoundaryIs><LinearRing><coordinates>60.1102213862645,45.9003834156617 60.1102213862645,45.9043601761496 60.1102213862645,45.9063226564959 60.1153486448068,45.907055122002 60.1153486448068,45.9043601761496 60.1234334823639,45.9097500678543 60.1261284282162,45.9097500678543 60.12478095529,45.9110975407805 60.1315183199209,45.9124450137067 60.1315183199209,45.9097500678543 60.1422981033304,45.915139959559 60.1476879950351,45.915139959559 60.1517304138136,45.9110975407805 60.1449930491827,45.907055122002 60.139603157478,45.9097500678543 60.1315183199209,45.9043601761496 60.1261284282162,45.9043601761496 60.1234334823639,45.8989702844449 60.1180435906592,45.8989702844449 60.1153486448068,45.9016652302973 60.1138086757483,45.9012802380326 60.116696117733,45.9003177573711 60.1153486448068,45.8962753385925 60.1113062260283,45.8976228115187 60.112408703877,45.9009302450648 60.1102213862645,45.9003834156617</coordinates></LinearRing></outerBoundaryIs></Polygon><Polygon><outerBoundaryIs><LinearRing><coordinates>60.1571203055184,45.9030127032234 60.1503829408875,45.9016652302973 60.1490354679613,45.9057076490758 60.1530778867398,45.907055122002 60.1571203055184,45.9030127032234</coordinates></LinearRing></outerBoundaryIs></Polygon><Polygon><outerBoundaryIs><LinearRing><coordinates>60.1140011718806,45.9218773241899 60.1102213862645,45.9180975385739 60.1102213862645,45.9242982011752 60.1126536989544,45.9259197429685 60.1140011718806,45.9218773241899</coordinates></LinearRing></outerBoundaryIs></Polygon><Polygon><outerBoundaryIs><LinearRing><coordinates>60.1113062260283,45.929962161747 60.1102213862645,45.9310470015107 60.1102213862645,45.9333471530659 60.115064966296,45.9354229730794 60.1140011718806,45.9407419451565 60.1207385365115,45.944784363935 60.1207385365115,45.9393944722303 60.1234334823639,45.9420894180826 60.1476879950351,45.9420894180826 60.1503829408875,45.9393944722303 60.1517304138136,45.9461318368612 60.1571203055184,45.9488267827135 60.154425359666,45.9515217285659 60.1557728325922,45.9528692014921 60.1584677784445,45.9528692014921 60.1611627242969,45.9474793097873 60.1746374535587,45.9474793097873 60.1854172369681,45.9420894180826 60.1894596557467,45.9461318368612 60.1854172369681,45.9490192788458 60.1854172369681,45.9474793097873 60.1800273452634,45.9474793097873 60.1764340841269,45.9510725709238 60.1746374535587,45.9501742556397 60.1625101972231,45.9515217285659 60.1665526160016,45.9555641473444 60.169247561854,45.9528692014921 60.177332399411,45.9582590931968 60.1854172369681,45.9582590931968 60.1881121828205,45.9528692014921 60.1908071286728,45.9555641473444 60.1935020745252,45.9528692014921 60.192154601599,45.959606566123 60.1961970203776,45.9609540390491 60.1988919662299,45.9582590931968 60.2015869120823,45.9609540390491 60.206976803787,45.9582590931968 60.2096717496393,45.9609540390491 60.2102213862645,45.9609540390491 60.2102213862645,45.9544914927308 60.206976803787,45.9528692014921 60.2042818579346,45.9555641473444 60.206976803787,45.9501742556397 60.2102213862645,45.9501742556397 60.2102213862645,45.9453162548023 60.2102213862645,45.9342793988382 60.2102213862645,45.9280650521956 60.2102213862645,45.9268391612087 60.2102213862645,45.9228258789656 60.2083242767132,45.9218773241899 60.2102213862645,45.9210642772394 60.2102213862645,45.9101076193922 60.1961970203776,45.9124450137067 60.1908071286728,45.9205298512638 60.1791463052732,45.9270080864858 60.177332399411,45.9259197429685 60.1746374535587,45.9286146888208 60.1679000889278,45.929962161747 60.1476879950351,45.9286146888208 60.1449930491827,45.9259197429685 60.1436455762566,45.929962161747 60.1476879950351,45.9340045805256 60.139603157478,45.9340045805256 60.1409506304042,45.9326571075994 60.1355607386995,45.929962161747 60.1328657928471,45.9245722700423 60.1382556845518,45.9218773241899 60.1261284282162,45.9205298512638 60.1234334823639,45.9232247971161 60.1180435906592,45.9232247971161 60.1153486448068,45.9205298512638 60.1126536989544,45.9259197429685 60.1102213862645,45.9267305138651 60.1102213862645,45.9288773219833 60.1113062260283,45.929962161747</coordinates></LinearRing></outerBoundaryIs><innerBoundaryIs><LinearRing><coordinates>60.1840697640419,45.929962161747 60.1827222911158,45.9313096346732 60.1679000889278,45.9326571075994 60.1712687712432,45.9360257899148 60.169247561854,45.9366995263779 60.1665526160016,45.9313096346732 60.1638576701492,45.9340045805256 60.1679000889278,45.929962161747 60.1840697640419,45.929962161747</coordinates></LinearRing></innerBoundaryIs><innerBoundaryIs><LinearRing><coordinates>60.1941758109883,45.9468055733243 60.1961970203776,45.9474793097873 60.1988919662299,45.944784363935 60.1988919662299,45.9528692014921 60.1941758109883,45.9468055733243</coordinates></LinearRing></innerBoundaryIs><innerBoundaryIs><LinearRing><coordinates>60.1894596557467,45.9407419451565 60.1961970203776,45.9366995263779 60.1975444933037,45.9380469993041 60.1948495474514,45.9407419451565 60.1988919662299,45.9420894180826 60.1935020745252,45.9420894180826 60.1926037592411,45.944784363935 60.1894596557467,45.9407419451565</coordinates></LinearRing></innerBoundaryIs><innerBoundaryIs><LinearRing><coordinates>60.2096717496393,45.9340045805256 60.2042818579346,45.9420894180826 60.2019719043469,45.9397794644949 60.2096717496393,45.9340045805256</coordinates></LinearRing></innerBoundaryIs><innerBoundaryIs><LinearRing><coordinates>60.1935020745252,45.9340045805256 60.2042818579346,45.9286146888208 60.2060784885029,45.9286146888208 60.1935020745252,45.9340045805256</coordinates></LinearRing></innerBoundaryIs><innerBoundaryIs><LinearRing><coordinates>60.1274759011424,45.9272672158947 60.1234334823639,45.9313096346732 60.116696117733,45.9272672158947 60.1180435906592,45.9259197429685 60.1274759011424,45.9272672158947</coordinates></LinearRing></innerBoundaryIs><innerBoundaryIs><LinearRing><coordinates>60.1939512321673,45.9245722700423 60.1948495474514,45.9245722700423 60.1944003898093,45.9259197429685 60.1939512321673,45.9245722700423</coordinates></LinearRing></innerBoundaryIs><innerBoundaryIs><LinearRing><coordinates>60.2002394391561,45.9245722700423 60.2029343850084,45.9245722700423 60.2015869120823,45.9259197429685 60.2002394391561,45.9245722700423</coordinates></LinearRing></innerBoundaryIs></Polygon><Polygon><outerBoundaryIs><LinearRing><coordinates>60.1288233740686,45.9474793097873 60.1288233740686,45.944784363935 60.1234334823639,45.944784363935 60.1220860094377,45.9461318368612 60.1288233740686,45.9474793097873</coordinates></LinearRing></outerBoundaryIs></Polygon><Polygon><outerBoundaryIs><LinearRing><coordinates>60.1490354679613,45.9515217285659 60.139603157478,45.9474793097873 60.1355607386995,45.9488267827135 60.1369082116257,45.9528692014921 60.1490354679613,45.9515217285659</coordinates></LinearRing></outerBoundaryIs></Polygon><Polygon><outerBoundaryIs><LinearRing><coordinates>60.1315183199209,45.9582590931968 60.1355607386995,45.9542166744182 60.1342132657733,45.9501742556397 60.1261284282162,45.9501742556397 60.12478095529,45.9542166744182 60.1315183199209,45.9582590931968</coordinates></LinearRing></outerBoundaryIs></Polygon><Polygon><outerBoundaryIs><LinearRing><coordinates>60.1705950347801,45.9569116202706 60.1732899806325,45.959606566123 60.169247561854,45.9609540390491 60.1611627242969,45.9501742556397 60.1584677784445,45.9528692014921 60.1409506304042,45.9542166744182 60.1611627242969,45.9582590931968 60.1633152502674,45.9625641451378 60.1757222933224,45.9625641451378 60.1786798723372,45.959606566123 60.1719425077063,45.9555641473444 60.1705950347801,45.9569116202706</coordinates></LinearRing></outerBoundaryIs></Polygon><Polygon><outerBoundaryIs><LinearRing><coordinates>60.1431031563747,45.9625641451378 60.1422981033304,45.9609540390491 60.1328657928471,45.9623015119753 60.1331284260096,45.9625641451378 60.1431031563747,45.9625641451378</coordinates></LinearRing></outerBoundaryIs></Polygon><Polygon><outerBoundaryIs><LinearRing><coordinates>60.1827222911158,45.8639359883642 60.1840697640419,45.8625885154381 60.1840453937417,45.8625641451378 60.1760092967851,45.8625641451378 60.1759849264849,45.8625885154381 60.1827222911158,45.8639359883642</coordinates></LinearRing></outerBoundaryIs></Polygon><Polygon><outerBoundaryIs><LinearRing><coordinates>60.1948495474514,45.8760632446998 60.2015869120823,45.877410717626 60.2029343850084,45.8760632446998 60.1975444933037,45.8733682988475 60.206976803787,45.8747157717737 60.2102213862645,45.8730934805349 60.2102213862645,45.8660812975914 60.2102213862645,45.8625641451378 60.1948495474514,45.8625641451378 60.1948495474514,45.8760632446998</coordinates></LinearRing></outerBoundaryIs></Polygon><Polygon><outerBoundaryIs><LinearRing><coordinates>60.1813748181896,45.8733682988475 60.1827222911158,45.8801056634784 60.1867647098943,45.8733682988475 60.1813748181896,45.8733682988475</coordinates></LinearRing></outerBoundaryIs></Polygon><Polygon><outerBoundaryIs><LinearRing><coordinates>60.177332399411,45.8854955551831 60.1679000889278,45.8868430281093 60.1701458771381,45.8881905010355 60.169247561854,45.8881905010355 60.1652051430754,45.892232919814 60.1719425077063,45.8935803927402 60.1719425077063,45.8892684793764 60.1746374535587,45.8908854468878 60.177332399411,45.8881905010355 60.1827222911158,45.8881905010355 60.1840697640419,45.8868430281093 60.1800273452634,45.8828006093307 60.177332399411,45.8854955551831</coordinates></LinearRing></outerBoundaryIs></Polygon><Polygon><outerBoundaryIs><LinearRing><coordinates>60.2015869120823,45.8962753385925 60.2015869120823,45.8935803927402 60.1908071286728,45.8935803927402 60.1894596557467,45.8949278656664 60.2015869120823,45.8962753385925</coordinates></LinearRing></outerBoundaryIs></Polygon><Polygon><outerBoundaryIs><LinearRing><coordinates>60.1746374535587,45.9016652302973 60.1746374535587,45.8989702844449 60.169247561854,45.8989702844449 60.1679000889278,45.9003177573711 60.1746374535587,45.9016652302973</coordinates></LinearRing></outerBoundaryIs></Polygon><Polygon><outerBoundaryIs><LinearRing><coordinates>60.1665526160016,45.907055122002 60.1719425077063,45.9043601761496 60.1719425077063,45.9016652302973 60.1665526160016,45.9016652302973 60.1598152513707,45.9057076490758 60.1665526160016,45.907055122002</coordinates></LinearRing></outerBoundaryIs></Polygon></MultiGeometry>
  </Placemark>
</Folder>
</Document></kml>
