<?xml version="1.0" encoding="utf-8" ?>
<kml xmlns="http://www.opengis.net/kml/2.2">
<Document id="root_doc">
<Schema name="task_grid_v6_45.68_59.78" id="task_grid_v6_45.68_59.78">
	<SimpleField name="area_ha" type="float"></SimpleField>
	<SimpleField name="low_risk_ha" type="float"></SimpleField>
	<SimpleField name="moderate_risk_ha" type="float"></SimpleField>
	<SimpleField name="grid_cell_deg" type="string"></SimpleField>
</Schema>
<Folder><name>task_grid_v6_45.68_59.78</name>
  <Placemark id="task_grid_v6_45.68_59.78.1">
	<name>task_grid_v6_45.68_59.78</name>
	<name>2277.5</name>
	<description>3215.8</description>
	<Style><LineStyle><color>ff0000ff</color></LineStyle><PolyStyle><fill>0</fill></PolyStyle></Style>
	<ExtendedData><SchemaData schemaUrl="#task_grid_v6_45.68_59.78">
		<SimpleData name="area_ha">938.3</SimpleData>
		<SimpleData name="low_risk_ha">0.1</SimpleData>
	</SchemaData></ExtendedData>
      <MultiGeometry><Polygon><outerBoundaryIs><LinearRing><coordinates>59.7564100136049,45.6343547580755 59.7596157922955,45.6375605367661 59.7600737606798,45.6343547580755 59.7564100136049,45.6343547580755</coordinates></LinearRing></outerBoundaryIs></Polygon><Polygon><outerBoundaryIs><LinearRing><coordinates>59.763658211074,45.644297901397 59.7623107381478,45.6375605367661 59.7582683193693,45.6389080096923 59.7623107381478,45.6456453743232 59.763658211074,45.644297901397</coordinates></LinearRing></outerBoundaryIs></Polygon><Polygon><outerBoundaryIs><LinearRing><coordinates>59.7582683193693,45.6389080096923 59.7537150677525,45.6343547580755 59.7340138066981,45.6343547580755 59.7263910613787,45.6343547580755 59.7263910613787,45.6422960939012 59.7269089494509,45.6430729260096 59.7263910613787,45.643245555367 59.7263910613787,45.6495596315471 59.7272764420672,45.6510352660279 59.7286239149933,45.6496877931017 59.7274689381995,45.6439129091324 59.7313188608457,45.6496877931017 59.7340138066981,45.6604675765112 59.7353612796242,45.6618150494373 59.7380562254766,45.6645099952897 59.7420986442551,45.6496877931017 59.740751171329,45.6483403201755 59.748836008886,45.6510352660279 59.7542259005907,45.6564251577326 59.7582683193693,45.6389080096923</coordinates></LinearRing></outerBoundaryIs><innerBoundaryIs><LinearRing><coordinates>59.7394036984028,45.6416029555446 59.740751171329,45.6483403201755 59.7394036984028,45.6469928472494 59.7394036984028,45.6416029555446</coordinates></LinearRing></innerBoundaryIs></Polygon><Polygon><outerBoundaryIs><LinearRing><coordinates>59.7555733735169,45.6631625223635 59.7515309547384,45.6564251577326 59.7501834818122,45.6631625223635 59.7542259005907,45.6645099952897 59.7555733735169,45.6631625223635</coordinates></LinearRing></outerBoundaryIs></Polygon><Polygon><outerBoundaryIs><LinearRing><coordinates>59.7420986442551,45.6712473599206 59.7353612796242,45.6618150494373 59.7340138066981,45.6685524140682 59.740751171329,45.6725948328468 59.7420986442551,45.6712473599206</coordinates></LinearRing></outerBoundaryIs></Polygon><Polygon><outerBoundaryIs><LinearRing><coordinates>59.7555733735169,45.6847220891824 59.7515309547384,45.6779847245515 59.7474885359599,45.68202714333 59.7542259005907,45.6860695621086 59.7555733735169,45.6847220891824</coordinates></LinearRing></outerBoundaryIs></Polygon><Polygon><outerBoundaryIs><LinearRing><coordinates>59.7340138066981,45.6793321974777 59.7380562254766,45.6860695621086 59.7434461171813,45.6860695621086 59.7461410630337,45.6887645079609 59.7501834818122,45.6847220891824 59.740751171329,45.6779847245515 59.7340138066981,45.6793321974777</coordinates></LinearRing></outerBoundaryIs></Polygon><Polygon><outerBoundaryIs><LinearRing><coordinates>59.7569208464431,45.696849345518 59.7542259005907,45.6941543996656 59.7528784276646,45.6955018725918 59.7569208464431,45.7022392372227 59.763658211074,45.6981968184442 59.7596157922955,45.6941543996656 59.7569208464431,45.696849345518</coordinates></LinearRing></outerBoundaryIs></Polygon><Polygon><outerBoundaryIs><LinearRing><coordinates>59.7263910613787,45.7089766018536 59.7394036984028,45.7089766018536 59.7353612796242,45.7049341830751 59.7299713879195,45.7049341830751 59.7272764420672,45.7022392372227 59.7263910613787,45.7031246179112 59.7263910613787,45.7089766018536</coordinates></LinearRing></outerBoundaryIs></Polygon><Polygon><outerBoundaryIs><LinearRing><coordinates>59.7263910613787,45.7130190206322 59.7299713879195,45.7130190206322 59.731511356978,45.7145589896906 59.7263910613787,45.7139189527407 59.7263910613787,45.7192942930253 59.7263910613787,45.719756385263 59.7263910613787,45.7343547580755 59.7328901631474,45.7343547580755 59.7382800548521,45.7343547580755 59.7394036984028,45.7332311145248 59.7382059446906,45.7314344839566 59.7390187061382,45.728996199614 59.740751171329,45.7318836415987 59.7420986442551,45.7305361686725 59.740751171329,45.7237988040416 59.7367087525504,45.7251462769678 59.7353612796242,45.7237988040416 59.7367087525504,45.7224513311154 59.7380562254766,45.7237988040416 59.7420986442551,45.7224513311154 59.740751171329,45.7184089123369 59.7434461171813,45.7237988040416 59.7528784276646,45.719756385263 59.7501834818122,45.7170614394107 59.7528784276646,45.711671547706 59.7501834818122,45.7089766018536 59.7501834818122,45.7035867101489 59.7367087525504,45.7035867101489 59.7447935901075,45.7062816560013 59.7417617760236,45.7133558888637 59.740751171329,45.7103240747798 59.7263910613787,45.7103240747798 59.7263910613787,45.7130190206322</coordinates></LinearRing></outerBoundaryIs><innerBoundaryIs><LinearRing><coordinates>59.7346126835541,45.7260445922519 59.7340138066981,45.7251462769678 59.7353612796242,45.7237988040416 59.7346126835541,45.7260445922519</coordinates></LinearRing></innerBoundaryIs><innerBoundaryIs><LinearRing><coordinates>59.7364392579652,45.715174977314 59.7412784433435,45.7144836651171 59.740751171329,45.7157139664845 59.7364392579652,45.715174977314</coordinates></LinearRing></innerBoundaryIs><innerBoundaryIs><LinearRing><coordinates>59.7286239149933,45.719756385263 59.7286239149933,45.7305361686725 59.7274261612812,45.719756385263 59.7286239149933,45.719756385263</coordinates></LinearRing></innerBoundaryIs><innerBoundaryIs><LinearRing><coordinates>59.7447935901075,45.7143664935583 59.7461410630337,45.7130190206322 59.7474885359599,45.7170614394107 59.7461410630337,45.7184089123369 59.7447935901075,45.7143664935583</coordinates></LinearRing></innerBoundaryIs></Polygon><Polygon><outerBoundaryIs><LinearRing><coordinates>59.772579688719,45.6343547580755 59.7730905215573,45.6348655909138 59.774623020072,45.6343547580755 59.772579688719,45.6343547580755</coordinates></LinearRing></outerBoundaryIs></Polygon><Polygon><outerBoundaryIs><LinearRing><coordinates>59.8054298717856,45.6343547580755 59.7849388978636,45.6343547580755 59.7785273404823,45.6343547580755 59.7838703049667,45.6375605367661 59.778480413262,45.6348655909138 59.7744379944834,45.6389080096923 59.7798278861882,45.6469928472494 59.7771329403358,45.6496877931017 59.7771329403358,45.6550776848064 59.7811753591143,45.6645099952897 59.7865652508191,45.6645099952897 59.7946500883761,45.6698998869944 59.8000399800808,45.6645099952897 59.8027349259332,45.6698998869944 59.8108197634903,45.6698998869944 59.8135147093426,45.6752897786991 59.8263910613787,45.6752897786991 59.8263910613787,45.6343547580755 59.8108197634903,45.6343547580755 59.808265599299,45.6343547580755 59.8079840359768,45.6343547580755 59.8054298717856,45.6348655909138 59.8054298717856,45.6343547580755</coordinates></LinearRing></outerBoundaryIs><innerBoundaryIs><LinearRing><coordinates>59.8027349259332,45.6618150494373 59.8000399800808,45.6618150494373 59.8000399800808,45.659120103585 59.8040823988594,45.6604675765112 59.8027349259332,45.6618150494373</coordinates></LinearRing></innerBoundaryIs></Polygon><Polygon><outerBoundaryIs><LinearRing><coordinates>59.801387453007,45.6685524140682 59.8000399800808,45.6645099952897 59.7959975613023,45.6685524140682 59.7973450342285,45.6698998869944 59.801387453007,45.6685524140682</coordinates></LinearRing></outerBoundaryIs></Polygon><Polygon><outerBoundaryIs><LinearRing><coordinates>59.8000399800808,45.6806796704038 59.8067773447117,45.6766372516253 59.8000399800808,45.6725948328468 59.7919551425238,45.6725948328468 59.7906076695976,45.673942305773 59.7946500883761,45.6779847245515 59.7973450342285,45.6752897786991 59.7986925071547,45.6766372516253 59.7959975613023,45.6793321974777 59.8000399800808,45.6806796704038</coordinates></LinearRing></outerBoundaryIs></Polygon><Polygon><outerBoundaryIs><LinearRing><coordinates>59.7744379944834,45.6928069267395 59.7744379944834,45.6766372516253 59.7677006298525,45.6752897786991 59.763658211074,45.68202714333 59.7650056840002,45.6860695621086 59.7677006298525,45.6833746162562 59.7717430486311,45.6847220891824 59.7730905215573,45.6941543996656 59.7744379944834,45.6928069267395</coordinates></LinearRing></outerBoundaryIs><innerBoundaryIs><LinearRing><coordinates>59.7703955757049,45.6806796704038 59.7690481027787,45.6793321974777 59.7717430486311,45.6793321974777 59.7703955757049,45.6806796704038</coordinates></LinearRing></innerBoundaryIs></Polygon><Polygon><outerBoundaryIs><LinearRing><coordinates>59.7650056840002,45.696849345518 59.7677006298525,45.696849345518 59.7690481027787,45.6928069267395 59.7623107381478,45.6860695621086 59.7609632652216,45.6901119808871 59.7650056840002,45.696849345518</coordinates></LinearRing></outerBoundaryIs></Polygon><Polygon><outerBoundaryIs><LinearRing><coordinates>59.816209655195,45.6941543996656 59.8202520739735,45.6901119808871 59.7973450342285,45.6887645079609 59.7865652508191,45.6941543996656 59.7757854674096,45.6941543996656 59.7717430486311,45.7008917642965 59.7811753591143,45.7022392372227 59.7946500883761,45.6941543996656 59.816209655195,45.6941543996656</coordinates></LinearRing></outerBoundaryIs></Polygon><Polygon><outerBoundaryIs><LinearRing><coordinates>59.8108197634903,45.6995442913704 59.8108197634903,45.696849345518 59.8027349259332,45.696849345518 59.801387453007,45.6981968184442 59.8108197634903,45.6995442913704</coordinates></LinearRing></outerBoundaryIs></Polygon><Polygon><outerBoundaryIs><LinearRing><coordinates>59.7946500883761,45.7022392372227 59.7946500883761,45.6995442913704 59.7892601966714,45.6995442913704 59.7879127237452,45.7008917642965 59.7946500883761,45.7022392372227</coordinates></LinearRing></outerBoundaryIs></Polygon><Polygon><outerBoundaryIs><LinearRing><coordinates>59.7690481027787,45.7035867101489 59.7650056840002,45.6995442913704 59.7609632652216,45.7008917642965 59.7677006298525,45.7049341830751 59.7690481027787,45.7035867101489</coordinates></LinearRing></outerBoundaryIs></Polygon><Polygon><outerBoundaryIs><LinearRing><coordinates>59.8242944927521,45.7103240747798 59.8242944927521,45.7076291289274 59.816209655195,45.7076291289274 59.8148621822688,45.7089766018536 59.8242944927521,45.7103240747798</coordinates></LinearRing></outerBoundaryIs></Polygon><Polygon><outerBoundaryIs><LinearRing><coordinates>59.8034729348374,45.7343547580755 59.8027349259332,45.7291886957463 59.7986925071547,45.7332311145248 59.7986925071547,45.7343547580755 59.8034729348374,45.7343547580755</coordinates></LinearRing></outerBoundaryIs></Polygon><Polygon><outerBoundaryIs><LinearRing><coordinates>59.8263910613787,45.7291886957463 59.816209655195,45.7291886957463 59.8067773447117,45.7332311145248 59.8146428495664,45.7343547580755 59.8164334845705,45.7343547580755 59.8263910613787,45.7343547580755 59.8263910613787,45.7318836415987 59.8263910613787,45.7291886957463</coordinates></LinearRing></outerBoundaryIs></Polygon><Polygon><outerBoundaryIs><LinearRing><coordinates>59.8079009882624,45.7343547580755 59.8067773447117,45.7332311145248 59.8054298717856,45.7318836415987 59.8049356484902,45.7343547580755 59.8079009882624,45.7343547580755</coordinates></LinearRing></outerBoundaryIs></Polygon></MultiGeometry>
  </Placemark>
</Folder>
</Document></kml>
