<?xml version="1.0" encoding="utf-8" ?>
<kml xmlns="http://www.opengis.net/kml/2.2">
<Document id="root_doc">
<Schema name="task_grid_v6_45.78_59.78" id="task_grid_v6_45.78_59.78">
	<SimpleField name="area_ha" type="float"></SimpleField>
	<SimpleField name="low_risk_ha" type="float"></SimpleField>
	<SimpleField name="moderate_risk_ha" type="float"></SimpleField>
	<SimpleField name="grid_cell_deg" type="string"></SimpleField>
</Schema>
<Folder><name>task_grid_v6_45.78_59.78</name>
  <Placemark id="task_grid_v6_45.78_59.78.1">
	<name>task_grid_v6_45.78_59.78</name>
	<name>241.1</name>
	<description>578.1</description>
	<Style><LineStyle><color>ff0000ff</color></LineStyle><PolyStyle><fill>0</fill></PolyStyle></Style>
	<ExtendedData><SchemaData schemaUrl="#task_grid_v6_45.78_59.78">
		<SimpleData name="area_ha">337</SimpleData>
		<SimpleData name="low_risk_ha">0.1</SimpleData>
	</SchemaData></ExtendedData>
      <MultiGeometry><Polygon><outerBoundaryIs><LinearRing><coordinates>59.7382800548521,45.7343547580755 59.7328901631474,45.7343547580755 59.7263910613787,45.7343547580755 59.7263910613787,45.7348866489428 59.7299713879195,45.7372735333034 59.7313188608457,45.7359260603772 59.7326663337719,45.7399684791557 59.7382800548521,45.7343547580755</coordinates></LinearRing></outerBoundaryIs></Polygon><Polygon><outerBoundaryIs><LinearRing><coordinates>59.8034729348374,45.7343547580755 59.7986925071547,45.7343547580755 59.7986925071547,45.7386210062296 59.8054298717856,45.7426634250081 59.8067773447117,45.7413159520819 59.8108197634903,45.7453583708605 59.8135147093426,45.7426634250081 59.8121672364165,45.7467058437866 59.816209655195,45.7507482625652 59.8242944927521,45.7507482625652 59.8263910613787,45.7486516939385 59.8263910613787,45.7460572270693 59.8256419656783,45.7458075285025 59.8263910613787,45.7455578299357 59.8263910613787,45.7343547580755 59.8164334845705,45.7343547580755 59.8146428495663,45.7343547580755 59.816209655195,45.734578587451 59.8081248176379,45.734578587451 59.8079009882624,45.7343547580755 59.8049356484902,45.7343547580755 59.8040823988594,45.7386210062296 59.8034729348374,45.7343547580755</coordinates></LinearRing></outerBoundaryIs></Polygon><Polygon><outerBoundaryIs><LinearRing><coordinates>59.8040823988594,45.7628755189008 59.8054298717856,45.7696128835317 59.8094722905641,45.7655704647531 59.8081248176379,45.7615280459746 59.8040823988594,45.7628755189008</coordinates></LinearRing></outerBoundaryIs></Polygon><Polygon><outerBoundaryIs><LinearRing><coordinates>59.7380562254766,45.772307829384 59.7340138066981,45.7790451940149 59.7353612796242,45.7803926669411 59.740751171329,45.7776977210888 59.7447935901075,45.7736553023102 59.7380562254766,45.772307829384</coordinates></LinearRing></outerBoundaryIs></Polygon><Polygon><outerBoundaryIs><LinearRing><coordinates>59.8067773447117,45.7844350857197 59.8027349259332,45.7830876127935 59.8000399800808,45.7884775044982 59.7986925071547,45.7844350857197 59.801387453007,45.7817401398673 59.7973450342285,45.7776977210888 59.7892601966714,45.7803926669411 59.7852177778929,45.7844350857197 59.7919551425238,45.7857825586458 59.7973450342285,45.7938673962029 59.8027349259332,45.7938673962029 59.8067773447117,45.7844350857197</coordinates></LinearRing></outerBoundaryIs></Polygon><Polygon><outerBoundaryIs><LinearRing><coordinates>59.7367087525504,45.8032997066862 59.740751171329,45.8046471796123 59.7420986442551,45.8032997066862 59.7380562254766,45.7992572879076 59.7367087525504,45.8032997066862</coordinates></LinearRing></outerBoundaryIs></Polygon><Polygon><outerBoundaryIs><LinearRing><coordinates>59.8215995468997,45.8235118005789 59.8229470198259,45.8221643276527 59.8189046010474,45.8181219088741 59.8148621822688,45.8221643276527 59.8215995468997,45.8235118005789</coordinates></LinearRing></outerBoundaryIs></Polygon><Polygon><outerBoundaryIs><LinearRing><coordinates>59.8135147093426,45.8289016922836 59.8148621822688,45.824859273505 59.8081248176379,45.8208168547265 59.8067773447117,45.824859273505 59.8135147093426,45.8289016922836</coordinates></LinearRing></outerBoundaryIs></Polygon><Polygon><outerBoundaryIs><LinearRing><coordinates>59.8242944927521,45.8235118005789 59.8229470198259,45.8275542193574 59.8263910613787,45.8287022332083 59.8263910613787,45.8235118005789 59.8242944927521,45.8235118005789</coordinates></LinearRing></outerBoundaryIs></Polygon></MultiGeometry>
  </Placemark>
</Folder>
</Document></kml>
