<?xml version="1.0" encoding="utf-8" ?>
<kml xmlns="http://www.opengis.net/kml/2.2">
<Document id="root_doc">
<Schema name="task_grid_v6_45.88_61.08" id="task_grid_v6_45.88_61.08">
	<SimpleField name="area_ha" type="float"></SimpleField>
	<SimpleField name="low_risk_ha" type="float"></SimpleField>
	<SimpleField name="moderate_risk_ha" type="float"></SimpleField>
	<SimpleField name="grid_cell_deg" type="string"></SimpleField>
</Schema>
<Folder><name>task_grid_v6_45.88_61.08</name>
  <Placemark id="task_grid_v6_45.88_61.08.1">
	<name>task_grid_v6_45.88_61.08</name>
	<name>954.2</name>
	<description>1556.3</description>
	<Style><LineStyle><color>ff0000ff</color></LineStyle><PolyStyle><fill>0</fill></PolyStyle></Style>
	<ExtendedData><SchemaData schemaUrl="#task_grid_v6_45.88_61.08">
		<SimpleData name="area_ha">602.1</SimpleData>
		<SimpleData name="low_risk_ha">0.1</SimpleData>
	</SchemaData></ExtendedData>
      <MultiGeometry><Polygon><outerBoundaryIs><LinearRing><coordinates>61.0546636225282,45.8343547580755 61.0572322202061,45.8356390569145 61.0545372743538,45.8383340027668 61.0558847472799,45.839681475693 61.0665381825149,45.8343547580755 61.0546636225282,45.8343547580755</coordinates></LinearRing></outerBoundaryIs></Polygon><Polygon><outerBoundaryIs><LinearRing><coordinates>61.0356726533873,45.8383340027668 61.0343251804611,45.8369865298406 61.0302827616825,45.8383340027668 61.0370201263134,45.8423764215454 61.0383675992396,45.8410289486192 61.0397150721658,45.8423764215454 61.041062545092,45.8410289486192 61.0397150721658,45.8369865298406 61.0356726533873,45.8383340027668</coordinates></LinearRing></outerBoundaryIs></Polygon><Polygon><outerBoundaryIs><LinearRing><coordinates>61.0329777075349,45.8437238944715 61.0370201263134,45.8504612591024 61.0397150721658,45.8504612591024 61.041062545092,45.8491137861763 61.0370201263134,45.8423764215454 61.0329777075349,45.8437238944715</coordinates></LinearRing></outerBoundaryIs></Polygon><Polygon><outerBoundaryIs><LinearRing><coordinates>61.0734018953203,45.8625885154381 61.0693594765417,45.8585460966595 61.0680120036156,45.8625885154381 61.0720544223941,45.8639359883642 61.0734018953203,45.8625885154381</coordinates></LinearRing></outerBoundaryIs></Polygon><Polygon><outerBoundaryIs><LinearRing><coordinates>61.0626221119108,45.8760632446998 61.063969584837,45.877410717626 61.0680120036156,45.8706733529951 61.0666645306894,45.8612410425119 61.063969584837,45.8666309342166 61.0545372743538,45.8679784071428 61.0558847472799,45.8720208259213 61.0585796931323,45.8693258800689 61.0626221119108,45.8706733529951 61.0599271660585,45.8733682988475 61.0626221119108,45.8760632446998</coordinates></LinearRing></outerBoundaryIs></Polygon><Polygon><outerBoundaryIs><LinearRing><coordinates>61.0747493682464,45.8801056634784 61.078791787025,45.8760632446998 61.0774443140988,45.8720208259213 61.0734018953203,45.8733682988475 61.0747493682464,45.8801056634784</coordinates></LinearRing></outerBoundaryIs></Polygon><Polygon><outerBoundaryIs><LinearRing><coordinates>61.0504948555752,45.877410717626 61.0464524367967,45.8814531364046 61.0504948555752,45.8828006093307 61.0531898014276,45.8801056634784 61.0585796931323,45.8801056634784 61.0626221119108,45.8760632446998 61.0504948555752,45.877410717626</coordinates></LinearRing></outerBoundaryIs></Polygon><Polygon><outerBoundaryIs><LinearRing><coordinates>61.0437574909443,45.8841480822569 61.0397150721658,45.8801056634784 61.0383675992396,45.8841480822569 61.0424100180181,45.8881905010355 61.0437574909443,45.8841480822569</coordinates></LinearRing></outerBoundaryIs></Polygon><Polygon><outerBoundaryIs><LinearRing><coordinates>61.0370201263134,45.8881905010355 61.0370201263134,45.8854955551831 61.0316302346087,45.8854955551831 61.0302827616825,45.8868430281093 61.0370201263134,45.8881905010355</coordinates></LinearRing></outerBoundaryIs></Polygon><Polygon><outerBoundaryIs><LinearRing><coordinates>61.0518423285014,45.8895379739616 61.0477999097229,45.8854955551831 61.0464524367967,45.8895379739616 61.0504948555752,45.8908854468878 61.0518423285014,45.8895379739616</coordinates></LinearRing></outerBoundaryIs></Polygon><Polygon><outerBoundaryIs><LinearRing><coordinates>61.0801392599512,45.8989702844449 61.08642746694,45.8951973602516 61.0882240975082,45.8962753385925 61.0895715704344,45.892232919814 61.0850799940138,45.8895379739616 61.0895715704344,45.8895379739616 61.0830323635868,45.8853766605131 61.0895715704344,45.8814531364046 61.0882240975082,45.877410717626 61.0855291516559,45.8801056634784 61.0895715704344,45.8760632446998 61.0855291516559,45.8720208259213 61.078791787025,45.8733682988475 61.0801392599512,45.877410717626 61.0812172382921,45.8779497067965 61.078791787025,45.8787581905522 61.0825964164636,45.8850992396166 61.0747493682464,45.8801056634784 61.0666645306894,45.8881905010355 61.063969584837,45.8828006093307 61.0572322202061,45.8868430281093 61.0666645306894,45.8935803927402 61.0693594765417,45.8908854468878 61.0720544223941,45.8962753385925 61.0801392599512,45.8989702844449</coordinates></LinearRing></outerBoundaryIs><innerBoundaryIs><LinearRing><coordinates>61.0814867328773,45.8895379739616 61.0823850481615,45.8895379739616 61.0814867328773,45.892232919814 61.0814867328773,45.8895379739616</coordinates></LinearRing></innerBoundaryIs></Polygon><Polygon><outerBoundaryIs><LinearRing><coordinates>61.0451049638705,45.8908854468878 61.0424100180181,45.8935803927402 61.0263910613787,45.8935803927402 61.0263910613787,45.8962753385925 61.0451049638705,45.8962753385925 61.0477999097229,45.8989702844449 61.0599271660585,45.8976228115187 61.0585796931323,45.8935803927402 61.0531898014276,45.8962753385925 61.0451049638705,45.8908854468878</coordinates></LinearRing></outerBoundaryIs></Polygon><Polygon><outerBoundaryIs><LinearRing><coordinates>61.0748125423337,45.8343547580755 61.0760968411726,45.8356390569145 61.0693594765417,45.839681475693 61.0693594765417,45.8423764215454 61.0828342058035,45.8423764215454 61.0855291516559,45.839681475693 61.0882240975082,45.8423764215454 61.090534051096,45.8412214447515 61.0963089350653,45.8423764215454 61.0963089350653,45.8369865298406 61.093613989213,45.839681475693 61.093613989213,45.8369865298406 61.0909190433606,45.8369865298406 61.0949614621391,45.8356390569145 61.0943193127196,45.8343547580755 61.0882872715954,45.8343547580755 61.0748125423337,45.8343547580755</coordinates></LinearRing></outerBoundaryIs></Polygon><Polygon><outerBoundaryIs><LinearRing><coordinates>61.0963089350653,45.8369865298406 61.0990038809177,45.839681475693 61.1003513538438,45.8383340027668 61.0995555049056,45.8343547580755 61.0962457609781,45.8343547580755 61.0949614621391,45.8356390569145 61.0963089350653,45.8369865298406</coordinates></LinearRing></outerBoundaryIs></Polygon><Polygon><outerBoundaryIs><LinearRing><coordinates>61.1263910613787,45.8374242517781 61.1259533394413,45.8369865298406 61.1246058665151,45.8410289486192 61.1263910613787,45.8428141434828 61.1263910613787,45.8374242517781</coordinates></LinearRing></outerBoundaryIs></Polygon><Polygon><outerBoundaryIs><LinearRing><coordinates>61.1138260831056,45.8625885154381 61.1178685018842,45.8666309342166 61.1263910613787,45.8656839831616 61.1263910613787,45.8608033205744 61.1232583935889,45.8639359883642 61.1178685018842,45.8558511508072 61.1138260831056,45.8625885154381</coordinates></LinearRing></outerBoundaryIs></Polygon><Polygon><outerBoundaryIs><LinearRing><coordinates>61.0801392599512,45.8720208259213 61.0868766245821,45.8706733529951 61.0774443140988,45.8639359883642 61.0734018953203,45.8652834612904 61.0801392599512,45.8720208259213</coordinates></LinearRing></outerBoundaryIs></Polygon><Polygon><outerBoundaryIs><LinearRing><coordinates>61.1263910613787,45.8829100398151 61.1259533394413,45.8828006093307 61.1232583935889,45.8720208259213 61.1178685018842,45.877410717626 61.116521028958,45.8760632446998 61.1192159748104,45.8733682988475 61.1124786101795,45.8720208259213 61.1084361914009,45.8652834612904 61.1057412455486,45.8652834612904 61.1057412455486,45.8760632446998 61.1084361914009,45.8814531364046 61.1124786101795,45.8854955551831 61.1097836643271,45.8908854468878 61.1111311372533,45.8868430281093 61.1070887184747,45.8828006093307 61.1043937726224,45.8854955551831 61.10169882677,45.8828006093307 61.1003513538438,45.8868430281093 61.093613989213,45.8828006093307 61.0895715704344,45.8868430281093 61.0922665162868,45.8895379739616 61.0895715704344,45.8949278656664 61.0990038809177,45.8989702844449 61.1151735560318,45.8949278656664 61.1151735560318,45.8962753385925 61.1263910613787,45.8962753385925 61.1263910613787,45.8829100398151</coordinates></LinearRing></outerBoundaryIs><innerBoundaryIs><LinearRing><coordinates>61.1070887184747,45.8908854468878 61.1003513538439,45.8868430281093 61.1097836643271,45.8908854468878 61.1070887184747,45.8908854468878</coordinates></LinearRing></innerBoundaryIs><innerBoundaryIs><LinearRing><coordinates>61.1205634477365,45.8828006093307 61.1192159748104,45.8814531364046 61.1219109206627,45.8814531364046 61.1205634477365,45.8828006093307</coordinates></LinearRing></innerBoundaryIs><innerBoundaryIs><LinearRing><coordinates>61.0990038809177,45.8935803927402 61.0976564079915,45.892232919814 61.1003513538438,45.892232919814 61.0990038809177,45.8935803927402</coordinates></LinearRing></innerBoundaryIs></Polygon></MultiGeometry>
  </Placemark>
</Folder>
</Document></kml>
