<?xml version="1.0" encoding="utf-8" ?>
<kml xmlns="http://www.opengis.net/kml/2.2">
<Document id="root_doc">
<Schema name="task_grid_v6_44.98_61.28" id="task_grid_v6_44.98_61.28">
	<SimpleField name="area_ha" type="float"></SimpleField>
	<SimpleField name="low_risk_ha" type="float"></SimpleField>
	<SimpleField name="moderate_risk_ha" type="float"></SimpleField>
	<SimpleField name="grid_cell_deg" type="string"></SimpleField>
</Schema>
<Folder><name>task_grid_v6_44.98_61.28</name>
  <Placemark id="task_grid_v6_44.98_61.28.1">
	<name>task_grid_v6_44.98_61.28</name>
	<name>214.8</name>
	<description>1515.4</description>
	<Style><LineStyle><color>ff0000ff</color></LineStyle><PolyStyle><fill>0</fill></PolyStyle></Style>
	<ExtendedData><SchemaData schemaUrl="#task_grid_v6_44.98_61.28">
		<SimpleData name="area_ha">1300.6</SimpleData>
		<SimpleData name="low_risk_ha">0.1</SimpleData>
	</SchemaData></ExtendedData>
      <MultiGeometry><Polygon><outerBoundaryIs><LinearRing><coordinates>61.2272833034899,44.9498103552442 61.2283612818309,44.953044290267 61.2324037006094,44.9543917631932 61.2283612818309,44.9557392361194 61.2263910613787,44.9544257558179 61.2263910613787,44.9711841858334 61.2283612818309,44.9692139653812 61.2472259027974,44.9665190195288 61.2512683215759,44.9624766007503 61.2485733757236,44.9597816548979 61.2553107403545,44.9584341819718 61.2580056862068,44.953044290267 61.2687854696163,44.9503493444147 61.2714804154686,44.953044290267 61.2768703071733,44.953044290267 61.2795652530257,44.9476543985623 61.2849551447304,44.9503493444147 61.2916925093613,44.9490018714885 61.2889975635089,44.9436119797838 61.2916925093613,44.9409170339314 61.2829428082201,44.9343547580755 61.2263910613787,44.9343547580755 61.2263910613787,44.9419021441575 61.2263910613787,44.9515948394667 61.2272833034899,44.9498103552442</coordinates></LinearRing></outerBoundaryIs><innerBoundaryIs><LinearRing><coordinates>61.2301579123991,44.9467560832782 61.2324037006094,44.9490018714885 61.2310562276832,44.9503493444147 61.2283612818309,44.9476543985623 61.2301579123991,44.9467560832782</coordinates></LinearRing></innerBoundaryIs><innerBoundaryIs><LinearRing><coordinates>61.2418360110927,44.953044290267 61.2458784298712,44.9490018714885 61.2418360110927,44.9557392361194 61.2391410652403,44.9521459749829 61.2418360110927,44.953044290267</coordinates></LinearRing></innerBoundaryIs><innerBoundaryIs><LinearRing><coordinates>61.244530956945,44.94495945271 61.2539632674283,44.9409170339314 61.2431834840189,44.9463069256361 61.244530956945,44.94495945271</coordinates></LinearRing></innerBoundaryIs><innerBoundaryIs><LinearRing><coordinates>61.2836076718042,44.9409170339314 61.282260198878,44.9422645068576 61.2809127259519,44.9409170339314 61.2836076718042,44.9409170339314</coordinates></LinearRing></innerBoundaryIs></Polygon><Polygon><outerBoundaryIs><LinearRing><coordinates>61.2431834840189,44.9732563841597 61.2472259027974,44.9772988029383 61.2539632674283,44.9732563841597 61.2499208486498,44.9692139653812 61.2431834840189,44.9732563841597</coordinates></LinearRing></outerBoundaryIs></Polygon><Polygon><outerBoundaryIs><LinearRing><coordinates>61.2263910613787,44.9876437511076 61.2324037006094,44.9840361675692 61.2310562276832,44.9799937487906 61.2263910613787,44.9827928485734 61.2263910613787,44.9876437511076</coordinates></LinearRing></outerBoundaryIs></Polygon><Polygon><outerBoundaryIs><LinearRing><coordinates>61.2526157945021,44.9934684780524 61.2566582132806,44.9867311134215 61.2526157945021,44.9772988029383 61.2512683215759,44.9786462758644 61.2526157945021,44.9934684780524</coordinates></LinearRing></outerBoundaryIs></Polygon><Polygon><outerBoundaryIs><LinearRing><coordinates>61.2263910613787,44.998256017806 61.2263910613787,45.0084302774996 61.2297087547571,45.0029007885357 61.2263910613787,44.998256017806</coordinates></LinearRing></outerBoundaryIs></Polygon><Polygon><outerBoundaryIs><LinearRing><coordinates>61.2553107403545,45.0258078282807 61.2512683215759,45.0271553012069 61.2485733757236,45.0325451929116 61.2499208486498,45.0338926658378 61.2566582132806,45.0298502470593 61.2553107403545,45.0258078282807</coordinates></LinearRing></outerBoundaryIs></Polygon><Polygon><outerBoundaryIs><LinearRing><coordinates>61.2930399822875,44.9584341819718 61.2943874552137,44.9570867090456 61.2903450364351,44.953044290267 61.2889975635089,44.9570867090456 61.2930399822875,44.9584341819718</coordinates></LinearRing></outerBoundaryIs></Polygon><Polygon><outerBoundaryIs><LinearRing><coordinates>61.3172944949587,44.9557392361194 61.3132520761802,44.9570867090456 61.3159470220325,44.9624766007503 61.3199894408111,44.9638240736765 61.3213369137373,44.9597816548979 61.3172944949587,44.9557392361194</coordinates></LinearRing></outerBoundaryIs></Polygon><Polygon><outerBoundaryIs><LinearRing><coordinates>61.3024722927707,44.9624766007503 61.3092096574016,44.9638240736765 61.3092096574016,44.9611291278241 61.3038197656969,44.9611291278241 61.3024722927707,44.9624766007503</coordinates></LinearRing></outerBoundaryIs></Polygon><Polygon><outerBoundaryIs><LinearRing><coordinates>61.2660905237639,45.0042482614619 61.2607006320592,45.0069432073142 61.2580056862068,45.0042482614619 61.2566582132806,45.0082906802404 61.2633955779115,45.0096381531666 61.2674379966901,45.005595734388 61.2660905237639,45.0042482614619</coordinates></LinearRing></outerBoundaryIs></Polygon></MultiGeometry>
  </Placemark>
</Folder>
</Document></kml>
