<?xml version="1.0" encoding="utf-8" ?>
<kml xmlns="http://www.opengis.net/kml/2.2">
<Document id="root_doc">
<Schema name="task_grid_v6_45.78_61.08" id="task_grid_v6_45.78_61.08">
	<SimpleField name="area_ha" type="float"></SimpleField>
	<SimpleField name="low_risk_ha" type="float"></SimpleField>
	<SimpleField name="moderate_risk_ha" type="float"></SimpleField>
	<SimpleField name="grid_cell_deg" type="string"></SimpleField>
</Schema>
<Folder><name>task_grid_v6_45.78_61.08</name>
  <Placemark id="task_grid_v6_45.78_61.08.1">
	<name>task_grid_v6_45.78_61.08</name>
	<name>1059.1</name>
	<description>1703.8</description>
	<Style><LineStyle><color>ff0000ff</color></LineStyle><PolyStyle><fill>0</fill></PolyStyle></Style>
	<ExtendedData><SchemaData schemaUrl="#task_grid_v6_45.78_61.08">
		<SimpleData name="area_ha">644.7</SimpleData>
		<SimpleData name="low_risk_ha">0.1</SimpleData>
	</SchemaData></ExtendedData>
      <MultiGeometry><Polygon><outerBoundaryIs><LinearRing><coordinates>61.0666645306894,45.7669179376793 61.0707069494679,45.7628755189008 61.0666645306894,45.7588331001222 61.0626221119108,45.7601805730484 61.0666645306894,45.7669179376793</coordinates></LinearRing></outerBoundaryIs></Polygon><Polygon><outerBoundaryIs><LinearRing><coordinates>61.0383675992396,45.7682654106055 61.0370201263134,45.764222991827 61.0329777075349,45.7655704647531 61.0370201263134,45.7696128835317 61.0383675992396,45.7682654106055</coordinates></LinearRing></outerBoundaryIs></Polygon><Polygon><outerBoundaryIs><LinearRing><coordinates>61.0451049638705,45.7776977210888 61.049147382649,45.7736553023102 61.0424100180181,45.772307829384 61.041062545092,45.7763502481626 61.0451049638705,45.7776977210888</coordinates></LinearRing></outerBoundaryIs></Polygon><Polygon><outerBoundaryIs><LinearRing><coordinates>61.0855291516559,45.7776977210888 61.0895715704344,45.7763502481626 61.0882240975082,45.772307829384 61.0909190433606,45.7750027752364 61.0963089350653,45.772307829384 61.1003513538438,45.7682654106055 61.0996776173808,45.7662442012162 61.10169882677,45.7696128835317 61.1057412455486,45.7628755189008 61.0976564079915,45.7628755189008 61.0986670126861,45.7645598600585 61.0976564079915,45.7655704647531 61.093613989213,45.7588331001222 61.0895715704344,45.7628755189008 61.0963089350653,45.7669179376793 61.0968053724592,45.7664215002855 61.093613989213,45.7696128835317 61.0868766245821,45.7709603564579 61.0882240975082,45.772307829384 61.0841816787297,45.7763502481626 61.0855291516559,45.7776977210888</coordinates></LinearRing></outerBoundaryIs></Polygon><Polygon><outerBoundaryIs><LinearRing><coordinates>61.0922665162868,45.7817401398673 61.0909190433606,45.7776977210888 61.0868766245821,45.7817401398673 61.0882240975082,45.7830876127935 61.0922665162868,45.7817401398673</coordinates></LinearRing></outerBoundaryIs></Polygon><Polygon><outerBoundaryIs><LinearRing><coordinates>61.0760968411726,45.8006047608338 61.0760968411726,45.7952148691291 61.078791787025,45.7925199232767 61.0774443140988,45.7884775044982 61.0707069494679,45.7952148691291 61.0734018953203,45.7979098149814 61.0720544223941,45.7992572879076 61.0693594765417,45.7965623420553 61.0653170577632,45.7979098149814 61.0693594765417,45.80195223376 61.0760968411726,45.8006047608338</coordinates></LinearRing></outerBoundaryIs></Polygon><Polygon><outerBoundaryIs><LinearRing><coordinates>61.0545372743538,45.8059946525385 61.0558847472799,45.8100370713171 61.0558847472799,45.80195223376 61.049147382649,45.8032997066862 61.0545372743538,45.8059946525385</coordinates></LinearRing></outerBoundaryIs></Polygon><Polygon><outerBoundaryIs><LinearRing><coordinates>61.0558847472799,45.8100370713171 61.0504948555752,45.8100370713171 61.0451049638705,45.8127320171694 61.0437574909443,45.816774435948 61.0464524367967,45.8194693818003 61.0437574909443,45.8221643276527 61.0397150721658,45.8181219088741 61.0383675992396,45.8221643276527 61.0424100180181,45.8235118005789 61.0356726533872,45.824859273505 61.0383675992396,45.8275542193574 61.0383675992396,45.8329441110621 61.0397150721658,45.8342915839883 61.0424100180181,45.8315966381359 61.0477999097229,45.8342915839883 61.049147382649,45.8329441110621 61.0464524367967,45.8302491652098 61.049147382649,45.8275542193574 61.0504948555752,45.8342915839883 61.0518423285014,45.8329441110621 61.0546636225282,45.8343547580755 61.0665381825149,45.8343547580755 61.0666645306894,45.8342915839883 61.0693594765417,45.8289016922836 61.0748125423337,45.8343547580755 61.0882872715954,45.8343547580755 61.0943193127196,45.8343547580755 61.0922665162868,45.8302491652098 61.0963089350653,45.8262067464312 61.0976564079915,45.8275542193574 61.0949614621391,45.8329441110621 61.0963089350653,45.8342915839883 61.0962457609781,45.8343547580755 61.0995555049056,45.8343547580755 61.0990038809177,45.8315966381359 61.1003513538438,45.8302491652098 61.1003513538438,45.8194693818003 61.093613989213,45.8127320171694 61.0922665162868,45.8221643276527 61.0922665162868,45.8140794900956 61.0855291516559,45.8073421254647 61.0828342058035,45.8073421254647 61.0814867328773,45.8113845442432 61.0868766245821,45.8140794900956 61.0801392599512,45.8154269630218 61.0734018953203,45.8113845442432 61.0760968411726,45.8059946525385 61.0734018953203,45.8032997066862 61.0693594765417,45.80195223376 61.0612746389846,45.8154269630218 61.0518423285014,45.8140794900956 61.0612746389846,45.8127320171694 61.0612746389846,45.8100370713171 61.0558847472799,45.8100370713171</coordinates></LinearRing></outerBoundaryIs><innerBoundaryIs><LinearRing><coordinates>61.0853366555236,45.8244742812404 61.0855291516559,45.8235118005789 61.0922665162868,45.8221643276527 61.0853366555236,45.8244742812404</coordinates></LinearRing></innerBoundaryIs><innerBoundaryIs><LinearRing><coordinates>61.0747493682464,45.8181219088741 61.0720544223941,45.8181219088741 61.0720544223941,45.8154269630218 61.0760968411726,45.816774435948 61.0747493682464,45.8181219088741</coordinates></LinearRing></innerBoundaryIs><innerBoundaryIs><LinearRing><coordinates>61.063969584837,45.8262067464312 61.0653170577632,45.8275542193574 61.0626221119108,45.8275542193574 61.063969584837,45.8262067464312</coordinates></LinearRing></innerBoundaryIs><innerBoundaryIs><LinearRing><coordinates>61.0760968411726,45.8275542193574 61.0747493682464,45.8289016922836 61.0747493682464,45.8262067464312 61.0760968411726,45.8275542193574</coordinates></LinearRing></innerBoundaryIs><innerBoundaryIs><LinearRing><coordinates>61.0801392599512,45.8289016922836 61.078791787025,45.8275542193574 61.0814867328773,45.8275542193574 61.0801392599512,45.8289016922836</coordinates></LinearRing></innerBoundaryIs></Polygon><Polygon><outerBoundaryIs><LinearRing><coordinates>61.0329777075349,45.824859273505 61.0289352887564,45.8208168547265 61.0275878158302,45.824859273505 61.0316302346087,45.8262067464312 61.0329777075349,45.824859273505</coordinates></LinearRing></outerBoundaryIs></Polygon><Polygon><outerBoundaryIs><LinearRing><coordinates>61.0263910613787,45.8277935702477 61.0275878158302,45.8275542193574 61.0263910613787,45.823963956003 61.0263910613787,45.8277935702477</coordinates></LinearRing></outerBoundaryIs></Polygon><Polygon><outerBoundaryIs><LinearRing><coordinates>61.0963089350653,45.7426634250081 61.0895715704344,45.7440108979343 61.0949614621391,45.7467058437866 61.0922665162868,45.749400789639 61.093613989213,45.7507482625652 61.1003513538438,45.7467058437866 61.0963089350653,45.7426634250081</coordinates></LinearRing></outerBoundaryIs></Polygon><Polygon><outerBoundaryIs><LinearRing><coordinates>61.0895715704344,45.749400789639 61.0922665162868,45.7467058437866 61.0895715704344,45.7440108979343 61.0882240975082,45.7426634250081 61.0841816787297,45.7467058437866 61.0868766245821,45.7520957354914 61.0841816787297,45.7547906813437 61.0855291516559,45.7615280459746 61.0909190433606,45.7561381542699 61.1043937726224,45.7507482625652 61.1043937726224,45.7453583708605 61.1070887184747,45.7480533167128 61.1084361914009,45.7467058437866 61.1070887184747,45.7372735333034 61.1043937726224,45.7372735333034 61.0976564079915,45.7440108979343 61.1003513538438,45.7467058437866 61.0963089350653,45.7507482625652 61.093613989213,45.7507482625652 61.0909190433606,45.7507482625652 61.0895715704344,45.749400789639</coordinates></LinearRing></outerBoundaryIs></Polygon><Polygon><outerBoundaryIs><LinearRing><coordinates>61.1097836643271,45.772307829384 61.1097836643271,45.7696128835317 61.10169882677,45.7696128835317 61.1003513538438,45.7709603564579 61.1097836643271,45.772307829384</coordinates></LinearRing></outerBoundaryIs></Polygon><Polygon><outerBoundaryIs><LinearRing><coordinates>61.1178685018842,45.7776977210888 61.1192159748104,45.7763502481626 61.1151735560318,45.772307829384 61.1138260831056,45.7763502481626 61.1178685018842,45.7776977210888</coordinates></LinearRing></outerBoundaryIs></Polygon><Polygon><outerBoundaryIs><LinearRing><coordinates>61.1178685018842,45.7803926669411 61.1178685018842,45.7776977210888 61.1097836643271,45.7776977210888 61.1084361914009,45.7790451940149 61.1178685018842,45.7803926669411</coordinates></LinearRing></outerBoundaryIs></Polygon><Polygon><outerBoundaryIs><LinearRing><coordinates>61.1151735560318,45.80195223376 61.1151735560318,45.7965623420553 61.1124786101795,45.7965623420553 61.1084361914009,45.8006047608338 61.1151735560318,45.80195223376</coordinates></LinearRing></outerBoundaryIs></Polygon><Polygon><outerBoundaryIs><LinearRing><coordinates>61.1263910613787,45.8171314749207 61.1263910613787,45.8154269630218 61.1259533394413,45.8154269630218 61.1246058665151,45.816774435948 61.1263910613787,45.8171314749207</coordinates></LinearRing></outerBoundaryIs></Polygon><Polygon><outerBoundaryIs><LinearRing><coordinates>61.116521028958,45.8302491652098 61.1178685018842,45.8315966381359 61.1232583935889,45.8289016922836 61.1232583935889,45.8262067464312 61.1178685018842,45.8262067464312 61.116521028958,45.8302491652098</coordinates></LinearRing></outerBoundaryIs></Polygon><Polygon><outerBoundaryIs><LinearRing><coordinates>61.1246058665151,45.8329441110621 61.1259533394413,45.8342915839883 61.1263910613787,45.8338538620509 61.1263910613787,45.8289016922836 61.1259533394413,45.8289016922836 61.1246058665151,45.8329441110621</coordinates></LinearRing></outerBoundaryIs></Polygon></MultiGeometry>
  </Placemark>
</Folder>
</Document></kml>
