<?xml version="1.0" encoding="utf-8" ?>
<kml xmlns="http://www.opengis.net/kml/2.2">
<Document id="root_doc">
<Schema name="task_grid_v6_45.18_61.28" id="task_grid_v6_45.18_61.28">
	<SimpleField name="area_ha" type="float"></SimpleField>
	<SimpleField name="low_risk_ha" type="float"></SimpleField>
	<SimpleField name="moderate_risk_ha" type="float"></SimpleField>
	<SimpleField name="grid_cell_deg" type="string"></SimpleField>
</Schema>
<Folder><name>task_grid_v6_45.18_61.28</name>
  <Placemark id="task_grid_v6_45.18_61.28.1">
	<name>task_grid_v6_45.18_61.28</name>
	<name>12.7</name>
	<description>175.3</description>
	<Style><LineStyle><color>ff0000ff</color></LineStyle><PolyStyle><fill>0</fill></PolyStyle></Style>
	<ExtendedData><SchemaData schemaUrl="#task_grid_v6_45.18_61.28">
		<SimpleData name="area_ha">162.6</SimpleData>
		<SimpleData name="low_risk_ha">0.1</SimpleData>
	</SchemaData></ExtendedData>
      <MultiGeometry><Polygon><outerBoundaryIs><LinearRing><coordinates>61.2633955779115,45.1713349043081 61.2580056862068,45.1713349043081 61.2566582132806,45.1726823772343 61.2633955779115,45.1740298501604 61.2633955779115,45.1713349043081</coordinates></LinearRing></outerBoundaryIs></Polygon><Polygon><outerBoundaryIs><LinearRing><coordinates>61.2795652530257,45.1740298501604 61.2755228342472,45.178072268939 61.2795652530257,45.1848096335699 61.282260198878,45.1848096335699 61.2836076718042,45.178072268939 61.2795652530257,45.1740298501604</coordinates></LinearRing></outerBoundaryIs></Polygon><Polygon><outerBoundaryIs><LinearRing><coordinates>61.2997773469184,45.2211914025767 61.3038197656969,45.2225388755029 61.3051672386231,45.2211914025767 61.3011248198446,45.2171489837982 61.2997773469184,45.2211914025767</coordinates></LinearRing></outerBoundaryIs></Polygon><Polygon><outerBoundaryIs><LinearRing><coordinates>61.2472259027974,45.2252338213553 61.2431834840189,45.2292762401338 61.244530956945,45.23062371306 61.2485733757236,45.2292762401338 61.2472259027974,45.2252338213553</coordinates></LinearRing></outerBoundaryIs></Polygon><Polygon><outerBoundaryIs><LinearRing><coordinates>61.2660905237639,45.2252338213553 61.2620481049854,45.2292762401338 61.2650952157504,45.2343547580755 61.2677493704531,45.2343547580755 61.2701329425424,45.2319711859861 61.2660905237639,45.2252338213553</coordinates></LinearRing></outerBoundaryIs></Polygon><Polygon><outerBoundaryIs><LinearRing><coordinates>61.244530956945,45.23062371306 61.2418360110927,45.2333186589123 61.2337511735356,45.2279287672076 61.2297087547571,45.2292762401338 61.231401594071,45.2343547580755 61.2461898036342,45.2343547580755 61.2485733757236,45.2319711859861 61.244530956945,45.23062371306</coordinates></LinearRing></outerBoundaryIs></Polygon></MultiGeometry>
  </Placemark>
</Folder>
</Document></kml>
