<?xml version="1.0" encoding="utf-8" ?>
<kml xmlns="http://www.opengis.net/kml/2.2">
<Document id="root_doc">
<Schema name="task_grid_v6_44.81_61.06" id="task_grid_v6_44.81_61.06">
	<SimpleField name="area_ha" type="float"></SimpleField>
	<SimpleField name="low_risk_ha" type="float"></SimpleField>
	<SimpleField name="moderate_risk_ha" type="float"></SimpleField>
	<SimpleField name="grid_cell_deg" type="string"></SimpleField>
</Schema>
<Folder><name>task_grid_v6_44.81_61.06</name>
  <Placemark id="task_grid_v6_44.81_61.06.1">
	<name>task_grid_v6_44.81_61.06</name>
	<name>0</name>
	<description>2691.3</description>
	<Style><LineStyle><color>ff0000ff</color></LineStyle><PolyStyle><fill>0</fill></PolyStyle></Style>
	<ExtendedData><SchemaData schemaUrl="#task_grid_v6_44.81_61.06">
		<SimpleData name="area_ha">2691.3</SimpleData>
		<SimpleData name="low_risk_ha">0.1</SimpleData>
	</SchemaData></ExtendedData>
      <MultiGeometry><Polygon><outerBoundaryIs><LinearRing><coordinates>61.0329777075349,44.7819152286423 61.0275878158302,44.7792202827899 61.026240342904,44.7751778640114 61.0181555053469,44.7751778640114 61.0168080324207,44.7819152286423 61.026240342904,44.7832627015684 61.0289352887564,44.7859576474208 61.0329777075349,44.7819152286423</coordinates></LinearRing></outerBoundaryIs></Polygon><Polygon><outerBoundaryIs><LinearRing><coordinates>61.011418140716,44.7819152286423 61.0102213862645,44.7807184741908 61.0102213862645,44.7831119830938 61.011418140716,44.7819152286423</coordinates></LinearRing></outerBoundaryIs></Polygon><Polygon><outerBoundaryIs><LinearRing><coordinates>61.0168080324207,44.82503436228 61.0235453970516,44.8317717269109 61.0248928699778,44.8304242539847 61.0235453970516,44.8236868893538 61.0168080324207,44.82503436228</coordinates></LinearRing></outerBoundaryIs></Polygon><Polygon><outerBoundaryIs><LinearRing><coordinates>61.0370201263134,44.8371616186156 61.0356726533872,44.8412040373942 61.0424100180181,44.8452464561727 61.0437574909443,44.8438989832465 61.0397150721658,44.8371616186156 61.0370201263134,44.8371616186156</coordinates></LinearRing></outerBoundaryIs></Polygon><Polygon><outerBoundaryIs><LinearRing><coordinates>61.0181555053469,44.8425515103203 61.0127656136422,44.8452464561727 61.0102213862645,44.8439743424839 61.0102213862645,44.8491098114508 61.0127656136422,44.8506363478774 61.0195029782731,44.8438989832465 61.0181555053469,44.8425515103203</coordinates></LinearRing></outerBoundaryIs></Polygon><Polygon><outerBoundaryIs><LinearRing><coordinates>61.0343251804611,44.8587211854345 61.0330441938933,44.8625641451378 61.0381681401644,44.8625641451378 61.0343251804611,44.8587211854345</coordinates></LinearRing></outerBoundaryIs></Polygon><Polygon><outerBoundaryIs><LinearRing><coordinates>61.049147382649,44.7819152286423 61.0531898014276,44.7859576474208 61.0666645306894,44.7886525932732 61.0720544223941,44.7967374308302 61.0774443140988,44.7913475391255 61.0855291516559,44.7913475391255 61.0882240975082,44.7886525932732 61.10169882677,44.7886525932732 61.1030462996962,44.7926950120517 61.1097836643271,44.7967374308302 61.1102213862645,44.7964456162053 61.1102213862645,44.7781854683905 61.1097836643271,44.7778728098637 61.10169882677,44.7832627015684 61.0909190433606,44.7832627015684 61.0855291516559,44.7805677557161 61.0828342058035,44.7751778640114 61.0774443140988,44.772482918159 61.0747493682464,44.7751778640114 61.0707069494679,44.7711354452328 61.0694824780258,44.7625641451378 61.065915434989,44.7625641451378 61.0585796931323,44.7643980806019 61.0545372743538,44.7684404993805 61.0545372743538,44.7738303910852 61.0464524367967,44.7765253369376 61.0545372743538,44.7792202827899 61.049147382649,44.7819152286423</coordinates></LinearRing></outerBoundaryIs></Polygon><Polygon><outerBoundaryIs><LinearRing><coordinates>61.0841816787297,44.7980849037564 61.0801392599512,44.7967374308302 61.0774443140988,44.7940424849779 61.0774443140988,44.7994323766826 61.0841816787297,44.7980849037564</coordinates></LinearRing></outerBoundaryIs></Polygon><Polygon><outerBoundaryIs><LinearRing><coordinates>61.1102213862645,44.8030199199668 61.1102213862645,44.8007798496088 61.1057412455486,44.8007798496088 61.1102213862645,44.8030199199668</coordinates></LinearRing></outerBoundaryIs></Polygon><Polygon><outerBoundaryIs><LinearRing><coordinates>61.0424100180181,44.8182969976491 61.0397150721658,44.8156020517968 61.0383675992396,44.8169495247229 61.0383675992396,44.8223394164276 61.0477999097229,44.8236868893538 61.0531898014276,44.8209919435015 61.0585796931323,44.8236868893538 61.0585796931323,44.8263818352062 61.0518423285014,44.8277293081324 61.0572322202061,44.8358141456894 61.0666645306894,44.8425515103203 61.0693594765417,44.839856564468 61.0720544223941,44.8425515103203 61.0801392599512,44.8371616186156 61.0814867328773,44.8385090915418 61.078791787025,44.8412040373942 61.0882240975082,44.8479414020251 61.0909190433606,44.8425515103203 61.093613989213,44.8425515103203 61.0963089350653,44.8506363478774 61.10169882677,44.8425515103203 61.1097836643271,44.8452464561727 61.1102213862645,44.8448087342353 61.1102213862645,44.8266736498311 61.1097836643271,44.8263818352062 61.10169882677,44.8371616186156 61.0990038809177,44.8344666727633 61.0963089350653,44.8371616186156 61.0922665162868,44.8277293081324 61.0855291516559,44.8209919435015 61.0801392599512,44.8290767810585 61.0747493682464,44.8263818352062 61.0693594765417,44.8290767810585 61.0680120036156,44.8223394164276 61.0747493682464,44.8209919435015 61.0774443140988,44.8156020517968 61.0841816787297,44.8115596330182 61.0814867328773,44.8088646871659 61.0814867328773,44.8034747954611 61.0693594765417,44.802127322535 61.063969584837,44.7940424849779 61.0585796931323,44.7940424849779 61.0558847472799,44.7913475391255 61.0451049638705,44.7940424849779 61.0397150721658,44.7886525932732 61.0329777075349,44.7900000661993 61.041062545092,44.8034747954611 61.049147382649,44.8088646871659 61.049147382649,44.8115596330182 61.0451049638705,44.8129071059444 61.0424100180181,44.8182969976491</coordinates></LinearRing></outerBoundaryIs><innerBoundaryIs><LinearRing><coordinates>61.0545372743538,44.8088646871659 61.0531898014276,44.810212160092 61.0518423285014,44.8088646871659 61.0545372743538,44.8088646871659</coordinates></LinearRing></innerBoundaryIs></Polygon><Polygon><outerBoundaryIs><LinearRing><coordinates>61.0464524367967,44.854678766656 61.0558847472799,44.8560262395821 61.0572322202061,44.854678766656 61.0504948555752,44.8452464561727 61.0477999097229,44.8479414020251 61.0451049638705,44.8452464561727 61.0437574909443,44.8465939290989 61.0437574909443,44.8492888749512 61.049147382649,44.8519838208036 61.0464524367967,44.854678766656</coordinates></LinearRing></outerBoundaryIs></Polygon></MultiGeometry>
  </Placemark>
</Folder>
</Document></kml>
