<?xml version="1.0" encoding="utf-8" ?>
<kml xmlns="http://www.opengis.net/kml/2.2">
<Document id="root_doc">
<Schema name="task_grid_v6_46.11_60.06" id="task_grid_v6_46.11_60.06">
	<SimpleField name="area_ha" type="float"></SimpleField>
	<SimpleField name="low_risk_ha" type="float"></SimpleField>
	<SimpleField name="moderate_risk_ha" type="float"></SimpleField>
	<SimpleField name="grid_cell_deg" type="string"></SimpleField>
</Schema>
<Folder><name>task_grid_v6_46.11_60.06</name>
  <Placemark id="task_grid_v6_46.11_60.06.1">
	<name>task_grid_v6_46.11_60.06</name>
	<name>5399</name>
	<description>6591.3</description>
	<Style><LineStyle><color>ff0000ff</color></LineStyle><PolyStyle><fill>0</fill></PolyStyle></Style>
	<ExtendedData><SchemaData schemaUrl="#task_grid_v6_46.11_60.06">
		<SimpleData name="area_ha">1192.4</SimpleData>
		<SimpleData name="low_risk_ha">0.1</SimpleData>
	</SchemaData></ExtendedData>
      <MultiGeometry><Polygon><outerBoundaryIs><LinearRing><coordinates>60.0514677806512,46.0625641451378 60.0482764354472,46.0625641451378 60.0506699443502,46.0633619814388 60.0514677806512,46.0625641451378</coordinates></LinearRing></outerBoundaryIs></Polygon><Polygon><outerBoundaryIs><LinearRing><coordinates>60.0587547819073,46.0714468189958 60.0587547819073,46.0687518731435 60.0533648902025,46.0660569272911 60.0506699443502,46.0687518731435 60.0452800526455,46.0660569272911 60.0425851067931,46.0687518731435 60.0398901609408,46.0660569272911 60.0318053233837,46.0660569272911 60.0283125412303,46.0625641451378 60.0102213862645,46.0625641451378 60.0102213862645,46.0714468189958 60.0102213862645,46.0745163126984 60.0109194930279,46.0748155013113 60.0102213862645,46.0746758799586 60.0102213862645,46.0773377782647 60.013416281097,46.0758855533409 60.0156356482695,46.0768367107006 60.0223730129004,46.0754892377744 60.0237204858266,46.0795316565529 60.0252752622799,46.0782878353903 60.0304578504575,46.0808791294791 60.0277629046051,46.0835740753315 60.0304578504575,46.0889639670362 60.0291103775313,46.0903114399623 60.0102457565648,46.0930063858147 60.0102213862645,46.0929576452141 60.0102213862645,46.1301917645172 60.0129407024172,46.1307356277477 60.0183305941219,46.1334305736001 60.0102213862645,46.1307275043143 60.0102213862645,46.1366498864428 60.0183305941219,46.1415154111572 60.0196780670481,46.1428628840833 60.0169831211957,46.1455578299357 60.0237204858266,46.1522951945666 60.0291103775313,46.1522951945666 60.0318053233837,46.1496002487142 60.034500269236,46.1522951945666 60.0439325797193,46.1509477216404 60.0371952150884,46.1496002487142 60.0425851067931,46.1496002487142 60.0452800526455,46.1522951945666 60.0614497277596,46.1522951945666 60.0439325797193,46.1536426674928 60.0506699443502,46.1576850862713 60.0560598360549,46.1576850862713 60.0587547819073,46.154990140419 60.0614497277596,46.1603800321237 60.064144673612,46.1576850862713 60.0690237324784,46.1625641451378 60.070045398155,46.1625641451378 60.0722295111691,46.1603800321237 60.0749244570214,46.1603800321237 60.0735769840952,46.1617275050499 60.0744136241832,46.1625641451378 60.0862150732691,46.1625641451378 60.101102436907,46.1625641451378 60.1032213884712,46.1590325591975 60.0991789696926,46.1442103570095 60.101873915545,46.1469053028619 60.1059163343235,46.140167938231 60.1032213884712,46.1347780465263 60.1099587531021,46.1442103570095 60.1102213862645,46.1439477238471 60.1102213862645,46.1334305736001 60.1102213862645,46.106743748239 60.1072638072497,46.1037861692241 60.1045688613974,46.1064811150765 60.0843567675047,46.1078285880027 60.0878216978863,46.1051336421503 60.1059163343235,46.1051336421503 60.0964840238403,46.0983962775194 60.1045688613974,46.1037861692241 60.1045688613974,46.0930063858147 60.1099587531021,46.1010912233718 60.1102213862645,46.1011787677593 60.1102213862645,46.0954386985046 60.1099587531021,46.0957013316671 60.1099587531021,46.0930063858147 60.1102213862645,46.0932690189772 60.1102213862645,46.0903114399623 60.1045688613974,46.0903114399623 60.0964840238403,46.0795316565529 60.0910941321356,46.0822266024053 60.0883991862832,46.0795316565529 60.0857042404309,46.0822266024053 60.0830092945785,46.0795316565529 60.0803143487261,46.0849215482576 60.0722295111691,46.0849215482576 60.0695345653167,46.0822266024053 60.0668396194643,46.0849215482576 60.064144673612,46.0795316565529 60.0533648902025,46.0795316565529 60.049322471424,46.0754892377744 60.0520174172764,46.072794291922 60.0506699443502,46.0714468189958 60.0587547819073,46.0714468189958</coordinates></LinearRing></outerBoundaryIs><innerBoundaryIs><LinearRing><coordinates>60.0857042404309,46.1603800321237 60.087051713357,46.1617275050499 60.0749244570214,46.1603800321237 60.0857042404309,46.1603800321237</coordinates></LinearRing></innerBoundaryIs><innerBoundaryIs><LinearRing><coordinates>60.0978314967665,46.1563376133451 60.0978314967665,46.1455578299357 60.0991789696926,46.1442103570095 60.0978314967665,46.1563376133451</coordinates></LinearRing></innerBoundaryIs><innerBoundaryIs><LinearRing><coordinates>60.0937890779879,46.1603800321237 60.0920566127971,46.1598025437267 60.0978314967665,46.1563376133451 60.0937890779879,46.1603800321237</coordinates></LinearRing></innerBoundaryIs><innerBoundaryIs><LinearRing><coordinates>60.0183305941219,46.1334305736001 60.0237204858266,46.1361255194524 60.026415431679,46.1415154111572 60.0183305941219,46.1334305736001</coordinates></LinearRing></innerBoundaryIs><innerBoundaryIs><LinearRing><coordinates>60.0277629046051,46.1482527757881 60.026415431679,46.1496002487142 60.0250679587528,46.1482527757881 60.0277629046051,46.1482527757881</coordinates></LinearRing></innerBoundaryIs><innerBoundaryIs><LinearRing><coordinates>60.0571378143959,46.0962403208375 60.0560598360549,46.0930063858147 60.0587547819073,46.08761649411 60.0587547819073,46.0930063858147 60.0571378143959,46.0962403208375</coordinates></LinearRing></innerBoundaryIs><innerBoundaryIs><LinearRing><coordinates>60.0654921465382,46.0916589128885 60.0614497277596,46.0903114399623 60.0587547819073,46.08761649411 60.0654921465382,46.0916589128885</coordinates></LinearRing></innerBoundaryIs><innerBoundaryIs><LinearRing><coordinates>60.0506699443502,46.0983962775194 60.0479749984978,46.1010912233718 60.0371952150884,46.1010912233718 60.034500269236,46.1037861692241 60.0277629046051,46.0997437504456 60.0506699443502,46.0957013316671 60.0524665749184,46.0948030163829 60.0560598360549,46.0983962775194 60.0506699443502,46.0983962775194</coordinates></LinearRing></innerBoundaryIs><innerBoundaryIs><LinearRing><coordinates>60.0735769840952,46.0970488045932 60.0745875887899,46.0967119363617 60.0740261417373,46.0983962775194 60.0735769840952,46.0970488045932</coordinates></LinearRing></innerBoundaryIs><innerBoundaryIs><LinearRing><coordinates>60.0749244570214,46.1010912233718 60.0745394647568,46.0999362465779 60.0776194028738,46.1005522342013 60.0749244570214,46.1010912233718</coordinates></LinearRing></innerBoundaryIs><innerBoundaryIs><LinearRing><coordinates>60.0816618216523,46.0943538587409 60.0789668758,46.0970488045932 60.0816618216523,46.0997437504456 60.075886937683,46.096278820064 60.0816618216523,46.0943538587409</coordinates></LinearRing></innerBoundaryIs><innerBoundaryIs><LinearRing><coordinates>60.0910941321356,46.1576850862713 60.0910941321356,46.1594817168396 60.0897466592094,46.1590325591975 60.0910941321356,46.1576850862713</coordinates></LinearRing></innerBoundaryIs><innerBoundaryIs><LinearRing><coordinates>60.0964840238403,46.1307356277477 60.0964840238403,46.1297250230531 60.1059163343235,46.1320831006739 60.0964840238403,46.1307356277477</coordinates></LinearRing></innerBoundaryIs><innerBoundaryIs><LinearRing><coordinates>60.0964840238403,46.1280406818954 60.1072638072497,46.1280406818954 60.0964840238403,46.1292384356075 60.0964840238403,46.1280406818954</coordinates></LinearRing></innerBoundaryIs><innerBoundaryIs><LinearRing><coordinates>60.0816618216523,46.1078285880027 60.0762719299476,46.110523533855 60.0789668758,46.1132184797074 60.0776194028738,46.1145659526336 60.0735769840952,46.110523533855 60.0776194028738,46.1064811150765 60.0816618216523,46.1078285880027</coordinates></LinearRing></innerBoundaryIs><innerBoundaryIs><LinearRing><coordinates>60.0601022548334,46.1455578299357 60.0587547819073,46.1469053028619 60.0560598360549,46.1469053028619 60.0560598360549,46.1442103570095 60.0601022548334,46.1455578299357</coordinates></LinearRing></innerBoundaryIs><innerBoundaryIs><LinearRing><coordinates>60.087051713357,46.1239982631168 60.0857042404309,46.125345736043 60.0843567675047,46.1239982631168 60.087051713357,46.1239982631168</coordinates></LinearRing></innerBoundaryIs><innerBoundaryIs><LinearRing><coordinates>60.0857042404309,46.1010912233718 60.0843567675047,46.0997437504456 60.0857042404309,46.0983962775194 60.0857042404309,46.1010912233718</coordinates></LinearRing></innerBoundaryIs><innerBoundaryIs><LinearRing><coordinates>60.0978314967665,46.0943538587409 60.0991789696926,46.0930063858147 60.1005264426188,46.0943538587409 60.0978314967665,46.0943538587409</coordinates></LinearRing></innerBoundaryIs><innerBoundaryIs><LinearRing><coordinates>60.0722295111691,46.0903114399623 60.0708820382429,46.0889639670362 60.0722295111691,46.08761649411 60.0722295111691,46.0903114399623</coordinates></LinearRing></innerBoundaryIs><innerBoundaryIs><LinearRing><coordinates>60.0924416050617,46.0862690211838 60.0910941321356,46.08761649411 60.0897466592094,46.0862690211838 60.0924416050617,46.0862690211838</coordinates></LinearRing></innerBoundaryIs></Polygon><Polygon><outerBoundaryIs><LinearRing><coordinates>60.0277629046051,46.0862690211838 60.026415431679,46.0822266024053 60.0223730129004,46.0862690211838 60.0237204858266,46.08761649411 60.0277629046051,46.0862690211838</coordinates></LinearRing></outerBoundaryIs></Polygon><Polygon><outerBoundaryIs><LinearRing><coordinates>60.0102213862645,46.0929332749139 60.0102457565648,46.0930063858147 60.0169831211957,46.0889639670362 60.0129407024172,46.0849215482576 60.0102213862645,46.0876408644103 60.0102213862645,46.0929332749139</coordinates></LinearRing></outerBoundaryIs></Polygon><Polygon><outerBoundaryIs><LinearRing><coordinates>60.0196780670481,46.1536426674928 60.0142881753433,46.1509477216404 60.0129407024172,46.1469053028619 60.0102213862645,46.1469053028619 60.0102213862645,46.1585671546886 60.0102213862645,46.1625641451378 60.0220941328711,46.1625641451378 60.0268337517229,46.1625641451378 60.0250679587528,46.1590325591975 60.0196780670481,46.1563376133451 60.0196780670481,46.1536426674928</coordinates></LinearRing></outerBoundaryIs></Polygon><Polygon><outerBoundaryIs><LinearRing><coordinates>60.0318053233837,46.1522951945666 60.0277629046051,46.1563376133451 60.0277629046051,46.1617275050499 60.0302728248689,46.1625641451378 60.0403084809847,46.1625641451378 60.0385426880146,46.1590325591975 60.034500269236,46.1576850862713 60.0318053233837,46.1522951945666</coordinates></LinearRing></outerBoundaryIs></Polygon><Polygon><outerBoundaryIs><LinearRing><coordinates>60.0560598360549,46.0660569272911 60.0614497277596,46.0633619814388 60.0614497277596,46.0625641451378 60.0543134449782,46.0625641451378 60.0560598360549,46.0660569272911</coordinates></LinearRing></outerBoundaryIs></Polygon><Polygon><outerBoundaryIs><LinearRing><coordinates>60.0594828195786,46.1625641451378 60.0587547819073,46.1603800321237 60.0565706688932,46.1625641451378 60.0594828195786,46.1625641451378</coordinates></LinearRing></outerBoundaryIs></Polygon></MultiGeometry>
  </Placemark>
</Folder>
</Document></kml>
