<?xml version="1.0" encoding="utf-8" ?>
<kml xmlns="http://www.opengis.net/kml/2.2">
<Document id="root_doc">
<Schema name="task_grid_v6_46.08_58.98" id="task_grid_v6_46.08_58.98">
	<SimpleField name="area_ha" type="float"></SimpleField>
	<SimpleField name="low_risk_ha" type="float"></SimpleField>
	<SimpleField name="moderate_risk_ha" type="float"></SimpleField>
	<SimpleField name="grid_cell_deg" type="string"></SimpleField>
</Schema>
<Folder><name>task_grid_v6_46.08_58.98</name>
  <Placemark id="task_grid_v6_46.08_58.98.1">
	<name>task_grid_v6_46.08_58.98</name>
	<name>162.5</name>
	<description>175</description>
	<Style><LineStyle><color>ff0000ff</color></LineStyle><PolyStyle><fill>0</fill></PolyStyle></Style>
	<ExtendedData><SchemaData schemaUrl="#task_grid_v6_46.08_58.98">
		<SimpleData name="area_ha">12.5</SimpleData>
		<SimpleData name="low_risk_ha">0.1</SimpleData>
	</SchemaData></ExtendedData>
      <MultiGeometry><Polygon><outerBoundaryIs><LinearRing><coordinates>58.9632592929235,46.1078285880027 58.9565219282926,46.1064811150765 58.9538269824403,46.1010912233718 58.9484370907355,46.1037861692241 58.9457421448832,46.0957013316671 58.9416997261046,46.0997437504456 58.9457421448832,46.1118710067812 58.9430471990308,46.1091760609289 58.9416997261046,46.1132184797074 58.9457421448832,46.1145659526336 58.9470896178094,46.1132184797074 58.9457421448832,46.1118710067812 58.9565219282926,46.1118710067812 58.9632592929235,46.1078285880027</coordinates></LinearRing></outerBoundaryIs></Polygon><Polygon><outerBoundaryIs><LinearRing><coordinates>58.9699966575544,46.1064811150765 58.9659542387759,46.110523533855 58.967301711702,46.1118710067812 58.9713441304806,46.110523533855 58.9699966575544,46.1064811150765</coordinates></LinearRing></outerBoundaryIs></Polygon><Polygon><outerBoundaryIs><LinearRing><coordinates>58.9484370907355,46.1145659526336 58.944394671957,46.1159134255598 58.9511320365879,46.1199558443383 58.9524795095141,46.1186083714121 58.9484370907355,46.1145659526336</coordinates></LinearRing></outerBoundaryIs></Polygon></MultiGeometry>
  </Placemark>
</Folder>
</Document></kml>
