<?xml version="1.0" encoding="utf-8" ?>
<kml xmlns="http://www.opengis.net/kml/2.2">
<Document id="root_doc">
<Schema name="task_grid_v6_45.11_61.16" id="task_grid_v6_45.11_61.16">
	<SimpleField name="area_ha" type="float"></SimpleField>
	<SimpleField name="low_risk_ha" type="float"></SimpleField>
	<SimpleField name="moderate_risk_ha" type="float"></SimpleField>
	<SimpleField name="grid_cell_deg" type="string"></SimpleField>
</Schema>
<Folder><name>task_grid_v6_45.11_61.16</name>
  <Placemark id="task_grid_v6_45.11_61.16.1">
	<name>task_grid_v6_45.11_61.16</name>
	<name>83.8</name>
	<description>4756</description>
	<Style><LineStyle><color>ff0000ff</color></LineStyle><PolyStyle><fill>0</fill></PolyStyle></Style>
	<ExtendedData><SchemaData schemaUrl="#task_grid_v6_45.11_61.16">
		<SimpleData name="area_ha">4672.3</SimpleData>
		<SimpleData name="low_risk_ha">0.1</SimpleData>
	</SchemaData></ExtendedData>
      <MultiGeometry><Polygon><outerBoundaryIs><LinearRing><coordinates>61.1205634477365,45.0850966370326 61.1246058665151,45.0945289475159 61.131343231146,45.0985713662944 61.1421230145554,45.0931814745897 61.1502078521125,45.0931814745897 61.1529027979648,45.0985713662944 61.1636825813743,45.095876420442 61.169072473079,45.1012663121468 61.1717674189314,45.0985713662944 61.1731148918575,45.0999188392206 61.1636825813743,45.1066562038515 61.1609876355219,45.1012663121468 61.1555977438172,45.1012663121468 61.1529027979648,45.1039612579991 61.1448179604078,45.0985713662944 61.1380805957769,45.1026137850729 61.1421230145554,45.1066562038515 61.1502078521125,45.1066562038515 61.1582926896696,45.1120460955562 61.1636825813743,45.1093511497038 61.1717674189314,45.1147410414085 61.1744623647837,45.1120460955562 61.1785047835622,45.1133935684824 61.169072473079,45.1174359872609 61.1636825813743,45.1120460955562 61.1582926896696,45.1147410414085 61.1555977438172,45.1120460955562 61.1502078521125,45.1201309331133 61.1448179604078,45.1201309331133 61.1380805957769,45.1241733518918 61.139428068703,45.125520824818 61.1448179604078,45.1282157706703 61.1475129062601,45.125520824818 61.1529027979648,45.1309107165227 61.1582926896696,45.1309107165227 61.1623351084481,45.1241733518918 61.1596401625957,45.1214784060395 61.1636825813743,45.1201309331133 61.1636825813743,45.1309107165227 61.1825472023408,45.1309107165227 61.183894675267,45.1295632435965 61.1785047835622,45.1268682977442 61.1785047835622,45.1241733518918 61.1811997294146,45.1214784060395 61.1811997294146,45.1160885143347 61.1852421481931,45.1147410414085 61.191979512824,45.1187834601871 61.1892845669717,45.1214784060395 61.1906320398979,45.125520824818 61.1960219316026,45.1228258789656 61.1987168774549,45.125520824818 61.206801715012,45.125520824818 61.2102213862645,45.127800605653 61.2102213862645,45.1165916070671 61.2102213862645,45.1154657668087 61.2102213862645,45.1066562038515 61.2102213862645,45.0645731693769 61.2062033377863,45.0625641451378 61.1969948566785,45.0625641451378 61.1960219316026,45.0635370702137 61.1955354690646,45.0625641451378 61.1889100191215,45.0625641451378 61.1879370940455,45.0635370702137 61.1850183188176,45.0625641451378 61.1450052343329,45.0625641451378 61.1461654333339,45.0648845431399 61.1448179604078,45.0662320160661 61.1380805957769,45.0648845431399 61.140400993779,45.0625641451378 61.1264786057662,45.0625641451378 61.131343231146,45.0635370702137 61.1326907040722,45.0675794889923 61.1138260831056,45.0675794889923 61.1192159748104,45.0648845431399 61.1203761738114,45.0625641451378 61.1102213862645,45.0625641451378 61.1102213862645,45.0983837711784 61.1192159748104,45.0945289475159 61.1192159748104,45.0891390558111 61.116521028958,45.0864441099588 61.1205634477365,45.0850966370326</coordinates></LinearRing></outerBoundaryIs><innerBoundaryIs><LinearRing><coordinates>61.2041067691597,45.1147410414085 61.2041067691597,45.1139710568793 61.2059033997279,45.1147410414085 61.2041067691597,45.1147410414085</coordinates></LinearRing></innerBoundaryIs><innerBoundaryIs><LinearRing><coordinates>61.2041067691597,45.1093511497038 61.206801715012,45.1066562038515 61.2041067691597,45.1111477802721 61.2041067691597,45.1093511497038</coordinates></LinearRing></innerBoundaryIs><innerBoundaryIs><LinearRing><coordinates>61.1663775272266,45.0824016911803 61.165992534962,45.0812467143864 61.169072473079,45.0818627020098 61.1663775272266,45.0824016911803</coordinates></LinearRing></innerBoundaryIs><innerBoundaryIs><LinearRing><coordinates>61.1650300543005,45.0783592724017 61.1660406589951,45.0780224041702 61.1654792119425,45.0797067453279 61.1650300543005,45.0783592724017</coordinates></LinearRing></innerBoundaryIs><innerBoundaryIs><LinearRing><coordinates>61.169072473079,45.0770117994755 61.1731148918575,45.0810542182541 61.1673400078882,45.0775892878725 61.169072473079,45.0770117994755</coordinates></LinearRing></innerBoundaryIs><innerBoundaryIs><LinearRing><coordinates>61.1353856499245,45.0864441099588 61.1407755416292,45.0864441099588 61.1367331228507,45.0904865287373 61.1353856499245,45.0864441099588</coordinates></LinearRing></innerBoundaryIs><innerBoundaryIs><LinearRing><coordinates>61.1178685018842,45.0797067453279 61.116521028958,45.0783592724017 61.1178685018842,45.0743168536232 61.1219109206627,45.0756643265494 61.1178685018842,45.0797067453279</coordinates></LinearRing></innerBoundaryIs><innerBoundaryIs><LinearRing><coordinates>61.1811997294146,45.1053087309253 61.1798522564884,45.1066562038515 61.1785047835622,45.1026137850729 61.1811997294146,45.1026137850729 61.1811997294146,45.1053087309253</coordinates></LinearRing></innerBoundaryIs><innerBoundaryIs><LinearRing><coordinates>61.1758098377099,45.1187834601871 61.1785047835622,45.1187834601871 61.1771573106361,45.1201309331133 61.1758098377099,45.1187834601871</coordinates></LinearRing></innerBoundaryIs><innerBoundaryIs><LinearRing><coordinates>61.1933269857502,45.1012663121468 61.1933269857502,45.0985713662944 61.1946744586764,45.0999188392206 61.1933269857502,45.1012663121468</coordinates></LinearRing></innerBoundaryIs><innerBoundaryIs><LinearRing><coordinates>61.1758098377099,45.0918340016635 61.1785047835622,45.0918340016635 61.1771573106361,45.0931814745897 61.1758098377099,45.0918340016635</coordinates></LinearRing></innerBoundaryIs></Polygon><Polygon><outerBoundaryIs><LinearRing><coordinates>61.1515553250387,45.1133935684824 61.1448179604078,45.1120460955562 61.1421230145554,45.1093511497038 61.1421230145554,45.1147410414085 61.1515553250387,45.1133935684824</coordinates></LinearRing></outerBoundaryIs></Polygon><Polygon><outerBoundaryIs><LinearRing><coordinates>61.1582926896696,45.1416904999321 61.1636825813743,45.1470803916369 61.1636825813743,45.1389955540798 61.169072473079,45.1443854457845 61.1717674189314,45.1389955540798 61.1785047835622,45.1376480811536 61.1717674189314,45.1336056623751 61.169072473079,45.1363006082274 61.1636825813743,45.1363006082274 61.1609876355219,45.1336056623751 61.1488603791863,45.1349531353012 61.1529027979648,45.1416904999321 61.1582926896696,45.1416904999321</coordinates></LinearRing></outerBoundaryIs></Polygon><Polygon><outerBoundaryIs><LinearRing><coordinates>61.1102213862645,45.1441802436104 61.1124786101795,45.1443854457845 61.1138260831056,45.1430379728583 61.1102213862645,45.1394332760172 61.1102213862645,45.1441802436104</coordinates></LinearRing></outerBoundaryIs></Polygon><Polygon><outerBoundaryIs><LinearRing><coordinates>61.1219109206627,45.1565127021201 61.1178685018842,45.1524702833416 61.1124786101795,45.1578601750463 61.1102213862645,45.1578601750463 61.1102213862645,45.1625641451378 61.1173723383995,45.1625641451378 61.1219109206627,45.1565127021201</coordinates></LinearRing></outerBoundaryIs></Polygon><Polygon><outerBoundaryIs><LinearRing><coordinates>61.1327150743724,45.1625641451378 61.1367331228507,45.1605551208986 61.1380805957769,45.1619025938248 61.1380805957769,45.1625641451378 61.1436358753098,45.1625641451378 61.1434704874816,45.1619025938248 61.139428068703,45.1578601750463 61.131343231146,45.1578601750463 61.131343231146,45.1625641451378 61.1327150743724,45.1625641451378</coordinates></LinearRing></outerBoundaryIs></Polygon><Polygon><outerBoundaryIs><LinearRing><coordinates>61.2081491879382,45.140343027006 61.2102213862645,45.1410337597814 61.2102213862645,45.1382708286796 61.2081491879382,45.140343027006</coordinates></LinearRing></outerBoundaryIs></Polygon><Polygon><outerBoundaryIs><LinearRing><coordinates>61.2054542420858,45.1457329187107 61.2094966608644,45.1497753374892 61.2102213862645,45.149050612089 61.2102213862645,45.146559621985 61.2094966608644,45.1443854457845 61.2054542420858,45.1457329187107</coordinates></LinearRing></outerBoundaryIs></Polygon><Polygon><outerBoundaryIs><LinearRing><coordinates>61.1663775272266,45.1578601750463 61.1582926896696,45.1578601750463 61.154250270891,45.1619025938248 61.154250270891,45.1625641451378 61.1739969602748,45.1625641451378 61.1731148918575,45.1619025938248 61.1744623647837,45.1605551208986 61.1764713890228,45.1625641451378 61.1775002714427,45.1625641451378 61.1798522564884,45.1578601750463 61.1933269857502,45.1578601750463 61.1987168774549,45.1524702833416 61.2081491879382,45.1511228104154 61.1987168774549,45.1497753374892 61.1960219316026,45.1389955540798 61.1946744586764,45.1457329187107 61.1879370940455,45.1551652291939 61.1744623647837,45.1551652291939 61.169072473079,45.1605551208986 61.1663775272266,45.1578601750463</coordinates></LinearRing></outerBoundaryIs></Polygon></MultiGeometry>
  </Placemark>
</Folder>
</Document></kml>
