<?xml version="1.0" encoding="utf-8" ?>
<kml xmlns="http://www.opengis.net/kml/2.2">
<Document id="root_doc">
<Schema name="task_grid_v6_45.91_60.26" id="task_grid_v6_45.91_60.26">
	<SimpleField name="area_ha" type="float"></SimpleField>
	<SimpleField name="low_risk_ha" type="float"></SimpleField>
	<SimpleField name="moderate_risk_ha" type="float"></SimpleField>
	<SimpleField name="grid_cell_deg" type="string"></SimpleField>
</Schema>
<Folder><name>task_grid_v6_45.91_60.26</name>
  <Placemark id="task_grid_v6_45.91_60.26.1">
	<name>task_grid_v6_45.91_60.26</name>
	<name>1400</name>
	<description>2764.2</description>
	<Style><LineStyle><color>ff0000ff</color></LineStyle><PolyStyle><fill>0</fill></PolyStyle></Style>
	<ExtendedData><SchemaData schemaUrl="#task_grid_v6_45.91_60.26">
		<SimpleData name="area_ha">1364.2</SimpleData>
		<SimpleData name="low_risk_ha">0.1</SimpleData>
	</SchemaData></ExtendedData>
      <MultiGeometry><Polygon><outerBoundaryIs><LinearRing><coordinates>60.2191040601226,45.8679784071428 60.2191040601226,45.8625885154381 60.2190431343719,45.8625641451378 60.2102213862645,45.8625641451378 60.2102213862645,45.8660812975914 60.2102213862645,45.8730934805349 60.2123666954917,45.8720208259213 60.2123666954917,45.877410717626 60.2191040601226,45.8679784071428</coordinates></LinearRing></outerBoundaryIs></Polygon><Polygon><outerBoundaryIs><LinearRing><coordinates>60.2204515330488,45.8801056634784 60.2204515330488,45.8747157717737 60.2150616413441,45.8747157717737 60.2137141684179,45.8760632446998 60.2204515330488,45.8801056634784</coordinates></LinearRing></outerBoundaryIs></Polygon><Polygon><outerBoundaryIs><LinearRing><coordinates>60.2474009915724,45.8908854468878 60.2487484644985,45.8895379739616 60.2527908832771,45.8908854468878 60.259528247908,45.8868430281093 60.2527908832771,45.8854955551831 60.2514434103509,45.8868430281093 60.2339262623106,45.8854955551831 60.2271888976797,45.8895379739616 60.2366212081629,45.8908854468878 60.2379686810891,45.8895379739616 60.24470604572,45.8908854468878 60.24470604572,45.8881905010355 60.2474009915724,45.8908854468878</coordinates></LinearRing></outerBoundaryIs></Polygon><Polygon><outerBoundaryIs><LinearRing><coordinates>60.2204515330488,45.8908854468878 60.2204515330488,45.8881905010355 60.2150616413441,45.8881905010355 60.2137141684179,45.8895379739616 60.2204515330488,45.8908854468878</coordinates></LinearRing></outerBoundaryIs></Polygon><Polygon><outerBoundaryIs><LinearRing><coordinates>60.229883843532,45.9084025949281 60.2258414247535,45.9043601761496 60.2244939518273,45.9084025949281 60.2285363706059,45.9097500678543 60.229883843532,45.9084025949281</coordinates></LinearRing></outerBoundaryIs></Polygon><Polygon><outerBoundaryIs><LinearRing><coordinates>60.2102213862645,45.9210642772394 60.2177565871964,45.9178349054114 60.2191040601226,45.9137924866329 60.2244939518273,45.9110975407805 60.2244939518273,45.9084025949281 60.2244939518273,45.9057076490758 60.2204515330488,45.9043601761496 60.2177565871964,45.9097500678543 60.2150616413441,45.907055122002 60.2123666954917,45.9097500678543 60.2102213862645,45.9101076193922 60.2102213862645,45.9210642772394</coordinates></LinearRing></outerBoundaryIs></Polygon><Polygon><outerBoundaryIs><LinearRing><coordinates>60.2137141684179,45.9218773241899 60.2177565871964,45.9259197429685 60.2123666954917,45.9259197429685 60.2123666954917,45.9259197429685 60.2137141684179,45.9245722700423 60.2102213862645,45.9228258789656 60.2102213862645,45.9268391612087 60.2102213862645,45.9280650521956 60.2102213862645,45.9342793988382 60.2102213862645,45.9453162548023 60.2102213862645,45.9501742556397 60.2123666954917,45.9501742556397 60.2150616413441,45.9528692014921 60.2123666954917,45.9555641473444 60.2102213862645,45.9544914927308 60.2102213862645,45.9609540390491 60.2150616413441,45.9609540390491 60.221799005975,45.9569116202706 60.2204515330488,45.9528692014921 60.2231464789011,45.9555641473444 60.2246164493661,45.9545841670345 60.2258414247535,45.9582590931968 60.2352737352368,45.9542166744182 60.2312313164582,45.9501742556397 60.2366212081629,45.9528692014921 60.2474009915724,45.9528692014921 60.2500959374247,45.9474793097873 60.2527908832771,45.9528692014921 60.2554858291294,45.9501742556397 60.2608757208342,45.9501742556397 60.2541383562033,45.9515217285659 60.2608757208342,45.9582590931968 60.2676130854651,45.9515217285659 60.2649181396127,45.9488267827135 60.2703080313174,45.9461318368612 60.2635706666865,45.944784363935 60.2703080313174,45.9434368910088 60.2635706666865,45.9313096346732 60.2716555042436,45.944784363935 60.2770453959483,45.9366995263779 60.2837827605792,45.9326571075994 60.2810878147268,45.9272672158947 60.2837827605792,45.9218773241899 60.282435287653,45.9205298512638 60.2797403418007,45.9232247971161 60.2770453959483,45.9205298512638 60.2716555042436,45.9232247971161 60.2689605583912,45.9286146888208 60.2703080313174,45.9245722700423 60.2662656125389,45.9232247971161 60.2649181396127,45.9191823783376 60.2783928688745,45.9164874324852 60.2767085277168,45.9136801972223 60.278729737106,45.9134556184013 60.2783928688745,45.9137924866329 60.2878251793577,45.915139959559 60.2878251793577,45.9124450137067 60.2905201252101,45.9178349054114 60.2932150710625,45.915139959559 60.3012999086195,45.9178349054114 60.3102213862645,45.9089134277664 60.3102213862645,45.9082323173154 60.3066898003242,45.907055122002 60.3039948544719,45.9016652302973 60.2905201252101,45.9016652302973 60.2891726522839,45.9030127032234 60.2945625439886,45.9110975407805 60.2932150710625,45.9124450137067 60.2878251793577,45.9043601761496 60.282435287653,45.9043601761496 60.2756979230221,45.9110975407805 60.2756979230221,45.9119958560646 60.274350450096,45.9097500678543 60.2689605583912,45.9124450137067 60.2644689819706,45.9101992254964 60.2662656125389,45.9097500678543 60.2662656125389,45.9043601761496 60.2635706666865,45.907055122002 60.2554858291294,45.907055122002 60.2518109029671,45.9131799989391 60.2500959374247,45.9097500678543 60.2474009915724,45.9097500678543 60.24470604572,45.915139959559 60.2393161540153,45.915139959559 60.2378461835504,45.916119939869 60.2366212081629,45.9124450137067 60.2339262623106,45.915139959559 60.2231464789011,45.915139959559 60.2191040601226,45.9191823783376 60.221799005975,45.9218773241899 60.2204515330488,45.9232247971161 60.2177565871964,45.9205298512638 60.2137141684179,45.9218773241899</coordinates></LinearRing></outerBoundaryIs><innerBoundaryIs><LinearRing><coordinates>60.2554858291294,45.9366995263779 60.2393161540153,45.9366995263779 60.2374504222713,45.9379433475405 60.2312313164582,45.9366995263779 60.2231464789011,45.9313096346732 60.2339262623106,45.9313096346732 60.2366212081629,45.9340045805256 60.2393161540153,45.9313096346732 60.2437260654101,45.9335145903706 60.2406636269415,45.9353520534517 60.2568333020556,45.9353520534517 60.2529031726876,45.933667712294 60.2541383562033,45.929962161747 60.2474009915724,45.9286146888208 60.2433585727938,45.9245722700423 60.2500959374247,45.9178349054114 60.2554858291294,45.9178349054114 60.2581807749818,45.915139959559 60.2622231937603,45.9164874324852 60.2514434103509,45.9245722700423 60.2554858291294,45.9286146888208 60.2608757208342,45.9259197429685 60.2568333020556,45.9326571075994 60.2581807749818,45.9340045805256 60.2635706666865,45.9313096346732 60.2554858291294,45.9366995263779</coordinates></LinearRing></innerBoundaryIs><innerBoundaryIs><LinearRing><coordinates>60.2150616413441,45.9366995263779 60.2204515330488,45.9313096346732 60.2231464789011,45.9313096346732 60.2150616413441,45.9366995263779</coordinates></LinearRing></innerBoundaryIs><innerBoundaryIs><LinearRing><coordinates>60.2285363706059,45.9205298512638 60.2312313164582,45.9205298512638 60.2231464789011,45.9259197429685 60.2285363706059,45.9205298512638</coordinates></LinearRing></innerBoundaryIs><innerBoundaryIs><LinearRing><coordinates>60.2527908832771,45.915139959559 60.2554858291294,45.9124450137067 60.2608757208342,45.9110975407805 60.2527908832771,45.915139959559</coordinates></LinearRing></innerBoundaryIs><innerBoundaryIs><LinearRing><coordinates>60.2488521162621,45.9319315452545 60.2500959374247,45.9313096346732 60.252117146814,45.9333308440625 60.2488521162621,45.9319315452545</coordinates></LinearRing></innerBoundaryIs><innerBoundaryIs><LinearRing><coordinates>60.2716555042436,45.9366995263779 60.2703080313174,45.9353520534517 60.2730029771698,45.9353520534517 60.2716555042436,45.9366995263779</coordinates></LinearRing></innerBoundaryIs></Polygon><Polygon><outerBoundaryIs><LinearRing><coordinates>60.274350450096,45.8625641451378 60.2724298695789,45.8625641451378 60.274350450096,45.8639359883642 60.274350450096,45.8625641451378</coordinates></LinearRing></outerBoundaryIs></Polygon><Polygon><outerBoundaryIs><LinearRing><coordinates>60.2474009915724,45.8720208259213 60.2474009915724,45.8693258800689 60.2420110998676,45.8693258800689 60.2406636269415,45.8706733529951 60.2474009915724,45.8720208259213</coordinates></LinearRing></outerBoundaryIs></Polygon><Polygon><outerBoundaryIs><LinearRing><coordinates>60.2756979230221,45.8814531364046 60.2716555042436,45.877410717626 60.2676130854651,45.8814531364046 60.274350450096,45.8854955551831 60.2756979230221,45.8814531364046</coordinates></LinearRing></outerBoundaryIs></Polygon><Polygon><outerBoundaryIs><LinearRing><coordinates>60.3039948544719,45.8962753385925 60.3039948544719,45.8935803927402 60.2986049627672,45.8935803927402 60.297257489841,45.8949278656664 60.3039948544719,45.8962753385925</coordinates></LinearRing></outerBoundaryIs></Polygon><Polygon><outerBoundaryIs><LinearRing><coordinates>60.2756979230221,45.9084025949281 60.2716555042436,45.9043601761496 60.2703080313174,45.9084025949281 60.274350450096,45.9097500678543 60.2756979230221,45.9084025949281</coordinates></LinearRing></outerBoundaryIs></Polygon><Polygon><outerBoundaryIs><LinearRing><coordinates>60.2878251793577,45.9286146888208 60.2918675981363,45.9245722700423 60.2878251793577,45.9232247971161 60.2837827605792,45.9272672158947 60.2878251793577,45.9286146888208</coordinates></LinearRing></outerBoundaryIs></Polygon></MultiGeometry>
  </Placemark>
</Folder>
</Document></kml>
