<?xml version="1.0" encoding="utf-8" ?>
<kml xmlns="http://www.opengis.net/kml/2.2">
<Document id="root_doc">
<Schema name="task_grid_v6_45.51_58.96" id="task_grid_v6_45.51_58.96">
	<SimpleField name="area_ha" type="float"></SimpleField>
	<SimpleField name="low_risk_ha" type="float"></SimpleField>
	<SimpleField name="moderate_risk_ha" type="float"></SimpleField>
	<SimpleField name="grid_cell_deg" type="string"></SimpleField>
</Schema>
<Folder><name>task_grid_v6_45.51_58.96</name>
  <Placemark id="task_grid_v6_45.51_58.96.1">
	<name>task_grid_v6_45.51_58.96</name>
	<name>0</name>
	<description>1788.3</description>
	<Style><LineStyle><color>ff0000ff</color></LineStyle><PolyStyle><fill>0</fill></PolyStyle></Style>
	<ExtendedData><SchemaData schemaUrl="#task_grid_v6_45.51_58.96">
		<SimpleData name="area_ha">1788.3</SimpleData>
		<SimpleData name="low_risk_ha">0.1</SimpleData>
	</SchemaData></ExtendedData>
      <MultiGeometry><Polygon><outerBoundaryIs><LinearRing><coordinates>58.9915562243733,45.4650840022152 58.9957559861689,45.4625641451378 58.9890363672959,45.4625641451378 58.9915562243733,45.4650840022152</coordinates></LinearRing></outerBoundaryIs></Polygon><Polygon><outerBoundaryIs><LinearRing><coordinates>59.0102213862645,45.4742001277732 59.0102213862645,45.4644601305209 59.0077258994874,45.4650840022152 58.9982935890042,45.4718213668461 59.0023360077827,45.4758637856246 59.0077258994874,45.4758637856246 59.0102213862645,45.4742001277732</coordinates></LinearRing></outerBoundaryIs></Polygon><Polygon><outerBoundaryIs><LinearRing><coordinates>58.9102213862645,45.4834621606437 58.9134027946549,45.486643569034 58.9160977405072,45.4839486231817 58.9214876322119,45.486643569034 58.9228351051381,45.4879910419602 58.9174452134334,45.4906859878126 58.9187926863596,45.4920334607388 58.9376573073261,45.5001182982958 58.9403522531785,45.4974233524435 58.9416997261046,45.4987708253696 58.9390047802523,45.501465771222 58.9416997261046,45.5041607170744 58.9363098343999,45.5068556629267 58.9430471990308,45.5135930275576 58.9457421448832,45.5082031358529 58.9484370907355,45.51628797341 58.9497845636617,45.5095506087791 58.9578694012188,45.5041607170744 58.9551744553664,45.501465771222 58.9605643470711,45.4987708253696 58.959216874145,45.4947284065911 58.9565219282926,45.4974233524435 58.9551744553664,45.4960758795173 58.9578694012188,45.4933809336649 58.9524795095141,45.4879910419602 58.9565219282926,45.4839486231817 58.9619118199973,45.4839486231817 58.9646067658497,45.478558731477 58.9686491846282,45.4772112585508 58.9605643470711,45.4691264209937 58.9638454849991,45.4625641451378 58.9540020712152,45.4625641451378 58.9551744553664,45.463736529289 58.9538269824403,45.4677789480675 58.9503504471538,45.4625641451378 58.9160977405072,45.4625641451378 58.9160977405072,45.4650840022152 58.9120553217287,45.463736529289 58.9132277058799,45.4625641451378 58.9102213862645,45.4625641451378 58.9102213862645,45.4736553023102 58.9107078488025,45.4731688397722 58.9120553217287,45.4745163126984 58.9102213862645,45.4763502481626 58.9102213862645,45.4834621606437</coordinates></LinearRing></outerBoundaryIs><innerBoundaryIs><LinearRing><coordinates>58.9403522531785,45.4947284065911 58.9390047802523,45.4933809336649 58.9430471990308,45.486643569034 58.944394671957,45.4906859878126 58.9403522531785,45.4947284065911</coordinates></LinearRing></innerBoundaryIs><innerBoundaryIs><LinearRing><coordinates>58.9268775239167,45.4893385148864 58.9268775239167,45.486643569034 58.9282249968428,45.4879910419602 58.9268775239167,45.4893385148864</coordinates></LinearRing></innerBoundaryIs><innerBoundaryIs><LinearRing><coordinates>58.9309199426952,45.4879910419602 58.9336148885476,45.4879910419602 58.9322674156214,45.4893385148864 58.9309199426952,45.4879910419602</coordinates></LinearRing></innerBoundaryIs><innerBoundaryIs><LinearRing><coordinates>58.9322674156214,45.4812536773293 58.9322674156214,45.4839486231817 58.9309199426952,45.4826011502555 58.9322674156214,45.4812536773293</coordinates></LinearRing></innerBoundaryIs><innerBoundaryIs><LinearRing><coordinates>58.9497845636617,45.4826011502555 58.9470896178094,45.4826011502555 58.9484370907355,45.4812536773293 58.9497845636617,45.4826011502555</coordinates></LinearRing></innerBoundaryIs><innerBoundaryIs><LinearRing><coordinates>58.9322674156214,45.4677789480675 58.9322674156214,45.4650840022152 58.9336148885476,45.4664314751413 58.9322674156214,45.4677789480675</coordinates></LinearRing></innerBoundaryIs></Polygon><Polygon><outerBoundaryIs><LinearRing><coordinates>58.9929036972995,45.4933809336649 58.996946116078,45.4974233524435 58.9982935890042,45.4933809336649 58.9942511702256,45.4893385148864 58.9929036972995,45.4933809336649</coordinates></LinearRing></outerBoundaryIs></Polygon><Polygon><outerBoundaryIs><LinearRing><coordinates>58.9875138055947,45.4960758795173 58.9888612785209,45.5001182982958 58.9929036972995,45.4987708253696 58.9915562243733,45.4947284065911 58.9875138055947,45.4960758795173</coordinates></LinearRing></outerBoundaryIs></Polygon><Polygon><outerBoundaryIs><LinearRing><coordinates>58.9955986431518,45.501465771222 58.996946116078,45.5028132441482 59.0009885348565,45.501465771222 58.9996410619303,45.4974233524435 58.9955986431518,45.501465771222</coordinates></LinearRing></outerBoundaryIs></Polygon><Polygon><outerBoundaryIs><LinearRing><coordinates>58.9848188597424,45.5149405004838 58.9861663326686,45.5189829192623 58.9929036972995,45.5149405004838 58.9888612785209,45.5108980817053 58.9848188597424,45.5149405004838</coordinates></LinearRing></outerBoundaryIs></Polygon><Polygon><outerBoundaryIs><LinearRing><coordinates>58.9902087514471,45.5284152297456 58.9888612785209,45.5243728109671 58.9861663326686,45.5243728109671 58.9848188597424,45.5284152297456 58.9888612785209,45.5324576485241 58.9942511702256,45.5324576485241 58.9955986431518,45.531110175598 58.9902087514471,45.5284152297456</coordinates></LinearRing></outerBoundaryIs></Polygon><Polygon><outerBoundaryIs><LinearRing><coordinates>58.9228351051381,45.5338051214503 58.9268775239167,45.5351525943765 58.9336148885476,45.5284152297456 58.929572469769,45.5270677568194 58.9228351051381,45.5338051214503</coordinates></LinearRing></outerBoundaryIs></Polygon></MultiGeometry>
  </Placemark>
</Folder>
</Document></kml>
