<?xml version="1.0" encoding="utf-8" ?>
<kml xmlns="http://www.opengis.net/kml/2.2">
<Document id="root_doc">
<Schema name="task_grid_v6_45.91_61.16" id="task_grid_v6_45.91_61.16">
	<SimpleField name="area_ha" type="float"></SimpleField>
	<SimpleField name="low_risk_ha" type="float"></SimpleField>
	<SimpleField name="moderate_risk_ha" type="float"></SimpleField>
	<SimpleField name="grid_cell_deg" type="string"></SimpleField>
</Schema>
<Folder><name>task_grid_v6_45.91_61.16</name>
  <Placemark id="task_grid_v6_45.91_61.16.1">
	<name>task_grid_v6_45.91_61.16</name>
	<name>1270.1</name>
	<description>2585.4</description>
	<Style><LineStyle><color>ff0000ff</color></LineStyle><PolyStyle><fill>0</fill></PolyStyle></Style>
	<ExtendedData><SchemaData schemaUrl="#task_grid_v6_45.91_61.16">
		<SimpleData name="area_ha">1315.3</SimpleData>
		<SimpleData name="low_risk_ha">0.1</SimpleData>
	</SchemaData></ExtendedData>
      <MultiGeometry><Polygon><outerBoundaryIs><LinearRing><coordinates>61.1178685018842,45.8666309342166 61.1192159748104,45.8652834612904 61.1183095360928,45.8625641451378 61.1138991940065,45.8625641451378 61.1138260831056,45.8625885154381 61.1178685018842,45.8666309342166</coordinates></LinearRing></outerBoundaryIs></Polygon><Polygon><outerBoundaryIs><LinearRing><coordinates>61.1232583935889,45.8666309342166 61.1299957582198,45.8652834612904 61.1294518949893,45.8625641451378 61.1246302368154,45.8625641451378 61.1219109206627,45.8652834612904 61.1232583935889,45.8666309342166</coordinates></LinearRing></outerBoundaryIs></Polygon><Polygon><outerBoundaryIs><LinearRing><coordinates>61.1178685018842,45.877410717626 61.116521028958,45.8760632446998 61.1192159748104,45.8733682988475 61.1124786101795,45.8720208259213 61.1102213862645,45.8682587860631 61.1102213862645,45.8832383312682 61.1124786101795,45.8854955551831 61.1102213862645,45.890010003013 61.1102213862645,45.8961659081082 61.1139297348692,45.895238820957 61.1151735560318,45.8989702844449 61.1178685018842,45.8962753385925 61.1138260831056,45.9003177573711 61.116521028958,45.9030127032234 61.116521028958,45.9084025949281 61.1205634477365,45.9124450137067 61.1286482852936,45.9124450137067 61.1299957582198,45.9110975407805 61.1259533394413,45.907055122002 61.1232583935889,45.9097500678543 61.1192159748104,45.9057076490758 61.1219109206627,45.9003177573711 61.1205634477365,45.8989702844449 61.1232583935889,45.8962753385925 61.1219109206627,45.8976228115187 61.131343231146,45.9016652302973 61.1326907040722,45.9003177573711 61.1286482852936,45.8962753385925 61.1286482852936,45.8881905010355 61.139428068703,45.8935803927402 61.1448179604078,45.8881905010355 61.1502078521125,45.8881905010355 61.1529027979648,45.8908854468878 61.1582926896696,45.8854955551831 61.1636825813743,45.8881905010355 61.1677250001528,45.8841480822569 61.1650300543005,45.8787581905522 61.1677250001528,45.8760632446998 61.1636825813743,45.8720208259213 61.1623351084481,45.8733682988475 61.1555977438172,45.8666309342166 61.1525659297333,45.8676415389112 61.1529027979648,45.8666309342166 61.1596401625957,45.8652834612904 61.1569208464431,45.8625641451378 61.1536130898783,45.8625641451378 61.1475129062601,45.8666309342166 61.1407755416292,45.8679784071428 61.1475129062601,45.8693258800689 61.1502078521125,45.8747157717737 61.1520943142091,45.8690563854837 61.1551485861751,45.8751649294157 61.1515553250387,45.8787581905522 61.154250270891,45.8814531364046 61.1502078521125,45.8854955551831 61.1434704874816,45.8841480822569 61.1461654333339,45.8814531364046 61.1448179604078,45.877410717626 61.139428068703,45.8801056634784 61.139428068703,45.8881905010355 61.1367331228507,45.8854955551831 61.1367331228507,45.8801056634784 61.1380805957769,45.8787581905522 61.1340381769983,45.8747157717737 61.1273008123674,45.8760632446998 61.1273008123674,45.8787581905522 61.1340381769983,45.8828006093307 61.1305732466167,45.8839555861246 61.1259533394413,45.8828006093307 61.1232583935889,45.8720208259213 61.1178685018842,45.877410717626</coordinates></LinearRing></outerBoundaryIs><innerBoundaryIs><LinearRing><coordinates>61.1586776819342,45.8793356789491 61.1609876355219,45.8801056634784 61.1623351084481,45.8787581905522 61.1609876355219,45.8828006093307 61.1586776819342,45.8793356789491</coordinates></LinearRing></innerBoundaryIs><innerBoundaryIs><LinearRing><coordinates>61.1192159748104,45.8814531364046 61.1219109206627,45.8814531364046 61.1205634477365,45.8828006093307 61.1192159748104,45.8814531364046</coordinates></LinearRing></innerBoundaryIs></Polygon><Polygon><outerBoundaryIs><LinearRing><coordinates>61.1102213862645,45.8895722810755 61.1111311372533,45.8868430281093 61.1102213862645,45.8859332771205 61.1102213862645,45.8895722810755</coordinates></LinearRing></outerBoundaryIs></Polygon><Polygon><outerBoundaryIs><LinearRing><coordinates>61.1569452167434,45.8949278656664 61.1555977438172,45.8908854468878 61.1529027979648,45.8935803927402 61.1475129062601,45.8908854468878 61.1461654333339,45.892232919814 61.1483421203685,45.8973118562281 61.1421230145554,45.8935803927402 61.1380805957769,45.8949278656664 61.1440829751753,45.8992152795224 61.1407755416292,45.9003177573711 61.1434704874816,45.9030127032234 61.1407755416292,45.9057076490758 61.1421230145554,45.907055122002 61.139428068703,45.907055122002 61.1377437275453,45.9080657266966 61.1407755416292,45.9030127032234 61.1367331228507,45.8989702844449 61.1326907040722,45.9003177573711 61.1363656302345,45.9088925850831 61.1326907040722,45.9110975407805 61.1475129062601,45.9124450137067 61.1488603791863,45.9110975407805 61.1448179604078,45.907055122002 61.1475129062601,45.907055122002 61.1502078521125,45.9097500678543 61.1569452167434,45.9084025949281 61.1545197654763,45.9065161328315 61.1555977438172,45.907055122002 61.1636825813743,45.8989702844449 61.1758098377099,45.892232919814 61.1758098377099,45.8841480822569 61.1785047835622,45.8814531364046 61.1744623647837,45.877410717626 61.1731148918575,45.8895379739616 61.1582926896696,45.8935803927402 61.1529027979648,45.9016652302973 61.1569452167434,45.8949278656664</coordinates></LinearRing></outerBoundaryIs><innerBoundaryIs><LinearRing><coordinates>61.1502078521125,45.9016652302973 61.1529027979648,45.9016652302973 61.149668862942,45.9027432086382 61.1476714324867,45.9011896516174 61.1486919450705,45.898128113866 61.1502078521125,45.9016652302973</coordinates></LinearRing></innerBoundaryIs></Polygon><Polygon><outerBoundaryIs><LinearRing><coordinates>61.1102213862645,45.89671306053 61.1102213862645,45.9009128223256 61.1124786101795,45.9016652302973 61.1138260831056,45.9003177573711 61.1102213862645,45.89671306053</coordinates></LinearRing></outerBoundaryIs></Polygon><Polygon><outerBoundaryIs><LinearRing><coordinates>61.1515553250387,45.9137924866329 61.139428068703,45.9124450137067 61.1353856499245,45.9164874324852 61.1448179604078,45.9178349054114 61.1515553250387,45.9137924866329</coordinates></LinearRing></outerBoundaryIs></Polygon><Polygon><outerBoundaryIs><LinearRing><coordinates>61.1461654333339,45.9272672158947 61.1448179604078,45.9205298512638 61.1380805957769,45.9245722700423 61.1421230145554,45.9340045805256 61.1461654333339,45.9272672158947</coordinates></LinearRing></outerBoundaryIs></Polygon><Polygon><outerBoundaryIs><LinearRing><coordinates>61.1415634411166,45.9625641451378 61.1450349283605,45.9625641451378 61.1461654333339,45.9569116202706 61.1340381769983,45.9420894180826 61.1259533394413,45.9420894180826 61.1246058665151,45.9461318368612 61.1286482852936,45.9501742556397 61.131343231146,45.944784363935 61.1326907040722,45.9515217285659 61.1407755416292,45.959606566123 61.1407755416292,45.9623015119753 61.1415634411166,45.9625641451378</coordinates></LinearRing></outerBoundaryIs></Polygon><Polygon><outerBoundaryIs><LinearRing><coordinates>61.1488603791863,45.8625885154381 61.148836008886,45.8625641451378 61.1407999119295,45.8625641451378 61.1407755416292,45.8625885154381 61.1475129062601,45.8639359883642 61.1488603791863,45.8625885154381</coordinates></LinearRing></outerBoundaryIs></Polygon><Polygon><outerBoundaryIs><LinearRing><coordinates>61.183894675267,45.8706733529951 61.1811997294146,45.8679784071428 61.1865896211193,45.8652834612904 61.1865896211193,45.8625885154381 61.1863215478162,45.8625641451378 61.1713263847227,45.8625641451378 61.1704199460052,45.8652834612904 61.1731148918575,45.8679784071428 61.1704199460052,45.8733682988475 61.1744623647837,45.8747157717737 61.1771573106361,45.8720208259213 61.1825472023408,45.8747157717737 61.183894675267,45.8706733529951</coordinates></LinearRing></outerBoundaryIs><innerBoundaryIs><LinearRing><coordinates>61.1758098377099,45.8679784071428 61.1785047835622,45.8679784071428 61.1771573106361,45.8693258800689 61.1758098377099,45.8679784071428</coordinates></LinearRing></innerBoundaryIs></Polygon><Polygon><outerBoundaryIs><LinearRing><coordinates>61.1811997294146,45.8868430281093 61.1771573106361,45.8828006093307 61.1758098377099,45.8841480822569 61.1771573106361,45.8908854468878 61.1811997294146,45.8868430281093</coordinates></LinearRing></outerBoundaryIs></Polygon><Polygon><outerBoundaryIs><LinearRing><coordinates>61.1488603791863,45.9164874324852 61.1555977438172,45.9205298512638 61.1623351084481,45.9164874324852 61.1609876355219,45.9124450137067 61.1502078521125,45.915139959559 61.1488603791863,45.9164874324852</coordinates></LinearRing></outerBoundaryIs></Polygon><Polygon><outerBoundaryIs><LinearRing><coordinates>61.1677250001528,45.9326571075994 61.169072473079,45.9366995263779 61.1731148918575,45.929962161747 61.1798522564884,45.9313096346732 61.1811997294146,45.929962161747 61.1797297589497,45.9275122109721 61.1852421481931,45.9286146888208 61.1865896211193,45.9272672158947 61.1906320398979,45.9313096346732 61.191979512824,45.9272672158947 61.1879370940455,45.9232247971161 61.1847929905511,45.9242728316143 61.1825472023408,45.9205298512638 61.1790437727327,45.9263689006105 61.1771573106361,45.9232247971161 61.1717674189314,45.9259197429685 61.169072473079,45.9232247971161 61.1623351084481,45.9245722700423 61.1636825813743,45.9259197429685 61.1636825813743,45.9259197429685 61.1623351084481,45.929962161747 61.1677250001528,45.9326571075994</coordinates></LinearRing></outerBoundaryIs></Polygon><Polygon><outerBoundaryIs><LinearRing><coordinates>61.1545996157237,45.9381967185181 61.1636825813743,45.9420894180826 61.1677250001528,45.9380469993041 61.1587891270634,45.9370541245164 61.1650300543005,45.9353520534517 61.1529027979648,45.9340045805256 61.1475129062601,45.9286146888208 61.1461654333339,45.9353520534517 61.1502078521125,45.9393944722303 61.1545996157237,45.9381967185181</coordinates></LinearRing></outerBoundaryIs></Polygon><Polygon><outerBoundaryIs><LinearRing><coordinates>61.1744623647837,45.9393944722303 61.1677250001528,45.9434368910088 61.1717674189314,45.944784363935 61.1744623647837,45.9501742556397 61.1744623647837,45.9393944722303</coordinates></LinearRing></outerBoundaryIs></Polygon><Polygon><outerBoundaryIs><LinearRing><coordinates>61.1717674189314,45.9501742556397 61.1663775272266,45.9501742556397 61.1650300543005,45.9515217285659 61.1717674189314,45.9528692014921 61.1717674189314,45.9501742556397</coordinates></LinearRing></outerBoundaryIs></Polygon><Polygon><outerBoundaryIs><LinearRing><coordinates>61.1596401625957,45.959606566123 61.1625977416106,45.9625641451378 61.17337752502,45.9625641451378 61.1717674189314,45.9609540390491 61.1663775272266,45.9609540390491 61.1636825813743,45.9582590931968 61.1596401625957,45.959606566123</coordinates></LinearRing></outerBoundaryIs></Polygon><Polygon><outerBoundaryIs><LinearRing><coordinates>61.1960219316026,45.877410717626 61.1973694045288,45.8733682988475 61.1933269857502,45.8693258800689 61.1892845669717,45.8706733529951 61.1892845669717,45.8733682988475 61.1960219316026,45.877410717626</coordinates></LinearRing></outerBoundaryIs></Polygon><Polygon><outerBoundaryIs><LinearRing><coordinates>61.2102213862645,45.8808303888786 61.2102213862645,45.8766859922259 61.2081491879382,45.8787581905522 61.2102213862645,45.8808303888786</coordinates></LinearRing></outerBoundaryIs></Polygon><Polygon><outerBoundaryIs><LinearRing><coordinates>61.2014118233073,45.8854955551831 61.2014118233073,45.8828006093307 61.1960219316026,45.8828006093307 61.1946744586764,45.8841480822569 61.2014118233073,45.8854955551831</coordinates></LinearRing></outerBoundaryIs></Polygon><Polygon><outerBoundaryIs><LinearRing><coordinates>61.2102213862645,45.887050610618 61.2102213862645,45.8849747855312 61.2094966608644,45.8828006093307 61.2054542420858,45.8841480822569 61.206801715012,45.8881905010355 61.2102213862645,45.887050610618</coordinates></LinearRing></outerBoundaryIs></Polygon><Polygon><outerBoundaryIs><LinearRing><coordinates>61.2102213862645,45.89285566734 61.2094966608644,45.8935803927402 61.2054542420858,45.8949278656664 61.2102213862645,45.8958812945021 61.2102213862645,45.89285566734</coordinates></LinearRing></outerBoundaryIs></Polygon><Polygon><outerBoundaryIs><LinearRing><coordinates>61.191979512824,45.8976228115187 61.1879370940455,45.8935803927402 61.1852421481931,45.8962753385925 61.1825472023408,45.8935803927402 61.1811997294146,45.9003177573711 61.1865896211193,45.9084025949281 61.191979512824,45.9110975407805 61.1892845669717,45.9137924866329 61.1892845669717,45.9218773241899 61.1906320398979,45.9232247971161 61.1933269857502,45.9205298512638 61.1987168774549,45.9205298512638 61.2000643503811,45.9272672158947 61.2041067691597,45.9286146888208 61.2054542420858,45.9272672158947 61.2027592962335,45.9245722700423 61.2027592962335,45.9191823783376 61.2081491879382,45.9191823783376 61.2081491879382,45.9110975407805 61.2041067691597,45.9115466984226 61.2041067691597,45.907055122002 61.2014118233073,45.9097500678543 61.1955166292553,45.9109291066647 61.1946744586764,45.9084025949281 61.1970325362972,45.9060445173073 61.1987168774549,45.907055122002 61.2041067691597,45.9043601761496 61.206801715012,45.907055122002 61.2102213862645,45.9050033192505 61.2102213862645,45.9004830980259 61.2102213862645,45.8996950098451 61.2102213862645,45.896669382683 61.2054542420858,45.8976228115187 61.2085166805544,45.8994602745999 61.2041067691597,45.9016652302973 61.1931344896179,45.9028843724686 61.1892845669717,45.9003177573711 61.191979512824,45.8976228115187</coordinates></LinearRing></outerBoundaryIs><innerBoundaryIs><LinearRing><coordinates>61.1956176897247,45.9112322880731 61.2005696527284,45.9119397113594 61.1960219316026,45.9124450137067 61.1956176897247,45.9112322880731</coordinates></LinearRing></innerBoundaryIs><innerBoundaryIs><LinearRing><coordinates>61.1960219316026,45.9178349054114 61.1946744586764,45.9164874324852 61.1973694045288,45.9164874324852 61.1960219316026,45.9178349054114</coordinates></LinearRing></innerBoundaryIs></Polygon><Polygon><outerBoundaryIs><LinearRing><coordinates>61.2102213862645,45.9549753924431 61.2102213862645,45.9452437518642 61.2081491879382,45.9461318368612 61.2081491879382,45.9515217285659 61.2102213862645,45.9549753924431</coordinates></LinearRing></outerBoundaryIs></Polygon><Polygon><outerBoundaryIs><LinearRing><coordinates>61.1917168796616,45.9625641451378 61.191979512824,45.9623015119753 61.1906320398979,45.9501742556397 61.1892845669717,45.9515217285659 61.1905115021463,45.9625641451378 61.1917168796616,45.9625641451378</coordinates></LinearRing></outerBoundaryIs></Polygon><Polygon><outerBoundaryIs><LinearRing><coordinates>61.1852421481931,45.9555641473444 61.1811997294146,45.9569116202706 61.1852421481931,45.9609540390491 61.1865896211193,45.959606566123 61.1852421481931,45.9555641473444</coordinates></LinearRing></outerBoundaryIs></Polygon></MultiGeometry>
  </Placemark>
</Folder>
</Document></kml>
