<?xml version="1.0" encoding="utf-8" ?>
<kml xmlns="http://www.opengis.net/kml/2.2">
<Document id="root_doc">
<Schema name="task_grid_v6_46.28_59.78" id="task_grid_v6_46.28_59.78">
	<SimpleField name="area_ha" type="float"></SimpleField>
	<SimpleField name="low_risk_ha" type="float"></SimpleField>
	<SimpleField name="moderate_risk_ha" type="float"></SimpleField>
	<SimpleField name="grid_cell_deg" type="string"></SimpleField>
</Schema>
<Folder><name>task_grid_v6_46.28_59.78</name>
  <Placemark id="task_grid_v6_46.28_59.78.1">
	<name>task_grid_v6_46.28_59.78</name>
	<name>414.2</name>
	<description>426.7</description>
	<Style><LineStyle><color>ff0000ff</color></LineStyle><PolyStyle><fill>0</fill></PolyStyle></Style>
	<ExtendedData><SchemaData schemaUrl="#task_grid_v6_46.28_59.78">
		<SimpleData name="area_ha">12.5</SimpleData>
		<SimpleData name="low_risk_ha">0.1</SimpleData>
	</SchemaData></ExtendedData>
      <MultiGeometry><Polygon><outerBoundaryIs><LinearRing><coordinates>59.8189046010474,46.2493132452515 59.8202520739735,46.245270826473 59.8175571281212,46.2398809347683 59.8202520739735,46.2371859889159 59.8202520739735,46.2343547580755 59.8067773447117,46.2343547580755 59.8067773447117,46.2371859889159 59.8148621822688,46.2398809347683 59.8121672364165,46.2425758806206 59.8189046010474,46.2493132452515</coordinates></LinearRing></outerBoundaryIs></Polygon><Polygon><outerBoundaryIs><LinearRing><coordinates>59.816209655195,46.2520081911039 59.8094722905641,46.25335566403 59.8148621822688,46.2614405015871 59.8121672364165,46.2641354474395 59.816209655195,46.268177866218 59.816209655195,46.2520081911039</coordinates></LinearRing></outerBoundaryIs></Polygon><Polygon><outerBoundaryIs><LinearRing><coordinates>59.8067773447117,46.2803051225536 59.8148621822688,46.2722202849966 59.8135147093426,46.268177866218 59.8094722905641,46.2695253391442 59.8094722905641,46.2722202849966 59.801387453007,46.2803051225536 59.8054298717856,46.2870424871845 59.8067773447117,46.2803051225536</coordinates></LinearRing></outerBoundaryIs></Polygon><Polygon><outerBoundaryIs><LinearRing><coordinates>59.7959975613023,46.2856950142583 59.7973450342285,46.2870424871845 59.801387453007,46.2856950142583 59.8000399800808,46.2816525954798 59.7959975613023,46.2856950142583</coordinates></LinearRing></outerBoundaryIs></Polygon><Polygon><outerBoundaryIs><LinearRing><coordinates>59.7906076695976,46.2883899601107 59.7919551425238,46.2897374330369 59.7959975613023,46.2883899601107 59.7946500883761,46.2843475413322 59.7906076695976,46.2883899601107</coordinates></LinearRing></outerBoundaryIs></Polygon><Polygon><outerBoundaryIs><LinearRing><coordinates>59.7959975613023,46.2937798518154 59.7959975613023,46.2991697435201 59.8000399800808,46.3005172164463 59.8054298717856,46.297822270594 59.8108197634903,46.2897374330369 59.816209655195,46.2897374330369 59.8175571281212,46.2856950142583 59.8263910613787,46.2793850619315 59.8263910613787,46.2764621628503 59.8189046010474,46.2789576496275 59.8054298717856,46.2897374330369 59.8027349259332,46.2870424871845 59.7959975613023,46.2937798518154</coordinates></LinearRing></outerBoundaryIs></Polygon><Polygon><outerBoundaryIs><LinearRing><coordinates>59.7717430486311,46.3045596352249 59.7757854674096,46.305907108151 59.7771329403358,46.3045596352249 59.7730905215573,46.3005172164463 59.7717430486311,46.3045596352249</coordinates></LinearRing></outerBoundaryIs></Polygon><Polygon><outerBoundaryIs><LinearRing><coordinates>59.7582683193693,46.3315090937484 59.7596157922955,46.3328565666746 59.763658211074,46.3315090937484 59.7623107381478,46.3274666749699 59.7582683193693,46.3315090937484</coordinates></LinearRing></outerBoundaryIs></Polygon></MultiGeometry>
  </Placemark>
</Folder>
</Document></kml>
