<?xml version="1.0" encoding="utf-8" ?>
<kml xmlns="http://www.opengis.net/kml/2.2">
<Document id="root_doc">
<Schema name="task_grid_v6_45.91_59.56" id="task_grid_v6_45.91_59.56">
	<SimpleField name="area_ha" type="float"></SimpleField>
	<SimpleField name="low_risk_ha" type="float"></SimpleField>
	<SimpleField name="moderate_risk_ha" type="float"></SimpleField>
	<SimpleField name="grid_cell_deg" type="string"></SimpleField>
</Schema>
<Folder><name>task_grid_v6_45.91_59.56</name>
  <Placemark id="task_grid_v6_45.91_59.56.1">
	<name>task_grid_v6_45.91_59.56</name>
	<name>1597.4</name>
	<description>1597.4</description>
	<Style><LineStyle><color>ff0000ff</color></LineStyle><PolyStyle><fill>0</fill></PolyStyle></Style>
	<ExtendedData><SchemaData schemaUrl="#task_grid_v6_45.91_59.56">
		<SimpleData name="area_ha">0</SimpleData>
		<SimpleData name="low_risk_ha">0.1</SimpleData>
	</SchemaData></ExtendedData>
      <MultiGeometry><Polygon><outerBoundaryIs><LinearRing><coordinates>59.5588423262948,45.8760632446998 59.5601897992209,45.8801056634784 59.5642322179995,45.8760632446998 59.5628847450733,45.8720208259213 59.5588423262948,45.8760632446998</coordinates></LinearRing></outerBoundaryIs></Polygon><Polygon><outerBoundaryIs><LinearRing><coordinates>59.5197656114356,45.9097500678543 59.5211130843617,45.9084025949281 59.5197656114356,45.9016652302973 59.5130282468047,45.9030127032234 59.5197656114356,45.9097500678543</coordinates></LinearRing></outerBoundaryIs></Polygon><Polygon><outerBoundaryIs><LinearRing><coordinates>59.5669271638518,45.8895379739616 59.5615372721471,45.8976228115187 59.5507574887377,45.9057076490758 59.5507574887377,45.9164874324852 59.5440201241068,45.9178349054114 59.5426726511806,45.9191823783376 59.545367597033,45.9218773241899 59.5386302324021,45.9232247971161 59.5386302324021,45.9259197429685 59.5494100158115,45.9286146888208 59.5521049616639,45.9259197429685 59.5574948533686,45.9259197429685 59.5601897992209,45.9205298512638 59.5790544201874,45.9366995263779 59.5857917848183,45.9326571075994 59.5723170555565,45.9218773241899 59.5723170555565,45.9164874324852 59.5655796909256,45.9097500678543 59.5601897992209,45.9124450137067 59.5561473804424,45.9110975407805 59.5615372721471,45.9084025949281 59.5628847450733,45.9043601761496 59.568274636778,45.907055122002 59.5696221097042,45.9057076490758 59.5723170555565,45.9003177573711 59.5696221097042,45.8976228115187 59.5709695826304,45.8935803927402 59.5804018931136,45.9057076490758 59.5777069472613,45.9084025949281 59.5790544201874,45.9097500678543 59.5871392577445,45.9043601761496 59.5898342035969,45.9097500678543 59.6019614599325,45.9084025949281 59.5952240953016,45.907055122002 59.5911816765231,45.8976228115187 59.5925291494492,45.8935803927402 59.597919041154,45.8962753385925 59.5992665140801,45.892232919814 59.5898342035969,45.8828006093307 59.5790544201874,45.8828006093307 59.5777069472613,45.8787581905522 59.5709695826304,45.8747157717737 59.5669271638518,45.8760632446998 59.568274636778,45.8801056634784 59.5750120014089,45.8814531364046 59.568274636778,45.8828006093307 59.5642322179995,45.8868430281093 59.5669271638518,45.8895379739616</coordinates></LinearRing></outerBoundaryIs><innerBoundaryIs><LinearRing><coordinates>59.5817493660398,45.9016652302973 59.5804018931136,45.9003177573711 59.5804018931136,45.8976228115187 59.583096838966,45.8976228115187 59.5817493660398,45.9016652302973</coordinates></LinearRing></innerBoundaryIs><innerBoundaryIs><LinearRing><coordinates>59.5750120014089,45.8868430281093 59.5736645284827,45.8881905010355 59.5723170555565,45.8868430281093 59.5750120014089,45.8868430281093</coordinates></LinearRing></innerBoundaryIs></Polygon><Polygon><outerBoundaryIs><LinearRing><coordinates>59.5601897992209,45.9340045805256 59.5669271638518,45.9326571075994 59.5574948533686,45.9313096346732 59.5547999075162,45.9286146888208 59.5507574887377,45.929962161747 59.5507574887377,45.9353520534517 59.5547999075162,45.9366995263779 59.5574948533686,45.9420894180826 59.5601897992209,45.9340045805256</coordinates></LinearRing></outerBoundaryIs></Polygon><Polygon><outerBoundaryIs><LinearRing><coordinates>59.5615372721471,45.9434368910088 59.568274636778,45.944784363935 59.568274636778,45.9393944722303 59.5655796909256,45.9420894180826 59.5615372721471,45.9434368910088</coordinates></LinearRing></outerBoundaryIs></Polygon><Polygon><outerBoundaryIs><LinearRing><coordinates>59.5561473804424,45.9461318368612 59.5547999075162,45.9420894180826 59.5507574887377,45.9434368910088 59.5507574887377,45.9488267827135 59.5480625428853,45.9515217285659 59.5494100158115,45.9528692014921 59.55345243459,45.9515217285659 59.5561473804424,45.9461318368612</coordinates></LinearRing></outerBoundaryIs></Polygon><Polygon><outerBoundaryIs><LinearRing><coordinates>59.5790544201874,45.8639359883642 59.583096838966,45.8625885154381 59.5830724686657,45.8625641451378 59.5723414258568,45.8625641451378 59.5642322179995,45.8706733529951 59.5655796909256,45.8720208259213 59.5763594743351,45.8693258800689 59.5790544201874,45.8639359883642</coordinates></LinearRing></outerBoundaryIs></Polygon><Polygon><outerBoundaryIs><LinearRing><coordinates>59.606003878711,45.8747157717737 59.6073513516372,45.8733682988475 59.606003878711,45.8639359883642 59.6019614599325,45.8679784071428 59.606003878711,45.8747157717737</coordinates></LinearRing></outerBoundaryIs></Polygon><Polygon><outerBoundaryIs><LinearRing><coordinates>59.5884867306707,45.8787581905522 59.5952240953016,45.8801056634784 59.5952240953016,45.877410717626 59.5898342035969,45.877410717626 59.5884867306707,45.8787581905522</coordinates></LinearRing></outerBoundaryIs></Polygon><Polygon><outerBoundaryIs><LinearRing><coordinates>59.6100462974896,45.8976228115187 59.6102213862645,45.8977979002937 59.6102213862645,45.8973601783563 59.6100462974896,45.8976228115187</coordinates></LinearRing></outerBoundaryIs></Polygon><Polygon><outerBoundaryIs><LinearRing><coordinates>59.6006139870063,45.9259197429685 59.606003878711,45.9366995263779 59.6100462974896,45.9326571075994 59.5952240953016,45.9124450137067 59.5884867306707,45.9164874324852 59.5884867306707,45.9218773241899 59.5938766223754,45.9245722700423 59.5884867306707,45.9272672158947 59.597919041154,45.9286146888208 59.6006139870063,45.9259197429685</coordinates></LinearRing></outerBoundaryIs></Polygon><Polygon><outerBoundaryIs><LinearRing><coordinates>59.5790544201874,45.9393944722303 59.5723170555565,45.9407419451565 59.5777069472613,45.9434368910088 59.5750120014089,45.9461318368612 59.5763594743351,45.9474793097873 59.5804018931136,45.9461318368612 59.5790544201874,45.9393944722303</coordinates></LinearRing></outerBoundaryIs></Polygon></MultiGeometry>
  </Placemark>
</Folder>
</Document></kml>
