<?xml version="1.0" encoding="utf-8" ?>
<kml xmlns="http://www.opengis.net/kml/2.2">
<Document id="root_doc">
<Schema name="task_grid_v6_46.38_60.18" id="task_grid_v6_46.38_60.18">
	<SimpleField name="area_ha" type="float"></SimpleField>
	<SimpleField name="low_risk_ha" type="float"></SimpleField>
	<SimpleField name="moderate_risk_ha" type="float"></SimpleField>
	<SimpleField name="grid_cell_deg" type="string"></SimpleField>
</Schema>
<Folder><name>task_grid_v6_46.38_60.18</name>
  <Placemark id="task_grid_v6_46.38_60.18.1">
	<name>task_grid_v6_46.38_60.18</name>
	<name>43.5</name>
	<description>56</description>
	<Style><LineStyle><color>ff0000ff</color></LineStyle><PolyStyle><fill>0</fill></PolyStyle></Style>
	<ExtendedData><SchemaData schemaUrl="#task_grid_v6_46.38_60.18">
		<SimpleData name="area_ha">12.4</SimpleData>
		<SimpleData name="low_risk_ha">0.1</SimpleData>
	</SchemaData></ExtendedData>
      <MultiGeometry><Polygon><outerBoundaryIs><LinearRing><coordinates>60.154425359666,46.3395939313055 60.1530778867398,46.335551512527 60.1490354679613,46.3368989854532 60.1530778867398,46.3409414042317 60.154425359666,46.3395939313055</coordinates></LinearRing></outerBoundaryIs></Polygon><Polygon><outerBoundaryIs><LinearRing><coordinates>60.1961970203776,46.3436363500841 60.1935020745252,46.3409414042317 60.1894596557467,46.3422888771579 60.1908071286728,46.3463312959364 60.2056293308608,46.3449838230102 60.1961970203776,46.3436363500841</coordinates></LinearRing></outerBoundaryIs></Polygon><Polygon><outerBoundaryIs><LinearRing><coordinates>60.1719425077063,46.3571110793458 60.1679000889278,46.3611534981244 60.169247561854,46.3625009710506 60.1732899806325,46.3611534981244 60.1719425077063,46.3571110793458</coordinates></LinearRing></outerBoundaryIs></Polygon></MultiGeometry>
  </Placemark>
</Folder>
</Document></kml>
