<?xml version="1.0" encoding="utf-8" ?>
<kml xmlns="http://www.opengis.net/kml/2.2">
<Document id="root_doc">
<Schema name="task_grid_v6_44.98_61.08" id="task_grid_v6_44.98_61.08">
	<SimpleField name="area_ha" type="float"></SimpleField>
	<SimpleField name="low_risk_ha" type="float"></SimpleField>
	<SimpleField name="moderate_risk_ha" type="float"></SimpleField>
	<SimpleField name="grid_cell_deg" type="string"></SimpleField>
</Schema>
<Folder><name>task_grid_v6_44.98_61.08</name>
  <Placemark id="task_grid_v6_44.98_61.08.1">
	<name>task_grid_v6_44.98_61.08</name>
	<name>38.2</name>
	<description>3161.8</description>
	<Style><LineStyle><color>ff0000ff</color></LineStyle><PolyStyle><fill>0</fill></PolyStyle></Style>
	<ExtendedData><SchemaData schemaUrl="#task_grid_v6_44.98_61.08">
		<SimpleData name="area_ha">3123.6</SimpleData>
		<SimpleData name="low_risk_ha">0.1</SimpleData>
	</SchemaData></ExtendedData>
      <MultiGeometry><Polygon><outerBoundaryIs><LinearRing><coordinates>61.0545372743538,44.9463069256361 61.0585796931323,44.9476543985623 61.0599271660585,44.9463069256361 61.0558847472799,44.9422645068576 61.0545372743538,44.9463069256361</coordinates></LinearRing></outerBoundaryIs></Polygon><Polygon><outerBoundaryIs><LinearRing><coordinates>61.0397150721658,44.9665190195288 61.041062545092,44.9651715466026 61.0370201263134,44.9584341819718 61.0356726533872,44.9651715466026 61.0397150721658,44.9665190195288</coordinates></LinearRing></outerBoundaryIs></Polygon><Polygon><outerBoundaryIs><LinearRing><coordinates>61.0289352887564,44.9772988029383 61.0302827616825,44.9759513300121 61.0263910613787,44.9720596297082 61.0263910613787,44.9764507271457 61.0289352887564,44.9772988029383</coordinates></LinearRing></outerBoundaryIs></Polygon><Polygon><outerBoundaryIs><LinearRing><coordinates>61.0464524367967,44.9813412217168 61.0477999097229,44.9746038570859 61.0545372743538,44.9705614383074 61.0477999097229,44.9665190195288 61.0437574909443,44.9705614383074 61.0437574909443,44.9786462758644 61.0356726533872,44.9813412217168 61.0397150721658,44.9853836404953 61.0464524367967,44.9813412217168</coordinates></LinearRing></outerBoundaryIs></Polygon><Polygon><outerBoundaryIs><LinearRing><coordinates>61.0316302346087,44.9907735322001 61.0383675992396,44.9867311134215 61.0343251804611,44.982688694643 61.0302827616825,44.9867311134215 61.0316302346087,44.9907735322001</coordinates></LinearRing></outerBoundaryIs></Polygon><Polygon><outerBoundaryIs><LinearRing><coordinates>61.0316302346087,44.9988583697571 61.0316302346087,44.9961634239048 61.0263910613787,44.9961634239048 61.0263910613787,44.9978105351111 61.0316302346087,44.9988583697571</coordinates></LinearRing></outerBoundaryIs></Polygon><Polygon><outerBoundaryIs><LinearRing><coordinates>61.0668396194643,44.9343547580755 61.0680120036156,44.9355271422267 61.0666645306894,44.9368746151529 61.0599271660585,44.9382220880791 61.0666645306894,44.94495945271 61.0693594765417,44.9422645068576 61.0774443140988,44.9422645068576 61.0841816787297,44.9490018714885 61.0801392599512,44.9503493444147 61.0774443140988,44.9557392361194 61.0747493682464,44.953044290267 61.0707069494679,44.9570867090456 61.0747493682464,44.9638240736765 61.0774443140988,44.9611291278241 61.0801392599512,44.9638240736765 61.0828342058035,44.9611291278241 61.0882240975082,44.9611291278241 61.093613989213,44.9665190195288 61.0963089350653,44.9638240736765 61.10169882677,44.9665190195288 61.1043937726224,44.9638240736765 61.1097836643271,44.9665190195288 61.1124786101795,44.9611291278241 61.116521028958,44.9624766007503 61.1138260831056,44.9651715466026 61.1138260831056,44.9732563841597 61.1111311372533,44.9759513300121 61.1084361914009,44.9867311134215 61.1057412455486,44.9867311134215 61.1043937726224,44.982688694643 61.10169882677,44.9880785863477 61.0976564079915,44.9894260592739 61.0990038809177,44.9907735322001 61.1043937726224,44.9907735322001 61.1070887184747,44.9934684780524 61.1097836643271,44.9907735322001 61.1124786101795,44.9934684780524 61.1178685018842,44.9934684780524 61.1232583935889,44.9880785863477 61.1259533394413,44.9907735322001 61.1263910613787,44.9894603663878 61.1263910613787,44.9858213624328 61.1219109206627,44.9813412217168 61.1232583935889,44.9799937487906 61.1263910613787,44.9831264165804 61.1263910613787,44.9343547580755 61.0745742794715,44.9343547580755 61.0720544223941,44.9368746151529 61.0707069494679,44.9355271422267 61.0718793336191,44.9343547580755 61.0668396194643,44.9343547580755</coordinates></LinearRing></outerBoundaryIs></Polygon><Polygon><outerBoundaryIs><LinearRing><coordinates>61.0760968411726,44.9813412217168 61.0760968411726,44.9759513300121 61.0626221119108,44.9759513300121 61.0653170577632,44.9786462758644 61.0626221119108,44.9840361675692 61.0653170577632,44.9894260592739 61.0666645306894,44.9907735322001 61.0693594765417,44.9880785863477 61.0734018953203,44.9921210051262 61.0720544223941,44.9934684780524 61.0693594765417,44.9907735322001 61.0626221119108,44.9948159509786 61.0693594765417,44.9961634239048 61.0693594765417,45.0015533156095 61.0504948555752,44.9907735322001 61.0464524367967,44.9948159509786 61.0518423285014,45.0002058426833 61.0504948555752,45.0015533156095 61.0424100180181,45.0042482614619 61.0370201263134,45.0015533156095 61.0302827616825,45.0082906802404 61.0397150721658,45.0096381531666 61.0464524367967,45.0163755177975 61.0437574909443,45.0190704636498 61.0437574909443,45.0244603553545 61.0383675992396,45.0271553012069 61.0397150721658,45.0285027741331 61.0451049638705,45.0311977199854 61.0545372743538,45.0271553012069 61.049147382649,45.0190704636498 61.0518423285014,45.0163755177975 61.049147382649,45.0109856260927 61.0504948555752,45.0096381531666 61.0558847472799,45.0096381531666 61.0612746389846,45.0150280448713 61.0666645306894,45.0069432073142 61.0720544223941,45.0042482614619 61.0720544223941,45.0096381531666 61.0828342058035,45.0096381531666 61.0855291516559,45.0123330990189 61.0963089350653,45.0096381531666 61.1003513538438,45.005595734388 61.0841816787297,45.005595734388 61.0895715704344,45.0029007885357 61.0868766245821,45.0002058426833 61.0895715704344,44.997510896831 61.0895715704344,44.9921210051262 61.0855291516559,44.9880785863477 61.0828342058035,44.9907735322001 61.0774443140988,44.9880785863477 61.0841816787297,44.9840361675692 61.0801392599512,44.9799937487906 61.0734018953203,44.9840361675692 61.0760968411726,44.9813412217168</coordinates></LinearRing></outerBoundaryIs><innerBoundaryIs><LinearRing><coordinates>61.0707069494679,44.9813412217168 61.0693594765417,44.982688694643 61.0680120036156,44.9813412217168 61.0707069494679,44.9813412217168</coordinates></LinearRing></innerBoundaryIs></Polygon><Polygon><outerBoundaryIs><LinearRing><coordinates>61.1205634477365,44.9961634239048 61.1030462996962,45.0002058426833 61.1263910613787,45.0112638876908 61.1263910613787,45.0073809292516 61.1246058665151,45.005595734388 61.1205634477365,44.9961634239048</coordinates></LinearRing></outerBoundaryIs></Polygon><Polygon><outerBoundaryIs><LinearRing><coordinates>61.0626221119108,45.0298502470593 61.0658396197796,45.0343547580755 61.0762132525334,45.0343547580755 61.0720544223941,45.0338926658378 61.0693594765417,45.0285027741331 61.0626221119108,45.0298502470593</coordinates></LinearRing></outerBoundaryIs></Polygon><Polygon><outerBoundaryIs><LinearRing><coordinates>61.0877620052705,45.0343547580755 61.0883165159558,45.0343547580755 61.0882240975082,45.0338926658378 61.0877620052705,45.0343547580755</coordinates></LinearRing></outerBoundaryIs></Polygon></MultiGeometry>
  </Placemark>
</Folder>
</Document></kml>
