<?xml version="1.0" encoding="utf-8" ?>
<kml xmlns="http://www.opengis.net/kml/2.2">
<Document id="root_doc">
<Schema name="task_grid_v6_46.11_60.76" id="task_grid_v6_46.11_60.76">
	<SimpleField name="area_ha" type="float"></SimpleField>
	<SimpleField name="low_risk_ha" type="float"></SimpleField>
	<SimpleField name="moderate_risk_ha" type="float"></SimpleField>
	<SimpleField name="grid_cell_deg" type="string"></SimpleField>
</Schema>
<Folder><name>task_grid_v6_46.11_60.76</name>
  <Placemark id="task_grid_v6_46.11_60.76.1">
	<name>task_grid_v6_46.11_60.76</name>
	<name>805.4</name>
	<description>1879.4</description>
	<Style><LineStyle><color>ff0000ff</color></LineStyle><PolyStyle><fill>0</fill></PolyStyle></Style>
	<ExtendedData><SchemaData schemaUrl="#task_grid_v6_46.11_60.76">
		<SimpleData name="area_ha">1074</SimpleData>
		<SimpleData name="low_risk_ha">0.1</SimpleData>
	</SchemaData></ExtendedData>
      <MultiGeometry><Polygon><outerBoundaryIs><LinearRing><coordinates>60.7102213862645,46.0964116235806 60.7102213862645,46.1115158608245 60.710931678178,46.1118710067812 60.7163215698828,46.1091760609289 60.7102213862645,46.1128361710998 60.7102213862645,46.1128633337507 60.7102213862645,46.1134915572843 60.7102213862645,46.1239982631168 60.725753880366,46.1239982631168 60.7122791511042,46.1266932089692 60.7102213862645,46.1246354441295 60.7102213862645,46.1390279849156 60.7271013532922,46.1469053028619 60.7363652296597,46.1477474734407 60.7338387179231,46.1482527757881 60.7392286096278,46.1509477216404 60.7338387179231,46.1536426674928 60.740576082554,46.1576850862713 60.7432710284063,46.1522951945666 60.7648305952252,46.1576850862713 60.7715679598561,46.1509477216404 60.7648305952252,46.1496002487142 60.7621356493729,46.1522951945666 60.7594407035205,46.1496002487142 60.7567457576681,46.1522951945666 60.7540508118158,46.1496002487142 60.7432710284063,46.1496002487142 60.7419235554802,46.1482527757881 60.7567457576681,46.1496002487142 60.7580932305943,46.1482527757881 60.755398284742,46.1455578299357 60.7621356493729,46.1442103570095 60.7661780681514,46.1374729923786 60.7594407035205,46.1361255194524 60.7567457576681,46.1388204653048 60.7513558659634,46.1307356277477 60.7351861908493,46.1388204653048 60.7567457576681,46.1280406818954 60.7594407035205,46.1307356277477 60.763483122299,46.1293881548215 60.7594407035205,46.125345736043 60.7459659742587,46.125345736043 60.7432710284063,46.1280406818954 60.7419235554802,46.1266932089692 60.7473134471849,46.1213033172645 60.7459659742587,46.1199558443383 60.7473134471849,46.1186083714121 60.7446185013325,46.1159134255598 60.7446185013325,46.110523533855 60.7378811367016,46.1064811150765 60.7365336637754,46.1078285880027 60.7392286096278,46.110523533855 60.7324912449969,46.1118710067812 60.7284488262184,46.1078285880027 60.7311437720707,46.102438696298 60.7149740969566,46.0889639670362 60.7136266240304,46.0849215482576 60.7102213862645,46.0905969445341 60.7102213862645,46.0922960939012 60.7102213862645,46.0922960939012 60.7102213862645,46.0964116235806 60.7102213862645,46.0964116235806</coordinates></LinearRing></outerBoundaryIs><innerBoundaryIs><LinearRing><coordinates>60.7163215698828,46.1280406818954 60.7136266240304,46.1280406818954 60.7122791511042,46.1266932089692 60.7163215698828,46.1280406818954</coordinates></LinearRing></innerBoundaryIs><innerBoundaryIs><LinearRing><coordinates>60.7136266240304,46.0983962775194 60.710931678178,46.0957013316671 60.7122791511042,46.0943538587409 60.7149740969566,46.0970488045932 60.7136266240304,46.0983962775194</coordinates></LinearRing></innerBoundaryIs><innerBoundaryIs><LinearRing><coordinates>60.7203639886613,46.1293881548215 60.7230589345137,46.1320831006739 60.7203639886613,46.1347780465263 60.7176690428089,46.1320831006739 60.7203639886613,46.1293881548215</coordinates></LinearRing></innerBoundaryIs><innerBoundaryIs><LinearRing><coordinates>60.7324912449969,46.1415154111572 60.7338387179231,46.1428628840833 60.7324912449969,46.1442103570095 60.7324912449969,46.1415154111572</coordinates></LinearRing></innerBoundaryIs><innerBoundaryIs><LinearRing><coordinates>60.7149740969566,46.1347780465263 60.7136266240304,46.1361255194524 60.7122791511042,46.1347780465263 60.7149740969566,46.1347780465263</coordinates></LinearRing></innerBoundaryIs></Polygon><Polygon><outerBoundaryIs><LinearRing><coordinates>60.7136266240304,46.1415154111572 60.710931678178,46.1442103570095 60.7102213862645,46.1444471209807 60.7102213862645,46.1462242553087 60.7136266240304,46.1469053028619 60.7136266240304,46.1415154111572</coordinates></LinearRing></outerBoundaryIs></Polygon><Polygon><outerBoundaryIs><LinearRing><coordinates>60.7661780681514,46.140167938231 60.7729154327823,46.1415154111572 60.7729154327823,46.1388204653048 60.7675255410776,46.1388204653048 60.7661780681514,46.140167938231</coordinates></LinearRing></outerBoundaryIs></Polygon><Polygon><outerBoundaryIs><LinearRing><coordinates>60.7729154327823,46.1415154111572 60.7702204869299,46.1415154111572 60.7688730140037,46.1428628840833 60.7810002703394,46.1496002487142 60.7823477432655,46.1482527757881 60.778305324487,46.1415154111572 60.7729154327823,46.1415154111572</coordinates></LinearRing></outerBoundaryIs></Polygon><Polygon><outerBoundaryIs><LinearRing><coordinates>60.7769578515608,46.1590325591975 60.782843828128,46.1625641451378 60.7840017158947,46.1625641451378 60.7877376349703,46.1563376133451 60.778305324487,46.1522951945666 60.7769578515608,46.1590325591975</coordinates></LinearRing></outerBoundaryIs></Polygon><Polygon><outerBoundaryIs><LinearRing><coordinates>60.7944749996011,46.1603800321237 60.7958224725273,46.1590325591975 60.7944749996011,46.154990140419 60.7904325808226,46.1563376133451 60.7944749996011,46.1603800321237</coordinates></LinearRing></outerBoundaryIs></Polygon></MultiGeometry>
  </Placemark>
</Folder>
</Document></kml>
