<?xml version="1.0" encoding="utf-8" ?>
<kml xmlns="http://www.opengis.net/kml/2.2">
<Document id="root_doc">
<Schema name="task_grid_v6_46.11_60.16" id="task_grid_v6_46.11_60.16">
	<SimpleField name="area_ha" type="float"></SimpleField>
	<SimpleField name="low_risk_ha" type="float"></SimpleField>
	<SimpleField name="moderate_risk_ha" type="float"></SimpleField>
	<SimpleField name="grid_cell_deg" type="string"></SimpleField>
</Schema>
<Folder><name>task_grid_v6_46.11_60.16</name>
  <Placemark id="task_grid_v6_46.11_60.16.1">
	<name>task_grid_v6_46.11_60.16</name>
	<name>2395.7</name>
	<description>3947.5</description>
	<Style><LineStyle><color>ff0000ff</color></LineStyle><PolyStyle><fill>0</fill></PolyStyle></Style>
	<ExtendedData><SchemaData schemaUrl="#task_grid_v6_46.11_60.16">
		<SimpleData name="area_ha">1551.8</SimpleData>
		<SimpleData name="low_risk_ha">0.1</SimpleData>
	</SchemaData></ExtendedData>
      <MultiGeometry><Polygon><outerBoundaryIs><LinearRing><coordinates>60.1511807771884,46.0625641451378 60.1495851045865,46.0625641451378 60.1503829408875,46.0633619814388 60.1511807771884,46.0625641451378</coordinates></LinearRing></outerBoundaryIs></Polygon><Polygon><outerBoundaryIs><LinearRing><coordinates>60.1366333933131,46.0625641451378 60.1355607386995,46.0647094543649 60.1369082116257,46.0660569272911 60.139603157478,46.0660569272911 60.1413495485547,46.0625641451378 60.1366333933131,46.0625641451378</coordinates></LinearRing></outerBoundaryIs></Polygon><Polygon><outerBoundaryIs><LinearRing><coordinates>60.1234334823639,46.0687518731435 60.1328657928471,46.0674044002173 60.1261284282162,46.0633619814388 60.1193910635853,46.0647094543649 60.1234334823639,46.0687518731435</coordinates></LinearRing></outerBoundaryIs></Polygon><Polygon><outerBoundaryIs><LinearRing><coordinates>60.1220860094377,46.0862690211838 60.1207385365115,46.0822266024053 60.116696117733,46.0835740753315 60.1180435906592,46.08761649411 60.1220860094377,46.0862690211838</coordinates></LinearRing></outerBoundaryIs></Polygon><Polygon><outerBoundaryIs><LinearRing><coordinates>60.1665526160016,46.1307356277477 60.169247561854,46.1280406818954 60.1746374535587,46.1280406818954 60.1827222911158,46.1226507901907 60.1881121828205,46.1226507901907 60.1908071286728,46.1172608984859 60.1988919662299,46.1172608984859 60.2008519268498,46.1133409772461 60.206976803787,46.1145659526336 60.206976803787,46.1118710067812 60.2096717496393,46.1145659526336 60.2102213862645,46.1142161838721 60.2102213862645,46.1061146906597 60.2096717496393,46.1064811150765 60.2083242767132,46.1051336421503 60.2102213862645,46.1041850873746 60.2102213862645,46.1012744355802 60.2096717496393,46.1010912233718 60.2096717496393,46.0983962775194 60.2102213862645,46.0983639459532 60.2102213862645,46.096327598041 60.1908071286728,46.0957013316671 60.1894596557467,46.0943538587409 60.2042818579346,46.0957013316671 60.2042818579346,46.0930063858147 60.1908071286728,46.0930063858147 60.1894596557467,46.0943538587409 60.1881121828205,46.0930063858147 60.1800273452634,46.0983962775194 60.1705950347801,46.0997437504456 60.1854172369681,46.1010912233718 60.1881121828205,46.1037861692241 60.1908071286728,46.1010912233718 60.192154601599,46.102438696298 60.1881121828205,46.1064811150765 60.1854172369681,46.1037861692241 60.1827222911158,46.1064811150765 60.1746374535587,46.1064811150765 60.1719425077063,46.1037861692241 60.1665526160016,46.1037861692241 60.1638576701492,46.1064811150765 60.1611627242969,46.1037861692241 60.1584677784445,46.1064811150765 60.1503829408875,46.1064811150765 60.1476879950351,46.0983962775194 60.1382556845518,46.0970488045932 60.1409506304042,46.0916589128885 60.139603157478,46.0903114399623 60.1342132657733,46.0903114399623 60.1261284282162,46.0957013316671 60.1180435906592,46.0903114399623 60.1102213862645,46.0903114399623 60.1102213862645,46.0932690189772 60.1113062260283,46.0943538587409 60.1102213862645,46.0954386985046 60.1102213862645,46.1011787677593 60.1180435906592,46.1037861692241 60.1220860094377,46.1078285880027 60.1207385365115,46.1118710067812 60.1126536989544,46.1091760609289 60.1102213862645,46.106743748239 60.1102213862645,46.1334305736001 60.1102213862645,46.1439477238471 60.1113062260283,46.1428628840833 60.1126536989544,46.1442103570095 60.1220860094377,46.1428628840833 60.1140011718806,46.1455578299357 60.1261284282162,46.1603800321237 60.1382556845518,46.1590325591975 60.1369082116257,46.154990140419 60.1315183199209,46.154990140419 60.1403957886111,46.1537219306061 60.1422981033304,46.154990140419 60.1442580639503,46.1510702191792 60.1503829408875,46.1522951945666 60.1503829408875,46.1496002487142 60.154425359666,46.1536426674928 60.1490354679613,46.1563376133451 60.1517304138136,46.1590325591975 60.1490354679613,46.1617275050499 60.1532186684009,46.1625641451378 60.1562836654304,46.1625641451378 60.1584677784445,46.1603800321237 60.1665526160016,46.1603800321237 60.169247561854,46.1576850862713 60.177332399411,46.1576850862713 60.1813748181896,46.1509477216404 60.1786798723372,46.1482527757881 60.1800273452634,46.1469053028619 60.1867647098943,46.1482527757881 60.1840697640419,46.1509477216404 60.1854172369681,46.1522951945666 60.1908071286728,46.1522951945666 60.1935020745252,46.1496002487142 60.2015869120823,46.1496002487142 60.2056293308608,46.1455578299357 60.2015869120823,46.1415154111572 60.2029343850084,46.140167938231 60.2096717496393,46.1442103570095 60.2102213862645,46.1436607203843 60.2102213862645,46.1361255194524 60.2102213862645,46.1334305736001 60.2042818579346,46.1334305736001 60.1988919662299,46.1388204653048 60.1961970203776,46.1334305736001 60.192154601599,46.140167938231 60.1948495474514,46.1347780465263 60.1935020745252,46.1334305736001 60.1881121828205,46.1361255194524 60.1800273452634,46.1361255194524 60.177332399411,46.1388204653048 60.169247561854,46.1388204653048 60.1638576701492,46.1334305736001 60.1638576701492,46.1280406818954 60.1665526160016,46.1307356277477</coordinates></LinearRing></outerBoundaryIs><innerBoundaryIs><LinearRing><coordinates>60.1153486448068,46.1388204653048 60.1140011718806,46.140167938231 60.1113062260283,46.1374729923786 60.1126536989544,46.1361255194524 60.1220860094377,46.1428628840833 60.1153486448068,46.1388204653048</coordinates></LinearRing></innerBoundaryIs><innerBoundaryIs><LinearRing><coordinates>60.1503829408875,46.1334305736001 60.1490354679613,46.1347780465263 60.1517304138136,46.1374729923786 60.139603157478,46.1388204653048 60.139603157478,46.1442103570095 60.1288233740686,46.1442103570095 60.1261284282162,46.1388204653048 60.1193910635853,46.1374729923786 60.1180435906592,46.1334305736001 60.1234334823639,46.1334305736001 60.1288233740686,46.1280406818954 60.1288233740686,46.1334305736001 60.1342132657733,46.1307356277477 60.1369082116257,46.1334305736001 60.1503829408875,46.1334305736001</coordinates></LinearRing></innerBoundaryIs><innerBoundaryIs><LinearRing><coordinates>60.1530778867398,46.1288106664246 60.154425359666,46.1293881548215 60.1530778867398,46.1296576494068 60.1530778867398,46.1288106664246</coordinates></LinearRing></innerBoundaryIs><innerBoundaryIs><LinearRing><coordinates>60.1432780836403,46.1285306720503 60.1463405221089,46.1266932089692 60.1369082116257,46.125345736043 60.1449930491827,46.125345736043 60.1512812561716,46.1280406818954 60.1476879950351,46.1280406818954 60.1463405221089,46.1293881548215 60.1503829408875,46.1301966385773 60.1476879950351,46.1307356277477 60.1432780836403,46.1285306720503</coordinates></LinearRing></innerBoundaryIs><innerBoundaryIs><LinearRing><coordinates>60.12478095529,46.1132184797074 60.12478095529,46.110523533855 60.1315183199209,46.1064811150765 60.1328657928471,46.1078285880027 60.1301708469948,46.1132184797074 60.1315183199209,46.1145659526336 60.1288233740686,46.1199558443383 60.1301708469948,46.1159134255598 60.12478095529,46.1132184797074</coordinates></LinearRing></innerBoundaryIs><innerBoundaryIs><LinearRing><coordinates>60.1665526160016,46.125345736043 60.1598152513707,46.1239982631168 60.1611627242969,46.1199558443383 60.1679000889278,46.1213033172645 60.1665526160016,46.125345736043</coordinates></LinearRing></innerBoundaryIs><innerBoundaryIs><LinearRing><coordinates>60.1517304138136,46.1186083714121 60.1530778867398,46.1172608984859 60.1571203055184,46.1213033172645 60.1557728325922,46.1226507901907 60.1517304138136,46.1186083714121</coordinates></LinearRing></innerBoundaryIs><innerBoundaryIs><LinearRing><coordinates>60.1571203055184,46.1132184797074 60.1584677784445,46.1118710067812 60.1584677784445,46.1145659526336 60.1571203055184,46.1132184797074</coordinates></LinearRing></innerBoundaryIs><innerBoundaryIs><LinearRing><coordinates>60.1961970203776,46.1118710067812 60.1975444933037,46.1132184797074 60.1948495474514,46.1132184797074 60.1961970203776,46.1118710067812</coordinates></LinearRing></innerBoundaryIs><innerBoundaryIs><LinearRing><coordinates>60.1517304138136,46.110523533855 60.1503829408875,46.1118710067812 60.1503829408875,46.1091760609289 60.1517304138136,46.110523533855</coordinates></LinearRing></innerBoundaryIs><innerBoundaryIs><LinearRing><coordinates>60.1369082116257,46.1091760609289 60.1355607386995,46.1078285880027 60.1382556845518,46.1078285880027 60.1369082116257,46.1091760609289</coordinates></LinearRing></innerBoundaryIs><innerBoundaryIs><LinearRing><coordinates>60.1180435906592,46.0983962775194 60.1193910635853,46.0997437504456 60.116696117733,46.0997437504456 60.1180435906592,46.0983962775194</coordinates></LinearRing></innerBoundaryIs><innerBoundaryIs><LinearRing><coordinates>60.2056293308608,46.0997437504456 60.2042818579346,46.1010912233718 60.2042818579346,46.0983962775194 60.2056293308608,46.0997437504456</coordinates></LinearRing></innerBoundaryIs><innerBoundaryIs><LinearRing><coordinates>60.1342132657733,46.1496002487142 60.1315183199209,46.1522951945666 60.12478095529,46.1536426674928 60.1342132657733,46.1496002487142</coordinates></LinearRing></innerBoundaryIs><innerBoundaryIs><LinearRing><coordinates>60.1571203055184,46.1509477216404 60.1584677784445,46.1496002487142 60.1759849264849,46.1509477216404 60.1611627242969,46.154990140419 60.1571203055184,46.1509477216404</coordinates></LinearRing></innerBoundaryIs><innerBoundaryIs><LinearRing><coordinates>60.1786798723372,46.1428628840833 60.1746374535587,46.1469053028619 60.1732899806325,46.1428628840833 60.1786798723372,46.1428628840833</coordinates></LinearRing></innerBoundaryIs><innerBoundaryIs><LinearRing><coordinates>60.2002394391561,46.1455578299357 60.1988919662299,46.1469053028619 60.1975444933037,46.1455578299357 60.2002394391561,46.1455578299357</coordinates></LinearRing></innerBoundaryIs></Polygon><Polygon><outerBoundaryIs><LinearRing><coordinates>60.2102213862645,46.0671295819047 60.2102213862645,46.0628123448136 60.2096717496393,46.0633619814388 60.2042818579346,46.0633619814388 60.2002394391561,46.0674044002173 60.206976803787,46.0687518731435 60.2102213862645,46.0671295819047</coordinates></LinearRing></outerBoundaryIs></Polygon><Polygon><outerBoundaryIs><LinearRing><coordinates>60.1732899806325,46.0970488045932 60.1800273452634,46.0983962775194 60.1800273452634,46.0930063858147 60.177332399411,46.0957013316671 60.1732899806325,46.0970488045932</coordinates></LinearRing></outerBoundaryIs></Polygon><Polygon><outerBoundaryIs><LinearRing><coordinates>60.1827222911158,46.1064811150765 60.1840697640419,46.1051336421503 60.177332399411,46.1010912233718 60.1732899806325,46.1051336421503 60.1827222911158,46.1064811150765</coordinates></LinearRing></outerBoundaryIs></Polygon><Polygon><outerBoundaryIs><LinearRing><coordinates>60.2102213862645,46.1160983163673 60.2029343850084,46.1213033172645 60.2102213862645,46.1237323176832 60.2102213862645,46.1160983163673</coordinates></LinearRing></outerBoundaryIs></Polygon><Polygon><outerBoundaryIs><LinearRing><coordinates>60.1881121828205,46.1361255194524 60.1881121828205,46.1334305736001 60.1827222911158,46.1334305736001 60.1813748181896,46.1347780465263 60.1881121828205,46.1361255194524</coordinates></LinearRing></outerBoundaryIs></Polygon><Polygon><outerBoundaryIs><LinearRing><coordinates>60.2102213862645,46.1587547832586 60.205323635277,46.1625641451378 60.2102213862645,46.1625641451378 60.2102213862645,46.1587547832586</coordinates></LinearRing></outerBoundaryIs></Polygon></MultiGeometry>
  </Placemark>
</Folder>
</Document></kml>
