<?xml version="1.0" encoding="utf-8" ?>
<kml xmlns="http://www.opengis.net/kml/2.2">
<Document id="root_doc">
<Schema name="task_grid_v6_46.38_60.28" id="task_grid_v6_46.38_60.28">
	<SimpleField name="area_ha" type="float"></SimpleField>
	<SimpleField name="low_risk_ha" type="float"></SimpleField>
	<SimpleField name="moderate_risk_ha" type="float"></SimpleField>
	<SimpleField name="grid_cell_deg" type="string"></SimpleField>
</Schema>
<Folder><name>task_grid_v6_46.38_60.28</name>
  <Placemark id="task_grid_v6_46.38_60.28.1">
	<name>task_grid_v6_46.38_60.28</name>
	<name>208.5</name>
	<description>230.6</description>
	<Style><LineStyle><color>ff0000ff</color></LineStyle><PolyStyle><fill>0</fill></PolyStyle></Style>
	<ExtendedData><SchemaData schemaUrl="#task_grid_v6_46.38_60.28">
		<SimpleData name="area_ha">22</SimpleData>
		<SimpleData name="low_risk_ha">0.1</SimpleData>
	</SchemaData></ExtendedData>
      <MultiGeometry><Polygon><outerBoundaryIs><LinearRing><coordinates>60.262373912235,46.3343547580755 60.2603763237005,46.3343547580755 60.259528247908,46.3368989854532 60.2635706666865,46.3382464583793 60.2649181396127,46.3368989854532 60.262373912235,46.3343547580755</coordinates></LinearRing></outerBoundaryIs></Polygon><Polygon><outerBoundaryIs><LinearRing><coordinates>60.320164529586,46.3463312959364 60.3263910613787,46.3546333383266 60.3263910613787,46.343171773643 60.3174695837337,46.3409414042317 60.3134271649552,46.3449838230102 60.320164529586,46.3463312959364</coordinates></LinearRing></outerBoundaryIs></Polygon><Polygon><outerBoundaryIs><LinearRing><coordinates>60.3228594754384,46.3571110793458 60.3174695837337,46.3571110793458 60.3161221108075,46.358458552272 60.3228594754384,46.3598060251982 60.3228594754384,46.3571110793458</coordinates></LinearRing></outerBoundaryIs></Polygon><Polygon><outerBoundaryIs><LinearRing><coordinates>60.3039948544719,46.3813655920171 60.3080372732504,46.3800181190909 60.3039948544719,46.3759757003124 60.2878251793577,46.37328075446 60.2797403418007,46.3678908627553 60.2541383562033,46.3692383356815 60.2770453959483,46.3705858086076 60.2905201252101,46.3786706461647 60.3012999086195,46.3786706461647 60.3039948544719,46.3813655920171</coordinates></LinearRing></outerBoundaryIs></Polygon><Polygon><outerBoundaryIs><LinearRing><coordinates>60.320164529586,46.3894504295742 60.3188170566599,46.3907979025003 60.3255544212908,46.3948403212789 60.3255544212908,46.3894504295742 60.320164529586,46.3894504295742</coordinates></LinearRing></outerBoundaryIs></Polygon></MultiGeometry>
  </Placemark>
</Folder>
</Document></kml>
