<?xml version="1.0" encoding="utf-8" ?>
<kml xmlns="http://www.opengis.net/kml/2.2">
<Document id="root_doc">
<Schema name="task_grid_v6_46.08_59.88" id="task_grid_v6_46.08_59.88">
	<SimpleField name="area_ha" type="float"></SimpleField>
	<SimpleField name="low_risk_ha" type="float"></SimpleField>
	<SimpleField name="moderate_risk_ha" type="float"></SimpleField>
	<SimpleField name="grid_cell_deg" type="string"></SimpleField>
</Schema>
<Folder><name>task_grid_v6_46.08_59.88</name>
  <Placemark id="task_grid_v6_46.08_59.88.1">
	<name>task_grid_v6_46.08_59.88</name>
	<name>5121.1</name>
	<description>5266.5</description>
	<Style><LineStyle><color>ff0000ff</color></LineStyle><PolyStyle><fill>0</fill></PolyStyle></Style>
	<ExtendedData><SchemaData schemaUrl="#task_grid_v6_46.08_59.88">
		<SimpleData name="area_ha">145.3</SimpleData>
		<SimpleData name="low_risk_ha">0.1</SimpleData>
	</SchemaData></ExtendedData>
      <MultiGeometry><Polygon><outerBoundaryIs><LinearRing><coordinates>59.8377692220139,46.0364125229152 59.8418847516932,46.0343547580755 59.8357114571742,46.0343547580755 59.8377692220139,46.0364125229152</coordinates></LinearRing></outerBoundaryIs></Polygon><Polygon><outerBoundaryIs><LinearRing><coordinates>59.8441148852376,46.0343547580755 59.8512439512757,46.0391074687675 59.8525914242018,46.0377599958414 59.8505482815423,46.0343547580755 59.8441148852376,46.0343547580755</coordinates></LinearRing></outerBoundaryIs></Polygon><Polygon><outerBoundaryIs><LinearRing><coordinates>59.8593287888327,46.0364125229152 59.8525914242018,46.0404549416937 59.8620237346851,46.0418024146199 59.8660661534636,46.0377599958414 59.8593287888327,46.0364125229152</coordinates></LinearRing></outerBoundaryIs></Polygon><Polygon><outerBoundaryIs><LinearRing><coordinates>59.8364217490877,46.0458448333984 59.8296843844568,46.0418024146199 59.8263910613787,46.0418024146199 59.8263910613787,46.0458448333984 59.8364217490877,46.0458448333984</coordinates></LinearRing></outerBoundaryIs></Polygon><Polygon><outerBoundaryIs><LinearRing><coordinates>59.8674136263898,46.0418024146199 59.8606762617589,46.0458448333984 59.8754984639469,46.049887252177 59.8768459368731,46.0485397792508 59.8728035180945,46.0418024146199 59.8674136263898,46.0418024146199</coordinates></LinearRing></outerBoundaryIs></Polygon><Polygon><outerBoundaryIs><LinearRing><coordinates>59.8593287888327,46.0552771438817 59.8674136263898,46.0552771438817 59.8674136263898,46.0525821980293 59.8579813159065,46.0485397792508 59.8606762617589,46.0431498875461 59.853938897128,46.0418024146199 59.8525914242018,46.0431498875461 59.8552863700542,46.0458448333984 59.8498964783495,46.0485397792508 59.8593287888327,46.0552771438817</coordinates></LinearRing></outerBoundaryIs></Polygon><Polygon><outerBoundaryIs><LinearRing><coordinates>59.8781934097992,46.0579720897341 59.8889731932087,46.0579720897341 59.8889731932087,46.0552771438817 59.8795408827254,46.0539296709555 59.8795408827254,46.0485397792508 59.8849307744301,46.0458448333984 59.8781934097992,46.0418024146199 59.8741509910207,46.0431498875461 59.8768459368731,46.0458448333984 59.8768459368731,46.0485397792508 59.8768459368731,46.0512347251031 59.8741509910207,46.0539296709555 59.8781934097992,46.0579720897341</coordinates></LinearRing></outerBoundaryIs></Polygon><Polygon><outerBoundaryIs><LinearRing><coordinates>59.8754984639469,46.0606670355864 59.8741509910207,46.0620145085126 59.8808883556516,46.0633619814388 59.8808883556516,46.0606670355864 59.8754984639469,46.0606670355864</coordinates></LinearRing></outerBoundaryIs></Polygon><Polygon><outerBoundaryIs><LinearRing><coordinates>59.8404641678662,46.0471923063246 59.8296843844568,46.049887252177 59.8296843844568,46.0525821980293 59.8337268032353,46.0539296709555 59.8263910613787,46.0570735603226 59.8263910613787,46.102438696298 59.8283369115306,46.102438696298 59.8269894386044,46.1037861692241 59.8263910613787,46.1031877919984 59.8263910613787,46.1343547580755 59.8506679947262,46.1343547580755 59.8512439512757,46.1199558443383 59.853938897128,46.125345736043 59.8593287888327,46.125345736043 59.868761099316,46.1320831006739 59.8676252706152,46.1343547580755 59.8845074859794,46.1343547580755 59.8808883556516,46.1307356277477 59.8781934097992,46.1334305736001 59.8728035180945,46.1307356277477 59.8633712076113,46.1213033172645 59.8633712076113,46.1132184797074 59.8728035180945,46.1064811150765 59.8781934097992,46.1118710067812 59.8849307744301,46.1132184797074 59.8808883556516,46.1145659526336 59.8808883556516,46.1172608984859 59.8889731932087,46.1199558443383 59.891668139061,46.1172608984859 59.891668139061,46.1226507901907 59.8970580307657,46.1199558443383 59.9051428683228,46.1199558443383 59.9105327600275,46.1199558443383 59.9105327600275,46.125345736043 59.9078378141752,46.1226507901907 59.906490341249,46.1239982631168 59.9078378141752,46.1280406818954 59.9132277058799,46.1280406818954 59.9159226517323,46.1307356277477 59.921312543437,46.125345736043 59.9240074892893,46.1307356277477 59.9263910613787,46.1307356277477 59.9263910613787,46.0980849037564 59.9253549622155,46.0970488045932 59.9263910613787,46.0960127054301 59.9263910613787,46.0729499788035 59.9240074892893,46.0741417648482 59.9159226517323,46.0687518731435 59.9105327600275,46.0714468189958 59.9078378141752,46.0687518731435 59.8970580307657,46.0687518731435 59.891668139061,46.0660569272911 59.891668139061,46.0714468189958 59.8862782473563,46.0687518731435 59.883583301504,46.0714468189958 59.8781934097992,46.0714468189958 59.8754984639469,46.0687518731435 59.8728035180945,46.0714468189958 59.8701085722422,46.0660569272911 59.8674136263898,46.0660569272911 59.8647186805375,46.0714468189958 59.8633712076113,46.0674044002173 59.8714560451683,46.0620145085126 59.8566338429804,46.0579720897341 59.8512439512757,46.0525821980293 59.8485490054233,46.0552771438817 59.8458540595709,46.049887252177 59.8431591137186,46.0525821980293 59.8404641678662,46.0471923063246</coordinates></LinearRing></outerBoundaryIs><innerBoundaryIs><LinearRing><coordinates>59.8728035180945,46.0903114399623 59.8741509910207,46.0916589128885 59.8701085722422,46.0957013316671 59.8674136263898,46.0930063858147 59.8593287888327,46.0930063858147 59.8566338429804,46.08761649411 59.8458540595709,46.0903114399623 59.8404641678662,46.08761649411 59.8350742761615,46.0930063858147 59.8283369115306,46.0889639670362 59.8296843844568,46.0849215482576 59.8377692220139,46.0849215482576 59.8404641678662,46.0795316565529 59.8458540595709,46.0822266024053 59.8458540595709,46.0741417648482 59.8566338429804,46.0741417648482 59.8633712076113,46.0781841836267 59.853938897128,46.0795316565529 59.8512439512757,46.0768367107006 59.8498964783495,46.0808791294791 59.8620237346851,46.08761649411 59.8728035180945,46.0903114399623</coordinates></LinearRing></innerBoundaryIs><innerBoundaryIs><LinearRing><coordinates>59.8512439512757,46.0579720897341 59.8552863700542,46.0620145085126 59.8512439512757,46.0633619814388 59.8512439512757,46.0579720897341</coordinates></LinearRing></innerBoundaryIs><innerBoundaryIs><LinearRing><coordinates>59.83911669494,46.102438696298 59.8431591137186,46.1010912233718 59.8431591137186,46.1037861692241 59.8404641678662,46.1037861692241 59.83911669494,46.102438696298</coordinates></LinearRing></innerBoundaryIs><innerBoundaryIs><LinearRing><coordinates>59.8579813159065,46.0997437504456 59.8593287888327,46.0983962775194 59.8633712076113,46.102438696298 59.8579813159065,46.0997437504456</coordinates></LinearRing></innerBoundaryIs><innerBoundaryIs><LinearRing><coordinates>59.8498964783495,46.1159134255598 59.8512439512757,46.1145659526336 59.8525914242018,46.1159134255598 59.8498964783495,46.1159134255598</coordinates></LinearRing></innerBoundaryIs><innerBoundaryIs><LinearRing><coordinates>59.8997529766181,46.1118710067812 59.8984055036919,46.110523533855 59.8997529766181,46.1091760609289 59.8997529766181,46.1118710067812</coordinates></LinearRing></innerBoundaryIs><innerBoundaryIs><LinearRing><coordinates>59.8350742761615,46.1010912233718 59.8337268032353,46.0997437504456 59.8350742761615,46.0983962775194 59.8350742761615,46.1010912233718</coordinates></LinearRing></innerBoundaryIs><innerBoundaryIs><LinearRing><coordinates>59.9199650705108,46.0943538587409 59.921312543437,46.0930063858147 59.9226600163632,46.0943538587409 59.9199650705108,46.0943538587409</coordinates></LinearRing></innerBoundaryIs><innerBoundaryIs><LinearRing><coordinates>59.9118802329537,46.0916589128885 59.9132277058799,46.0903114399623 59.9145751788061,46.0916589128885 59.9118802329537,46.0916589128885</coordinates></LinearRing></innerBoundaryIs><innerBoundaryIs><LinearRing><coordinates>59.9091852871014,46.0862690211838 59.9078378141752,46.08761649411 59.906490341249,46.0862690211838 59.9091852871014,46.0862690211838</coordinates></LinearRing></innerBoundaryIs><innerBoundaryIs><LinearRing><coordinates>59.8337268032353,46.0808791294791 59.8350742761615,46.0795316565529 59.8364217490877,46.0808791294791 59.8337268032353,46.0808791294791</coordinates></LinearRing></innerBoundaryIs><innerBoundaryIs><LinearRing><coordinates>59.8728035180945,46.0795316565529 59.8741509910207,46.0808791294791 59.8728035180945,46.0822266024053 59.8728035180945,46.0795316565529</coordinates></LinearRing></innerBoundaryIs><innerBoundaryIs><LinearRing><coordinates>59.9159226517323,46.0795316565529 59.9145751788061,46.0781841836267 59.9159226517323,46.0768367107006 59.9159226517323,46.0795316565529</coordinates></LinearRing></innerBoundaryIs><innerBoundaryIs><LinearRing><coordinates>59.83911669494,46.0754892377744 59.8404641678662,46.0741417648482 59.8418116407924,46.0754892377744 59.83911669494,46.0754892377744</coordinates></LinearRing></innerBoundaryIs><innerBoundaryIs><LinearRing><coordinates>59.8701085722422,46.0741417648482 59.8714560451683,46.0754892377744 59.8701085722422,46.0768367107006 59.8701085722422,46.0741417648482</coordinates></LinearRing></innerBoundaryIs><innerBoundaryIs><LinearRing><coordinates>59.8876257202825,46.0754892377744 59.8862782473563,46.0768367107006 59.8849307744301,46.0754892377744 59.8876257202825,46.0754892377744</coordinates></LinearRing></innerBoundaryIs><innerBoundaryIs><LinearRing><coordinates>59.8512439512757,46.0714468189958 59.8498964783495,46.0700993460697 59.8512439512757,46.0687518731435 59.8512439512757,46.0714468189958</coordinates></LinearRing></innerBoundaryIs><innerBoundaryIs><LinearRing><coordinates>59.8445065866448,46.0593195626602 59.8458540595709,46.0579720897341 59.8472015324971,46.0593195626602 59.8445065866448,46.0593195626602</coordinates></LinearRing></innerBoundaryIs><innerBoundaryIs><LinearRing><coordinates>59.83911669494,46.0566246168079 59.8377692220139,46.0579720897341 59.8364217490877,46.0566246168079 59.83911669494,46.0566246168079</coordinates></LinearRing></innerBoundaryIs></Polygon><Polygon><outerBoundaryIs><LinearRing><coordinates>59.9051428683228,46.125345736043 59.906490341249,46.1239982631168 59.9051428683228,46.1199558443383 59.9011004495443,46.1213033172645 59.9051428683228,46.125345736043</coordinates></LinearRing></outerBoundaryIs></Polygon></MultiGeometry>
  </Placemark>
</Folder>
</Document></kml>
