<?xml version="1.0" encoding="utf-8" ?>
<kml xmlns="http://www.opengis.net/kml/2.2">
<Document id="root_doc">
<Schema name="task_grid_v6_46.38_60.38" id="task_grid_v6_46.38_60.38">
	<SimpleField name="area_ha" type="float"></SimpleField>
	<SimpleField name="low_risk_ha" type="float"></SimpleField>
	<SimpleField name="moderate_risk_ha" type="float"></SimpleField>
	<SimpleField name="grid_cell_deg" type="string"></SimpleField>
</Schema>
<Folder><name>task_grid_v6_46.38_60.38</name>
  <Placemark id="task_grid_v6_46.38_60.38.1">
	<name>task_grid_v6_46.38_60.38</name>
	<name>755.2</name>
	<description>862.8</description>
	<Style><LineStyle><color>ff0000ff</color></LineStyle><PolyStyle><fill>0</fill></PolyStyle></Style>
	<ExtendedData><SchemaData schemaUrl="#task_grid_v6_46.38_60.38">
		<SimpleData name="area_ha">107.7</SimpleData>
		<SimpleData name="low_risk_ha">0.1</SimpleData>
	</SchemaData></ExtendedData>
      <MultiGeometry><Polygon><outerBoundaryIs><LinearRing><coordinates>60.4263910613787,46.3346982628962 60.4263910613787,46.3343547580755 60.4246735372753,46.3343547580755 60.4263910613787,46.3346982628962</coordinates></LinearRing></outerBoundaryIs></Polygon><Polygon><outerBoundaryIs><LinearRing><coordinates>60.3848432300426,46.335551512527 60.3868378207951,46.3343547580755 60.3844443118922,46.3343547580755 60.3848432300426,46.335551512527</coordinates></LinearRing></outerBoundaryIs></Polygon><Polygon><outerBoundaryIs><LinearRing><coordinates>60.3983179593044,46.335551512527 60.3984267551637,46.3343547580755 60.3978050645395,46.3343547580755 60.3983179593044,46.335551512527</coordinates></LinearRing></outerBoundaryIs></Polygon><Polygon><outerBoundaryIs><LinearRing><coordinates>60.4225724719757,46.3382464583793 60.4185300531971,46.3449838230102 60.425267417828,46.3463312959364 60.4263910613787,46.3429603652844 60.4263910613787,46.3420650477824 60.4225724719757,46.3382464583793</coordinates></LinearRing></outerBoundaryIs></Polygon><Polygon><outerBoundaryIs><LinearRing><coordinates>60.4104452156401,46.3395939313055 60.4130648022551,46.3343547580755 60.4050553239353,46.3343547580755 60.4050553239353,46.3395939313055 60.3969704863783,46.3476787688626 60.3983179593044,46.3517211876411 60.4104452156401,46.3395939313055</coordinates></LinearRing></outerBoundaryIs></Polygon><Polygon><outerBoundaryIs><LinearRing><coordinates>60.4117926885662,46.3463312959364 60.4077502697877,46.350373714715 60.4117926885662,46.3517211876411 60.4158351073448,46.3476787688626 60.4117926885662,46.3463312959364</coordinates></LinearRing></outerBoundaryIs></Polygon><Polygon><outerBoundaryIs><LinearRing><coordinates>60.3590905259706,46.3343547580755 60.3578937715191,46.335551512527 60.3566970170676,46.3343547580755 60.3544497299663,46.3343547580755 60.3525038798143,46.3382464583793 60.3486121795105,46.3343547580755 60.3423224736307,46.3343547580755 60.3417240964049,46.335551512527 60.3322917859217,46.3395939313055 60.3430715693311,46.3422888771579 60.3390291505526,46.3463312959364 60.3309443129955,46.3409414042317 60.3282493671431,46.3436363500841 60.3263910613787,46.343171773643 60.3263910613787,46.3546333383266 60.3282493671431,46.3571110793458 60.3444190422573,46.3571110793458 60.349808933962,46.3490262417888 60.3578937715191,46.3490262417888 60.3605887173714,46.3463312959364 60.36463113615,46.3557636064197 60.3592412444452,46.3638484439767 60.3632836632238,46.3651959169029 60.3700210278547,46.3530686605673 60.3700210278547,46.3476787688626 60.3754109195594,46.3449838230102 60.3754109195594,46.3395939313055 60.3781058654118,46.3368989854532 60.3775970199362,46.3343547580755 60.3692719321542,46.3343547580755 60.3686735549285,46.335551512527 60.3632836632238,46.3382464583793 60.3613378130719,46.3343547580755 60.3590905259706,46.3343547580755</coordinates></LinearRing></outerBoundaryIs></Polygon><Polygon><outerBoundaryIs><LinearRing><coordinates>60.3417240964049,46.4002302129836 60.3417240964049,46.3975352671312 60.3282493671431,46.3975352671312 60.3269018942169,46.3988827400574 60.3309443129955,46.4029251588359 60.3336392588478,46.4002302129836 60.3417240964049,46.4002302129836</coordinates></LinearRing></outerBoundaryIs></Polygon></MultiGeometry>
  </Placemark>
</Folder>
</Document></kml>
