<?xml version="1.0" encoding="utf-8" ?>
<kml xmlns="http://www.opengis.net/kml/2.2">
<Document id="root_doc">
<Schema name="task_grid_v6_46.48_60.98" id="task_grid_v6_46.48_60.98">
	<SimpleField name="area_ha" type="float"></SimpleField>
	<SimpleField name="low_risk_ha" type="float"></SimpleField>
	<SimpleField name="moderate_risk_ha" type="float"></SimpleField>
	<SimpleField name="grid_cell_deg" type="string"></SimpleField>
</Schema>
<Folder><name>task_grid_v6_46.48_60.98</name>
  <Placemark id="task_grid_v6_46.48_60.98.1">
	<name>task_grid_v6_46.48_60.98</name>
	<name>106.4</name>
	<description>106.4</description>
	<Style><LineStyle><color>ff0000ff</color></LineStyle><PolyStyle><fill>0</fill></PolyStyle></Style>
	<ExtendedData><SchemaData schemaUrl="#task_grid_v6_46.48_60.98">
		<SimpleData name="area_ha">0</SimpleData>
		<SimpleData name="low_risk_ha">0.1</SimpleData>
	</SchemaData></ExtendedData>
      <MultiGeometry><Polygon><outerBoundaryIs><LinearRing><coordinates>60.9305697651453,46.4770361697758 60.9292222922191,46.4729937509973 60.9263910613787,46.4739374946107 60.9263910613787,46.4779747877379 60.9265273463667,46.478383642702 60.9305697651453,46.4770361697758</coordinates></LinearRing></outerBoundaryIs></Polygon><Polygon><outerBoundaryIs><LinearRing><coordinates>60.9494343861118,46.4770361697758 60.9480869131856,46.4729937509973 60.9346121839238,46.4756886968496 60.9332647109976,46.4797311156282 60.9426970214809,46.4810785885543 60.9494343861118,46.4770361697758</coordinates></LinearRing></outerBoundaryIs></Polygon><Polygon><outerBoundaryIs><LinearRing><coordinates>60.9750363717092,46.478383642702 60.9777313175615,46.4810785885543 60.9777313175615,46.4756886968496 60.9723414258568,46.4756886968496 60.9709939529306,46.4797311156282 60.9723414258568,46.4810785885543 60.9750363717092,46.478383642702</coordinates></LinearRing></outerBoundaryIs></Polygon></MultiGeometry>
  </Placemark>
</Folder>
</Document></kml>
