<?xml version="1.0" encoding="utf-8" ?>
<kml xmlns="http://www.opengis.net/kml/2.2">
<Document id="root_doc">
<Schema name="task_grid_v6_46.01_59.96" id="task_grid_v6_46.01_59.96">
	<SimpleField name="area_ha" type="float"></SimpleField>
	<SimpleField name="low_risk_ha" type="float"></SimpleField>
	<SimpleField name="moderate_risk_ha" type="float"></SimpleField>
	<SimpleField name="grid_cell_deg" type="string"></SimpleField>
</Schema>
<Folder><name>task_grid_v6_46.01_59.96</name>
  <Placemark id="task_grid_v6_46.01_59.96.1">
	<name>task_grid_v6_46.01_59.96</name>
	<name>72.90000000000001</name>
	<description>1412.8</description>
	<Style><LineStyle><color>ff0000ff</color></LineStyle><PolyStyle><fill>0</fill></PolyStyle></Style>
	<ExtendedData><SchemaData schemaUrl="#task_grid_v6_46.01_59.96">
		<SimpleData name="area_ha">1339.8</SimpleData>
		<SimpleData name="low_risk_ha">0.1</SimpleData>
	</SchemaData></ExtendedData>
      <MultiGeometry><Polygon><outerBoundaryIs><LinearRing><coordinates>59.9285923279497,45.9625641451378 59.9248125423337,45.9625641451378 59.9267024351417,45.9663439307539 59.9285923279497,45.9625641451378</coordinates></LinearRing></outerBoundaryIs></Polygon><Polygon><outerBoundaryIs><LinearRing><coordinates>59.9360472012375,45.9625641451378 59.9310074870827,45.9625641451378 59.9347872726988,45.9663439307539 59.9360472012375,45.9625641451378</coordinates></LinearRing></outerBoundaryIs></Polygon><Polygon><outerBoundaryIs><LinearRing><coordinates>59.9320923268464,45.9771237141633 59.9388296914773,45.9703863495324 59.9388296914773,45.96769140368 59.9374822185511,45.9663439307539 59.9347872726988,45.9690388766062 59.9304707850531,45.9625641451378 59.9288606789645,45.9625641451378 59.9280499080679,45.9649964578277 59.9307448539202,45.9703863495324 59.9293973809941,45.9717338224586 59.9267024351417,45.9690388766062 59.9253549622155,45.9730812953848 59.9320923268464,45.9771237141633</coordinates></LinearRing></outerBoundaryIs></Polygon><Polygon><outerBoundaryIs><LinearRing><coordinates>59.9132277058799,45.9798186600157 59.9145751788061,45.9730812953848 59.9105327600275,45.9690388766062 59.9102213862645,45.9690388766062 59.9102213862645,45.9785302373233 59.9132277058799,45.9798186600157</coordinates></LinearRing></outerBoundaryIs></Polygon><Polygon><outerBoundaryIs><LinearRing><coordinates>59.9226600163632,45.9946408622036 59.921312543437,45.9905984434251 59.9172701246584,45.9919459163513 59.9186175975846,45.9959883351298 59.9226600163632,45.9946408622036</coordinates></LinearRing></outerBoundaryIs></Polygon><Polygon><outerBoundaryIs><LinearRing><coordinates>59.9118802329537,45.9919459163513 59.9102213862645,45.9936047630405 59.9102213862645,45.9956769613668 59.9118802329537,45.997335808056 59.9105327600275,46.0013782268345 59.9102213862645,46.0008592705628 59.9102213862645,46.0042243096339 59.9132277058799,46.0067681185392 59.9145751788061,45.9892509704989 59.9102213862645,45.9877997063184 59.9102213862645,45.9913929674549 59.9118802329537,45.9919459163513</coordinates></LinearRing></outerBoundaryIs></Polygon><Polygon><outerBoundaryIs><LinearRing><coordinates>59.9293973809941,46.0067681185392 59.9334397997726,46.0054206456131 59.9320923268464,46.0013782268345 59.9293973809941,46.0040731726869 59.9267024351417,45.9986832809822 59.9199650705108,46.0054206456131 59.9172701246584,46.0108105373178 59.9186175975846,46.012158010244 59.9226600163632,46.0108105373178 59.9240074892893,46.0067681185392 59.9267024351417,46.012158010244 59.9293973809941,46.0067681185392</coordinates></LinearRing></outerBoundaryIs></Polygon><Polygon><outerBoundaryIs><LinearRing><coordinates>59.9118802329537,46.0162004290225 59.9102213862645,46.0134356845405 59.9102213862645,46.0174144560502 59.9105327600275,46.0175479019487 59.9118802329537,46.0162004290225</coordinates></LinearRing></outerBoundaryIs></Polygon><Polygon><outerBoundaryIs><LinearRing><coordinates>59.9172701246584,46.0323701041366 59.9240074892893,46.0337175770628 59.9240074892893,46.0310226312105 59.9186175975846,46.0310226312105 59.9172701246584,46.0323701041366</coordinates></LinearRing></outerBoundaryIs></Polygon><Polygon><outerBoundaryIs><LinearRing><coordinates>59.9186175975846,46.0552771438817 59.9186175975846,46.0525821980293 59.9132277058799,46.0525821980293 59.9118802329537,46.0539296709555 59.9186175975846,46.0552771438817</coordinates></LinearRing></outerBoundaryIs></Polygon><Polygon><outerBoundaryIs><LinearRing><coordinates>59.9374822185511,46.0606670355864 59.9374822185511,46.0579720897341 59.9320923268464,46.0579720897341 59.9307448539202,46.0593195626602 59.9374822185511,46.0606670355864</coordinates></LinearRing></outerBoundaryIs></Polygon><Polygon><outerBoundaryIs><LinearRing><coordinates>59.9385670583149,45.9625641451378 59.9363973787874,45.9625641451378 59.9374822185511,45.9636489849015 59.9385670583149,45.9625641451378</coordinates></LinearRing></outerBoundaryIs></Polygon><Polygon><outerBoundaryIs><LinearRing><coordinates>59.9415246373297,45.9649964578277 59.9482620019606,45.9663439307539 59.9496094748867,45.9649964578277 59.9471771621968,45.9625641451378 59.9417948942952,45.9625641451378 59.9415246373297,45.9649964578277</coordinates></LinearRing></outerBoundaryIs></Polygon><Polygon><outerBoundaryIs><LinearRing><coordinates>59.9630842041485,45.9730812953848 59.9725165146318,45.9744287683109 59.9779064063365,45.9717338224586 59.9832962980412,45.9771237141633 59.9846437709674,45.9730812953848 59.9792538792627,45.96769140368 59.9832962980412,45.9636489849015 59.9859912438936,45.9636489849015 59.9886861897459,45.9690388766062 59.9954235543768,45.9703863495324 59.9940760814507,45.9744287683109 59.9913811355983,45.9717338224586 59.9886861897459,45.9771237141633 59.9846437709674,45.9784711870895 59.9846437709674,45.9838610787942 59.9873387168198,45.9865560246465 59.9846437709674,45.9946408622036 59.9927286085245,46.0000307539083 59.9954235543768,46.0054206456131 59.9873387168198,46.0108105373178 59.9927286085245,46.0188953748749 59.996771027303,46.020242847801 60.0035083919339,46.0108105373178 60.0035083919339,46.0027256997607 59.9981185002292,46.0000307539083 60.0008134460816,45.997335808056 59.9927286085245,45.9946408622036 60.0008134460816,45.9892509704989 59.9981185002292,45.9838610787942 59.9981185002292,45.9757762412371 60.0035083919339,45.9757762412371 60.0048558648601,45.9690388766062 60.0062033377863,45.9784711870895 60.0035083919339,45.9811661329418 60.0075508107125,45.9852085517204 60.0102213862645,45.9825379761683 60.0102213862645,45.9636441108414 60.0048215577462,45.9625641451378 59.9983811333917,45.9625641451378 60.0008134460816,45.9649964578277 59.996771027303,45.9663439307539 59.9904713846095,45.9625641451378 59.963893215706,45.9625641451378 59.9630842041485,45.9730812953848</coordinates></LinearRing></outerBoundaryIs></Polygon><Polygon><outerBoundaryIs><LinearRing><coordinates>60.0102213862645,45.9987076512824 60.0088982836386,46.0000307539083 60.0102213862645,46.0013538565342 60.0102213862645,45.9987076512824</coordinates></LinearRing></outerBoundaryIs></Polygon><Polygon><outerBoundaryIs><LinearRing><coordinates>60.0102213862645,46.0040975429872 60.0088982836386,46.0054206456131 60.0102213862645,46.006743748239 60.0102213862645,46.0040975429872</coordinates></LinearRing></outerBoundaryIs></Polygon><Polygon><outerBoundaryIs><LinearRing><coordinates>59.9307448539202,46.0135054831701 59.9347872726988,46.0148529560963 59.9388296914773,46.0108105373178 59.9347872726988,46.0094630643916 59.9307448539202,46.0135054831701</coordinates></LinearRing></outerBoundaryIs></Polygon><Polygon><outerBoundaryIs><LinearRing><coordinates>60.0062033377863,46.035065049989 60.0102213862645,46.0390830984673 60.0102213862645,46.0336932067625 60.0075508107125,46.0310226312105 60.0062033377863,46.035065049989</coordinates></LinearRing></outerBoundaryIs></Polygon><Polygon><outerBoundaryIs><LinearRing><coordinates>60.0102213862645,46.0525773239693 60.0102213862645,46.049887252177 60.0048558648601,46.049887252177 60.0035083919339,46.0512347251031 60.0102213862645,46.0525773239693</coordinates></LinearRing></outerBoundaryIs></Polygon><Polygon><outerBoundaryIs><LinearRing><coordinates>59.9859912438936,46.0606670355864 59.9765589334103,46.0620145085126 59.981505663037,46.0625641451378 59.9894840260469,46.0625641451378 59.9913811355983,46.0606670355864 59.9994659731554,46.0606670355864 60.0013630827067,46.0625641451378 60.0102213862645,46.0625641451378 60.0102213862645,46.058886651885 60.0075508107125,46.0606670355864 60.0102213862645,46.0587594816206 60.0102213862645,46.0525821980293 60.0021609190077,46.0525821980293 59.9994659731554,46.0552771438817 59.9994659731554,46.0525821980293 59.9859912438936,46.0552771438817 59.9859912438936,46.0606670355864</coordinates></LinearRing></outerBoundaryIs><innerBoundaryIs><LinearRing><coordinates>60.0012626037236,46.0579720897341 59.9994659731554,46.0579720897341 59.9994659731554,46.0572021052048 60.0012626037236,46.0579720897341</coordinates></LinearRing></innerBoundaryIs></Polygon><Polygon><outerBoundaryIs><LinearRing><coordinates>59.9698215687794,46.0606670355864 59.9707701235551,46.0625641451378 59.9725165146318,46.0625641451378 59.9725165146318,46.0579720897341 59.9657791500009,46.0593195626602 59.9698215687794,46.0606670355864</coordinates></LinearRing></outerBoundaryIs></Polygon></MultiGeometry>
  </Placemark>
</Folder>
</Document></kml>
