<?xml version="1.0" encoding="utf-8" ?>
<kml xmlns="http://www.opengis.net/kml/2.2">
<Document id="root_doc">
<Schema name="task_grid_v6_46.21_60.06" id="task_grid_v6_46.21_60.06">
	<SimpleField name="area_ha" type="float"></SimpleField>
	<SimpleField name="low_risk_ha" type="float"></SimpleField>
	<SimpleField name="moderate_risk_ha" type="float"></SimpleField>
	<SimpleField name="grid_cell_deg" type="string"></SimpleField>
</Schema>
<Folder><name>task_grid_v6_46.21_60.06</name>
  <Placemark id="task_grid_v6_46.21_60.06.1">
	<name>task_grid_v6_46.21_60.06</name>
	<name>1171.7</name>
	<description>1460.6</description>
	<Style><LineStyle><color>ff0000ff</color></LineStyle><PolyStyle><fill>0</fill></PolyStyle></Style>
	<ExtendedData><SchemaData schemaUrl="#task_grid_v6_46.21_60.06">
		<SimpleData name="area_ha">289</SimpleData>
		<SimpleData name="low_risk_ha">0.1</SimpleData>
	</SchemaData></ExtendedData>
      <MultiGeometry><Polygon><outerBoundaryIs><LinearRing><coordinates>60.0129407024172,46.1657699238284 60.0129407024172,46.1684648696807 60.0237204858266,46.1684648696807 60.0291103775313,46.1765497072378 60.0237204858266,46.1792446530902 60.0210255399742,46.1765497072378 60.0176568576588,46.1758759707747 60.0196780670481,46.1752022343116 60.0102213862645,46.1678470381467 60.0102213862645,46.1738547613855 60.0129407024172,46.1738547613855 60.0142881753434,46.1752022343116 60.0102213862645,46.1743888764959 60.0102213862645,46.2007920347589 60.0102457565648,46.2008042199091 60.0183305941219,46.2008042199091 60.0210255399742,46.2034991657614 60.0291103775313,46.2008042199091 60.0318053233837,46.2034991657614 60.0398901609408,46.1954143282043 60.0452800526455,46.1954143282043 60.049322471424,46.1913719094258 60.0466275255717,46.1886769635734 60.0466275255717,46.1832870718687 60.0520174172764,46.177897180164 60.0560598360549,46.1792446530902 60.0574073089811,46.177897180164 60.0533648902025,46.1684648696807 60.049322471424,46.1698123426069 60.0479749984978,46.1684648696807 60.0479749984978,46.1657699238284 60.0425851067931,46.1657699238284 60.041686791509,46.1666682391125 60.0291103775313,46.163074977976 60.0277629046051,46.1644224509022 60.0268337517229,46.1625641451378 60.0220941328711,46.1625641451378 60.0102213862645,46.1625641451378 60.0102213862645,46.1657699238284 60.0129407024172,46.1657699238284</coordinates></LinearRing></outerBoundaryIs></Polygon><Polygon><outerBoundaryIs><LinearRing><coordinates>60.0398901609408,46.1657699238284 60.0412376338669,46.1644224509022 60.0403084809847,46.1625641451378 60.0302728248689,46.1625641451378 60.0398901609408,46.1657699238284</coordinates></LinearRing></outerBoundaryIs></Polygon><Polygon><outerBoundaryIs><LinearRing><coordinates>60.0533648902025,46.1846345447949 60.0574073089811,46.1832870718687 60.0560598360549,46.1792446530902 60.0520174172764,46.1832870718687 60.0533648902025,46.1846345447949</coordinates></LinearRing></outerBoundaryIs></Polygon><Polygon><outerBoundaryIs><LinearRing><coordinates>60.070045398155,46.1625641451378 60.0690237324784,46.1625641451378 60.0695345653167,46.163074977976 60.070045398155,46.1625641451378</coordinates></LinearRing></outerBoundaryIs></Polygon><Polygon><outerBoundaryIs><LinearRing><coordinates>60.0547123631287,46.1644224509022 60.0560598360549,46.1657699238284 60.0601022548334,46.1644224509022 60.0594828195786,46.1625641451378 60.0565706688932,46.1625641451378 60.0547123631287,46.1644224509022</coordinates></LinearRing></outerBoundaryIs></Polygon><Polygon><outerBoundaryIs><LinearRing><coordinates>60.0776194028738,46.1657699238284 60.0830092945785,46.1657699238284 60.0862150732691,46.1625641451378 60.0744136241832,46.1625641451378 60.0776194028738,46.1657699238284</coordinates></LinearRing></outerBoundaryIs></Polygon><Polygon><outerBoundaryIs><LinearRing><coordinates>60.101102436907,46.1625641451378 60.0862150732691,46.1625641451378 60.0843567675047,46.1644224509022 60.0910941321356,46.1684648696807 60.0937890779879,46.1657699238284 60.0991789696926,46.1657699238284 60.101102436907,46.1625641451378</coordinates></LinearRing></outerBoundaryIs></Polygon><Polygon><outerBoundaryIs><LinearRing><coordinates>60.0816618216523,46.1725072884593 60.0910941321356,46.1738547613855 60.0910941321356,46.1711598155331 60.0830092945785,46.1711598155331 60.0816618216523,46.1725072884593</coordinates></LinearRing></outerBoundaryIs></Polygon><Polygon><outerBoundaryIs><LinearRing><coordinates>60.0803143487261,46.1711598155331 60.0762719299476,46.1752022343116 60.0803143487261,46.1792446530902 60.0830092945785,46.1792446530902 60.0816618216523,46.1805921260164 60.0883991862832,46.1819395989425 60.0883991862832,46.1792446530902 60.0937890779879,46.1792446530902 60.0964840238403,46.1765497072378 60.101873915545,46.1792446530902 60.1086112801759,46.1752022343116 60.1102213862645,46.173592128223 60.1102213862645,46.1723523113502 60.101873915545,46.1711598155331 60.0991789696926,46.1738547613855 60.0910941321356,46.1738547613855 60.0830092945785,46.1738547613855 60.0816618216523,46.1725072884593 60.0803143487261,46.1711598155331</coordinates></LinearRing></outerBoundaryIs></Polygon><Polygon><outerBoundaryIs><LinearRing><coordinates>60.0560598360549,46.2088890574661 60.0574073089811,46.2075415845399 60.0560598360549,46.1900244364996 60.0520174172764,46.1913719094258 60.0560598360549,46.2088890574661</coordinates></LinearRing></outerBoundaryIs></Polygon></MultiGeometry>
  </Placemark>
</Folder>
</Document></kml>
