<?xml version="1.0" encoding="utf-8" ?>
<kml xmlns="http://www.opengis.net/kml/2.2">
<Document id="root_doc">
<Schema name="task_grid_v6_44.91_61.16" id="task_grid_v6_44.91_61.16">
	<SimpleField name="area_ha" type="float"></SimpleField>
	<SimpleField name="low_risk_ha" type="float"></SimpleField>
	<SimpleField name="moderate_risk_ha" type="float"></SimpleField>
	<SimpleField name="grid_cell_deg" type="string"></SimpleField>
</Schema>
<Folder><name>task_grid_v6_44.91_61.16</name>
  <Placemark id="task_grid_v6_44.91_61.16.1">
	<name>task_grid_v6_44.91_61.16</name>
	<name>367.9</name>
	<description>6227.2</description>
	<Style><LineStyle><color>ff0000ff</color></LineStyle><PolyStyle><fill>0</fill></PolyStyle></Style>
	<ExtendedData><SchemaData schemaUrl="#task_grid_v6_44.91_61.16">
		<SimpleData name="area_ha">5859.3</SimpleData>
		<SimpleData name="low_risk_ha">0.1</SimpleData>
	</SchemaData></ExtendedData>
      <Polygon><outerBoundaryIs><LinearRing><coordinates>61.1529027979648,44.8883655898104 61.1475129062601,44.8937554815152 61.1448179604078,44.8910605356628 61.1340381769983,44.8964504273675 61.1286482852936,44.8937554815152 61.1259533394413,44.8964504273675 61.1178685018842,44.8964504273675 61.1124786101795,44.9045352649246 61.1102213862645,44.9060400808679 61.1102213862645,44.9126201024817 61.1124786101795,44.9126201024817 61.1138260831056,44.9166625212602 61.1102213862645,44.9188253393649 61.1102213862645,44.9625641451378 61.1117611015226,44.9625641451378 61.1124786101795,44.9611291278241 61.116521028958,44.9624766007503 61.1164334845705,44.9625641451378 61.2085399826553,44.9625641451378 61.2094966608644,44.9611291278241 61.2099749999689,44.9625641451378 61.2102213862645,44.9625641451378 61.2102213862645,44.9011609171717 61.2041067691597,44.9018403190722 61.1946744586764,44.8951029544413 61.206801715012,44.8937554815152 61.2102213862645,44.8954653171414 61.2102213862645,44.8856706439581 61.2094966608644,44.8856706439581 61.2014118233073,44.8802807522534 61.1960219316026,44.8856706439581 61.1906320398979,44.8856706439581 61.1825472023408,44.8802807522534 61.1771573106361,44.8856706439581 61.1758098377099,44.8843231710319 61.1785047835622,44.8816282251795 61.1744623647837,44.8802807522534 61.1677250001528,44.8843231710319 61.1704199460052,44.8870181168842 61.1694270712175,44.8919824908228 61.1609876355219,44.8883655898104 61.1569452167434,44.8897130627366 61.1582926896696,44.8937554815152 61.1555977438172,44.8883655898104 61.1529027979648,44.8883655898104</coordinates></LinearRing></outerBoundaryIs><innerBoundaryIs><LinearRing><coordinates>61.1693174681565,44.8925305061277 61.169072473079,44.8937554815152 61.1582926896696,44.8937554815152 61.1693174681565,44.8925305061277</coordinates></LinearRing></innerBoundaryIs><innerBoundaryIs><LinearRing><coordinates>61.1367331228507,44.8991453732199 61.1340381769983,44.900043688504 61.1340381769983,44.8991453732199 61.1367331228507,44.8991453732199</coordinates></LinearRing></innerBoundaryIs><innerBoundaryIs><LinearRing><coordinates>61.1786972796946,44.9241698704203 61.1717674189314,44.9287897775958 61.1758098377099,44.9247473588173 61.1731148918575,44.9220524129649 61.1771573106361,44.9180099941864 61.1771573106361,44.9233998858911 61.1786972796946,44.9241698704203</coordinates></LinearRing></innerBoundaryIs><innerBoundaryIs><LinearRing><coordinates>61.1632334237322,44.9202557823967 61.1650300543005,44.9220524129649 61.1650300543005,44.9274423046696 61.1632334237322,44.9202557823967</coordinates></LinearRing></innerBoundaryIs><innerBoundaryIs><LinearRing><coordinates>61.1623351084481,44.9166625212602 61.1636825813743,44.915315048334 61.1627201007127,44.9182024903187 61.1623351084481,44.9166625212602</coordinates></LinearRing></innerBoundaryIs><innerBoundaryIs><LinearRing><coordinates>61.1879370940455,44.9503493444147 61.183894675267,44.9463069256361 61.2000643503811,44.9463069256361 61.1960219316026,44.9487323769033 61.1960219316026,44.9476543985623 61.1879370940455,44.9476543985623 61.1865896211193,44.9490018714885 61.193845244568,44.950038389124 61.1933269857502,44.9503493444147 61.1879370940455,44.9503493444147</coordinates></LinearRing></innerBoundaryIs><innerBoundaryIs><LinearRing><coordinates>61.183894675267,44.900492846146 61.1798522564884,44.9018403190722 61.1758098377099,44.8977979002937 61.1825472023408,44.8964504273675 61.183894675267,44.900492846146</coordinates></LinearRing></innerBoundaryIs><innerBoundaryIs><LinearRing><coordinates>61.1960219316026,44.9422645068576 61.1960219316026,44.9409170339314 61.1973694045288,44.9409170339314 61.1960219316026,44.9422645068576</coordinates></LinearRing></innerBoundaryIs><innerBoundaryIs><LinearRing><coordinates>61.1596401625957,44.9166625212602 61.1582926896696,44.9180099941864 61.154250270891,44.9139675754078 61.1555977438172,44.9099251566293 61.1569452167434,44.9139675754078 61.1596401625957,44.9166625212602</coordinates></LinearRing></innerBoundaryIs><innerBoundaryIs><LinearRing><coordinates>61.1717674189314,44.9422645068576 61.1758098377099,44.9436119797838 61.1744623647837,44.94495945271 61.1717674189314,44.94495945271 61.1717674189314,44.9422645068576</coordinates></LinearRing></innerBoundaryIs><innerBoundaryIs><LinearRing><coordinates>61.1475129062601,44.9099251566293 61.1488603791863,44.9112726295555 61.1448179604078,44.9126201024817 61.1434704874816,44.9112726295555 61.1475129062601,44.9099251566293</coordinates></LinearRing></innerBoundaryIs><innerBoundaryIs><LinearRing><coordinates>61.1704199460052,44.9490018714885 61.1731148918575,44.9490018714885 61.1717674189314,44.9503493444147 61.1704199460052,44.9490018714885</coordinates></LinearRing></innerBoundaryIs><innerBoundaryIs><LinearRing><coordinates>61.1798522564884,44.9368746151529 61.1798522564884,44.9395695610052 61.1785047835622,44.9382220880791 61.1798522564884,44.9368746151529</coordinates></LinearRing></innerBoundaryIs><innerBoundaryIs><LinearRing><coordinates>61.1178685018842,44.9099251566293 61.1178685018842,44.9072302107769 61.1192159748104,44.9085776837031 61.1178685018842,44.9099251566293</coordinates></LinearRing></innerBoundaryIs></Polygon>
  </Placemark>
</Folder>
</Document></kml>
