<?xml version="1.0" encoding="utf-8" ?>
<kml xmlns="http://www.opengis.net/kml/2.2">
<Document id="root_doc">
<Schema name="task_grid_v6_46.18_59.78" id="task_grid_v6_46.18_59.78">
	<SimpleField name="area_ha" type="float"></SimpleField>
	<SimpleField name="low_risk_ha" type="float"></SimpleField>
	<SimpleField name="moderate_risk_ha" type="float"></SimpleField>
	<SimpleField name="grid_cell_deg" type="string"></SimpleField>
</Schema>
<Folder><name>task_grid_v6_46.18_59.78</name>
  <Placemark id="task_grid_v6_46.18_59.78.1">
	<name>task_grid_v6_46.18_59.78</name>
	<name>872.3</name>
	<description>872.3</description>
	<Style><LineStyle><color>ff0000ff</color></LineStyle><PolyStyle><fill>0</fill></PolyStyle></Style>
	<ExtendedData><SchemaData schemaUrl="#task_grid_v6_46.18_59.78">
		<SimpleData name="area_ha">0</SimpleData>
		<SimpleData name="low_risk_ha">0.1</SimpleData>
	</SchemaData></ExtendedData>
      <MultiGeometry><Polygon><outerBoundaryIs><LinearRing><coordinates>59.8256419656783,46.1509477216404 59.8229470198259,46.1536426674928 59.8256419656783,46.1563376133451 59.8242944927521,46.1576850862713 59.8215995468997,46.154990140419 59.8189046010474,46.1576850862713 59.816209655195,46.154990140419 59.8148621822688,46.1563376133451 59.816209655195,46.1603800321237 59.8202520739735,46.1617275050499 59.8215995468997,46.1711598155331 59.8242944927521,46.163074977976 59.8263910613787,46.1658704028115 59.8263910613787,46.1343547580755 59.8148621822688,46.1343547580755 59.8148621822688,46.1509477216404 59.8256419656783,46.1509477216404</coordinates></LinearRing></outerBoundaryIs></Polygon><Polygon><outerBoundaryIs><LinearRing><coordinates>59.8229470198259,46.1752022343116 59.8256419656783,46.177897180164 59.8215995468997,46.1819395989425 59.8189046010474,46.1792446530902 59.8148621822688,46.1859820177211 59.8202520739735,46.1886769635734 59.8148621822688,46.1967618011305 59.8175571281212,46.1994567469829 59.801387453007,46.2021516928352 59.8067773447117,46.2075415845399 59.801387453007,46.2102365303923 59.8040823988594,46.2129314762447 59.8040823988594,46.2210163138017 59.8067773447117,46.2237112596541 59.8067773447117,46.2343547580755 59.8202520739735,46.2343547580755 59.8202520739735,46.2291011513588 59.8148621822688,46.2210163138017 59.8175571281212,46.2183213679494 59.8121672364165,46.2129314762447 59.816209655195,46.2115840033185 59.8242944927521,46.2223637867279 59.8263910613787,46.2181706494747 59.8263910613787,46.2094874346919 59.8242944927521,46.2115840033185 59.8229470198259,46.2102365303923 59.8229470198259,46.2048466386876 59.8242944927521,46.2034991657614 59.8263910613787,46.205595734388 59.8263910613787,46.1987076512824 59.8242944927521,46.2008042199091 59.8202520739735,46.1967618011305 59.8263910613787,46.1947154719955 59.8263910613787,46.1742041894899 59.8242944927521,46.1738547613855 59.8229470198259,46.1752022343116</coordinates></LinearRing></outerBoundaryIs><innerBoundaryIs><LinearRing><coordinates>59.8094722905641,46.215626422097 59.8081248176379,46.2169738950232 59.8067773447117,46.215626422097 59.8094722905641,46.215626422097</coordinates></LinearRing></innerBoundaryIs><innerBoundaryIs><LinearRing><coordinates>59.8121672364165,46.2075415845399 59.8135147093426,46.2061941116138 59.8148621822688,46.2075415845399 59.8121672364165,46.2075415845399</coordinates></LinearRing></innerBoundaryIs></Polygon></MultiGeometry>
  </Placemark>
</Folder>
</Document></kml>
