<?xml version="1.0" encoding="utf-8" ?>
<kml xmlns="http://www.opengis.net/kml/2.2">
<Document id="root_doc">
<Schema name="task_grid_v6_45.51_59.16" id="task_grid_v6_45.51_59.16">
	<SimpleField name="area_ha" type="float"></SimpleField>
	<SimpleField name="low_risk_ha" type="float"></SimpleField>
	<SimpleField name="moderate_risk_ha" type="float"></SimpleField>
	<SimpleField name="grid_cell_deg" type="string"></SimpleField>
</Schema>
<Folder><name>task_grid_v6_45.51_59.16</name>
  <Placemark id="task_grid_v6_45.51_59.16.1">
	<name>task_grid_v6_45.51_59.16</name>
	<name>1959</name>
	<description>4819.8</description>
	<Style><LineStyle><color>ff0000ff</color></LineStyle><PolyStyle><fill>0</fill></PolyStyle></Style>
	<ExtendedData><SchemaData schemaUrl="#task_grid_v6_45.51_59.16">
		<SimpleData name="area_ha">2860.8</SimpleData>
		<SimpleData name="low_risk_ha">0.1</SimpleData>
	</SchemaData></ExtendedData>
      <MultiGeometry><Polygon><outerBoundaryIs><LinearRing><coordinates>59.1114813148032,45.4664314751413 59.1102213862645,45.4689513322187 59.1102213862645,45.4786462758644 59.1114813148032,45.4799062044031 59.1102213862645,45.4811661329418 59.1102213862645,45.4840361675692 59.1168712065079,45.4906859878126 59.1141762606556,45.501465771222 59.1155237335818,45.5028132441482 59.1182186794341,45.5001182982958 59.1236085711388,45.5108980817053 59.1289984628436,45.5108980817053 59.1316934086959,45.5135930275576 59.1330408816221,45.5122455546314 59.1319629032812,45.5079336412677 59.1357358274745,45.5041607170744 59.1343883545483,45.4974233524435 59.1303459357697,45.501465771222 59.1330408816221,45.4960758795173 59.1276509899174,45.4960758795173 59.1303459357697,45.4933809336649 59.1316934086959,45.4947284065911 59.1343883545483,45.4920334607388 59.1370833004006,45.4947284065911 59.1424731921053,45.4947284065911 59.1438206650315,45.4879910419602 59.1424731921053,45.486643569034 59.139778246253,45.4893385148864 59.1384307733268,45.4879910419602 59.1411257191792,45.4852960961079 59.1318532783651,45.4813221929018 59.1330408816221,45.4718213668461 59.1370833004006,45.4677789480675 59.1411257191792,45.4691264209937 59.1465156108839,45.4772112585508 59.1483813426278,45.4846741855265 59.1478630838101,45.4839486231817 59.1465156108839,45.4933809336649 59.1411257191792,45.4987708253696 59.1451681379577,45.5028132441482 59.1532529755148,45.5028132441482 59.1559479213671,45.5055081900005 59.1613378130719,45.5028132441482 59.1613378130719,45.5082031358529 59.1882872715954,45.5082031358529 59.1909822174478,45.5108980817053 59.1963721091525,45.5108980817053 59.1977195820787,45.5041607170744 59.2017620008572,45.5028132441482 59.2084993654881,45.5122455546314 59.1977195820787,45.5122455546314 59.2017620008572,45.51628797341 59.207151892562,45.51628797341 59.2098468384143,45.5189829192623 59.2102213862645,45.5187581905522 59.2102213862645,45.5085776837031 59.2084993654881,45.5068556629267 59.2098468384143,45.5055081900005 59.2102213862645,45.5056954639257 59.2102213862645,45.4927323169476 59.2031094737834,45.4879910419602 59.2031094737834,45.4826011502555 59.1977195820787,45.4799062044031 59.2004145279311,45.4772112585508 59.1950246362263,45.4745163126984 59.1950246362263,45.4664314751413 59.192446416224,45.4625641451378 59.1853867740928,45.4625641451378 59.1569452167434,45.4625641451378 59.154600448441,45.463736529289 59.1559479213671,45.4677789480675 59.1532529755148,45.4650840022152 59.1519055025886,45.4691264209937 59.1511763608268,45.4625641451378 59.1102213862645,45.4625641451378 59.1102213862645,45.4651715466026 59.1102213862645,45.4653815346924 59.1102213862645,45.46769140368 59.1114813148032,45.4664314751413</coordinates></LinearRing></outerBoundaryIs><innerBoundaryIs><LinearRing><coordinates>59.1559479213671,45.4704738939199 59.1572953942933,45.4691264209937 59.1586428672195,45.4704738939199 59.1640327589242,45.4704738939199 59.1572953942933,45.4718213668461 59.1680751777028,45.4799062044031 59.1658293894925,45.4821519926134 59.162685285998,45.4772112585508 59.1519055025886,45.4691264209937 59.1559479213671,45.4704738939199</coordinates></LinearRing></innerBoundaryIs><innerBoundaryIs><LinearRing><coordinates>59.1559479213671,45.4893385148864 59.1613378130719,45.4893385148864 59.1572953942933,45.4933809336649 59.1613378130719,45.4941894174206 59.1586428672195,45.4947284065911 59.1559479213671,45.4920334607388 59.1532529755148,45.4974233524435 59.150019040492,45.4985013307844 59.1492105567363,45.4960758795173 59.154600448441,45.4933809336649 59.1534775543358,45.4918088819177 59.1559479213671,45.4893385148864</coordinates></LinearRing></innerBoundaryIs><innerBoundaryIs><LinearRing><coordinates>59.192329690374,45.4960758795173 59.1950246362263,45.4987708253696 59.1936771633002,45.5001182982958 59.1882872715954,45.4974233524435 59.192329690374,45.4960758795173</coordinates></LinearRing></innerBoundaryIs><innerBoundaryIs><LinearRing><coordinates>59.1977195820787,45.4933809336649 59.1963721091525,45.4920334607388 59.1990670550049,45.4893385148864 59.2031094737834,45.4933809336649 59.1990670550049,45.5001182982958 59.1963721091525,45.4947284065911 59.1977195820787,45.4933809336649</coordinates></LinearRing></innerBoundaryIs><innerBoundaryIs><LinearRing><coordinates>59.1950246362263,45.4906859878126 59.1950246362263,45.4852960961079 59.1963721091525,45.4920334607388 59.1950246362263,45.4906859878126</coordinates></LinearRing></innerBoundaryIs><innerBoundaryIs><LinearRing><coordinates>59.192329690374,45.4799062044031 59.1896347445216,45.4772112585508 59.1950246362263,45.4799062044031 59.1896347445216,45.4826011502555 59.192329690374,45.4799062044031</coordinates></LinearRing></innerBoundaryIs><innerBoundaryIs><LinearRing><coordinates>59.1721175964813,45.4920334607388 59.1713315706077,45.4907982772231 59.177507488186,45.4920334607388 59.1721175964813,45.4920334607388</coordinates></LinearRing></innerBoundaryIs><innerBoundaryIs><LinearRing><coordinates>59.1664582101913,45.483140139426 59.1707701235551,45.4852960961079 59.1707701235551,45.4899160032833 59.1664582101913,45.483140139426</coordinates></LinearRing></innerBoundaryIs><innerBoundaryIs><LinearRing><coordinates>59.124956044065,45.4933809336649 59.1236085711388,45.4947284065911 59.1209136252865,45.4947284065911 59.1209136252865,45.4920334607388 59.124956044065,45.4933809336649</coordinates></LinearRing></innerBoundaryIs><innerBoundaryIs><LinearRing><coordinates>59.1869397986693,45.4718213668461 59.1828973798907,45.4731688397722 59.1815499069645,45.4718213668461 59.1855923257431,45.4704738939199 59.1869397986693,45.4718213668461</coordinates></LinearRing></innerBoundaryIs><innerBoundaryIs><LinearRing><coordinates>59.1478630838101,45.4677789480675 59.1465156108839,45.4664314751413 59.1465156108839,45.463736529289 59.1492105567363,45.463736529289 59.1478630838101,45.4677789480675</coordinates></LinearRing></innerBoundaryIs><innerBoundaryIs><LinearRing><coordinates>59.1599903401457,45.4852960961079 59.1613378130719,45.4839486231817 59.162685285998,45.4852960961079 59.1599903401457,45.4852960961079</coordinates></LinearRing></innerBoundaryIs><innerBoundaryIs><LinearRing><coordinates>59.1168712065079,45.4799062044031 59.1155237335818,45.4812536773293 59.1141762606556,45.4799062044031 59.1168712065079,45.4799062044031</coordinates></LinearRing></innerBoundaryIs><innerBoundaryIs><LinearRing><coordinates>59.1748125423337,45.4677789480675 59.1734650694075,45.4664314751413 59.1748125423337,45.4650840022152 59.1748125423337,45.4677789480675</coordinates></LinearRing></innerBoundaryIs><innerBoundaryIs><LinearRing><coordinates>59.192329690374,45.5068556629267 59.1936771633002,45.5055081900005 59.1936771633002,45.5082031358529 59.192329690374,45.5068556629267</coordinates></LinearRing></innerBoundaryIs><innerBoundaryIs><LinearRing><coordinates>59.1896347445216,45.5041607170744 59.1882872715954,45.5055081900005 59.1882872715954,45.5028132441482 59.1896347445216,45.5041607170744</coordinates></LinearRing></innerBoundaryIs><innerBoundaryIs><LinearRing><coordinates>59.2031094737834,45.4987708253696 59.2044569467096,45.4974233524435 59.2044569467096,45.5001182982958 59.2031094737834,45.4987708253696</coordinates></LinearRing></innerBoundaryIs></Polygon><Polygon><outerBoundaryIs><LinearRing><coordinates>59.1102213862645,45.4919459163513 59.1114813148032,45.4906859878126 59.1102213862645,45.4843863451191 59.1102213862645,45.4919459163513</coordinates></LinearRing></outerBoundaryIs></Polygon><Polygon><outerBoundaryIs><LinearRing><coordinates>59.1102213862645,45.5162254417046 59.1126491246726,45.5144913428417 59.1114813148032,45.5203303921885 59.1169937040467,45.5236378257346 59.1155237335818,45.5243728109671 59.1102213862645,45.5217216373084 59.1102213862645,45.5459323777859 59.1236085711388,45.5459323777859 59.1289984628436,45.5486273236383 59.1330408816221,45.5526697424168 59.1343883545483,45.5594071070477 59.1451681379577,45.554017215343 59.1532529755148,45.554017215343 59.154600448441,45.5526697424168 59.1505580296624,45.5486273236383 59.1451681379577,45.5513222694906 59.1370833004006,45.5513222694906 59.1303459357697,45.5418899590074 59.1384307733268,45.5284152297456 59.1384307733268,45.5149405004838 59.1370833004006,45.5135930275576 59.1289984628436,45.5189829192623 59.1222610982127,45.5149405004838 59.1209136252865,45.5108980817053 59.1168712065079,45.5149405004838 59.124956044065,45.5203303921885 59.1303459357697,45.5257202838932 59.1289984628436,45.5270677568194 59.1236085711388,45.5270677568194 59.1209136252865,45.5216778651147 59.1192115542218,45.522528900647 59.1131929696014,45.5141028821783 59.1195661523603,45.5095506087791 59.1141762606556,45.501465771222 59.1128287877294,45.4947284065911 59.1114813148032,45.4987708253696 59.1102213862645,45.499400789639 59.1102213862645,45.507660715971 59.1114813148032,45.5095506087791 59.1102213862645,45.5108105373178 59.1102213862645,45.5162254417046</coordinates></LinearRing></outerBoundaryIs><innerBoundaryIs><LinearRing><coordinates>59.1141762606556,45.5338051214503 59.1195661523603,45.5338051214503 59.1195661523603,45.5365000673027 59.1155237335818,45.5405424860812 59.1141762606556,45.5338051214503</coordinates></LinearRing></innerBoundaryIs><innerBoundaryIs><LinearRing><coordinates>59.1222610982127,45.539195013155 59.1263035169912,45.5351525943765 59.1276509899174,45.5365000673027 59.1236085711388,45.5405424860812 59.1222610982127,45.539195013155</coordinates></LinearRing></innerBoundaryIs></Polygon><Polygon><outerBoundaryIs><LinearRing><coordinates>59.1492105567363,45.5068556629267 59.1424731921053,45.5028132441482 59.1384307733268,45.5041607170744 59.1384307733268,45.5095506087791 59.139778246253,45.5108980817053 59.1451681379577,45.5082031358529 59.1478630838101,45.5135930275576 59.1492105567363,45.5068556629267</coordinates></LinearRing></outerBoundaryIs></Polygon><Polygon><outerBoundaryIs><LinearRing><coordinates>59.1438206650315,45.531110175598 59.1424731921053,45.5243728109671 59.1384307733268,45.531110175598 59.139778246253,45.5324576485241 59.1438206650315,45.531110175598</coordinates></LinearRing></outerBoundaryIs></Polygon><Polygon><outerBoundaryIs><LinearRing><coordinates>59.2102213862645,45.4852960961079 59.2102213862645,45.4835740753315 59.2084993654881,45.4852960961079 59.2102213862645,45.4852960961079</coordinates></LinearRing></outerBoundaryIs></Polygon><Polygon><outerBoundaryIs><LinearRing><coordinates>59.1640327589242,45.5108980817053 59.154600448441,45.5122455546314 59.1613378130719,45.51628797341 59.1734650694075,45.5176354463362 59.1721175964813,45.5135930275576 59.1667277047766,45.5135930275576 59.1640327589242,45.5108980817053</coordinates></LinearRing></outerBoundaryIs></Polygon><Polygon><outerBoundaryIs><LinearRing><coordinates>59.2102213862645,45.5251462769678 59.2084993654881,45.5257202838932 59.2102213862645,45.5274423046696 59.2102213862645,45.5251462769678</coordinates></LinearRing></outerBoundaryIs></Polygon><Polygon><outerBoundaryIs><LinearRing><coordinates>59.1842448528169,45.5338051214503 59.1802024340384,45.5378475402288 59.177507488186,45.5324576485241 59.1613378130719,45.5324576485241 59.1599903401457,45.5365000673027 59.1721175964813,45.5378475402288 59.1721175964813,45.5405424860812 59.1680751777028,45.5418899590074 59.177507488186,45.554017215343 59.1802024340384,45.5513222694906 59.1855923257431,45.5513222694906 59.1882872715954,45.5567121611954 59.1963721091525,45.5567121611954 59.2017620008572,45.5594071070477 59.2031094737834,45.5607545799739 59.2012999086195,45.5625641451378 59.2074136263898,45.5625641451378 59.2084993654881,45.5607545799739 59.2004145279311,45.5526697424168 59.2017620008572,45.5486273236383 59.2044569467096,45.5486273236383 59.2098468384143,45.5567121611954 59.2102213862645,45.5569618597622 59.2102213862645,45.5419835959699 59.2044569467096,45.5405424860812 59.2044569467096,45.5432374319336 59.2084993654881,45.5445849048597 59.2044569467096,45.5459323777859 59.1963721091525,45.5351525943765 59.192329690374,45.5338051214503 59.1936771633002,45.5297627026718 59.1977195820787,45.5284152297456 59.1963721091525,45.51628797341 59.1936771633002,45.51628797341 59.1909822174478,45.5216778651147 59.1855923257431,45.5243728109671 59.1802024340384,45.5216778651147 59.1788549611122,45.5257202838932 59.1842448528169,45.5338051214503</coordinates></LinearRing></outerBoundaryIs><innerBoundaryIs><LinearRing><coordinates>59.192329690374,45.5445849048597 59.1936771633002,45.5432374319336 59.1950246362263,45.5445849048597 59.192329690374,45.5445849048597</coordinates></LinearRing></innerBoundaryIs><innerBoundaryIs><LinearRing><coordinates>59.1882872715954,45.5351525943765 59.1896347445216,45.5365000673027 59.1882872715954,45.5378475402288 59.1882872715954,45.5351525943765</coordinates></LinearRing></innerBoundaryIs><innerBoundaryIs><LinearRing><coordinates>59.1896347445216,45.5284152297456 59.1882872715954,45.5297627026718 59.1869397986693,45.5284152297456 59.1896347445216,45.5284152297456</coordinates></LinearRing></innerBoundaryIs></Polygon><Polygon><outerBoundaryIs><LinearRing><coordinates>59.1694226506289,45.5594071070477 59.1640327589242,45.5567121611954 59.1605215685588,45.5625641451378 59.170931678178,45.5625641451378 59.1734650694075,45.5607545799739 59.1721175964813,45.5567121611954 59.1694226506289,45.5594071070477</coordinates></LinearRing></outerBoundaryIs></Polygon><Polygon><outerBoundaryIs><LinearRing><coordinates>59.1833594721284,45.5625641451378 59.1802024340384,45.5594071070477 59.1770453959483,45.5625641451378 59.1833594721284,45.5625641451378</coordinates></LinearRing></outerBoundaryIs></Polygon></MultiGeometry>
  </Placemark>
</Folder>
</Document></kml>
