<?xml version="1.0" encoding="utf-8" ?>
<kml xmlns="http://www.opengis.net/kml/2.2">
<Document id="root_doc">
<Schema name="task_grid_v6_46.38_60.68" id="task_grid_v6_46.38_60.68">
	<SimpleField name="area_ha" type="float"></SimpleField>
	<SimpleField name="low_risk_ha" type="float"></SimpleField>
	<SimpleField name="moderate_risk_ha" type="float"></SimpleField>
	<SimpleField name="grid_cell_deg" type="string"></SimpleField>
</Schema>
<Folder><name>task_grid_v6_46.38_60.68</name>
  <Placemark id="task_grid_v6_46.38_60.68.1">
	<name>task_grid_v6_46.38_60.68</name>
	<name>65.40000000000001</name>
	<description>65.40000000000001</description>
	<Style><LineStyle><color>ff0000ff</color></LineStyle><PolyStyle><fill>0</fill></PolyStyle></Style>
	<ExtendedData><SchemaData schemaUrl="#task_grid_v6_46.38_60.68">
		<SimpleData name="area_ha">0</SimpleData>
		<SimpleData name="low_risk_ha">0.1</SimpleData>
	</SchemaData></ExtendedData>
      <Polygon><outerBoundaryIs><LinearRing><coordinates>60.7149740969566,46.3368989854532 60.7163215698828,46.3409414042317 60.7190165157351,46.3382464583793 60.7203639886613,46.3395939313055 60.7217114615875,46.3463312959364 60.725753880366,46.3422888771579 60.725753880366,46.3368989854532 60.7263910613787,46.3362618044405 60.7263910613787,46.3343547580755 60.7175183243342,46.3343547580755 60.7149740969566,46.3368989854532</coordinates></LinearRing></outerBoundaryIs></Polygon>
  </Placemark>
</Folder>
</Document></kml>
