<?xml version="1.0" encoding="utf-8" ?>
<kml xmlns="http://www.opengis.net/kml/2.2">
<Document id="root_doc">
<Schema name="task_grid_v6_45.88_59.78" id="task_grid_v6_45.88_59.78">
	<SimpleField name="area_ha" type="float"></SimpleField>
	<SimpleField name="low_risk_ha" type="float"></SimpleField>
	<SimpleField name="moderate_risk_ha" type="float"></SimpleField>
	<SimpleField name="grid_cell_deg" type="string"></SimpleField>
</Schema>
<Folder><name>task_grid_v6_45.88_59.78</name>
  <Placemark id="task_grid_v6_45.88_59.78.1">
	<name>task_grid_v6_45.88_59.78</name>
	<name>0</name>
	<description>258.5</description>
	<Style><LineStyle><color>ff0000ff</color></LineStyle><PolyStyle><fill>0</fill></PolyStyle></Style>
	<ExtendedData><SchemaData schemaUrl="#task_grid_v6_45.88_59.78">
		<SimpleData name="area_ha">258.5</SimpleData>
		<SimpleData name="low_risk_ha">0.1</SimpleData>
	</SchemaData></ExtendedData>
      <MultiGeometry><Polygon><outerBoundaryIs><LinearRing><coordinates>59.8135147093426,45.8666309342166 59.8121672364165,45.8706733529951 59.8263910613787,45.8719664279917 59.8263910613787,45.8591444738853 59.8215995468997,45.8639359883642 59.8135147093426,45.8666309342166</coordinates></LinearRing></outerBoundaryIs></Polygon><Polygon><outerBoundaryIs><LinearRing><coordinates>59.8229470198259,45.8949278656664 59.8242944927521,45.8828006093307 59.8148621822688,45.8841480822569 59.8121672364165,45.8895379739616 59.8135147093426,45.8962753385925 59.8229470198259,45.8949278656664</coordinates></LinearRing></outerBoundaryIs></Polygon><Polygon><outerBoundaryIs><LinearRing><coordinates>59.8263910613787,45.9209287694143 59.8263910613787,45.9159392947511 59.8242944927521,45.9124450137067 59.8189046010474,45.9205298512638 59.8121672364165,45.9218773241899 59.8189046010474,45.9259197429685 59.8263910613787,45.9209287694143</coordinates></LinearRing></outerBoundaryIs></Polygon></MultiGeometry>
  </Placemark>
</Folder>
</Document></kml>
