<?xml version="1.0" encoding="utf-8" ?>
<kml xmlns="http://www.opengis.net/kml/2.2">
<Document id="root_doc">
<Schema name="task_grid_v6_45.21_61.16" id="task_grid_v6_45.21_61.16">
	<SimpleField name="area_ha" type="float"></SimpleField>
	<SimpleField name="low_risk_ha" type="float"></SimpleField>
	<SimpleField name="moderate_risk_ha" type="float"></SimpleField>
	<SimpleField name="grid_cell_deg" type="string"></SimpleField>
</Schema>
<Folder><name>task_grid_v6_45.21_61.16</name>
  <Placemark id="task_grid_v6_45.21_61.16.1">
	<name>task_grid_v6_45.21_61.16</name>
	<name>71.3</name>
	<description>2692.7</description>
	<Style><LineStyle><color>ff0000ff</color></LineStyle><PolyStyle><fill>0</fill></PolyStyle></Style>
	<ExtendedData><SchemaData schemaUrl="#task_grid_v6_45.21_61.16">
		<SimpleData name="area_ha">2621.4</SimpleData>
		<SimpleData name="low_risk_ha">0.1</SimpleData>
	</SchemaData></ExtendedData>
      <MultiGeometry><Polygon><outerBoundaryIs><LinearRing><coordinates>61.1327150743724,45.1625641451378 61.131343231146,45.1625641451378 61.131343231146,45.163250066751 61.1327150743724,45.1625641451378</coordinates></LinearRing></outerBoundaryIs></Polygon><Polygon><outerBoundaryIs><LinearRing><coordinates>61.1232583935889,45.1901995252746 61.1286482852936,45.1955894169793 61.1340381769983,45.1955894169793 61.1380805957769,45.1915469982008 61.1353856499245,45.1888520523484 61.139428068703,45.1875045794222 61.1421230145554,45.1901995252746 61.1461654333339,45.1861571064961 61.1434704874816,45.1834621606437 61.1515553250387,45.178072268939 61.1461654333339,45.1726823772343 61.1449404579465,45.1677824756845 61.1475129062601,45.1686399584557 61.1488603791863,45.1672924855295 61.1448179604078,45.163250066751 61.1442404720108,45.1649825319418 61.1436358753098,45.1625641451378 61.1380805957769,45.1625641451378 61.1380805957769,45.1726823772343 61.1326907040722,45.1726823772343 61.1353856499245,45.1672924855295 61.1340381769983,45.1659450126034 61.1259533394413,45.1659450126034 61.1232583935889,45.163250066751 61.1192159748104,45.1672924855295 61.1192159748104,45.1753773230866 61.1205634477365,45.1767247960128 61.1246058665151,45.1726823772343 61.1219109206627,45.1699874313819 61.1232583935889,45.1686399584557 61.1299957582198,45.1753773230866 61.1232583935889,45.1767247960128 61.1178685018842,45.1821146877175 61.1138260831056,45.1753773230866 61.116521028958,45.1699874313819 61.1138260831056,45.1672924855295 61.1173723383995,45.1625641451378 61.1102213862645,45.1625641451378 61.1102213862645,45.1982843628317 61.1178685018842,45.1982843628317 61.1205634477365,45.200979308684 61.1246058665151,45.1969368899055 61.1219109206627,45.1915469982008 61.1232583935889,45.1901995252746</coordinates></LinearRing></outerBoundaryIs><innerBoundaryIs><LinearRing><coordinates>61.1353856499245,45.1834621606437 61.1340381769983,45.1848096335699 61.1273008123674,45.1807672147913 61.131343231146,45.1794197418652 61.1353856499245,45.1834621606437</coordinates></LinearRing></innerBoundaryIs><innerBoundaryIs><LinearRing><coordinates>61.1421230145554,45.1713349043081 61.1434704874816,45.1726823772343 61.1421230145554,45.1740298501604 61.1421230145554,45.1713349043081</coordinates></LinearRing></innerBoundaryIs></Polygon><Polygon><outerBoundaryIs><LinearRing><coordinates>61.1102213862645,45.2041119764738 61.1151735560318,45.2090641462411 61.1192159748104,45.2050217274626 61.1178685018842,45.200979308684 61.1102213862645,45.200979308684 61.1102213862645,45.2041119764738</coordinates></LinearRing></outerBoundaryIs></Polygon><Polygon><outerBoundaryIs><LinearRing><coordinates>61.1326907040722,45.2077166733149 61.1259533394413,45.2036742545364 61.1219109206627,45.2050217274626 61.1246058665151,45.2077166733149 61.1219109206627,45.2131065650196 61.1286482852936,45.2144540379458 61.1299957582198,45.2131065650196 61.1273008123674,45.2104116191673 61.1326907040722,45.2077166733149</coordinates></LinearRing></outerBoundaryIs></Polygon><Polygon><outerBoundaryIs><LinearRing><coordinates>61.1299957582198,45.2211914025767 61.1232583935889,45.2171489837982 61.1192159748104,45.2184964567244 61.1232583935889,45.2225388755029 61.1299957582198,45.2211914025767</coordinates></LinearRing></outerBoundaryIs></Polygon><Polygon><outerBoundaryIs><LinearRing><coordinates>61.1367331228507,45.2225388755029 61.1407755416292,45.2211914025767 61.139428068703,45.2171489837982 61.1353856499245,45.2211914025767 61.1367331228507,45.2225388755029</coordinates></LinearRing></outerBoundaryIs></Polygon><Polygon><outerBoundaryIs><LinearRing><coordinates>61.1340381769983,45.23062371306 61.1340381769983,45.2279287672076 61.1286482852936,45.2279287672076 61.1273008123674,45.2292762401338 61.1340381769983,45.23062371306</coordinates></LinearRing></outerBoundaryIs></Polygon><Polygon><outerBoundaryIs><LinearRing><coordinates>61.1246058665151,45.2319711859861 61.1205634477365,45.2279287672076 61.1192159748104,45.2319711859861 61.1232583935889,45.2333186589123 61.1246058665151,45.2319711859861</coordinates></LinearRing></outerBoundaryIs></Polygon><Polygon><outerBoundaryIs><LinearRing><coordinates>61.1102213862645,45.2425690191978 61.1102213862645,45.2436607203843 61.1111311372533,45.2427509693956 61.1102213862645,45.2425690191978</coordinates></LinearRing></outerBoundaryIs></Polygon><Polygon><outerBoundaryIs><LinearRing><coordinates>61.1353856499245,45.2400560235432 61.1380805957769,45.2427509693956 61.1353856499245,45.2454459152479 61.1380805957769,45.2481408611003 61.1367331228507,45.2494883340265 61.1286482852936,45.238708550617 61.1246058665151,45.2427509693956 61.1326907040722,45.253530752805 61.1299957582198,45.2562256986574 61.131343231146,45.2602681174359 61.1421230145554,45.2467933881741 61.1475129062601,45.2467933881741 61.1502078521125,45.2521832798788 61.1569452167434,45.2454459152479 61.154250270891,45.2400560235432 61.1569452167434,45.2373610776909 61.1529027979648,45.2333186589123 61.1502078521125,45.2360136047647 61.1475129062601,45.2333186589123 61.1434704874816,45.2373610776909 61.1515553250387,45.2427509693956 61.1502078521125,45.2440984423218 61.139428068703,45.238708550617 61.1353856499245,45.2400560235432</coordinates></LinearRing></outerBoundaryIs></Polygon><Polygon><outerBoundaryIs><LinearRing><coordinates>61.1102213862645,45.2598303954985 61.1111311372533,45.2589206445097 61.1102213862645,45.258738694312 61.1102213862645,45.2598303954985</coordinates></LinearRing></outerBoundaryIs></Polygon><Polygon><outerBoundaryIs><LinearRing><coordinates>61.1775002714427,45.1625641451378 61.1764713890228,45.1625641451378 61.1771573106361,45.163250066751 61.1775002714427,45.1625641451378</coordinates></LinearRing></outerBoundaryIs></Polygon><Polygon><outerBoundaryIs><LinearRing><coordinates>61.1906320398979,45.1848096335699 61.191979512824,45.1834621606437 61.1906320398979,45.1740298501604 61.1892845669717,45.1753773230866 61.1906320398979,45.1848096335699</coordinates></LinearRing></outerBoundaryIs></Polygon><Polygon><outerBoundaryIs><LinearRing><coordinates>61.1502078521125,45.1982843628317 61.1569452167434,45.1969368899055 61.1475129062601,45.1901995252746 61.1461654333339,45.1942419440531 61.1475129062601,45.1955894169793 61.1502078521125,45.1982843628317</coordinates></LinearRing></outerBoundaryIs></Polygon><Polygon><outerBoundaryIs><LinearRing><coordinates>61.154250270891,45.1861571064961 61.1609876355219,45.1875045794222 61.1636825813743,45.1848096335699 61.1650300543005,45.1888520523484 61.1569452167434,45.1915469982008 61.1569452167434,45.1969368899055 61.1569452167434,45.1996318357578 61.1529027979648,45.200979308684 61.1502078521125,45.2063692003887 61.1421230145554,45.200979308684 61.1367331228507,45.200979308684 61.1353856499245,45.2050217274626 61.1434704874816,45.2077166733149 61.1367331228507,45.2117590920935 61.1340381769983,45.2090641462411 61.1326907040722,45.2131065650196 61.1421230145554,45.2144540379458 61.1448179604078,45.2171489837982 61.1475129062601,45.2144540379458 61.1609876355219,45.2225388755029 61.1609876355219,45.2279287672076 61.169072473079,45.2279287672076 61.1731148918575,45.2211914025767 61.1650300543005,45.2131065650196 61.1704199460052,45.2077166733149 61.1704199460052,45.1996318357578 61.1771573106361,45.1955894169793 61.1798522564884,45.200979308684 61.1879370940455,45.200979308684 61.191979512824,45.1969368899055 61.1906320398979,45.1901995252746 61.1852421481931,45.1901995252746 61.1825472023408,45.1955894169793 61.1785047835622,45.1915469982008 61.1811997294146,45.1888520523484 61.1758098377099,45.178072268939 61.183894675267,45.1753773230866 61.183894675267,45.1699874313819 61.1739969602748,45.1625641451378 61.154250270891,45.1625641451378 61.154250270891,45.1672924855295 61.1623351084481,45.1726823772343 61.1623351084481,45.1753773230866 61.1569452167434,45.178072268939 61.1569452167434,45.1834621606437 61.154250270891,45.1861571064961</coordinates></LinearRing></outerBoundaryIs><innerBoundaryIs><LinearRing><coordinates>61.1717674189314,45.1794197418652 61.1650300543005,45.178072268939 61.1717674189314,45.1740298501604 61.1731148918575,45.1753773230866 61.1717674189314,45.1794197418652</coordinates></LinearRing></innerBoundaryIs><innerBoundaryIs><LinearRing><coordinates>61.1650300543005,45.2238863484291 61.1663775272266,45.2225388755029 61.1663775272266,45.2252338213553 61.1650300543005,45.2238863484291</coordinates></LinearRing></innerBoundaryIs><innerBoundaryIs><LinearRing><coordinates>61.1582926896696,45.2090641462411 61.1596401625957,45.2104116191673 61.1569452167434,45.2104116191673 61.1582926896696,45.2090641462411</coordinates></LinearRing></innerBoundaryIs><innerBoundaryIs><LinearRing><coordinates>61.1596401625957,45.2050217274626 61.1582926896696,45.2063692003887 61.1582926896696,45.2036742545364 61.1596401625957,45.2050217274626</coordinates></LinearRing></innerBoundaryIs><innerBoundaryIs><LinearRing><coordinates>61.1771573106361,45.1713349043081 61.1758098377099,45.1699874313819 61.1785047835622,45.1699874313819 61.1771573106361,45.1713349043081</coordinates></LinearRing></innerBoundaryIs></Polygon><Polygon><outerBoundaryIs><LinearRing><coordinates>61.1475129062601,45.200979308684 61.1488603791863,45.1996318357578 61.1475129062601,45.1955894169793 61.1434704874816,45.1969368899055 61.1475129062601,45.200979308684</coordinates></LinearRing></outerBoundaryIs></Polygon><Polygon><outerBoundaryIs><LinearRing><coordinates>61.1502078521125,45.2252338213553 61.154250270891,45.2211914025767 61.1502078521125,45.2198439296505 61.1461654333339,45.2238863484291 61.1502078521125,45.2252338213553</coordinates></LinearRing></outerBoundaryIs></Polygon><Polygon><outerBoundaryIs><LinearRing><coordinates>61.2094966608644,45.2198439296505 61.2081491879382,45.2238863484291 61.2094966608644,45.2252338213553 61.2102213862645,45.2245090959551 61.2102213862645,45.2198439296505 61.2094966608644,45.2198439296505</coordinates></LinearRing></outerBoundaryIs></Polygon><Polygon><outerBoundaryIs><LinearRing><coordinates>61.1488603791863,45.2508358069527 61.1448179604078,45.2494883340265 61.1421230145554,45.2467933881741 61.1421230145554,45.2521832798788 61.1488603791863,45.2508358069527</coordinates></LinearRing></outerBoundaryIs></Polygon><Polygon><outerBoundaryIs><LinearRing><coordinates>61.1515553250387,45.2562256986574 61.1475129062601,45.2521832798788 61.1407755416292,45.253530752805 61.1475129062601,45.2602681174359 61.1515553250387,45.2562256986574</coordinates></LinearRing></outerBoundaryIs></Polygon><Polygon><outerBoundaryIs><LinearRing><coordinates>61.14580197228,45.2625641451378 61.1448179604078,45.2602681174359 61.1421230145554,45.2602681174359 61.1398269868535,45.2625641451378 61.14580197228,45.2625641451378</coordinates></LinearRing></outerBoundaryIs></Polygon></MultiGeometry>
  </Placemark>
</Folder>
</Document></kml>
