<?xml version="1.0" encoding="utf-8" ?>
<kml xmlns="http://www.opengis.net/kml/2.2">
<Document id="root_doc">
<Schema name="task_grid_v6_45.58_61.28" id="task_grid_v6_45.58_61.28">
	<SimpleField name="area_ha" type="float"></SimpleField>
	<SimpleField name="low_risk_ha" type="float"></SimpleField>
	<SimpleField name="moderate_risk_ha" type="float"></SimpleField>
	<SimpleField name="grid_cell_deg" type="string"></SimpleField>
</Schema>
<Folder><name>task_grid_v6_45.58_61.28</name>
  <Placemark id="task_grid_v6_45.58_61.28.1">
	<name>task_grid_v6_45.58_61.28</name>
	<name>50.4</name>
	<description>380.6</description>
	<Style><LineStyle><color>ff0000ff</color></LineStyle><PolyStyle><fill>0</fill></PolyStyle></Style>
	<ExtendedData><SchemaData schemaUrl="#task_grid_v6_45.58_61.28">
		<SimpleData name="area_ha">330.2</SimpleData>
		<SimpleData name="low_risk_ha">0.1</SimpleData>
	</SchemaData></ExtendedData>
      <MultiGeometry><Polygon><outerBoundaryIs><LinearRing><coordinates>61.2431834840189,45.5634495258263 61.244530956945,45.5674919446048 61.2566582132806,45.5661444716786 61.2539632674283,45.5634495258263 61.2566582132806,45.5607545799739 61.2526157945021,45.5567121611954 61.2485733757236,45.5607545799739 61.2512683215759,45.5634495258263 61.2499208486498,45.5647969987524 61.244530956945,45.5621020529001 61.2431834840189,45.5634495258263</coordinates></LinearRing></outerBoundaryIs></Polygon><Polygon><outerBoundaryIs><LinearRing><coordinates>61.2472259027974,45.5782717280142 61.2458784298712,45.5823141467928 61.2499208486498,45.5836616197189 61.2526157945021,45.5890515114237 61.2566582132806,45.5850090926451 61.2472259027974,45.5782717280142</coordinates></LinearRing></outerBoundaryIs></Polygon><Polygon><outerBoundaryIs><LinearRing><coordinates>61.2687854696163,45.5863565655713 61.2647430508377,45.5903989843498 61.2687854696163,45.591746457276 61.2728278883948,45.5877040384975 61.2687854696163,45.5863565655713</coordinates></LinearRing></outerBoundaryIs></Polygon><Polygon><outerBoundaryIs><LinearRing><coordinates>61.3186419678849,45.6011787677593 61.3253793325158,45.6052211865378 61.3263910613787,45.6042094576749 61.3263910613787,45.6035379695484 61.3226843866634,45.5998312948331 61.3186419678849,45.6011787677593</coordinates></LinearRing></outerBoundaryIs></Polygon><Polygon><outerBoundaryIs><LinearRing><coordinates>61.2310562276832,45.6133060240949 61.2431834840189,45.6038737136116 61.2391410652403,45.5998312948331 61.236446119388,45.6025262406854 61.2310562276832,45.6025262406854 61.2283612818309,45.6079161323902 61.2263910613787,45.6069310221641 61.2263910613787,45.61175096866 61.2310562276832,45.6133060240949</coordinates></LinearRing></outerBoundaryIs></Polygon><Polygon><outerBoundaryIs><LinearRing><coordinates>61.2512683215759,45.6119585511687 61.2526157945021,45.6133060240949 61.2566582132806,45.6119585511687 61.2553107403545,45.6052211865378 61.2534242782578,45.6083652900322 61.2499208486498,45.6025262406854 61.2431834840189,45.6038737136116 61.2431834840189,45.606568659464 61.2472259027974,45.6079161323902 61.2499208486498,45.6133060240949 61.2512683215759,45.6119585511687</coordinates></LinearRing></outerBoundaryIs></Polygon><Polygon><outerBoundaryIs><LinearRing><coordinates>61.3132520761802,45.6254332804305 61.3199894408111,45.629475699209 61.3263910613787,45.6288937337029 61.3263910613787,45.6267807533567 61.3253793325158,45.6267807533567 61.3172944949587,45.6186959157996 61.3132520761802,45.6227383345781 61.3132520761802,45.6254332804305</coordinates></LinearRing></outerBoundaryIs></Polygon><Polygon><outerBoundaryIs><LinearRing><coordinates>61.2628847450733,45.6343547580755 61.2697307121208,45.6343547580755 61.2660905237639,45.6321706450614 61.2620481049854,45.6335181179876 61.2628847450733,45.6343547580755</coordinates></LinearRing></outerBoundaryIs></Polygon><Polygon><outerBoundaryIs><LinearRing><coordinates>61.3186419678849,45.6335181179876 61.3198969280168,45.6343547580755 61.3263910613787,45.6343547580755 61.3263910613787,45.6324111046313 61.3186419678849,45.6335181179876</coordinates></LinearRing></outerBoundaryIs></Polygon></MultiGeometry>
  </Placemark>
</Folder>
</Document></kml>
