<?xml version="1.0" encoding="utf-8" ?>
<kml xmlns="http://www.opengis.net/kml/2.2">
<Document id="root_doc">
<Schema name="task_grid_v6_45.41_59.26" id="task_grid_v6_45.41_59.26">
	<SimpleField name="area_ha" type="float"></SimpleField>
	<SimpleField name="low_risk_ha" type="float"></SimpleField>
	<SimpleField name="moderate_risk_ha" type="float"></SimpleField>
	<SimpleField name="grid_cell_deg" type="string"></SimpleField>
</Schema>
<Folder><name>task_grid_v6_45.41_59.26</name>
  <Placemark id="task_grid_v6_45.41_59.26.1">
	<name>task_grid_v6_45.41_59.26</name>
	<name>866.7</name>
	<description>2668.4</description>
	<Style><LineStyle><color>ff0000ff</color></LineStyle><PolyStyle><fill>0</fill></PolyStyle></Style>
	<ExtendedData><SchemaData schemaUrl="#task_grid_v6_45.41_59.26">
		<SimpleData name="area_ha">1801.7</SimpleData>
		<SimpleData name="low_risk_ha">0.1</SimpleData>
	</SchemaData></ExtendedData>
      <MultiGeometry><Polygon><outerBoundaryIs><LinearRing><coordinates>59.2263522575918,45.3625641451378 59.2259792086326,45.3625641451378 59.2260165135285,45.3626760598255 59.2263522575918,45.3625641451378</coordinates></LinearRing></outerBoundaryIs></Polygon><Polygon><outerBoundaryIs><LinearRing><coordinates>59.2543134449782,45.3721083703088 59.259703336683,45.3694134244564 59.2529659720521,45.3626760598255 59.2475760803473,45.3653710056779 59.2447692198072,45.3625641451378 59.2383116418957,45.3625641451378 59.2341013510855,45.3653710056779 59.2260165135285,45.3626760598255 59.2206266218238,45.3680659515303 59.2125417842667,45.3680659515303 59.2102213862645,45.3703863495324 59.2102213862645,45.3840483527193 59.2102213862645,45.4007798496088 59.2125417842667,45.4031002476109 59.2138892571929,45.3990578288324 59.215236730119,45.4004053017586 59.217789836716,45.3987032306939 59.2165842030452,45.4071426663895 59.2138892571929,45.4098376122418 59.2138892571929,45.4179224497989 59.2125417842667,45.4192699227251 59.2102213862645,45.4146291267208 59.2102213862645,45.42503436228 59.2179316759714,45.4327446519869 59.2233215676761,45.4273547602821 59.2314064052332,45.4273547602821 59.2341013510855,45.4246598144298 59.2394912427903,45.4273547602821 59.2381437698641,45.4152275039465 59.244881134495,45.411185085168 59.2475760803473,45.4138800310204 59.2543134449782,45.4098376122418 59.2489235532735,45.4017527746847 59.2543134449782,45.39636288298 59.2516184991259,45.3936679371277 59.2570083908306,45.3909729912753 59.2543134449782,45.3882780454229 59.2543134449782,45.3828881537182 59.2583558637568,45.381540680792 59.2610508096091,45.3842356266444 59.2650932283877,45.3801932078659 59.2556609179044,45.373455843235 59.2543134449782,45.3761507890873 59.2543134449782,45.3721083703088</coordinates></LinearRing></outerBoundaryIs><innerBoundaryIs><LinearRing><coordinates>59.2354488240117,45.3981595135482 59.2354488240117,45.4017527746847 59.2341013510855,45.4031002476109 59.2354488240117,45.3981595135482</coordinates></LinearRing></innerBoundaryIs><innerBoundaryIs><LinearRing><coordinates>59.2381437698641,45.3882780454229 59.2408387157164,45.3855830995706 59.2408387157164,45.3774982620135 59.2435336615688,45.3748033161612 59.2408387157164,45.3694134244564 59.2421861886426,45.3680659515303 59.2489235532735,45.3721083703088 59.2435336615688,45.3801932078659 59.244881134495,45.3842356266444 59.2421861886426,45.3788457349397 59.2408387157164,45.3882780454229 59.2362780381201,45.3951190618174 59.2381437698641,45.3882780454229</coordinates></LinearRing></innerBoundaryIs><innerBoundaryIs><LinearRing><coordinates>59.2532654104801,45.3782468580836 59.2529659720521,45.3788457349397 59.244881134495,45.3842356266444 59.2532654104801,45.3782468580836</coordinates></LinearRing></innerBoundaryIs><innerBoundaryIs><LinearRing><coordinates>59.2212041102207,45.3875080608937 59.2206266218238,45.3869305724968 59.2223109629815,45.3818775490236 59.2231458103379,45.3860517858058 59.2212041102207,45.3875080608937</coordinates></LinearRing></innerBoundaryIs><innerBoundaryIs><LinearRing><coordinates>59.215236730119,45.381540680792 59.2179316759714,45.3842356266444 59.215236730119,45.3869305724968 59.215236730119,45.381540680792</coordinates></LinearRing></innerBoundaryIs><innerBoundaryIs><LinearRing><coordinates>59.2287114593808,45.3761507890873 59.2138892571929,45.3748033161612 59.2206266218238,45.3707608973826 59.2341013510855,45.373455843235 59.2367962969379,45.3680659515303 59.2381437698641,45.3694134244564 59.2314064052332,45.381540680792 59.2287114593808,45.3761507890873</coordinates></LinearRing></innerBoundaryIs><innerBoundaryIs><LinearRing><coordinates>59.2290483276124,45.4041108523056 59.230058932307,45.4044477205371 59.2294814439101,45.4054102011987 59.2290483276124,45.4041108523056</coordinates></LinearRing></innerBoundaryIs><innerBoundaryIs><LinearRing><coordinates>59.2262860081137,45.4039087313666 59.2260165135285,45.4031002476109 59.2273639864546,45.403549405253 59.2262860081137,45.4039087313666</coordinates></LinearRing></innerBoundaryIs><innerBoundaryIs><LinearRing><coordinates>59.2280377229177,45.4078164028525 59.2260165135285,45.411185085168 59.2246690406023,45.4098376122418 59.2273639864546,45.4071426663895 59.2280377229177,45.4078164028525</coordinates></LinearRing></innerBoundaryIs><innerBoundaryIs><LinearRing><coordinates>59.2394912427903,45.4031002476109 59.2435336615688,45.4071426663895 59.2421861886426,45.4084901393156 59.2394912427903,45.4031002476109</coordinates></LinearRing></innerBoundaryIs><innerBoundaryIs><LinearRing><coordinates>59.2287114593808,45.4192699227251 59.230058932307,45.4206173956512 59.2287114593808,45.4219648685774 59.2287114593808,45.4192699227251</coordinates></LinearRing></innerBoundaryIs><innerBoundaryIs><LinearRing><coordinates>59.2462286074212,45.3936679371277 59.244881134495,45.3950154100538 59.2435336615688,45.3936679371277 59.2462286074212,45.3936679371277</coordinates></LinearRing></innerBoundaryIs></Polygon><Polygon><outerBoundaryIs><LinearRing><coordinates>59.2102213862645,45.4069188370139 59.2102213862645,45.4108105373178 59.2111943113405,45.4098376122418 59.2102213862645,45.4069188370139</coordinates></LinearRing></outerBoundaryIs></Polygon><Polygon><outerBoundaryIs><LinearRing><coordinates>59.2102213862645,45.4359260603772 59.2138892571929,45.434092124913 59.2102213862645,45.4333585507274 59.2102213862645,45.4359260603772</coordinates></LinearRing></outerBoundaryIs></Polygon><Polygon><outerBoundaryIs><LinearRing><coordinates>59.2206266218238,45.4381345436916 59.2206266218238,45.4354395978392 59.215236730119,45.4354395978392 59.2138892571929,45.4367870707654 59.2206266218238,45.4381345436916</coordinates></LinearRing></outerBoundaryIs></Polygon><Polygon><outerBoundaryIs><LinearRing><coordinates>59.2102213862645,45.4385090915418 59.2102213862645,45.4404549416937 59.2111943113405,45.4394820166178 59.2102213862645,45.4385090915418</coordinates></LinearRing></outerBoundaryIs></Polygon><Polygon><outerBoundaryIs><LinearRing><coordinates>59.2102213862645,45.4563749182411 59.2138892571929,45.4502618000272 59.2102213862645,45.4447599936347 59.2102213862645,45.4563749182411</coordinates></LinearRing></outerBoundaryIs></Polygon><Polygon><outerBoundaryIs><LinearRing><coordinates>59.2381437698641,45.4556516917319 59.2314064052332,45.4516092729534 59.2260165135285,45.4543042188057 59.2206266218238,45.4462193812487 59.2179316759714,45.4462193812487 59.2192791488976,45.4583466375843 59.2165842030452,45.4583466375843 59.215236730119,45.4543042188057 59.2111943113405,45.4583466375843 59.2125417842667,45.4623890563628 59.2130670505916,45.4625641451378 59.2315814940082,45.4625641451378 59.2287114593808,45.4596941105104 59.2260165135285,45.4623890563628 59.2246690406023,45.4583466375843 59.2287114593808,45.4569991646581 59.2341013510855,45.4596941105104 59.2381437698641,45.4556516917319</coordinates></LinearRing></outerBoundaryIs></Polygon><Polygon><outerBoundaryIs><LinearRing><coordinates>59.2503829408875,45.3625641451378 59.2502230627621,45.3625641451378 59.2502710261997,45.3626760598255 59.2503829408875,45.3625641451378</coordinates></LinearRing></outerBoundaryIs></Polygon><Polygon><outerBoundaryIs><LinearRing><coordinates>59.2853053222804,45.373455843235 59.2893477410589,45.3721083703088 59.2880002681327,45.3680659515303 59.2906952139851,45.373455843235 59.2947376327636,45.3640235327517 59.2932782451497,45.3625641451378 59.2866527952065,45.3625641451378 59.2866527952065,45.3640235327517 59.2839578493542,45.3667184786041 59.2853053222804,45.3707608973826 59.2839578493542,45.3721083703088 59.2853053222804,45.373455843235</coordinates></LinearRing></outerBoundaryIs></Polygon><Polygon><outerBoundaryIs><LinearRing><coordinates>59.2691356471662,45.3653710056779 59.2637457554615,45.3680659515303 59.2610508096091,45.3653710056779 59.259703336683,45.3667184786041 59.259703336683,45.3694134244564 59.259703336683,45.3721083703088 59.2664407013138,45.3788457349397 59.2704831200924,45.3721083703088 59.2691356471662,45.3653710056779</coordinates></LinearRing></outerBoundaryIs></Polygon><Polygon><outerBoundaryIs><LinearRing><coordinates>59.2893477410589,45.3801932078659 59.2880002681327,45.373455843235 59.2839578493542,45.3748033161612 59.2880002681327,45.381540680792 59.2893477410589,45.3801932078659</coordinates></LinearRing></outerBoundaryIs></Polygon><Polygon><outerBoundaryIs><LinearRing><coordinates>59.2556609179044,45.4516092729534 59.2570083908306,45.4394820166178 59.2502710261997,45.4327446519869 59.244881134495,45.4381345436916 59.244881134495,45.4327446519869 59.2327538781594,45.4367870707654 59.2367962969379,45.4408294895439 59.244881134495,45.4408294895439 59.2529659720521,45.4462193812487 59.2556609179044,45.4516092729534</coordinates></LinearRing></outerBoundaryIs></Polygon><Polygon><outerBoundaryIs><LinearRing><coordinates>59.259703336683,45.4556516917319 59.2529659720521,45.4516092729534 59.2489235532735,45.4529567458796 59.2502710261997,45.4596941105104 59.259703336683,45.4556516917319</coordinates></LinearRing></outerBoundaryIs></Polygon><Polygon><outerBoundaryIs><LinearRing><coordinates>59.2664407013138,45.4569991646581 59.2608757208342,45.4625641451378 59.2791541497251,45.4625641451378 59.2812629035018,45.4583466375843 59.2799154305756,45.4569991646581 59.2745255388709,45.4583466375843 59.2745255388709,45.4569991646581 59.2691356471662,45.4569991646581 59.26778817424,45.4583466375843 59.2664407013138,45.4569991646581</coordinates></LinearRing></outerBoundaryIs><innerBoundaryIs><LinearRing><coordinates>59.2715311545905,45.4590952336544 59.2691356471662,45.4596941105104 59.26778817424,45.4583466375843 59.2715311545905,45.4590952336544</coordinates></LinearRing></innerBoundaryIs></Polygon><Polygon><outerBoundaryIs><LinearRing><coordinates>59.2424313129276,45.4625641451378 59.2421861886426,45.4623890563628 59.2413107447678,45.4625641451378 59.2424313129276,45.4625641451378</coordinates></LinearRing></outerBoundaryIs></Polygon></MultiGeometry>
  </Placemark>
</Folder>
</Document></kml>
