<?xml version="1.0" encoding="utf-8" ?>
<kml xmlns="http://www.opengis.net/kml/2.2">
<Document id="root_doc">
<Schema name="task_grid_v6_45.48_59.08" id="task_grid_v6_45.48_59.08">
	<SimpleField name="area_ha" type="float"></SimpleField>
	<SimpleField name="low_risk_ha" type="float"></SimpleField>
	<SimpleField name="moderate_risk_ha" type="float"></SimpleField>
	<SimpleField name="grid_cell_deg" type="string"></SimpleField>
</Schema>
<Folder><name>task_grid_v6_45.48_59.08</name>
  <Placemark id="task_grid_v6_45.48_59.08.1">
	<name>task_grid_v6_45.48_59.08</name>
	<name>1316.3</name>
	<description>3341.8</description>
	<Style><LineStyle><color>ff0000ff</color></LineStyle><PolyStyle><fill>0</fill></PolyStyle></Style>
	<ExtendedData><SchemaData schemaUrl="#task_grid_v6_45.48_59.08">
		<SimpleData name="area_ha">2025.5</SimpleData>
		<SimpleData name="low_risk_ha">0.1</SimpleData>
	</SchemaData></ExtendedData>
      <MultiGeometry><Polygon><outerBoundaryIs><LinearRing><coordinates>59.0740147060327,45.4343547580755 59.0519298728889,45.4343547580755 59.049497560199,45.4367870707654 59.0535399789775,45.4408294895439 59.0589298706822,45.4381345436916 59.0697096540917,45.4435244353963 59.072404599944,45.4408294895439 59.0750995457964,45.4462193812487 59.0777944916487,45.4408294895439 59.0804894375011,45.4435244353963 59.0885742750582,45.4435244353963 59.0939641667629,45.4408294895439 59.0936272985314,45.43779767546 59.0953116396891,45.4394820166178 59.0953116396891,45.4529567458796 59.1068614076278,45.4625815524951 59.1033964772462,45.463736529289 59.1007015313938,45.4691264209937 59.10204900432,45.4704738939199 59.1074388960247,45.4704738939199 59.1114813148032,45.4664314751413 59.1035461964602,45.4823017118275 59.0993540584676,45.4812536773293 59.0966591126153,45.486643569034 59.0939641667629,45.4812536773293 59.0899217479844,45.4879910419602 59.0899217479844,45.4933809336649 59.0926166938367,45.4960758795173 59.0899217479844,45.4987708253696 59.0953116396891,45.501465771222 59.0926166938367,45.5041607170744 59.0939641667629,45.5055081900005 59.10204900432,45.5028132441482 59.1060914230985,45.4987708253696 59.1007015313938,45.4960758795173 59.1074388960247,45.4947284065911 59.1114813148032,45.4906859878126 59.1101338418771,45.4839486231817 59.1168712065079,45.4906859878126 59.1141762606556,45.501465771222 59.1155237335818,45.5028132441482 59.1182186794341,45.5001182982958 59.1236085711388,45.5108980817053 59.1263910613787,45.5108980817053 59.1263910613787,45.4569116202706 59.1263910613787,45.4493520490385 59.1263910613787,45.4343547580755 59.0932447521553,45.4343547580755 59.0926166938367,45.4343547580755 59.0881472005755,45.4343547580755 59.087499237327,45.4343547580755 59.0765345631101,45.4343547580755 59.0777944916487,45.4381345436916 59.0740147060327,45.4343547580755</coordinates></LinearRing></outerBoundaryIs><innerBoundaryIs><LinearRing><coordinates>59.1263035169912,45.448914327101 59.1230695819684,45.449992305442 59.1236085711388,45.448914327101 59.1263035169912,45.448914327101</coordinates></LinearRing></innerBoundaryIs><innerBoundaryIs><LinearRing><coordinates>59.1209136252865,45.4596941105104 59.1168712065079,45.4556516917319 59.1209136252865,45.4543042188057 59.1226285908289,45.4508742877209 59.1263035169912,45.4569991646581 59.1236085711388,45.4543042188057 59.1209136252865,45.4596941105104</coordinates></LinearRing></innerBoundaryIs><innerBoundaryIs><LinearRing><coordinates>59.1236085711388,45.4947284065911 59.1209136252865,45.4947284065911 59.1209136252865,45.4920334607388 59.124956044065,45.4933809336649 59.1236085711388,45.4947284065911</coordinates></LinearRing></innerBoundaryIs><innerBoundaryIs><LinearRing><coordinates>59.1114813148032,45.4799062044031 59.1101338418771,45.4812536773293 59.1101338418771,45.478558731477 59.1114813148032,45.4799062044031</coordinates></LinearRing></innerBoundaryIs><innerBoundaryIs><LinearRing><coordinates>59.1155237335818,45.4812536773293 59.1141762606556,45.4799062044031 59.1168712065079,45.4799062044031 59.1155237335818,45.4812536773293</coordinates></LinearRing></innerBoundaryIs><innerBoundaryIs><LinearRing><coordinates>59.124956044065,45.4448719083225 59.1236085711388,45.4462193812487 59.1236085711388,45.4435244353963 59.124956044065,45.4448719083225</coordinates></LinearRing></innerBoundaryIs><innerBoundaryIs><LinearRing><coordinates>59.1047439501723,45.4920334607388 59.1033964772462,45.4906859878126 59.1074388960247,45.486643569034 59.1087863689509,45.4879910419602 59.1047439501723,45.4920334607388</coordinates></LinearRing></innerBoundaryIs></Polygon><Polygon><outerBoundaryIs><LinearRing><coordinates>59.0427601955681,45.4462193812487 59.0441076684943,45.4448719083225 59.0400652497157,45.4408294895439 59.0360228309372,45.4421769624701 59.0427601955681,45.4462193812487</coordinates></LinearRing></outerBoundaryIs></Polygon><Polygon><outerBoundaryIs><LinearRing><coordinates>59.0441076684943,45.4583466375843 59.0360228309372,45.4529567458796 59.0387177767895,45.4502618000272 59.0333278850848,45.4394820166178 59.0400652497157,45.4381345436916 59.0438450353318,45.4343547580755 59.0263910613787,45.4343547580755 59.0263910613787,45.4367870707654 59.0279379933801,45.4367870707654 59.0279379933801,45.4394820166178 59.0265905204539,45.4408294895439 59.0263910613787,45.4402311123182 59.0263910613787,45.4485154089505 59.0265905204539,45.448914327101 59.0306329392325,45.4502618000272 59.0263910613787,45.4513222694906 59.0263910613787,45.4621098136575 59.0265905204539,45.4623890563628 59.0441076684943,45.4583466375843</coordinates></LinearRing></outerBoundaryIs></Polygon><Polygon><outerBoundaryIs><LinearRing><coordinates>59.064319762387,45.4569991646581 59.0670147082393,45.4623890563628 59.0710571270179,45.4610415834366 59.0683621811655,45.4502618000272 59.0670147082393,45.448914327101 59.064319762387,45.4516092729534 59.0616248165346,45.4462193812487 59.0589298706822,45.448914327101 59.049497560199,45.4502618000272 59.0548874519037,45.4529567458796 59.0589298706822,45.4650840022152 59.0629722894608,45.463736529289 59.0602773436084,45.4610415834366 59.064319762387,45.4569991646581</coordinates></LinearRing></outerBoundaryIs><innerBoundaryIs><LinearRing><coordinates>59.0589298706822,45.4543042188057 59.0575823977561,45.4529567458796 59.0602773436084,45.4529567458796 59.0589298706822,45.4543042188057</coordinates></LinearRing></innerBoundaryIs></Polygon><Polygon><outerBoundaryIs><LinearRing><coordinates>59.0535399789775,45.4650840022152 59.0548874519037,45.4610415834366 59.0508450331252,45.4569991646581 59.049497560199,45.4610415834366 59.0535399789775,45.4650840022152</coordinates></LinearRing></outerBoundaryIs></Polygon><Polygon><outerBoundaryIs><LinearRing><coordinates>59.0912692209105,45.4623890563628 59.0750995457964,45.4623890563628 59.0683621811655,45.4664314751413 59.0777944916487,45.4677789480675 59.0831843833535,45.4650840022152 59.0885742750582,45.4731688397722 59.0926166938367,45.4664314751413 59.0912692209105,45.4623890563628</coordinates></LinearRing></outerBoundaryIs></Polygon><Polygon><outerBoundaryIs><LinearRing><coordinates>59.0885742750582,45.4812536773293 59.0926166938367,45.4772112585508 59.0885742750582,45.4758637856246 59.0845318562796,45.4799062044031 59.0885742750582,45.4812536773293</coordinates></LinearRing></outerBoundaryIs></Polygon><Polygon><outerBoundaryIs><LinearRing><coordinates>59.0319804121587,45.4758637856246 59.0263910613787,45.4721375517713 59.0263910613787,45.4868430281093 59.0265905204539,45.486643569034 59.0292854663063,45.4920334607388 59.0360228309372,45.4879910419602 59.0400652497157,45.4812536773293 59.0427601955681,45.4920334607388 59.0454551414204,45.486643569034 59.0575823977561,45.4826011502555 59.0535399789775,45.4758637856246 59.0508450331252,45.478558731477 59.049497560199,45.4772112585508 59.0468026143466,45.4718213668461 59.0441076684943,45.4718213668461 59.0468026143466,45.4772112585508 59.0454551414204,45.478558731477 59.0373703038634,45.478558731477 59.0373703038634,45.4731688397722 59.0319804121587,45.4758637856246</coordinates></LinearRing></outerBoundaryIs><innerBoundaryIs><LinearRing><coordinates>59.0292854663063,45.4839486231817 59.0279379933801,45.4826011502555 59.0319804121587,45.478558731477 59.0333278850848,45.4799062044031 59.0292854663063,45.4839486231817</coordinates></LinearRing></innerBoundaryIs></Polygon><Polygon><outerBoundaryIs><LinearRing><coordinates>59.0575823977561,45.4933809336649 59.0562349248299,45.4893385148864 59.0521925060513,45.4906859878126 59.0535399789775,45.4974233524435 59.0575823977561,45.4933809336649</coordinates></LinearRing></outerBoundaryIs></Polygon><Polygon><outerBoundaryIs><LinearRing><coordinates>59.0360228309372,45.4987708253696 59.034675358011,45.4947284065911 59.0306329392325,45.4960758795173 59.0319804121587,45.5001182982958 59.0360228309372,45.4987708253696</coordinates></LinearRing></outerBoundaryIs></Polygon><Polygon><outerBoundaryIs><LinearRing><coordinates>59.0993540584676,45.5324576485241 59.0899217479844,45.531110175598 59.0926166938367,45.5284152297456 59.0899217479844,45.5257202838932 59.0885742750582,45.51628797341 59.0831843833535,45.5216778651147 59.0764470187226,45.5230253380409 59.0845318562796,45.5257202838932 59.0802146191885,45.5343547580755 59.101251168019,45.5343547580755 59.0993540584676,45.5324576485241</coordinates></LinearRing></outerBoundaryIs></Polygon><Polygon><outerBoundaryIs><LinearRing><coordinates>59.0926166938367,45.4718213668461 59.0993540584676,45.4731688397722 59.0993540584676,45.4704738939199 59.0939641667629,45.4704738939199 59.0926166938367,45.4718213668461</coordinates></LinearRing></outerBoundaryIs></Polygon><Polygon><outerBoundaryIs><LinearRing><coordinates>59.1033964772462,45.4799062044031 59.10204900432,45.4731688397722 59.0980065855414,45.4799062044031 59.0993540584676,45.4812536773293 59.1033964772462,45.4799062044031</coordinates></LinearRing></outerBoundaryIs></Polygon><Polygon><outerBoundaryIs><LinearRing><coordinates>59.1114813148032,45.5203303921885 59.1169937040467,45.5236378257346 59.1155237335818,45.5243728109671 59.1101338418771,45.5216778651147 59.1074388960247,45.51628797341 59.1047439501723,45.5216778651147 59.10204900432,45.5189829192623 59.1007015313938,45.5203303921885 59.1007015313938,45.5230253380409 59.1060914230985,45.5257202838932 59.1060914230985,45.5343547580755 59.1142861879806,45.5343547580755 59.1141762606556,45.5338051214503 59.1195661523603,45.5338051214503 59.1195661523603,45.5343547580755 59.1263910613787,45.5343547580755 59.1263910613787,45.5270677568194 59.1236085711388,45.5270677568194 59.1209136252865,45.5216778651147 59.1192115542218,45.522528900647 59.1131929696014,45.5141028821783 59.1195661523603,45.5095506087791 59.1141762606556,45.501465771222 59.1128287877294,45.4947284065911 59.1114813148032,45.4987708253696 59.1060914230985,45.501465771222 59.1114813148032,45.5095506087791 59.1087863689509,45.5122455546314 59.1101338418771,45.51628797341 59.1126491246726,45.5144913428417 59.1114813148032,45.5203303921885</coordinates></LinearRing></outerBoundaryIs></Polygon><Polygon><outerBoundaryIs><LinearRing><coordinates>59.0980065855414,45.5176354463362 59.0966591126153,45.5082031358529 59.0899217479844,45.5122455546314 59.0939641667629,45.5189829192623 59.0980065855414,45.5176354463362</coordinates></LinearRing></outerBoundaryIs></Polygon><Polygon><outerBoundaryIs><LinearRing><coordinates>59.1222610982127,45.5149405004838 59.1209136252865,45.5108980817053 59.1168712065079,45.5149405004838 59.124956044065,45.5203303921885 59.1263910613787,45.5217654095022 59.1263910613787,45.5174184783834 59.1222610982127,45.5149405004838</coordinates></LinearRing></outerBoundaryIs></Polygon></MultiGeometry>
  </Placemark>
</Folder>
</Document></kml>
