<?xml version="1.0" encoding="utf-8" ?>
<kml xmlns="http://www.opengis.net/kml/2.2">
<Document id="root_doc">
<Schema name="task_grid_v6_45.78_60.78" id="task_grid_v6_45.78_60.78">
	<SimpleField name="area_ha" type="float"></SimpleField>
	<SimpleField name="low_risk_ha" type="float"></SimpleField>
	<SimpleField name="moderate_risk_ha" type="float"></SimpleField>
	<SimpleField name="grid_cell_deg" type="string"></SimpleField>
</Schema>
<Folder><name>task_grid_v6_45.78_60.78</name>
  <Placemark id="task_grid_v6_45.78_60.78.1">
	<name>task_grid_v6_45.78_60.78</name>
	<name>1068.8</name>
	<description>1143.8</description>
	<Style><LineStyle><color>ff0000ff</color></LineStyle><PolyStyle><fill>0</fill></PolyStyle></Style>
	<ExtendedData><SchemaData schemaUrl="#task_grid_v6_45.78_60.78">
		<SimpleData name="area_ha">75</SimpleData>
		<SimpleData name="low_risk_ha">0.1</SimpleData>
	</SchemaData></ExtendedData>
      <MultiGeometry><Polygon><outerBoundaryIs><LinearRing><coordinates>60.7351861908493,45.7453583708605 60.7311437720707,45.7467058437866 60.7378811367016,45.7534432084175 60.7392286096278,45.749400789639 60.7351861908493,45.7453583708605</coordinates></LinearRing></outerBoundaryIs></Polygon><Polygon><outerBoundaryIs><LinearRing><coordinates>60.7263910613787,45.7576814778997 60.7338387179231,45.7520957354914 60.7297962991445,45.7453583708605 60.7263910613787,45.7464934501157 60.7263910613787,45.7576814778997</coordinates></LinearRing></outerBoundaryIs></Polygon><Polygon><outerBoundaryIs><LinearRing><coordinates>60.7263910613787,45.7745849269262 60.7263910613787,45.7751751439411 60.7263910613787,45.7792575876858 60.7263910613787,45.7864928505593 60.7284488262184,45.7844350857197 60.7273708478774,45.7795841831854 60.7297962991445,45.7803926669411 60.7311437720707,45.7790451940149 60.7271013532922,45.7696128835317 60.7263910613787,45.7745849269262</coordinates></LinearRing></outerBoundaryIs></Polygon><Polygon><outerBoundaryIs><LinearRing><coordinates>60.81603456642,45.7776977210888 60.8106446747153,45.7750027752364 60.8092972017891,45.7763502481626 60.8092972017891,45.7790451940149 60.7985174183797,45.7898249774244 60.8012123642321,45.7952148691291 60.7958224725273,45.7979098149814 60.7998648913059,45.8073421254647 60.7985174183797,45.8086895983909 60.8052547830106,45.8100370713171 60.8052547830106,45.8073421254647 60.8119921476415,45.8113845442432 60.8092972017891,45.8140794900956 60.8092972017891,45.8194693818003 60.81603456642,45.8208168547265 60.8187295122724,45.8181219088741 60.8227719310509,45.8221643276527 60.8200769851986,45.824859273505 60.8254668769033,45.8275542193574 60.8227719310509,45.8302491652098 60.8263910613787,45.8314555419857 60.8263910613787,45.7639407995265 60.8187295122724,45.7588331001222 60.8146870934938,45.7655704647531 60.8200769851986,45.7736553023102 60.81603456642,45.7776977210888</coordinates></LinearRing></outerBoundaryIs></Polygon><Polygon><outerBoundaryIs><LinearRing><coordinates>60.7263910613787,45.8030873130153 60.7263910613787,45.8052112497242 60.7271013532922,45.8073421254647 60.7311437720707,45.8059946525385 60.7297962991445,45.80195223376 60.7263910613787,45.8030873130153</coordinates></LinearRing></outerBoundaryIs></Polygon></MultiGeometry>
  </Placemark>
</Folder>
</Document></kml>
