<?xml version="1.0" encoding="utf-8" ?>
<kml xmlns="http://www.opengis.net/kml/2.2">
<Document id="root_doc">
<Schema name="task_grid_v6_45.91_59.46" id="task_grid_v6_45.91_59.46">
	<SimpleField name="area_ha" type="float"></SimpleField>
	<SimpleField name="low_risk_ha" type="float"></SimpleField>
	<SimpleField name="moderate_risk_ha" type="float"></SimpleField>
	<SimpleField name="grid_cell_deg" type="string"></SimpleField>
</Schema>
<Folder><name>task_grid_v6_45.91_59.46</name>
  <Placemark id="task_grid_v6_45.91_59.46.1">
	<name>task_grid_v6_45.91_59.46</name>
	<name>47.9</name>
	<description>112.3</description>
	<Style><LineStyle><color>ff0000ff</color></LineStyle><PolyStyle><fill>0</fill></PolyStyle></Style>
	<ExtendedData><SchemaData schemaUrl="#task_grid_v6_45.91_59.46">
		<SimpleData name="area_ha">64.4</SimpleData>
		<SimpleData name="low_risk_ha">0.1</SimpleData>
	</SchemaData></ExtendedData>
      <MultiGeometry><Polygon><outerBoundaryIs><LinearRing><coordinates>59.4922014497364,45.8625641451378 59.492816152912,45.8693258800689 59.4935674567932,45.8625641451378 59.4922014497364,45.8625641451378</coordinates></LinearRing></outerBoundaryIs></Polygon><Polygon><outerBoundaryIs><LinearRing><coordinates>59.4604768026837,45.8666309342166 59.4591293297575,45.8733682988475 59.4658666943884,45.8747157717737 59.4672141673146,45.8733682988475 59.4604768026837,45.8666309342166</coordinates></LinearRing></outerBoundaryIs></Polygon><Polygon><outerBoundaryIs><LinearRing><coordinates>59.5022484633952,45.8625885154381 59.5022728336955,45.8625641451378 59.4968585716905,45.8625641451378 59.4968585716905,45.8760632446998 59.500900990469,45.8801056634784 59.5022484633952,45.8625885154381</coordinates></LinearRing></outerBoundaryIs></Polygon><Polygon><outerBoundaryIs><LinearRing><coordinates>59.4820363695025,45.8908854468878 59.477993950724,45.892232919814 59.4793414236502,45.8962753385925 59.4833838424287,45.8949278656664 59.4820363695025,45.8908854468878</coordinates></LinearRing></outerBoundaryIs></Polygon></MultiGeometry>
  </Placemark>
</Folder>
</Document></kml>
