<?xml version="1.0" encoding="utf-8" ?>
<kml xmlns="http://www.opengis.net/kml/2.2">
<Document id="root_doc">
<Schema name="task_grid_v6_45.61_59.86" id="task_grid_v6_45.61_59.86">
	<SimpleField name="area_ha" type="float"></SimpleField>
	<SimpleField name="low_risk_ha" type="float"></SimpleField>
	<SimpleField name="moderate_risk_ha" type="float"></SimpleField>
	<SimpleField name="grid_cell_deg" type="string"></SimpleField>
</Schema>
<Folder><name>task_grid_v6_45.61_59.86</name>
  <Placemark id="task_grid_v6_45.61_59.86.1">
	<name>task_grid_v6_45.61_59.86</name>
	<name>801.3</name>
	<description>1664.6</description>
	<Style><LineStyle><color>ff0000ff</color></LineStyle><PolyStyle><fill>0</fill></PolyStyle></Style>
	<ExtendedData><SchemaData schemaUrl="#task_grid_v6_45.61_59.86">
		<SimpleData name="area_ha">863.3</SimpleData>
		<SimpleData name="low_risk_ha">0.1</SimpleData>
	</SchemaData></ExtendedData>
      <MultiGeometry><Polygon><outerBoundaryIs><LinearRing><coordinates>59.8754984639469,45.5890515114237 59.8862782473563,45.5944414031284 59.8943630849134,45.5944414031284 59.8970580307657,45.5971363489807 59.8997529766181,45.5944414031284 59.9051428683228,45.5971363489807 59.906490341249,45.5957888760546 59.9024479224705,45.591746457276 59.8970580307657,45.591746457276 59.8903206661349,45.5877040384975 59.8997529766181,45.5863565655713 59.9024479224705,45.5890515114237 59.9102213862645,45.5890515114237 59.9102213862645,45.5767685682065 59.9078378141752,45.5755767821619 59.9024479224705,45.5782717280142 59.8997529766181,45.5755767821619 59.8862782473563,45.5755767821619 59.883583301504,45.5728818363095 59.8754984639469,45.5728818363095 59.8647186805375,45.5674919446048 59.8485490054233,45.5674919446048 59.8458540595709,45.5647969987524 59.8377692220139,45.5647969987524 59.8355363683992,45.5625641451378 59.8102213862645,45.5625641451378 59.8102213862645,45.5653953759782 59.8102213862645,45.5660945319652 59.8102213862645,45.5668935673791 59.8102213862645,45.5782717280142 59.8102213862645,45.5845603097258 59.816209655195,45.5890515114237 59.8215995468997,45.5890515114237 59.8242944927521,45.591746457276 59.8768459368731,45.5903989843498 59.8647186805375,45.5890515114237 59.8754984639469,45.5890515114237</coordinates></LinearRing></outerBoundaryIs><innerBoundaryIs><LinearRing><coordinates>59.8108197634903,45.5728818363095 59.816209655195,45.5728818363095 59.8189046010474,45.5755767821619 59.8215995468997,45.5728818363095 59.8242944927521,45.5755767821619 59.8377692220139,45.5755767821619 59.8377692220139,45.5728818363095 59.8431591137186,45.5755767821619 59.8404641678662,45.5755767821619 59.83911669494,45.576924255088 59.8458540595709,45.5782717280142 59.8458540595709,45.576924255088 59.8485490054233,45.5782717280142 59.8512439512757,45.5755767821619 59.853938897128,45.5782717280142 59.8741509910207,45.576924255088 59.8674136263898,45.5782717280142 59.8674136263898,45.5809666738666 59.883583301504,45.5836616197189 59.8876257202825,45.5877040384975 59.8701085722422,45.5863565655713 59.8674136263898,45.5836616197189 59.8579813159065,45.5850090926451 59.8512439512757,45.5809666738666 59.8269894386044,45.5809666738666 59.8242944927521,45.5782717280142 59.8108197634903,45.5782717280142 59.8108197634903,45.5728818363095</coordinates></LinearRing></innerBoundaryIs><innerBoundaryIs><LinearRing><coordinates>59.8296843844568,45.5728818363095 59.8215995468997,45.568839417531 59.8269894386044,45.5701868904572 59.831031857383,45.5661444716786 59.8323793303091,45.5674919446048 59.8283369115306,45.5715343633833 59.8377692220139,45.5728818363095 59.8296843844568,45.5728818363095</coordinates></LinearRing></innerBoundaryIs><innerBoundaryIs><LinearRing><coordinates>59.8296843844568,45.5647969987524 59.831031857383,45.5661444716786 59.8202520739735,45.5654258194513 59.8296843844568,45.5647969987524</coordinates></LinearRing></innerBoundaryIs><innerBoundaryIs><LinearRing><coordinates>59.8135147093426,45.5701868904572 59.816209655195,45.5674919446048 59.8180062857632,45.5679411022468 59.8135147093426,45.5701868904572</coordinates></LinearRing></innerBoundaryIs><innerBoundaryIs><LinearRing><coordinates>59.8566338429804,45.5713846441693 59.8701085722422,45.5728818363095 59.8593287888327,45.5728818363095 59.8566338429804,45.5755767821619 59.8566338429804,45.5713846441693</coordinates></LinearRing></innerBoundaryIs></Polygon><Polygon><outerBoundaryIs><LinearRing><coordinates>59.906490341249,45.5984838219069 59.9102213862645,45.5988230078174 59.9102213862645,45.5922654135477 59.906490341249,45.5984838219069</coordinates></LinearRing></outerBoundaryIs></Polygon><Polygon><outerBoundaryIs><LinearRing><coordinates>59.8512439512757,45.5944414031284 59.8498964783495,45.5957888760546 59.8647186805375,45.5971363489807 59.8647186805375,45.5944414031284 59.8512439512757,45.5944414031284</coordinates></LinearRing></outerBoundaryIs></Polygon><Polygon><outerBoundaryIs><LinearRing><coordinates>59.9102213862645,45.6025262406854 59.9102213862645,45.5998312948331 59.9078378141752,45.5998312948331 59.9051428683228,45.5971363489807 59.8957105578396,45.5984838219069 59.9024479224705,45.6025262406854 59.9102213862645,45.6025262406854</coordinates></LinearRing></outerBoundaryIs></Polygon><Polygon><outerBoundaryIs><LinearRing><coordinates>59.8418116407924,45.6038737136116 59.853938897128,45.6052211865378 59.853938897128,45.6025262406854 59.8431591137186,45.6025262406854 59.8418116407924,45.6038737136116</coordinates></LinearRing></outerBoundaryIs></Polygon></MultiGeometry>
  </Placemark>
</Folder>
</Document></kml>
