<?xml version="1.0" encoding="utf-8" ?>
<kml xmlns="http://www.opengis.net/kml/2.2">
<Document id="root_doc">
<Schema name="task_grid_v6_45.68_61.28" id="task_grid_v6_45.68_61.28">
	<SimpleField name="area_ha" type="float"></SimpleField>
	<SimpleField name="low_risk_ha" type="float"></SimpleField>
	<SimpleField name="moderate_risk_ha" type="float"></SimpleField>
	<SimpleField name="grid_cell_deg" type="string"></SimpleField>
</Schema>
<Folder><name>task_grid_v6_45.68_61.28</name>
  <Placemark id="task_grid_v6_45.68_61.28.1">
	<name>task_grid_v6_45.68_61.28</name>
	<name>0</name>
	<description>148</description>
	<Style><LineStyle><color>ff0000ff</color></LineStyle><PolyStyle><fill>0</fill></PolyStyle></Style>
	<ExtendedData><SchemaData schemaUrl="#task_grid_v6_45.68_61.28">
		<SimpleData name="area_ha">148</SimpleData>
		<SimpleData name="low_risk_ha">0.1</SimpleData>
	</SchemaData></ExtendedData>
      <MultiGeometry><Polygon><outerBoundaryIs><LinearRing><coordinates>61.3198969280168,45.6343547580755 61.3263910613787,45.6386841803168 61.3263910613787,45.6343547580755 61.3198969280168,45.6343547580755</coordinates></LinearRing></outerBoundaryIs></Polygon><Polygon><outerBoundaryIs><LinearRing><coordinates>61.2728278883948,45.6362130638399 61.2697307121208,45.6343547580755 61.2628847450733,45.6343547580755 61.2647430508377,45.6362130638399 61.2620481049854,45.6389080096923 61.2687854696163,45.6402554826185 61.2728278883948,45.6362130638399</coordinates></LinearRing></outerBoundaryIs></Polygon><Polygon><outerBoundaryIs><LinearRing><coordinates>61.3132520761802,45.6389080096923 61.3172944949587,45.6429504284708 61.3186419678849,45.6416029555446 61.3172944949587,45.6375605367661 61.3132520761802,45.6389080096923</coordinates></LinearRing></outerBoundaryIs></Polygon><Polygon><outerBoundaryIs><LinearRing><coordinates>61.3263910613787,45.6428058957761 61.3263910613787,45.6392437537556 61.3240318595896,45.6416029555446 61.3253793325158,45.6429504284708 61.3263910613787,45.6428058957761</coordinates></LinearRing></outerBoundaryIs></Polygon><Polygon><outerBoundaryIs><LinearRing><coordinates>61.3065147115493,45.6375605367661 61.3024722927707,45.6389080096923 61.3092096574016,45.6456453743232 61.311904603254,45.6456453743232 61.3132520761802,45.644297901397 61.3065147115493,45.6375605367661</coordinates></LinearRing></outerBoundaryIs></Polygon><Polygon><outerBoundaryIs><LinearRing><coordinates>61.2512683215759,45.644297901397 61.2580056862068,45.6483403201755 61.259353159133,45.6416029555446 61.2553107403545,45.6348655909138 61.2512683215759,45.644297901397</coordinates></LinearRing></outerBoundaryIs></Polygon></MultiGeometry>
  </Placemark>
</Folder>
</Document></kml>
