<?xml version="1.0" encoding="utf-8" ?>
<kml xmlns="http://www.opengis.net/kml/2.2">
<Document id="root_doc">
<Schema name="task_grid_v6_46.11_59.96" id="task_grid_v6_46.11_59.96">
	<SimpleField name="area_ha" type="float"></SimpleField>
	<SimpleField name="low_risk_ha" type="float"></SimpleField>
	<SimpleField name="moderate_risk_ha" type="float"></SimpleField>
	<SimpleField name="grid_cell_deg" type="string"></SimpleField>
</Schema>
<Folder><name>task_grid_v6_46.11_59.96</name>
  <Placemark id="task_grid_v6_46.11_59.96.1">
	<name>task_grid_v6_46.11_59.96</name>
	<name>4359.6</name>
	<description>5614.5</description>
	<Style><LineStyle><color>ff0000ff</color></LineStyle><PolyStyle><fill>0</fill></PolyStyle></Style>
	<ExtendedData><SchemaData schemaUrl="#task_grid_v6_46.11_59.96">
		<SimpleData name="area_ha">1254.9</SimpleData>
		<SimpleData name="low_risk_ha">0.1</SimpleData>
	</SchemaData></ExtendedData>
      <MultiGeometry><Polygon><outerBoundaryIs><LinearRing><coordinates>59.9886861897459,46.0633619814388 59.9894840260469,46.0625641451378 59.981505663037,46.0625641451378 59.9886861897459,46.0633619814388</coordinates></LinearRing></outerBoundaryIs></Polygon><Polygon><outerBoundaryIs><LinearRing><coordinates>59.9725165146318,46.0625641451378 59.9707701235551,46.0625641451378 59.9725165146318,46.0660569272911 59.9725165146318,46.0625641451378</coordinates></LinearRing></outerBoundaryIs></Polygon><Polygon><outerBoundaryIs><LinearRing><coordinates>59.9496094748867,46.1374729923786 59.9496094748867,46.1536426674928 59.9549993665915,46.1617275050499 59.9545810465475,46.1625641451378 60.0102213862645,46.1625641451378 60.0102213862645,46.1585671546886 60.0102213862645,46.1469053028619 60.0075508107125,46.1469053028619 60.0035083919339,46.1428628840833 60.0062033377863,46.140167938231 59.9954235543768,46.1293881548215 59.9981185002292,46.1266932089692 59.9994659731554,46.1280406818954 60.0062033377862,46.1293881548215 59.9981185002292,46.1293881548215 60.0102213862645,46.1366498864428 60.0102213862645,46.1307275043143 60.0062033377863,46.1293881548216 60.0102213862645,46.1301917645172 60.0102213862645,46.0929576452141 60.0075508107125,46.08761649411 60.0048558648601,46.0903114399623 60.0021609190077,46.08761649411 59.9985676578713,46.08761649411 60.0008134460816,46.0862690211838 59.9806013521889,46.0849215482576 59.9792538792627,46.0862690211838 59.9841946133253,46.08761649411 59.9752114604841,46.08761649411 59.9698215687794,46.0822266024053 59.9563468395176,46.0822266024053 59.9482620019606,46.0768367107006 59.9401771644035,46.0768367107006 59.9374822185511,46.0795316565529 59.9347872726988,46.0741417648482 59.9293973809941,46.0714468189958 59.9159226517323,46.0687518731435 59.9102213862645,46.0663084736573 59.9102213862645,46.1161550006931 59.9159226517323,46.1199558443383 59.9293973809941,46.1199558443383 59.9347872726988,46.1226507901907 59.9496094748867,46.1374729923786</coordinates></LinearRing></outerBoundaryIs><innerBoundaryIs><LinearRing><coordinates>59.9886861897459,46.0903114399623 59.9866649803567,46.0882902305731 59.9940760814507,46.0903114399623 59.9886861897459,46.0903114399623</coordinates></LinearRing></innerBoundaryIs><innerBoundaryIs><LinearRing><coordinates>59.9630842041485,46.1159134255598 59.9644316770747,46.1145659526336 59.9702065610441,46.1134109758397 59.9725165146318,46.1145659526336 59.9698215687794,46.1199558443383 59.9667897546955,46.1209664490329 59.9644316770747,46.1199558443383 59.95904178537,46.1226507901907 59.9657791500009,46.1186083714121 59.9630842041485,46.1159134255598</coordinates></LinearRing></innerBoundaryIs><innerBoundaryIs><LinearRing><coordinates>59.9455670561082,46.0983962775194 59.9487111596026,46.1015403810138 59.9399775387848,46.0969988981886 59.9455670561082,46.0983962775194</coordinates></LinearRing></innerBoundaryIs><innerBoundaryIs><LinearRing><coordinates>59.9347872726988,46.0957013316671 59.9366895874181,46.0961769103469 59.9307448539202,46.0997437504456 59.9347872726988,46.0957013316671</coordinates></LinearRing></innerBoundaryIs><innerBoundaryIs><LinearRing><coordinates>59.9779064063365,46.1522951945666 59.9711690417056,46.1428628840833 59.9765589334103,46.1320831006739 59.9752114604842,46.1280406818954 59.9779064063365,46.1334305736001 59.9886861897459,46.1361255194524 59.9940760814507,46.1442103570095 59.9981185002292,46.1455578299357 59.9954235543768,46.1482527757881 59.9994659731554,46.1522951945666 60.0021609190077,46.1496002487142 59.9940760814507,46.1603800321237 59.9832962980412,46.1496002487142 59.9779064063365,46.1522951945666</coordinates></LinearRing></innerBoundaryIs><innerBoundaryIs><LinearRing><coordinates>59.9730065047868,46.1236307705006 59.9691478323164,46.1219770537276 59.9725165146318,46.1226507901907 59.9730065047868,46.1236307705006</coordinates></LinearRing></innerBoundaryIs><innerBoundaryIs><LinearRing><coordinates>59.9603892582962,46.1374729923786 59.95904178537,46.1388204653048 59.9549993665915,46.1347780465263 59.95904178537,46.1334305736001 59.9603892582962,46.1374729923786</coordinates></LinearRing></innerBoundaryIs><innerBoundaryIs><LinearRing><coordinates>59.9603892582962,46.1536426674928 59.9617367312224,46.1496002487142 59.9630842041485,46.1509477216404 59.9630842041485,46.1536426674928 59.9603892582962,46.1536426674928</coordinates></LinearRing></innerBoundaryIs><innerBoundaryIs><LinearRing><coordinates>59.9684740958533,46.1455578299357 59.9657791500009,46.1455578299357 59.9671266229271,46.1442103570095 59.9684740958533,46.1455578299357</coordinates></LinearRing></innerBoundaryIs><innerBoundaryIs><LinearRing><coordinates>59.9253549622155,46.0970488045932 59.9280499080679,46.0970488045932 59.9267024351417,46.0983962775194 59.9253549622155,46.0970488045932</coordinates></LinearRing></innerBoundaryIs><innerBoundaryIs><LinearRing><coordinates>59.921312543437,46.0930063858147 59.921312543437,46.0957013316671 59.9199650705108,46.0943538587409 59.921312543437,46.0930063858147</coordinates></LinearRing></innerBoundaryIs><innerBoundaryIs><LinearRing><coordinates>59.9118802329537,46.0916589128885 59.9145751788061,46.0916589128885 59.9132277058799,46.0930063858147 59.9118802329537,46.0916589128885</coordinates></LinearRing></innerBoundaryIs><innerBoundaryIs><LinearRing><coordinates>59.9927286085245,46.1266932089692 59.9873387168198,46.1293881548215 59.9859912438936,46.1334305736001 59.9846437709674,46.1293881548215 59.9886861897459,46.1226507901907 59.9927286085245,46.1266932089692</coordinates></LinearRing></innerBoundaryIs></Polygon><Polygon><outerBoundaryIs><LinearRing><coordinates>59.9806013521889,46.1415154111572 59.981948825115,46.140167938231 59.9779064063365,46.1361255194524 59.9765589334103,46.140167938231 59.9806013521889,46.1415154111572</coordinates></LinearRing></outerBoundaryIs></Polygon><Polygon><outerBoundaryIs><LinearRing><coordinates>59.973863987558,46.0700993460697 59.9832962980412,46.0741417648482 59.9886861897459,46.0714468189958 59.9886861897459,46.0822266024053 59.9994659731554,46.0822266024053 60.0102213862645,46.0773377782647 60.0102213862645,46.0746758799586 60.0075508107125,46.0741417648482 60.0048558648601,46.0768367107006 60.0035083919339,46.0754892377744 60.0075508107125,46.0714468189958 60.0062033377863,46.072794291922 60.0102213862645,46.0745163126984 60.0102213862645,46.0714468189958 60.0102213862645,46.0625641451378 60.0013630827067,46.0625641451378 60.0035083919339,46.0647094543649 59.9940760814507,46.0660569272911 59.9913811355983,46.0687518731435 59.973863987558,46.0700993460697</coordinates></LinearRing></outerBoundaryIs><innerBoundaryIs><LinearRing><coordinates>59.996771027303,46.0741417648482 59.9981185002292,46.0754892377744 59.9940760814507,46.0768367107006 59.9927286085245,46.0754892377744 59.996771027303,46.0741417648482</coordinates></LinearRing></innerBoundaryIs><innerBoundaryIs><LinearRing><coordinates>60.0008134460816,46.0700993460697 59.9981185002292,46.0700993460697 59.9994659731554,46.0687518731435 60.0008134460816,46.0700993460697</coordinates></LinearRing></innerBoundaryIs><innerBoundaryIs><LinearRing><coordinates>60.0075508107125,46.0687518731435 60.0075508107125,46.0660569272911 60.0088982836386,46.0674044002173 60.0075508107125,46.0687518731435</coordinates></LinearRing></innerBoundaryIs></Polygon><Polygon><outerBoundaryIs><LinearRing><coordinates>60.0102213862645,46.0929332749139 60.0102213862645,46.0876408644103 60.0088982836386,46.0889639670362 60.0102213862645,46.0929332749139</coordinates></LinearRing></outerBoundaryIs></Polygon><Polygon><outerBoundaryIs><LinearRing><coordinates>59.9873387168198,46.1536426674928 59.9940760814507,46.1603800321237 59.9981185002292,46.1536426674928 59.9886861897459,46.1496002487142 59.9873387168198,46.1536426674928</coordinates></LinearRing></outerBoundaryIs></Polygon></MultiGeometry>
  </Placemark>
</Folder>
</Document></kml>
