<?xml version="1.0" encoding="utf-8" ?>
<kml xmlns="http://www.opengis.net/kml/2.2">
<Document id="root_doc">
<Schema name="task_grid_v6_45.81_59.56" id="task_grid_v6_45.81_59.56">
	<SimpleField name="area_ha" type="float"></SimpleField>
	<SimpleField name="low_risk_ha" type="float"></SimpleField>
	<SimpleField name="moderate_risk_ha" type="float"></SimpleField>
	<SimpleField name="grid_cell_deg" type="string"></SimpleField>
</Schema>
<Folder><name>task_grid_v6_45.81_59.56</name>
  <Placemark id="task_grid_v6_45.81_59.56.1">
	<name>task_grid_v6_45.81_59.56</name>
	<name>56.3</name>
	<description>502.2</description>
	<Style><LineStyle><color>ff0000ff</color></LineStyle><PolyStyle><fill>0</fill></PolyStyle></Style>
	<ExtendedData><SchemaData schemaUrl="#task_grid_v6_45.81_59.56">
		<SimpleData name="area_ha">445.8</SimpleData>
		<SimpleData name="low_risk_ha">0.1</SimpleData>
	</SchemaData></ExtendedData>
      <MultiGeometry><Polygon><outerBoundaryIs><LinearRing><coordinates>59.5777069472613,45.7709603564579 59.5844443118922,45.7750027752364 59.5857917848183,45.7736553023102 59.5817493660398,45.7696128835317 59.5777069472613,45.7709603564579</coordinates></LinearRing></outerBoundaryIs></Polygon><Polygon><outerBoundaryIs><LinearRing><coordinates>59.5723170555565,45.7763502481626 59.5790544201874,45.7776977210888 59.5804018931136,45.7763502481626 59.5763594743351,45.772307829384 59.5723170555565,45.7763502481626</coordinates></LinearRing></outerBoundaryIs></Polygon><Polygon><outerBoundaryIs><LinearRing><coordinates>59.5884867306707,45.7763502481626 59.5925291494492,45.7803926669411 59.5965715682278,45.7763502481626 59.5898342035969,45.772307829384 59.5884867306707,45.7763502481626</coordinates></LinearRing></outerBoundaryIs></Polygon><Polygon><outerBoundaryIs><LinearRing><coordinates>59.5399777053282,45.7817401398673 59.5467150699591,45.7830876127935 59.5467150699591,45.7776977210888 59.5413251782544,45.7776977210888 59.5399777053282,45.7817401398673</coordinates></LinearRing></outerBoundaryIs></Polygon><Polygon><outerBoundaryIs><LinearRing><coordinates>59.5669271638518,45.8113845442432 59.5736645284827,45.8154269630218 59.5736645284827,45.8100370713171 59.568274636778,45.8100370713171 59.5669271638518,45.8113845442432</coordinates></LinearRing></outerBoundaryIs></Polygon><Polygon><outerBoundaryIs><LinearRing><coordinates>59.5844443118922,45.8315966381359 59.583096838966,45.8302491652098 59.5857917848183,45.8275542193574 59.5817493660398,45.8262067464312 59.5804018931136,45.8329441110621 59.5871392577445,45.8369865298406 59.597919041154,45.8504612591024 59.6033089328587,45.8531562049548 59.6019614599325,45.854503677881 59.6086988245634,45.8585460966595 59.6100462974896,45.854503677881 59.606003878711,45.8504612591024 59.6073513516372,45.8491137861763 59.5992665140801,45.8437238944715 59.5992665140801,45.8383340027668 59.6019614599325,45.8356390569145 59.5911816765231,45.8275542193574 59.5884867306707,45.8221643276527 59.5911816765231,45.8194693818003 59.5804018931136,45.8086895983909 59.5750120014089,45.8086895983909 59.583096838966,45.8194693818003 59.5804018931136,45.8221643276527 59.5884867306707,45.8275542193574 59.5844443118922,45.8315966381359</coordinates></LinearRing></outerBoundaryIs><innerBoundaryIs><LinearRing><coordinates>59.5938766223754,45.8356390569145 59.5965715682278,45.8356390569145 59.5952240953016,45.8369865298406 59.5938766223754,45.8356390569145</coordinates></LinearRing></innerBoundaryIs></Polygon><Polygon><outerBoundaryIs><LinearRing><coordinates>59.6102213862645,45.8573737125083 59.6102213862645,45.8571402608084 59.6100462974896,45.8571986237333 59.6102213862645,45.8573737125083</coordinates></LinearRing></outerBoundaryIs></Polygon><Polygon><outerBoundaryIs><LinearRing><coordinates>59.5723414258568,45.8625641451378 59.5830724686657,45.8625641451378 59.5763594743351,45.8558511508072 59.5750120014089,45.8598935695857 59.5723414258568,45.8625641451378</coordinates></LinearRing></outerBoundaryIs></Polygon><Polygon><outerBoundaryIs><LinearRing><coordinates>59.6102213862645,45.8597184808107 59.6100462974896,45.8598935695857 59.6102213862645,45.8607690134606 59.6102213862645,45.8597184808107</coordinates></LinearRing></outerBoundaryIs></Polygon></MultiGeometry>
  </Placemark>
</Folder>
</Document></kml>
