<?xml version="1.0" encoding="utf-8" ?>
<kml xmlns="http://www.opengis.net/kml/2.2">
<Document id="root_doc">
<Schema name="task_grid_v6_45.91_58.96" id="task_grid_v6_45.91_58.96">
	<SimpleField name="area_ha" type="float"></SimpleField>
	<SimpleField name="low_risk_ha" type="float"></SimpleField>
	<SimpleField name="moderate_risk_ha" type="float"></SimpleField>
	<SimpleField name="grid_cell_deg" type="string"></SimpleField>
</Schema>
<Folder><name>task_grid_v6_45.91_58.96</name>
  <Placemark id="task_grid_v6_45.91_58.96.1">
	<name>task_grid_v6_45.91_58.96</name>
	<name>188.1</name>
	<description>349.9</description>
	<Style><LineStyle><color>ff0000ff</color></LineStyle><PolyStyle><fill>0</fill></PolyStyle></Style>
	<ExtendedData><SchemaData schemaUrl="#task_grid_v6_45.91_58.96">
		<SimpleData name="area_ha">161.8</SimpleData>
		<SimpleData name="low_risk_ha">0.1</SimpleData>
	</SchemaData></ExtendedData>
      <MultiGeometry><Polygon><outerBoundaryIs><LinearRing><coordinates>58.9349623614737,45.9205298512638 58.9349623614737,45.9178349054114 58.9241825780643,45.9178349054114 58.9174452134334,45.9218773241899 58.9241825780643,45.9232247971161 58.9268775239167,45.9205298512638 58.9349623614737,45.9205298512638</coordinates></LinearRing></outerBoundaryIs></Polygon><Polygon><outerBoundaryIs><LinearRing><coordinates>58.9102213862645,45.9232247971161 58.9107078488025,45.9232247971161 58.9107078488025,45.9205298512638 58.9102213862645,45.9205298512638 58.9102213862645,45.9232247971161</coordinates></LinearRing></outerBoundaryIs></Polygon><Polygon><outerBoundaryIs><LinearRing><coordinates>58.9538269824403,45.9205298512638 58.9484370907355,45.9232247971161 58.9363098343999,45.9245722700423 58.9565219282926,45.9259197429685 58.9578694012188,45.9245722700423 58.9538269824403,45.9205298512638</coordinates></LinearRing></outerBoundaryIs></Polygon><Polygon><outerBoundaryIs><LinearRing><coordinates>58.9578694012188,45.9218773241899 58.967301711702,45.9259197429685 58.967301711702,45.9205298512638 58.959216874145,45.9205298512638 58.9578694012188,45.9218773241899</coordinates></LinearRing></outerBoundaryIs></Polygon><Polygon><outerBoundaryIs><LinearRing><coordinates>58.9753865492591,45.9286146888208 58.9794289680377,45.9272672158947 58.9780814951115,45.9232247971161 58.9740390763329,45.9272672158947 58.9753865492591,45.9286146888208</coordinates></LinearRing></outerBoundaryIs></Polygon><Polygon><outerBoundaryIs><LinearRing><coordinates>58.9160977405072,45.9286146888208 58.9107078488025,45.9286146888208 58.9102213862645,45.9291011513588 58.9102213862645,45.9301343638247 58.9160977405072,45.9313096346732 58.9160977405072,45.9286146888208</coordinates></LinearRing></outerBoundaryIs></Polygon><Polygon><outerBoundaryIs><LinearRing><coordinates>58.9619118199973,45.9366995263779 58.9605643470711,45.9380469993041 58.967301711702,45.9393944722303 58.967301711702,45.9366995263779 58.9619118199973,45.9366995263779</coordinates></LinearRing></outerBoundaryIs></Polygon><Polygon><outerBoundaryIs><LinearRing><coordinates>58.9241825780643,45.9393944722303 58.9187926863596,45.9393944722303 58.9160977405072,45.9366995263779 58.9102213862645,45.9366995263779 58.9102213862645,45.9447197919429 58.9187926863596,45.9501742556397 58.9241825780643,45.9501742556397 58.9309199426952,45.9461318368612 58.9241825780643,45.9393944722303</coordinates></LinearRing></outerBoundaryIs></Polygon><Polygon><outerBoundaryIs><LinearRing><coordinates>58.9642451525951,45.9625641451378 58.9683865514658,45.9625641451378 58.9686491846282,45.9623015119753 58.9646067658497,45.9555641473444 58.9635961611551,45.9606171708176 58.9632592929235,45.959606566123 58.9565219282926,45.9555641473444 58.9565219282926,45.9625641451378 58.9640471924109,45.9625641451378 58.9642451525951,45.9625641451378</coordinates></LinearRing></outerBoundaryIs></Polygon></MultiGeometry>
  </Placemark>
</Folder>
</Document></kml>
