<?xml version="1.0" encoding="utf-8" ?>
<kml xmlns="http://www.opengis.net/kml/2.2">
<Document id="root_doc">
<Schema name="task_grid_v6_46.18_60.68" id="task_grid_v6_46.18_60.68">
	<SimpleField name="area_ha" type="float"></SimpleField>
	<SimpleField name="low_risk_ha" type="float"></SimpleField>
	<SimpleField name="moderate_risk_ha" type="float"></SimpleField>
	<SimpleField name="grid_cell_deg" type="string"></SimpleField>
</Schema>
<Folder><name>task_grid_v6_46.18_60.68</name>
  <Placemark id="task_grid_v6_46.18_60.68.1">
	<name>task_grid_v6_46.18_60.68</name>
	<name>1574</name>
	<description>1575.2</description>
	<Style><LineStyle><color>ff0000ff</color></LineStyle><PolyStyle><fill>0</fill></PolyStyle></Style>
	<ExtendedData><SchemaData schemaUrl="#task_grid_v6_46.18_60.68">
		<SimpleData name="area_ha">1.2</SimpleData>
		<SimpleData name="low_risk_ha">0.1</SimpleData>
	</SchemaData></ExtendedData>
      <MultiGeometry><Polygon><outerBoundaryIs><LinearRing><coordinates>60.6374443140988,46.1343547580755 60.6368206672382,46.1374729923786 60.6408630860167,46.1388204653048 60.6422105589429,46.1374729923786 60.640339618361,46.1343547580755 60.6374443140988,46.1343547580755</coordinates></LinearRing></outerBoundaryIs></Polygon><Polygon><outerBoundaryIs><LinearRing><coordinates>60.6341257213858,46.1374729923786 60.6297601933614,46.1343547580755 60.6263910613787,46.1343547580755 60.6263910613787,46.1359098135104 60.6287358296811,46.1374729923786 60.6263910613787,46.139817760681 60.6263910613787,46.140284664081 60.6300833026073,46.1415154111572 60.6341257213858,46.1374729923786</coordinates></LinearRing></outerBoundaryIs></Polygon><Polygon><outerBoundaryIs><LinearRing><coordinates>60.6570327611309,46.1496002487142 60.6637701257618,46.1482527757881 60.6597277069832,46.1442103570095 60.6556852882047,46.1455578299357 60.6570327611309,46.1496002487142</coordinates></LinearRing></outerBoundaryIs></Polygon><Polygon><outerBoundaryIs><LinearRing><coordinates>60.6718549633188,46.1482527757881 60.6718549633188,46.1536426674928 60.6785923279497,46.154990140419 60.6799398008759,46.1536426674928 60.6758973820974,46.1469053028619 60.6718549633188,46.1482527757881</coordinates></LinearRing></outerBoundaryIs></Polygon><Polygon><outerBoundaryIs><LinearRing><coordinates>60.6678125445403,46.154990140419 60.6691600174665,46.1536426674928 60.6678125445403,46.1496002487142 60.6637701257618,46.1509477216404 60.6678125445403,46.154990140419</coordinates></LinearRing></outerBoundaryIs></Polygon><Polygon><outerBoundaryIs><LinearRing><coordinates>60.6920670572115,46.1496002487142 60.6853296925806,46.1536426674928 60.6920670572115,46.163074977976 60.6947620030639,46.1603800321237 60.6974569489162,46.163074977976 60.6988044218424,46.1563376133451 60.6920670572115,46.1496002487142</coordinates></LinearRing></outerBoundaryIs></Polygon><Polygon><outerBoundaryIs><LinearRing><coordinates>60.6502953965,46.1994567469829 60.6529903423523,46.1967618011305 60.6489479235738,46.192719382352 60.6435580318691,46.1900244364996 60.635473194312,46.1900244364996 60.6327782484596,46.1873294906473 60.6327782484596,46.2008042199091 60.6381681401644,46.1981092740567 60.6462529777214,46.2088890574661 60.6624226528356,46.2088890574661 60.6651175986879,46.2115840033185 60.6785923279497,46.2115840033185 60.688024638433,46.2048466386876 60.6826347467283,46.1994567469829 60.6826347467283,46.1940668552782 60.6785923279497,46.1900244364996 60.673202436245,46.1900244364996 60.6705074903927,46.192719382352 60.6664650716141,46.1913719094258 60.6718549633188,46.1886769635734 60.6705074903927,46.1819395989425 60.6597277069832,46.192719382352 60.6570327611309,46.192719382352 60.6529903423523,46.1859820177211 60.6529903423523,46.177897180164 60.6543378152785,46.1765497072378 60.6556852882047,46.1805921260164 60.6597277069832,46.1819395989425 60.6637701257618,46.177897180164 60.6637701257618,46.1725072884593 60.6624226528356,46.1711598155331 60.6597277069832,46.1738547613855 60.6516428694261,46.1738547613855 60.6462529777214,46.1765497072378 60.6368206672382,46.1698123426069 60.6341257213858,46.1644224509022 60.6368206672382,46.1617275050499 60.6327782484596,46.1576850862713 60.6263910613787,46.1589625236875 60.6263910613787,46.1742768409161 60.6327782484596,46.1792446530902 60.6381681401644,46.1765497072378 60.6556852882047,46.1967618011305 60.6516428694261,46.2008042199091 60.6502953965,46.1994567469829</coordinates></LinearRing></outerBoundaryIs></Polygon><Polygon><outerBoundaryIs><LinearRing><coordinates>60.6327782484596,46.2061941116138 60.6368206672382,46.2048466386876 60.635473194312,46.2008042199091 60.6314307755335,46.2048466386876 60.6327782484596,46.2061941116138</coordinates></LinearRing></outerBoundaryIs></Polygon><Polygon><outerBoundaryIs><LinearRing><coordinates>60.7244064074398,46.1361255194524 60.7263910613787,46.1366216829372 60.7263910613787,46.1343547580755 60.7233439506137,46.1343547580755 60.7244064074398,46.1361255194524</coordinates></LinearRing></outerBoundaryIs></Polygon><Polygon><outerBoundaryIs><LinearRing><coordinates>60.7263910613787,46.1456157554823 60.7263910613787,46.1410975628469 60.725753880366,46.1455578299357 60.7263910613787,46.1456157554823</coordinates></LinearRing></outerBoundaryIs></Polygon><Polygon><outerBoundaryIs><LinearRing><coordinates>60.7068892593995,46.1455578299357 60.7136266240304,46.1469053028619 60.7136266240304,46.1415154111572 60.710931678178,46.1442103570095 60.7068892593995,46.1455578299357</coordinates></LinearRing></outerBoundaryIs></Polygon><Polygon><outerBoundaryIs><LinearRing><coordinates>60.7055417864733,46.1819395989425 60.7095842052519,46.177897180164 60.7082367323257,46.1738547613855 60.7014993676948,46.1752022343116 60.7055417864733,46.1819395989425</coordinates></LinearRing></outerBoundaryIs></Polygon><Polygon><outerBoundaryIs><LinearRing><coordinates>60.7244064074398,46.1900244364996 60.725753880366,46.1886769635734 60.7244064074398,46.1846345447949 60.7203639886613,46.1859820177211 60.7244064074398,46.1900244364996</coordinates></LinearRing></outerBoundaryIs></Polygon><Polygon><outerBoundaryIs><LinearRing><coordinates>60.7203639886613,46.1994567469829 60.7176690428089,46.1940668552782 60.7203639886613,46.1913719094258 60.710931678178,46.1900244364996 60.7095842052519,46.1913719094258 60.7122791511042,46.1940668552782 60.7068892593995,46.1967618011305 60.7136266240304,46.2061941116138 60.7203639886613,46.1994567469829</coordinates></LinearRing></outerBoundaryIs><innerBoundaryIs><LinearRing><coordinates>60.7149740969566,46.1994567469829 60.7136266240304,46.2008042199091 60.7122791511042,46.1994567469829 60.7149740969566,46.1994567469829</coordinates></LinearRing></innerBoundaryIs></Polygon><Polygon><outerBoundaryIs><LinearRing><coordinates>60.6920670572115,46.192719382352 60.688024638433,46.1940668552782 60.6907195842853,46.1967618011305 60.688024638433,46.2021516928352 60.6947620030639,46.2061941116138 60.6988044218424,46.2021516928352 60.6920670572115,46.192719382352</coordinates></LinearRing></outerBoundaryIs></Polygon></MultiGeometry>
  </Placemark>
</Folder>
</Document></kml>
