<?xml version="1.0" encoding="utf-8" ?>
<kml xmlns="http://www.opengis.net/kml/2.2">
<Document id="root_doc">
<Schema name="task_grid_v6_44.58_61.08" id="task_grid_v6_44.58_61.08">
	<SimpleField name="area_ha" type="float"></SimpleField>
	<SimpleField name="low_risk_ha" type="float"></SimpleField>
	<SimpleField name="moderate_risk_ha" type="float"></SimpleField>
	<SimpleField name="grid_cell_deg" type="string"></SimpleField>
</Schema>
<Folder><name>task_grid_v6_44.58_61.08</name>
  <Placemark id="task_grid_v6_44.58_61.08.1">
	<name>task_grid_v6_44.58_61.08</name>
	<name>0</name>
	<description>48.1</description>
	<Style><LineStyle><color>ff0000ff</color></LineStyle><PolyStyle><fill>0</fill></PolyStyle></Style>
	<ExtendedData><SchemaData schemaUrl="#task_grid_v6_44.58_61.08">
		<SimpleData name="area_ha">48.1</SimpleData>
		<SimpleData name="low_risk_ha">0.1</SimpleData>
	</SchemaData></ExtendedData>
      <Polygon><outerBoundaryIs><LinearRing><coordinates>61.0976564079915,44.5609296687489 61.10169882677,44.562277141675 61.1043937726224,44.5595821958227 61.1097836643271,44.5595821958227 61.1097836643271,44.554192304118 61.1043937726224,44.554192304118 61.0976564079915,44.5609296687489</coordinates></LinearRing></outerBoundaryIs></Polygon>
  </Placemark>
</Folder>
</Document></kml>
