<?xml version="1.0" encoding="utf-8" ?>
<kml xmlns="http://www.opengis.net/kml/2.2">
<Document id="root_doc">
<Schema name="task_grid_v6_45.58_60.88" id="task_grid_v6_45.58_60.88">
	<SimpleField name="area_ha" type="float"></SimpleField>
	<SimpleField name="low_risk_ha" type="float"></SimpleField>
	<SimpleField name="moderate_risk_ha" type="float"></SimpleField>
	<SimpleField name="grid_cell_deg" type="string"></SimpleField>
</Schema>
<Folder><name>task_grid_v6_45.58_60.88</name>
  <Placemark id="task_grid_v6_45.58_60.88.1">
	<name>task_grid_v6_45.58_60.88</name>
	<name>1395.4</name>
	<description>2510.5</description>
	<Style><LineStyle><color>ff0000ff</color></LineStyle><PolyStyle><fill>0</fill></PolyStyle></Style>
	<ExtendedData><SchemaData schemaUrl="#task_grid_v6_45.58_60.88">
		<SimpleData name="area_ha">1115.1</SimpleData>
		<SimpleData name="low_risk_ha">0.1</SimpleData>
	</SchemaData></ExtendedData>
      <MultiGeometry><Polygon><outerBoundaryIs><LinearRing><coordinates>60.8511575109786,45.5343547580755 60.8498721080492,45.5343547580755 60.8510688625007,45.5351525943765 60.8511575109786,45.5343547580755</coordinates></LinearRing></outerBoundaryIs></Polygon><Polygon><outerBoundaryIs><LinearRing><coordinates>60.8362466603127,45.5499747965645 60.8335517144603,45.5445849048597 60.8402890790912,45.5432374319336 60.8416365520174,45.5472798507121 60.8483739166483,45.5513222694906 60.8497213895745,45.5445849048597 60.8443314978698,45.5365000673027 60.8400408794155,45.5343547580755 60.8286326428868,45.5343547580755 60.8263910613787,45.5372367914431 60.8263910613787,45.5436995241713 60.8281618227556,45.5445849048597 60.8322042415342,45.5513222694906 60.8362466603127,45.5499747965645</coordinates></LinearRing></outerBoundaryIs><innerBoundaryIs><LinearRing><coordinates>60.8335517144603,45.5365000673027 60.8322042415342,45.5378475402288 60.830856768608,45.5365000673027 60.8335517144603,45.5365000673027</coordinates></LinearRing></innerBoundaryIs></Polygon><Polygon><outerBoundaryIs><LinearRing><coordinates>60.8995778878431,45.5674919446048 60.898230414917,45.5742293092357 60.8968829419908,45.5701868904572 60.8928405232122,45.5742293092357 60.8901455773599,45.5742293092357 60.8901455773599,45.5796192009404 60.8887981044337,45.5728818363095 60.8874506315075,45.5877040384975 60.8887981044337,45.5890515114237 60.8914930502861,45.5863565655713 60.8941879961384,45.5890515114237 60.898230414917,45.5850090926451 60.8941879961384,45.591746457276 60.8901455773599,45.5930939302022 60.8941879961384,45.5998312948331 60.8887981044337,45.5944414031284 60.8820607398028,45.6011787677593 60.883408212729,45.6052211865378 60.8887981044337,45.5998312948331 60.8941879961384,45.6079161323902 60.8962092055277,45.6072423959271 60.8928405232122,45.6092636053164 60.8995778878431,45.6106110782425 60.9029465701586,45.6072423959271 60.9036203066217,45.6092636053164 60.906315252474,45.6092636053164 60.9009253607693,45.6119585511687 60.9036203066217,45.6146534970211 60.8995778878431,45.6186959157996 60.8968829419908,45.6160009699472 60.8914930502861,45.6186959157996 60.8887981044337,45.6160009699472 60.8793657939504,45.6173484428734 60.8793657939504,45.6200433887258 60.8793657939504,45.6227383345781 60.883408212729,45.6267807533567 60.8887981044337,45.6267807533567 60.8968829419908,45.6321706450614 60.8965709258459,45.6343547580755 60.8973197645936,45.6343547580755 60.8978189904254,45.6343547580755 60.9054786123861,45.6343547580755 60.9263910613787,45.6343547580755 60.9263910613787,45.6320343600734 60.9238324005144,45.629475699209 60.921137454662,45.6321706450614 60.9144000900311,45.6254332804305 60.9144000900311,45.6146534970211 60.9197899817358,45.6119585511687 60.9160170575425,45.6056703441799 60.9170950358835,45.6038737136116 60.9144000900311,45.6011787677593 60.9170950358835,45.5984838219069 60.9130526171049,45.591746457276 60.9144000900311,45.5903989843498 60.9090101983264,45.5877040384975 60.9078354783395,45.579480998589 60.9120566588551,45.5761040541764 60.9117051441788,45.576924255088 60.9184425088096,45.5782717280142 60.9197899817358,45.576924255088 60.9157475629573,45.5674919446048 60.9224849275882,45.5674919446048 60.9197899817358,45.568839417531 60.9263910613787,45.5697824289085 60.9263910613787,45.5594071070477 60.9263910613787,45.556666732866 60.9263910613787,45.548854465285 60.9263910613787,45.5351525943765 60.921137454662,45.5351525943765 60.9200594763211,45.535691583547 60.9205050848115,45.5343547580755 60.9090101983264,45.5343547580755 60.9090101983264,45.5365000673027 60.9036203066217,45.539195013155 60.9036203066217,45.5472798507121 60.8955354690646,45.5526697424168 60.9022728336955,45.5594071070477 60.906315252474,45.5580596341215 60.9009253607693,45.5607545799739 60.9003863715988,45.5634495258263 60.8995778878431,45.5594071070477 60.8955354690646,45.5607545799739 60.8995778878431,45.5674919446048</coordinates></LinearRing></outerBoundaryIs><innerBoundaryIs><LinearRing><coordinates>60.9144000900311,45.5706360480992 60.9144000900311,45.568839417531 60.9090101983264,45.5661444716786 60.9130526171049,45.5647969987524 60.9157475629573,45.5674919446048 60.9144000900311,45.5706360480992</coordinates></LinearRing></innerBoundaryIs><innerBoundaryIs><LinearRing><coordinates>60.906315252474,45.6011787677593 60.9009253607693,45.5930939302022 60.906315252474,45.5877040384975 60.9036203066217,45.5903989843498 60.906315252474,45.5930939302022 60.9036203066217,45.5957888760546 60.906315252474,45.6011787677593</coordinates></LinearRing></innerBoundaryIs><innerBoundaryIs><LinearRing><coordinates>60.9022728336955,45.6052211865378 60.902609701927,45.6062317912324 60.9009253607693,45.6056703441799 60.9022728336955,45.6052211865378</coordinates></LinearRing></innerBoundaryIs><innerBoundaryIs><LinearRing><coordinates>60.9144000900311,45.5418899590074 60.9144000900311,45.539195013155 60.9154780683721,45.5386560239846 60.9144000900311,45.5418899590074</coordinates></LinearRing></innerBoundaryIs><innerBoundaryIs><LinearRing><coordinates>60.9251798734405,45.5661444716786 60.9238324005144,45.5668182081417 60.9238324005144,45.5647969987524 60.9251798734405,45.5661444716786</coordinates></LinearRing></innerBoundaryIs></Polygon><Polygon><outerBoundaryIs><LinearRing><coordinates>60.8847556856552,45.6119585511687 60.8780183210243,45.6079161323902 60.8739759022457,45.6119585511687 60.8807132668766,45.6160009699472 60.8847556856552,45.6119585511687</coordinates></LinearRing></outerBoundaryIs></Polygon><Polygon><outerBoundaryIs><LinearRing><coordinates>60.8968829419908,45.6160009699472 60.9009253607693,45.6119585511687 60.8968829419908,45.6106110782425 60.8928405232122,45.6146534970211 60.8968829419908,45.6160009699472</coordinates></LinearRing></outerBoundaryIs></Polygon><Polygon><outerBoundaryIs><LinearRing><coordinates>60.8793657939504,45.6200433887258 60.8780183210243,45.6160009699472 60.8739759022457,45.6173484428734 60.8780183210243,45.621390861652 60.8793657939504,45.6200433887258</coordinates></LinearRing></outerBoundaryIs></Polygon><Polygon><outerBoundaryIs><LinearRing><coordinates>60.921137454662,45.5890515114237 60.9251798734405,45.5877040384975 60.9238324005144,45.5836616197189 60.9197899817358,45.5877040384975 60.921137454662,45.5890515114237</coordinates></LinearRing></outerBoundaryIs></Polygon><Polygon><outerBoundaryIs><LinearRing><coordinates>60.9197899817358,45.5984838219069 60.9184425088096,45.591746457276 60.9144000900311,45.5930939302022 60.9184425088096,45.5998312948331 60.9197899817358,45.5984838219069</coordinates></LinearRing></outerBoundaryIs></Polygon><Polygon><outerBoundaryIs><LinearRing><coordinates>60.9251798734405,45.6038737136116 60.9263910613787,45.6050849015498 60.9263910613787,45.6002401497972 60.9251798734405,45.6038737136116</coordinates></LinearRing></outerBoundaryIs></Polygon><Polygon><outerBoundaryIs><LinearRing><coordinates>60.9197899817358,45.6092636053164 60.9263910613787,45.6105838212449 60.9263910613787,45.6079161323902 60.921137454662,45.6079161323902 60.9197899817358,45.6092636053164</coordinates></LinearRing></outerBoundaryIs></Polygon><Polygon><outerBoundaryIs><LinearRing><coordinates>60.9263910613787,45.616853856902 60.9238324005144,45.6160009699472 60.9197899817358,45.6200433887258 60.9251798734405,45.6227383345781 60.9224849275882,45.6254332804305 60.9263910613787,45.629339414221 60.9263910613787,45.616853856902</coordinates></LinearRing></outerBoundaryIs></Polygon></MultiGeometry>
  </Placemark>
</Folder>
</Document></kml>
