<?xml version="1.0" encoding="utf-8" ?>
<kml xmlns="http://www.opengis.net/kml/2.2">
<Document id="root_doc">
<Schema name="task_grid_v6_44.48_60.88" id="task_grid_v6_44.48_60.88">
	<SimpleField name="area_ha" type="float"></SimpleField>
	<SimpleField name="low_risk_ha" type="float"></SimpleField>
	<SimpleField name="moderate_risk_ha" type="float"></SimpleField>
	<SimpleField name="grid_cell_deg" type="string"></SimpleField>
</Schema>
<Folder><name>task_grid_v6_44.48_60.88</name>
  <Placemark id="task_grid_v6_44.48_60.88.1">
	<name>task_grid_v6_44.48_60.88</name>
	<name>135.8</name>
	<description>998</description>
	<Style><LineStyle><color>ff0000ff</color></LineStyle><PolyStyle><fill>0</fill></PolyStyle></Style>
	<ExtendedData><SchemaData schemaUrl="#task_grid_v6_44.48_60.88">
		<SimpleData name="area_ha">862.2</SimpleData>
		<SimpleData name="low_risk_ha">0.1</SimpleData>
	</SchemaData></ExtendedData>
      <MultiGeometry><Polygon><outerBoundaryIs><LinearRing><coordinates>60.853763808353,44.5056832787755 60.8551112812792,44.501640859997 60.8464734629321,44.5004068859474 60.8376813391363,44.5057704846729 60.8389416061651,44.5070307517017 60.8362466603127,44.5097256975541 60.8362466603127,44.5151155892588 60.8389416061651,44.5178105351111 60.8362466603127,44.5205054809635 60.8375941332389,44.5218529538897 60.8429840249436,44.524547899742 60.8402890790912,44.524547899742 60.8389416061651,44.5258953726682 60.845678970796,44.5272428455944 60.845678970796,44.524547899742 60.853763808353,44.524547899742 60.8578062271316,44.5205054809635 60.8564587542054,44.5164630621849 60.8483739166483,44.5164630621849 60.845678970796,44.5191580080373 60.8416365520174,44.5178105351111 60.8470264437221,44.5097256975541 60.8470264437221,44.5043358058493 60.8483739166483,44.5110731704802 60.8524163354269,44.5070307517017 60.8483739166483,44.5029883329232 60.853763808353,44.5056832787755</coordinates></LinearRing></outerBoundaryIs></Polygon><Polygon><outerBoundaryIs><LinearRing><coordinates>60.8341467367341,44.5079267542364 60.8348991873865,44.5083782246279 60.8372340768122,44.5060433352022 60.8341467367341,44.5079267542364</coordinates></LinearRing></outerBoundaryIs></Polygon><Polygon><outerBoundaryIs><LinearRing><coordinates>60.8470264437221,44.5124206434064 60.853763808353,44.5137681163326 60.8551112812792,44.5124206434064 60.8510688625007,44.5083782246279 60.8483739166483,44.5110731704802 60.8470264437221,44.5124206434064</coordinates></LinearRing></outerBoundaryIs></Polygon><Polygon><outerBoundaryIs><LinearRing><coordinates>60.8348991873865,44.5218529538897 60.8322042415342,44.524547899742 60.830856768608,44.5232004268158 60.8335517144603,44.5205054809635 60.8322042415342,44.5137681163326 60.8268143498295,44.5191580080373 60.8263910613787,44.517888142685 60.8263910613787,44.5222762423404 60.8268143498295,44.5218529538897 60.8281618227556,44.5232004268158 60.8268143498295,44.5299377914467 60.8263910613787,44.529514502996 60.8263910613787,44.5326327372991 60.8295092956818,44.5326327372991 60.8322042415342,44.5299377914467 60.8375941332389,44.5326327372991 60.8416365520174,44.5312852643729 60.8348991873865,44.5218529538897</coordinates></LinearRing></outerBoundaryIs></Polygon><Polygon><outerBoundaryIs><LinearRing><coordinates>60.830856768608,44.5339802102253 60.8309816178914,44.5343547580755 60.835473194312,44.5343547580755 60.8348991873865,44.5326327372991 60.830856768608,44.5339802102253</coordinates></LinearRing></outerBoundaryIs></Polygon><Polygon><outerBoundaryIs><LinearRing><coordinates>60.9238324005144,44.4706489826949 60.9224849275882,44.4746914014734 60.9263910613787,44.4770350817477 60.9263910613787,44.472515536166 60.9263910613787,44.4721841792135 60.9263910613787,44.4707852676829 60.9255167416721,44.4716595873895 60.9238324005144,44.4706489826949</coordinates></LinearRing></outerBoundaryIs></Polygon><Polygon><outerBoundaryIs><LinearRing><coordinates>60.9224849275882,44.4908610765875 60.9184425088096,44.4895136036614 60.9157475629573,44.486818657809 60.9157475629573,44.4922085495137 60.9224849275882,44.4908610765875</coordinates></LinearRing></outerBoundaryIs></Polygon><Polygon><outerBoundaryIs><LinearRing><coordinates>60.8968829419908,44.4975984412184 60.9022728336955,44.4975984412184 60.9130526171049,44.4922085495137 60.9130526171049,44.4895136036614 60.8995778878431,44.4922085495137 60.8968829419908,44.4949034953661 60.8847556856552,44.4962509682923 60.8887981044337,44.5002933870708 60.8914930502861,44.4975984412184 60.8968829419908,44.4975984412184</coordinates></LinearRing></outerBoundaryIs></Polygon><Polygon><outerBoundaryIs><LinearRing><coordinates>60.8631961188363,44.5070307517017 60.8658910646887,44.5097256975541 60.8658910646887,44.5151155892588 60.8699334834672,44.5164630621849 60.8726284293195,44.5137681163326 60.8887981044337,44.5137681163326 60.8914930502861,44.5110731704802 60.9117051441788,44.5097256975541 60.8914930502861,44.5083782246279 60.8901455773599,44.5070307517017 60.8941879961384,44.5056832787755 60.898230414917,44.4989459141446 60.8968829419908,44.4975984412184 60.8941879961384,44.5002933870708 60.8887981044337,44.5002933870708 60.8861031585813,44.5029883329232 60.8645435917625,44.5029883329232 60.8631961188363,44.5070307517017</coordinates></LinearRing></outerBoundaryIs><innerBoundaryIs><LinearRing><coordinates>60.8712809563934,44.5070307517017 60.8726284293195,44.5056832787755 60.8753233751719,44.5056832787755 60.8753233751719,44.5083782246279 60.8712809563934,44.5070307517017</coordinates></LinearRing></innerBoundaryIs></Polygon><Polygon><outerBoundaryIs><LinearRing><coordinates>60.8745377240211,44.5343547580755 60.8739759022457,44.5339802102253 60.8766708480981,44.5285903185206 60.8726284293195,44.524547899742 60.8699334834672,44.5272428455944 60.8564587542054,44.5272428455944 60.853763808353,44.5326327372991 60.8497213895745,44.5339802102253 60.8515941288256,44.5343547580755 60.8745377240211,44.5343547580755</coordinates></LinearRing></outerBoundaryIs></Polygon></MultiGeometry>
  </Placemark>
</Folder>
</Document></kml>
