<?xml version="1.0" encoding="utf-8" ?>
<kml xmlns="http://www.opengis.net/kml/2.2">
<Document id="root_doc">
<Schema name="task_grid_v6_45.88_58.98" id="task_grid_v6_45.88_58.98">
	<SimpleField name="area_ha" type="float"></SimpleField>
	<SimpleField name="low_risk_ha" type="float"></SimpleField>
	<SimpleField name="moderate_risk_ha" type="float"></SimpleField>
	<SimpleField name="grid_cell_deg" type="string"></SimpleField>
</Schema>
<Folder><name>task_grid_v6_45.88_58.98</name>
  <Placemark id="task_grid_v6_45.88_58.98.1">
	<name>task_grid_v6_45.88_58.98</name>
	<name>0</name>
	<description>74.90000000000001</description>
	<Style><LineStyle><color>ff0000ff</color></LineStyle><PolyStyle><fill>0</fill></PolyStyle></Style>
	<ExtendedData><SchemaData schemaUrl="#task_grid_v6_45.88_58.98">
		<SimpleData name="area_ha">74.9</SimpleData>
		<SimpleData name="low_risk_ha">0.1</SimpleData>
	</SchemaData></ExtendedData>
      <MultiGeometry><Polygon><outerBoundaryIs><LinearRing><coordinates>58.9349623614737,45.9205298512638 58.9349623614737,45.9178349054114 58.9263910613787,45.9178349054114 58.9263910613787,45.9210163138017 58.9268775239167,45.9205298512638 58.9349623614737,45.9205298512638</coordinates></LinearRing></outerBoundaryIs></Polygon><Polygon><outerBoundaryIs><LinearRing><coordinates>58.967301711702,45.9205298512638 58.959216874145,45.9205298512638 58.9578694012188,45.9218773241899 58.967301711702,45.9232247971161 58.967301711702,45.9205298512638</coordinates></LinearRing></outerBoundaryIs></Polygon><Polygon><outerBoundaryIs><LinearRing><coordinates>58.9578694012188,45.9245722700423 58.9538269824403,45.9205298512638 58.9484370907355,45.9232247971161 58.9363098343999,45.9245722700423 58.9565219282926,45.9259197429685 58.9578694012188,45.9245722700423</coordinates></LinearRing></outerBoundaryIs></Polygon></MultiGeometry>
  </Placemark>
</Folder>
</Document></kml>
