<?xml version="1.0" encoding="utf-8" ?>
<kml xmlns="http://www.opengis.net/kml/2.2">
<Document id="root_doc">
<Schema name="task_grid_v6_45.71_60.16" id="task_grid_v6_45.71_60.16">
	<SimpleField name="area_ha" type="float"></SimpleField>
	<SimpleField name="low_risk_ha" type="float"></SimpleField>
	<SimpleField name="moderate_risk_ha" type="float"></SimpleField>
	<SimpleField name="grid_cell_deg" type="string"></SimpleField>
</Schema>
<Folder><name>task_grid_v6_45.71_60.16</name>
  <Placemark id="task_grid_v6_45.71_60.16.1">
	<name>task_grid_v6_45.71_60.16</name>
	<name>893.9</name>
	<description>1772.6</description>
	<Style><LineStyle><color>ff0000ff</color></LineStyle><PolyStyle><fill>0</fill></PolyStyle></Style>
	<ExtendedData><SchemaData schemaUrl="#task_grid_v6_45.71_60.16">
		<SimpleData name="area_ha">878.6</SimpleData>
		<SimpleData name="low_risk_ha">0.1</SimpleData>
	</SchemaData></ExtendedData>
      <MultiGeometry><Polygon><outerBoundaryIs><LinearRing><coordinates>60.1138504534059,45.6625641451378 60.1102213862645,45.6625641451378 60.1102213862645,45.6643786787085 60.1102213862645,45.6652332217988 60.1102213862645,45.6809423035663 60.1126536989544,45.6833746162562 60.1140011718806,45.6766372516253 60.1140011718806,45.68202714333 60.1180435906592,45.6833746162562 60.1193910635853,45.68202714333 60.1207385365115,45.6833746162562 60.1315183199209,45.6833746162562 60.1315183199209,45.6779847245515 60.1422981033304,45.6806796704038 60.1436455762566,45.673942305773 60.1369082116257,45.6725948328468 60.1293851958439,45.6625641451378 60.1226843866634,45.6625641451378 60.1168468362077,45.6625641451378 60.1142250012561,45.6625641451378 60.1138504534059,45.6625641451378</coordinates></LinearRing></outerBoundaryIs><innerBoundaryIs><LinearRing><coordinates>60.1261284282162,45.674616042236 60.1261284282162,45.6737498096406 60.1274759011424,45.673942305773 60.1261284282162,45.674616042236</coordinates></LinearRing></innerBoundaryIs></Polygon><Polygon><outerBoundaryIs><LinearRing><coordinates>60.1382556845518,45.6658574682159 60.1449930491827,45.6672049411421 60.1436455762566,45.6685524140682 60.1449930491827,45.6698998869944 60.1503829408875,45.6672049411421 60.1665526160016,45.6672049411421 60.169247561854,45.6645099952897 60.1719425077063,45.6672049411421 60.1746374535587,45.6645099952897 60.177332399411,45.6672049411421 60.1881121828205,45.6672049411421 60.1908071286728,45.6645099952897 60.2015869120823,45.6645099952897 60.2028841455169,45.6625641451378 60.1389545407607,45.6625641451378 60.139603157478,45.6645099952897 60.1382556845518,45.6658574682159</coordinates></LinearRing></outerBoundaryIs><innerBoundaryIs><LinearRing><coordinates>60.1449930491827,45.6655879736306 60.1463405221089,45.6658574682159 60.1449930491827,45.6672049411421 60.1449930491827,45.6655879736306</coordinates></LinearRing></innerBoundaryIs></Polygon><Polygon><outerBoundaryIs><LinearRing><coordinates>60.1625101972231,45.6766372516253 60.1584677784445,45.6725948328468 60.1517304138136,45.6766372516253 60.1557728325922,45.6806796704038 60.1625101972231,45.6766372516253</coordinates></LinearRing></outerBoundaryIs></Polygon><Polygon><outerBoundaryIs><LinearRing><coordinates>60.1180435906592,45.7049341830751 60.1203535442469,45.7037792062812 60.1261284282162,45.7049341830751 60.1261284282162,45.7022392372227 60.1234334823639,45.7022392372227 60.1288233740686,45.6995442913704 60.1274759011424,45.7008917642965 60.1369082116257,45.7022392372227 60.1369082116257,45.6995442913704 60.1382556845518,45.6981968184442 60.1342132657733,45.6914594538133 60.1207385365115,45.6914594538133 60.1180435906592,45.6941543996656 60.1153486448068,45.6914594538133 60.1102213862645,45.6940230830844 60.1102213862645,45.7049341830751 60.1180435906592,45.7049341830751</coordinates></LinearRing></outerBoundaryIs></Polygon><Polygon><outerBoundaryIs><LinearRing><coordinates>60.1490354679613,45.7008917642965 60.1519229099459,45.7018542449581 60.1503829408875,45.7022392372227 60.1449930491827,45.6995442913704 60.1422981033304,45.7049341830751 60.1355607386995,45.7089766018536 60.1355607386995,45.7170614394107 60.1328657928471,45.719756385263 60.139603157478,45.7264937498939 60.1422981033304,45.7264937498939 60.1436455762566,45.7251462769678 60.1409506304042,45.7224513311154 60.1436455762566,45.7170614394107 60.1490354679613,45.7170614394107 60.1463405221089,45.719756385263 60.1476879950351,45.7237988040416 60.154425359666,45.7170614394107 60.1517304138136,45.7143664935583 60.1557728325922,45.7076291289274 60.169247561854,45.7076291289274 60.1719425077063,45.7049341830751 60.1827222911158,45.7022392372227 60.1867647098943,45.6955018725918 60.1827222911158,45.6941543996656 60.177332399411,45.696849345518 60.1746374535587,45.7022392372227 60.1732899806325,45.6981968184442 60.1759849264849,45.6928069267395 60.1746374535587,45.6914594538133 60.1705950347801,45.6955018725918 60.1700897324328,45.6966809114022 60.169247561854,45.6941543996656 60.1652051430754,45.6955018725918 60.1665526160016,45.6995442913704 60.169247561854,45.6986459760862 60.1665526160016,45.7049341830751 60.1611627242969,45.6995442913704 60.1539762020239,45.7013409219386 60.1571203055184,45.6981968184442 60.1530778867398,45.696849345518 60.1490354679613,45.7008917642965</coordinates></LinearRing></outerBoundaryIs><innerBoundaryIs><LinearRing><coordinates>60.1382556845518,45.7143664935583 60.1422981033304,45.7103240747798 60.1436455762566,45.711671547706 60.139603157478,45.7157139664845 60.1382556845518,45.7143664935583</coordinates></LinearRing></innerBoundaryIs></Polygon><Polygon><outerBoundaryIs><LinearRing><coordinates>60.1102213862645,45.7243903198445 60.1102213862645,45.7289260625838 60.1140011718806,45.7251462769678 60.1102213862645,45.7243903198445</coordinates></LinearRing></outerBoundaryIs></Polygon><Polygon><outerBoundaryIs><LinearRing><coordinates>60.1625101972231,45.673942305773 60.169247561854,45.6752897786991 60.169247561854,45.6725948328468 60.1638576701492,45.6725948328468 60.1625101972231,45.673942305773</coordinates></LinearRing></outerBoundaryIs></Polygon><Polygon><outerBoundaryIs><LinearRing><coordinates>60.1894596557467,45.6793321974777 60.1881121828205,45.6725948328468 60.1813748181896,45.6766372516253 60.1854172369681,45.6806796704038 60.1894596557467,45.6793321974777</coordinates></LinearRing></outerBoundaryIs></Polygon><Polygon><outerBoundaryIs><LinearRing><coordinates>60.177332399411,45.6806796704038 60.177332399411,45.6779847245515 60.169247561854,45.6779847245515 60.1679000889278,45.6793321974777 60.177332399411,45.6806796704038</coordinates></LinearRing></outerBoundaryIs></Polygon><Polygon><outerBoundaryIs><LinearRing><coordinates>60.2015869120823,45.6833746162562 60.2029343850084,45.68202714333 60.1988919662299,45.6779847245515 60.1975444933037,45.68202714333 60.2015869120823,45.6833746162562</coordinates></LinearRing></outerBoundaryIs></Polygon><Polygon><outerBoundaryIs><LinearRing><coordinates>60.169247561854,45.6941543996656 60.1746374535587,45.6860695621086 60.1800273452634,45.6860695621086 60.1827222911158,45.6887645079609 60.1894596557467,45.6847220891824 60.1800273452634,45.6779847245515 60.177332399411,45.6806796704038 60.169247561854,45.6806796704038 60.1652051430754,45.6847220891824 60.1638576701492,45.6833746162562 60.1627026933554,45.6868395466378 60.1611627242969,45.6860695621086 60.1598152513707,45.6928069267395 60.169247561854,45.6941543996656</coordinates></LinearRing></outerBoundaryIs></Polygon><Polygon><outerBoundaryIs><LinearRing><coordinates>60.1935020745252,45.6887645079609 60.1894596557467,45.6901119808871 60.1908071286728,45.6914594538133 60.1975444933037,45.6901119808871 60.1961970203776,45.6833746162562 60.1935020745252,45.6887645079609</coordinates></LinearRing></outerBoundaryIs></Polygon></MultiGeometry>
  </Placemark>
</Folder>
</Document></kml>
