<?xml version="1.0" encoding="utf-8" ?>
<kml xmlns="http://www.opengis.net/kml/2.2">
<Document id="root_doc">
<Schema name="task_grid_v6_46.18_60.18" id="task_grid_v6_46.18_60.18">
	<SimpleField name="area_ha" type="float"></SimpleField>
	<SimpleField name="low_risk_ha" type="float"></SimpleField>
	<SimpleField name="moderate_risk_ha" type="float"></SimpleField>
	<SimpleField name="grid_cell_deg" type="string"></SimpleField>
</Schema>
<Folder><name>task_grid_v6_46.18_60.18</name>
  <Placemark id="task_grid_v6_46.18_60.18.1">
	<name>task_grid_v6_46.18_60.18</name>
	<name>241.6</name>
	<description>1450.6</description>
	<Style><LineStyle><color>ff0000ff</color></LineStyle><PolyStyle><fill>0</fill></PolyStyle></Style>
	<ExtendedData><SchemaData schemaUrl="#task_grid_v6_46.18_60.18">
		<SimpleData name="area_ha">1209</SimpleData>
		<SimpleData name="low_risk_ha">0.1</SimpleData>
	</SchemaData></ExtendedData>
      <MultiGeometry><Polygon><outerBoundaryIs><LinearRing><coordinates>60.1817981066403,46.1343547580755 60.1813748181896,46.1347780465263 60.1881121828205,46.1361255194524 60.1881121828205,46.1343547580755 60.1817981066403,46.1343547580755</coordinates></LinearRing></outerBoundaryIs></Polygon><Polygon><outerBoundaryIs><LinearRing><coordinates>60.2096717496393,46.1442103570095 60.2137141684179,46.140167938231 60.2123666954917,46.1361255194524 60.2150616413441,46.1388204653048 60.2177565871964,46.1388204653048 60.2164091142702,46.1428628840833 60.2177565871964,46.1442103570095 60.2231464789011,46.1415154111572 60.2258414247535,46.1442103570095 60.2263910613787,46.1442103570095 60.2263910613787,46.1388204653048 60.2263910613787,46.1343547580755 60.2033576734592,46.1343547580755 60.1988919662299,46.1388204653048 60.1966591126153,46.1343547580755 60.1956425096923,46.1343547580755 60.192154601599,46.140167938231 60.1948495474514,46.1347780465263 60.1944262590006,46.1343547580755 60.1916537055744,46.1343547580755 60.1881121828205,46.1361255194524 60.1800273452634,46.1361255194524 60.177332399411,46.1388204653048 60.169247561854,46.1388204653048 60.1647818546247,46.1343547580755 60.1575435939691,46.1343547580755 60.1557728325922,46.1361255194524 60.1522313098383,46.1343547580755 60.149458756412,46.1343547580755 60.1490354679613,46.1347780465263 60.1517304138136,46.1374729923786 60.139603157478,46.1388204653048 60.139603157478,46.1442103570095 60.1288233740686,46.1442103570095 60.1263910613787,46.1393457316297 60.1263910613787,46.1529526220262 60.1342132657733,46.1496002487142 60.1422981033304,46.154990140419 60.1442580639503,46.1510702191792 60.1503829408875,46.1522951945666 60.1503829408875,46.1496002487142 60.154425359666,46.1536426674928 60.1490354679613,46.1563376133451 60.1517304138136,46.1590325591975 60.1490354679613,46.1617275050499 60.1557728325922,46.163074977976 60.1584677784445,46.1603800321237 60.1665526160016,46.1603800321237 60.169247561854,46.1576850862713 60.1786798723372,46.1563376133451 60.177332399411,46.1522951945666 60.1665526160016,46.1522951945666 60.1611627242969,46.154990140419 60.1571203055184,46.1509477216404 60.1584677784445,46.1496002487142 60.1665526160016,46.1496002487142 60.169247561854,46.1469053028619 60.1719425077063,46.1496002487142 60.177332399411,46.1496002487142 60.1800273452634,46.1469053028619 60.1854172369681,46.1469053028619 60.1854172369681,46.1522951945666 60.1908071286728,46.1522951945666 60.1935020745252,46.1496002487142 60.2015869120823,46.1496002487142 60.2056293308608,46.1455578299357 60.2015869120823,46.1415154111572 60.2029343850084,46.140167938231 60.2096717496393,46.1442103570095</coordinates></LinearRing></outerBoundaryIs><innerBoundaryIs><LinearRing><coordinates>60.1786798723372,46.1428628840833 60.1746374535587,46.1469053028619 60.1732899806325,46.1428628840833 60.1786798723372,46.1428628840833</coordinates></LinearRing></innerBoundaryIs><innerBoundaryIs><LinearRing><coordinates>60.2002394391561,46.1455578299357 60.1988919662299,46.1469053028619 60.1975444933037,46.1455578299357 60.2002394391561,46.1455578299357</coordinates></LinearRing></innerBoundaryIs></Polygon><Polygon><outerBoundaryIs><LinearRing><coordinates>60.1315183199209,46.154990140419 60.1382556845518,46.1536426674928 60.1342132657733,46.1496002487142 60.1301708469948,46.1536426674928 60.1315183199209,46.154990140419</coordinates></LinearRing></outerBoundaryIs></Polygon><Polygon><outerBoundaryIs><LinearRing><coordinates>60.1263910613787,46.1552527735814 60.1263910613787,46.1603508506612 60.1382556845518,46.1590325591975 60.1369082116257,46.154990140419 60.1315183199209,46.154990140419 60.1288233740686,46.1576850862713 60.1263910613787,46.1552527735814</coordinates></LinearRing></outerBoundaryIs></Polygon><Polygon><outerBoundaryIs><LinearRing><coordinates>60.1571203055184,46.1644224509022 60.1638576701492,46.1657699238284 60.1638576701492,46.163074977976 60.1584677784445,46.163074977976 60.1571203055184,46.1644224509022</coordinates></LinearRing></outerBoundaryIs></Polygon><Polygon><outerBoundaryIs><LinearRing><coordinates>60.2015869120823,46.1765497072378 60.2056293308608,46.1725072884593 60.2042818579346,46.1684648696807 60.2002394391561,46.1725072884593 60.2015869120823,46.1765497072378</coordinates></LinearRing></outerBoundaryIs></Polygon><Polygon><outerBoundaryIs><LinearRing><coordinates>60.221799005975,46.1536426674928 60.2258414247535,46.1576850862713 60.2263910613787,46.1576850862713 60.2263910613787,46.1532252079106 60.221799005975,46.1536426674928</coordinates></LinearRing></outerBoundaryIs></Polygon><Polygon><outerBoundaryIs><LinearRing><coordinates>60.2042818579346,46.1684648696807 60.2164091142702,46.1590325591975 60.2150616413441,46.154990140419 60.2029343850084,46.1644224509022 60.2042818579346,46.1684648696807</coordinates></LinearRing></outerBoundaryIs></Polygon><Polygon><outerBoundaryIs><LinearRing><coordinates>60.2056293308608,46.1752022343116 60.2096717496393,46.1765497072378 60.2123666954917,46.1738547613855 60.2231464789011,46.1738547613855 60.2258414247535,46.1765497072378 60.2263910613787,46.1754504339874 60.2263910613787,46.1628001596634 60.2258414247535,46.163074977976 60.2231464789011,46.1603800321237 60.2204515330488,46.1684648696807 60.2150616413441,46.1684648696807 60.2056293308608,46.1752022343116</coordinates></LinearRing></outerBoundaryIs></Polygon><Polygon><outerBoundaryIs><LinearRing><coordinates>60.2164091142702,46.2048466386876 60.2177565871964,46.2088890574661 60.221799005975,46.2075415845399 60.2244939518273,46.2021516928352 60.2231464789011,46.2008042199091 60.2164091142702,46.2048466386876</coordinates></LinearRing></outerBoundaryIs></Polygon><Polygon><outerBoundaryIs><LinearRing><coordinates>60.2096717496393,46.2196688408756 60.2110192225655,46.2183213679494 60.2096717496393,46.2142789491708 60.2056293308608,46.215626422097 60.2096717496393,46.2196688408756</coordinates></LinearRing></outerBoundaryIs></Polygon></MultiGeometry>
  </Placemark>
</Folder>
</Document></kml>
