<?xml version="1.0" encoding="utf-8" ?>
<kml xmlns="http://www.opengis.net/kml/2.2">
<Document id="root_doc">
<Schema name="task_grid_v6_45.38_60.58" id="task_grid_v6_45.38_60.58">
	<SimpleField name="area_ha" type="float"></SimpleField>
	<SimpleField name="low_risk_ha" type="float"></SimpleField>
	<SimpleField name="moderate_risk_ha" type="float"></SimpleField>
	<SimpleField name="grid_cell_deg" type="string"></SimpleField>
</Schema>
<Folder><name>task_grid_v6_45.38_60.58</name>
  <Placemark id="task_grid_v6_45.38_60.58.1">
	<name>task_grid_v6_45.38_60.58</name>
	<name>0</name>
	<description>34.6</description>
	<Style><LineStyle><color>ff0000ff</color></LineStyle><PolyStyle><fill>0</fill></PolyStyle></Style>
	<ExtendedData><SchemaData schemaUrl="#task_grid_v6_45.38_60.58">
		<SimpleData name="area_ha">34.6</SimpleData>
		<SimpleData name="low_risk_ha">0.1</SimpleData>
	</SchemaData></ExtendedData>
      <MultiGeometry><Polygon><outerBoundaryIs><LinearRing><coordinates>60.6112186816408,45.3518962764161 60.6112186816408,45.3492013305637 60.6058287899361,45.3492013305637 60.6044813170099,45.3505488034899 60.6112186816408,45.3518962764161</coordinates></LinearRing></outerBoundaryIs></Polygon><Polygon><outerBoundaryIs><LinearRing><coordinates>60.6263910613787,45.3487217294485 60.6233459379764,45.3505488034899 60.6233459379764,45.3532437493423 60.6263910613787,45.3542587904764 60.6263910613787,45.3487217294485</coordinates></LinearRing></outerBoundaryIs></Polygon><Polygon><outerBoundaryIs><LinearRing><coordinates>60.6193035191978,45.3492013305637 60.6152611004193,45.3505488034899 60.6193035191978,45.3545912222685 60.620650992124,45.3532437493423 60.6193035191978,45.3492013305637</coordinates></LinearRing></outerBoundaryIs></Polygon></MultiGeometry>
  </Placemark>
</Folder>
</Document></kml>
