<?xml version="1.0" encoding="utf-8" ?>
<kml xmlns="http://www.opengis.net/kml/2.2">
<Document id="root_doc">
<Schema name="task_grid_v6_45.38_59.18" id="task_grid_v6_45.38_59.18">
	<SimpleField name="area_ha" type="float"></SimpleField>
	<SimpleField name="low_risk_ha" type="float"></SimpleField>
	<SimpleField name="moderate_risk_ha" type="float"></SimpleField>
	<SimpleField name="grid_cell_deg" type="string"></SimpleField>
</Schema>
<Folder><name>task_grid_v6_45.38_59.18</name>
  <Placemark id="task_grid_v6_45.38_59.18.1">
	<name>task_grid_v6_45.38_59.18</name>
	<name>3775.8</name>
	<description>5557.6</description>
	<Style><LineStyle><color>ff0000ff</color></LineStyle><PolyStyle><fill>0</fill></PolyStyle></Style>
	<ExtendedData><SchemaData schemaUrl="#task_grid_v6_45.38_59.18">
		<SimpleData name="area_ha">1781.8</SimpleData>
		<SimpleData name="low_risk_ha">0.1</SimpleData>
	</SchemaData></ExtendedData>
      <MultiGeometry><Polygon><outerBoundaryIs><LinearRing><coordinates>59.1748125423337,45.3343547580755 59.1680873628529,45.3343547580755 59.1680751777028,45.3343791283758 59.1707701235551,45.3370740742281 59.1680751777028,45.3397690200805 59.1748125423337,45.3411164930067 59.1748125423337,45.3343547580755</coordinates></LinearRing></outerBoundaryIs></Polygon><Polygon><outerBoundaryIs><LinearRing><coordinates>59.1977195820787,45.3397690200805 59.1944710248757,45.3343547580755 59.1923540606743,45.3343547580755 59.1841961122164,45.3343547580755 59.1842448528169,45.3343791283758 59.1842448528169,45.3347641206404 59.1839264597109,45.3343547580755 59.1757576156379,45.3343547580755 59.1815499069645,45.3424639659329 59.1802024340384,45.343811438859 59.177507488186,45.3411164930067 59.1734650694075,45.3451589117852 59.1828973798907,45.3518962764161 59.1882872715954,45.3518962764161 59.192329690374,45.3451589117852 59.1910286820315,45.3434861867734 59.192329690374,45.3343791283758 59.1936771633002,45.343811438859 59.1977195820787,45.3397690200805</coordinates></LinearRing></outerBoundaryIs></Polygon><Polygon><outerBoundaryIs><LinearRing><coordinates>59.1263910613787,45.3977541280999 59.1263910613787,45.4024702833416 59.1263910613787,45.4343547580755 59.1602529733081,45.4343547580755 59.1599903401457,45.434092124913 59.1605156064706,45.4343547580755 59.1675327578209,45.4343547580755 59.1676937684298,45.4343547580755 59.1757222933224,45.4343547580755 59.1761600152598,45.434092124913 59.169871808271,45.4298999869205 59.1734650694075,45.4287022332083 59.1721175964813,45.4246598144298 59.1680751777028,45.426007287356 59.1692301544966,45.4294722177376 59.1680751777028,45.4287022332083 59.1667277047766,45.4246598144298 59.1653802318504,45.4287022332083 59.162685285998,45.4287022332083 59.1653802318504,45.4233123415036 59.1667277047766,45.4219648685774 59.1694226506289,45.4246598144298 59.1707701235551,45.4206173956512 59.1586428672195,45.4138800310204 59.154600448441,45.4233123415036 59.1572953942933,45.426007287356 59.1559479213671,45.4300497061345 59.1438206650315,45.4206173956512 59.1465156108839,45.4152275039465 59.1411257191792,45.4125325580942 59.1438206650315,45.4098376122418 59.1424731921053,45.4084901393156 59.1451681379577,45.4004053017586 59.1505580296624,45.411185085168 59.1532529755148,45.411185085168 59.1559479213671,45.4057951934633 59.1586428672195,45.411185085168 59.162685285998,45.4044477205371 59.1559479213671,45.4031002476109 59.1519055025886,45.3990578288324 59.154600448441,45.39636288298 59.1532529755148,45.3950154100538 59.154600448441,45.3936679371277 59.1721175964813,45.3950154100538 59.177507488186,45.3896255183491 59.1828973798907,45.3977103559062 59.1855923257431,45.3923204642015 59.1936771633002,45.3923204642015 59.1977195820787,45.3990578288324 59.1963721091525,45.4031002476109 59.1909822174478,45.3950154100538 59.1815499069645,45.4017527746847 59.1909822174478,45.4031002476109 59.1936771633002,45.4084901393156 59.2044569467096,45.411185085168 59.2044569467096,45.4084901393156 59.2004145279311,45.4071426663895 59.2004145279311,45.39636288298 59.1977195820787,45.3936679371277 59.1977195820787,45.3882780454229 59.1963721091525,45.3869305724968 59.1977195820787,45.3855830995706 59.2058044196358,45.3882780454229 59.2084993654881,45.3990578288324 59.2125417842667,45.4031002476109 59.2138892571929,45.3990578288324 59.215236730119,45.4004053017586 59.217789836716,45.3987032306939 59.2165842030452,45.4071426663895 59.2138892571929,45.4098376122418 59.2138892571929,45.4179224497989 59.2125417842667,45.4192699227251 59.2098468384143,45.4138800310204 59.207151892562,45.4192699227251 59.2031094737834,45.4206173956512 59.207151892562,45.4219648685774 59.2179316759714,45.4327446519869 59.2233215676761,45.4273547602821 59.2263910613787,45.4273547602821 59.2263910613787,45.410560838751 59.2260165135285,45.411185085168 59.2246690406023,45.4098376122418 59.2263910613787,45.4081155914654 59.2263910613787,45.4061697413135 59.2263910613787,45.4042238911616 59.2263910613787,45.4038737136116 59.2262860081137,45.4039087313666 59.2260165135285,45.4031002476109 59.2263910613787,45.4032250968943 59.2263910613787,45.4004053017586 59.2263910613787,45.3838610787942 59.2263910613787,45.3836178475252 59.2263910613787,45.3819152286423 59.2263910613787,45.3761507890873 59.215236730119,45.3761507890873 59.215236730119,45.373455843235 59.2206266218238,45.3707608973826 59.2263910613787,45.3719137852936 59.2263910613787,45.3628009091089 59.2260165135285,45.3626760598255 59.2206266218238,45.3680659515303 59.2125417842667,45.3680659515303 59.2098468384143,45.3707608973826 59.2058044196358,45.3694134244564 59.2084993654881,45.3667184786041 59.207151892562,45.3599811139732 59.2044569467096,45.3653710056779 59.1990670550049,45.3653710056779 59.1963721091525,45.3626760598255 59.1855923257431,45.3707608973826 59.1802024340384,45.3707608973826 59.177507488186,45.3653710056779 59.1721175964813,45.3680659515303 59.1721175964813,45.3626760598255 59.1667277047766,45.3626760598255 59.162685285998,45.358633641047 59.1640327589242,45.3545912222685 59.1667277047766,45.3572861681208 59.1680751777028,45.3559386951946 59.1680751777028,45.3532437493423 59.1599903401457,45.3505488034899 59.1599903401457,45.3424639659329 59.1640327589242,45.3411164930067 59.1680751777028,45.3343791283758 59.1680629925526,45.3343547580755 59.1370711152505,45.3343547580755 59.1263910613787,45.3343547580755 59.1263910613787,45.3464188403239 59.1263910613787,45.3464626125176 59.1263910613787,45.3977541280999</coordinates></LinearRing></outerBoundaryIs><innerBoundaryIs><LinearRing><coordinates>59.1478630838101,45.3950154100538 59.1451681379577,45.3977103559062 59.1451681379577,45.3929942006646 59.1532529755148,45.3950154100538 59.1478630838101,45.3950154100538</coordinates></LinearRing></innerBoundaryIs><innerBoundaryIs><LinearRing><coordinates>59.2179316759714,45.3842356266444 59.215236730119,45.3869305724968 59.215236730119,45.381540680792 59.2179316759714,45.3842356266444</coordinates></LinearRing></innerBoundaryIs><innerBoundaryIs><LinearRing><coordinates>59.2223109629815,45.3818775490236 59.2231458103379,45.3860517858058 59.2212041102207,45.3875080608937 59.2206266218238,45.3869305724968 59.2223109629815,45.3818775490236</coordinates></LinearRing></innerBoundaryIs><innerBoundaryIs><LinearRing><coordinates>59.1640327589242,45.3923204642015 59.154600448441,45.3936679371277 59.1559479213671,45.3923204642015 59.1640327589242,45.3923204642015</coordinates></LinearRing></innerBoundaryIs><innerBoundaryIs><LinearRing><coordinates>59.1303459357697,45.3478538576376 59.1330408816221,45.3451589117852 59.130615430355,45.3443504280295 59.1316934086959,45.343811438859 59.136132143041,45.3460308060316 59.1316934086959,45.3492013305637 59.1303459357697,45.3478538576376</coordinates></LinearRing></innerBoundaryIs><innerBoundaryIs><LinearRing><coordinates>59.1289984628436,45.3411164930067 59.1276509899174,45.3397690200805 59.1303459357697,45.3397690200805 59.1289984628436,45.3411164930067</coordinates></LinearRing></innerBoundaryIs><innerBoundaryIs><LinearRing><coordinates>59.1667277047766,45.3707608973826 59.1680751777028,45.3694134244564 59.1707701235551,45.3721083703088 59.1559479213671,45.3707608973826 59.1532529755148,45.373455843235 59.1519055025886,45.3721083703088 59.154600448441,45.3694134244564 59.1667277047766,45.3707608973826</coordinates></LinearRing></innerBoundaryIs><innerBoundaryIs><LinearRing><coordinates>59.1559479213671,45.3680659515303 59.1579691307564,45.3673922150672 59.154600448441,45.3694134244564 59.1559479213671,45.3680659515303</coordinates></LinearRing></innerBoundaryIs><innerBoundaryIs><LinearRing><coordinates>59.1680751777027,45.3694134244564 59.1623002937334,45.3659484940748 59.1640327589242,45.3653710056779 59.1680751777027,45.3694134244564</coordinates></LinearRing></innerBoundaryIs><innerBoundaryIs><LinearRing><coordinates>59.154600448441,45.3559386951946 59.1532529755148,45.3599811139732 59.1492105567363,45.358633641047 59.1505580296624,45.3518962764161 59.154600448441,45.3559386951946</coordinates></LinearRing></innerBoundaryIs><innerBoundaryIs><LinearRing><coordinates>59.139778246253,45.3518962764161 59.1411257191792,45.3532437493423 59.1370833004006,45.3572861681208 59.1357358274745,45.3559386951946 59.139778246253,45.3518962764161</coordinates></LinearRing></innerBoundaryIs><innerBoundaryIs><LinearRing><coordinates>59.1559479213671,45.343811438859 59.1559479213671,45.3465063847114 59.1532529755148,45.3465063847114 59.1519055025886,45.3451589117852 59.1559479213671,45.343811438859</coordinates></LinearRing></innerBoundaryIs><innerBoundaryIs><LinearRing><coordinates>59.1599903401457,45.3882780454229 59.1586428672195,45.3896255183491 59.1586428672195,45.3869305724968 59.1599903401457,45.3882780454229</coordinates></LinearRing></innerBoundaryIs><innerBoundaryIs><LinearRing><coordinates>59.1384307733268,45.4098376122418 59.1343883545483,45.411185085168 59.139778246253,45.4057951934633 59.1384307733268,45.4098376122418</coordinates></LinearRing></innerBoundaryIs><innerBoundaryIs><LinearRing><coordinates>59.1276509899174,45.4125325580942 59.1289984628436,45.411185085168 59.1289984628436,45.4138800310204 59.1276509899174,45.4125325580942</coordinates></LinearRing></innerBoundaryIs></Polygon><Polygon><outerBoundaryIs><LinearRing><coordinates>59.1950246362263,45.39636288298 59.1936771633002,45.3923204642015 59.1896347445216,45.3936679371277 59.1936771633002,45.3977103559062 59.1950246362263,45.39636288298</coordinates></LinearRing></outerBoundaryIs></Polygon><Polygon><outerBoundaryIs><LinearRing><coordinates>59.1869397986693,45.426007287356 59.1828973798907,45.4219648685774 59.1815499069645,45.426007287356 59.1855923257431,45.4273547602821 59.1869397986693,45.426007287356</coordinates></LinearRing></outerBoundaryIs></Polygon><Polygon><outerBoundaryIs><LinearRing><coordinates>59.1950246362263,45.426007287356 59.1909822174478,45.4219648685774 59.1869397986693,45.4233123415036 59.1936771633002,45.4273547602821 59.1950246362263,45.426007287356</coordinates></LinearRing></outerBoundaryIs></Polygon><Polygon><outerBoundaryIs><LinearRing><coordinates>59.1837842594702,45.4343547580755 59.1866771655068,45.4343547580755 59.1869397986693,45.434092124913 59.1802024340384,45.4273547602821 59.1788549611122,45.4313971790607 59.1837842594702,45.4343547580755</coordinates></LinearRing></outerBoundaryIs></Polygon><Polygon><outerBoundaryIs><LinearRing><coordinates>59.2246690406023,45.3370740742281 59.2263910613787,45.3405181157809 59.2263910613787,45.3365000673027 59.2246690406023,45.3370740742281</coordinates></LinearRing></outerBoundaryIs></Polygon><Polygon><outerBoundaryIs><LinearRing><coordinates>59.1990670550049,45.3545912222685 59.2017620008572,45.3465063847114 59.207151892562,45.343811438859 59.2098468384143,45.3465063847114 59.2111943113405,45.3424639659329 59.2121742916504,45.3419739757779 59.2084993654881,45.3505488034899 59.2098468384143,45.3518962764161 59.2125417842667,45.3492013305637 59.215236730119,45.3572861681208 59.2165842030452,45.3451589117852 59.2129909419087,45.3415656506487 59.2165842030452,45.3397690200805 59.2133356458422,45.3343547580755 59.2112186816408,45.3343547580755 59.2098468384143,45.335726601302 59.202987622282,45.3343547580755 59.1950490065266,45.3343547580755 59.1950246362263,45.3343791283758 59.1977195820787,45.3397690200805 59.1896347445216,45.3505488034899 59.1990670550049,45.3545912222685</coordinates></LinearRing></outerBoundaryIs></Polygon><Polygon><outerBoundaryIs><LinearRing><coordinates>59.2263910613787,45.3444098160848 59.2246690406023,45.3478538576376 59.2263910613787,45.3488870701034 59.2263910613787,45.3444098160848</coordinates></LinearRing></outerBoundaryIs></Polygon><Polygon><outerBoundaryIs><LinearRing><coordinates>59.2219740947499,45.3532437493423 59.2206266218238,45.3492013305637 59.2165842030452,45.3532437493423 59.2179316759714,45.3545912222685 59.2219740947499,45.3532437493423</coordinates></LinearRing></outerBoundaryIs></Polygon><Polygon><outerBoundaryIs><LinearRing><coordinates>59.2263910613787,45.3625512105421 59.2263910613787,45.3580596341215 59.2246690406023,45.358633641047 59.2260165135285,45.3626760598255 59.2263910613787,45.3625512105421</coordinates></LinearRing></outerBoundaryIs></Polygon><Polygon><outerBoundaryIs><LinearRing><coordinates>59.2111943113405,45.4098376122418 59.2098468384143,45.4057951934633 59.2058044196358,45.4071426663895 59.2098468384143,45.411185085168 59.2111943113405,45.4098376122418</coordinates></LinearRing></outerBoundaryIs></Polygon><Polygon><outerBoundaryIs><LinearRing><coordinates>59.2058044196358,45.426007287356 59.2017620008572,45.4219648685774 59.1977195820787,45.4233123415036 59.2044569467096,45.4273547602821 59.2058044196358,45.426007287356</coordinates></LinearRing></outerBoundaryIs></Polygon><Polygon><outerBoundaryIs><LinearRing><coordinates>59.1977195820787,45.434092124913 59.1979822152412,45.4343547580755 59.2033721069459,45.4343547580755 59.2017620008572,45.4327446519869 59.1977195820787,45.434092124913</coordinates></LinearRing></outerBoundaryIs></Polygon><Polygon><outerBoundaryIs><LinearRing><coordinates>59.2133639908679,45.4343547580755 59.2138892571929,45.434092124913 59.207151892562,45.4327446519869 59.2055417864733,45.4343547580755 59.2133639908679,45.4343547580755</coordinates></LinearRing></outerBoundaryIs></Polygon></MultiGeometry>
  </Placemark>
</Folder>
</Document></kml>
