<?xml version="1.0" encoding="utf-8" ?>
<kml xmlns="http://www.opengis.net/kml/2.2">
<Document id="root_doc">
<Schema name="task_grid_v6_46.08_60.68" id="task_grid_v6_46.08_60.68">
	<SimpleField name="area_ha" type="float"></SimpleField>
	<SimpleField name="low_risk_ha" type="float"></SimpleField>
	<SimpleField name="moderate_risk_ha" type="float"></SimpleField>
	<SimpleField name="grid_cell_deg" type="string"></SimpleField>
</Schema>
<Folder><name>task_grid_v6_46.08_60.68</name>
  <Placemark id="task_grid_v6_46.08_60.68.1">
	<name>task_grid_v6_46.08_60.68</name>
	<name>540.6</name>
	<description>677.2</description>
	<Style><LineStyle><color>ff0000ff</color></LineStyle><PolyStyle><fill>0</fill></PolyStyle></Style>
	<ExtendedData><SchemaData schemaUrl="#task_grid_v6_46.08_60.68">
		<SimpleData name="area_ha">136.5</SimpleData>
		<SimpleData name="low_risk_ha">0.1</SimpleData>
	</SchemaData></ExtendedData>
      <MultiGeometry><Polygon><outerBoundaryIs><LinearRing><coordinates>60.6327782484596,46.0768367107006 60.6368206672382,46.0754892377744 60.635473194312,46.0714468189958 60.6314307755335,46.072794291922 60.6327782484596,46.0768367107006</coordinates></LinearRing></outerBoundaryIs></Polygon><Polygon><outerBoundaryIs><LinearRing><coordinates>60.6263910613787,46.0800112576681 60.6300833026073,46.0822266024053 60.6314307755335,46.0808791294791 60.6273883567549,46.0768367107006 60.6263910613787,46.0771691424926 60.6263910613787,46.0800112576681</coordinates></LinearRing></outerBoundaryIs></Polygon><Polygon><outerBoundaryIs><LinearRing><coordinates>60.6489479235738,46.0849215482576 60.6502953965,46.0835740753315 60.6489479235738,46.0741417648482 60.6449055047953,46.0754892377744 60.6489479235738,46.0849215482576</coordinates></LinearRing></outerBoundaryIs></Polygon><Polygon><outerBoundaryIs><LinearRing><coordinates>60.6327782484596,46.1037861692241 60.6341257213858,46.0997437504456 60.6314307755335,46.0943538587409 60.6263910613787,46.0909940493044 60.6263910613787,46.0989957789134 60.6327782484596,46.1037861692241</coordinates></LinearRing></outerBoundaryIs></Polygon><Polygon><outerBoundaryIs><LinearRing><coordinates>60.6529903423523,46.0970488045932 60.6462529777214,46.0930063858147 60.6422105589429,46.0970488045932 60.6462529777214,46.1064811150765 60.6529903423523,46.0970488045932</coordinates></LinearRing></outerBoundaryIs></Polygon><Polygon><outerBoundaryIs><LinearRing><coordinates>60.6408630860167,46.1064811150765 60.6422105589429,46.1051336421503 60.6408630860167,46.1010912233718 60.6368206672382,46.102438696298 60.6408630860167,46.1064811150765</coordinates></LinearRing></outerBoundaryIs></Polygon><Polygon><outerBoundaryIs><LinearRing><coordinates>60.6543378152785,46.1199558443383 60.6556852882047,46.1159134255598 60.6516428694261,46.1118710067812 60.6502953965,46.1186083714121 60.6543378152785,46.1199558443383</coordinates></LinearRing></outerBoundaryIs></Polygon><Polygon><outerBoundaryIs><LinearRing><coordinates>60.6597277069832,46.1334305736001 60.6610751799094,46.1320831006739 60.6597277069832,46.1280406818954 60.6556852882047,46.1293881548215 60.6597277069832,46.1334305736001</coordinates></LinearRing></outerBoundaryIs></Polygon><Polygon><outerBoundaryIs><LinearRing><coordinates>60.640339618361,46.1343547580755 60.6381681401644,46.1307356277477 60.6374443140988,46.1343547580755 60.640339618361,46.1343547580755</coordinates></LinearRing></outerBoundaryIs></Polygon><Polygon><outerBoundaryIs><LinearRing><coordinates>60.6297601933614,46.1343547580755 60.6263910613787,46.1319482352307 60.6263910613787,46.1343547580755 60.6297601933614,46.1343547580755</coordinates></LinearRing></outerBoundaryIs></Polygon><Polygon><outerBoundaryIs><LinearRing><coordinates>60.6853296925806,46.0835740753315 60.6907195842853,46.0916589128885 60.6947620030639,46.0930063858147 60.6961094759901,46.0889639670362 60.6893721113592,46.0795316565529 60.6853296925806,46.0835740753315</coordinates></LinearRing></outerBoundaryIs></Polygon><Polygon><outerBoundaryIs><LinearRing><coordinates>60.673202436245,46.0822266024053 60.6664650716141,46.0916589128885 60.6705074903927,46.1010912233718 60.6718549633188,46.0970488045932 60.6772448550236,46.0943538587409 60.6772448550236,46.0862690211838 60.673202436245,46.0822266024053</coordinates></LinearRing></outerBoundaryIs></Polygon><Polygon><outerBoundaryIs><LinearRing><coordinates>60.7230589345137,46.1078285880027 60.725753880366,46.110523533855 60.725753880366,46.1159134255598 60.7263910613787,46.1160044514187 60.7263910613787,46.1044964611376 60.7230589345137,46.1078285880027</coordinates></LinearRing></outerBoundaryIs></Polygon><Polygon><outerBoundaryIs><LinearRing><coordinates>60.6799398008759,46.1159134255598 60.6785923279497,46.1118710067812 60.6745499091712,46.1132184797074 60.6785923279497,46.1172608984859 60.6799398008759,46.1159134255598</coordinates></LinearRing></outerBoundaryIs></Polygon><Polygon><outerBoundaryIs><LinearRing><coordinates>60.688024638433,46.1159134255598 60.6839822196545,46.1118710067812 60.6826347467283,46.1159134255598 60.6866771655068,46.1172608984859 60.688024638433,46.1159134255598</coordinates></LinearRing></outerBoundaryIs></Polygon><Polygon><outerBoundaryIs><LinearRing><coordinates>60.6718549633188,46.1159134255598 60.6678125445403,46.1091760609289 60.6664650716141,46.1132184797074 60.6610751799094,46.1159134255598 60.6651175986879,46.1226507901907 60.6758973820974,46.125345736043 60.6799398008759,46.1213033172645 60.6718549633188,46.1159134255598</coordinates></LinearRing></outerBoundaryIs></Polygon><Polygon><outerBoundaryIs><LinearRing><coordinates>60.7244064074398,46.1226507901907 60.725753880366,46.1186083714121 60.7190165157351,46.1118710067812 60.7176690428089,46.1159134255598 60.7244064074398,46.1226507901907</coordinates></LinearRing></outerBoundaryIs></Polygon><Polygon><outerBoundaryIs><LinearRing><coordinates>60.7190165157351,46.125345736043 60.7203639886613,46.1239982631168 60.7163215698828,46.1199558443383 60.7149740969566,46.1239982631168 60.7190165157351,46.125345736043</coordinates></LinearRing></outerBoundaryIs></Polygon><Polygon><outerBoundaryIs><LinearRing><coordinates>60.7136266240304,46.1307356277477 60.7095842052519,46.1266932089692 60.7122791511042,46.1213033172645 60.710931678178,46.1199558443383 60.7041943135471,46.1239982631168 60.7041943135471,46.1266932089692 60.710931678178,46.1334305736001 60.7163215698828,46.1334305736001 60.7203639886613,46.1293881548215 60.7163215698828,46.1280406818954 60.7136266240304,46.1307356277477</coordinates></LinearRing></outerBoundaryIs></Polygon><Polygon><outerBoundaryIs><LinearRing><coordinates>60.7263910613787,46.1343547580755 60.7263910613787,46.1257719111911 60.7203639886613,46.1293881548215 60.7233439506137,46.1343547580755 60.7263910613787,46.1343547580755</coordinates></LinearRing></outerBoundaryIs></Polygon></MultiGeometry>
  </Placemark>
</Folder>
</Document></kml>
