<?xml version="1.0" encoding="utf-8" ?>
<kml xmlns="http://www.opengis.net/kml/2.2">
<Document id="root_doc">
<Schema name="task_grid_v6_44.78_60.78" id="task_grid_v6_44.78_60.78">
	<SimpleField name="area_ha" type="float"></SimpleField>
	<SimpleField name="low_risk_ha" type="float"></SimpleField>
	<SimpleField name="moderate_risk_ha" type="float"></SimpleField>
	<SimpleField name="grid_cell_deg" type="string"></SimpleField>
</Schema>
<Folder><name>task_grid_v6_44.78_60.78</name>
  <Placemark id="task_grid_v6_44.78_60.78.1">
	<name>task_grid_v6_44.78_60.78</name>
	<name>0</name>
	<description>62.3</description>
	<Style><LineStyle><color>ff0000ff</color></LineStyle><PolyStyle><fill>0</fill></PolyStyle></Style>
	<ExtendedData><SchemaData schemaUrl="#task_grid_v6_44.78_60.78">
		<SimpleData name="area_ha">62.3</SimpleData>
		<SimpleData name="low_risk_ha">0.1</SimpleData>
	</SchemaData></ExtendedData>
      <MultiGeometry><Polygon><outerBoundaryIs><LinearRing><coordinates>60.7836952161917,44.7967374308302 60.7836952161917,44.7940424849779 60.778305324487,44.7940424849779 60.7769578515608,44.7980849037564 60.778305324487,44.7994323766826 60.7836952161917,44.7967374308302</coordinates></LinearRing></outerBoundaryIs></Polygon><Polygon><outerBoundaryIs><LinearRing><coordinates>60.8079497288629,44.8075172142397 60.8025598371582,44.8075172142397 60.8012123642321,44.8088646871659 60.8079497288629,44.810212160092 60.8079497288629,44.8075172142397</coordinates></LinearRing></outerBoundaryIs></Polygon><Polygon><outerBoundaryIs><LinearRing><coordinates>60.7567457576681,44.8075172142397 60.7527033388896,44.8088646871659 60.7540508118158,44.8129071059444 60.7580932305943,44.8115596330182 60.7567457576681,44.8075172142397</coordinates></LinearRing></outerBoundaryIs></Polygon><Polygon><outerBoundaryIs><LinearRing><coordinates>60.8263910613787,44.8270873159575 60.8227719310509,44.8331191998371 60.8240074892893,44.8343547580755 60.8263910613787,44.8343547580755 60.8263910613787,44.8270873159575</coordinates></LinearRing></outerBoundaryIs></Polygon></MultiGeometry>
  </Placemark>
</Folder>
</Document></kml>
