<?xml version="1.0" encoding="utf-8" ?>
<kml xmlns="http://www.opengis.net/kml/2.2">
<Document id="root_doc">
<Schema name="task_grid_v6_46.11_60.26" id="task_grid_v6_46.11_60.26">
	<SimpleField name="area_ha" type="float"></SimpleField>
	<SimpleField name="low_risk_ha" type="float"></SimpleField>
	<SimpleField name="moderate_risk_ha" type="float"></SimpleField>
	<SimpleField name="grid_cell_deg" type="string"></SimpleField>
</Schema>
<Folder><name>task_grid_v6_46.11_60.26</name>
  <Placemark id="task_grid_v6_46.11_60.26.1">
	<name>task_grid_v6_46.11_60.26</name>
	<name>2902.6</name>
	<description>4844.1</description>
	<Style><LineStyle><color>ff0000ff</color></LineStyle><PolyStyle><fill>0</fill></PolyStyle></Style>
	<ExtendedData><SchemaData schemaUrl="#task_grid_v6_46.11_60.26">
		<SimpleData name="area_ha">1941.5</SimpleData>
		<SimpleData name="low_risk_ha">0.1</SimpleData>
	</SchemaData></ExtendedData>
      <MultiGeometry><Polygon><outerBoundaryIs><LinearRing><coordinates>60.2304334801572,46.0625641451378 60.2193522597984,46.0625641451378 60.2177565871964,46.0633619814388 60.2161609145944,46.0625641451378 60.2104695859403,46.0625641451378 60.2102213862645,46.0628123448136 60.2102213862645,46.0671295819047 60.2123666954917,46.0660569272911 60.2150616413441,46.0687518731435 60.2177565871964,46.0660569272911 60.2312313164582,46.0660569272911 60.2312313164582,46.0633619814388 60.2352737352368,46.0674044002173 60.2352737352368,46.072794291922 60.2406636269415,46.072794291922 60.2474009915724,46.0741417648482 60.2527908832771,46.0714468189958 60.2635706666865,46.0795316565529 60.2662656125389,46.0849215482576 60.2730029771698,46.0808791294791 60.2689605583912,46.0741417648482 60.2608757208342,46.0741417648482 60.259528247908,46.072794291922 60.2581807749818,46.0714468189958 60.2649181396127,46.0647094543649 60.2586299326239,46.0629128237967 60.2610706832364,46.0625641451378 60.2574095573176,46.0625641451378 60.2536242110938,46.0625641451378 60.2379509353312,46.0625641451378 60.2358233718619,46.0625641451378 60.235025535561,46.0625641451378 60.2312313164582,46.0625641451378 60.2304334801572,46.0625641451378</coordinates></LinearRing></outerBoundaryIs><innerBoundaryIs><LinearRing><coordinates>60.2379686810891,46.0700993460697 60.2393161540153,46.0687518731435 60.2420110998676,46.0687518731435 60.2406636269415,46.072794291922 60.2379686810891,46.0700993460697</coordinates></LinearRing></innerBoundaryIs><innerBoundaryIs><LinearRing><coordinates>60.2474009915724,46.0644399597797 60.2487484644985,46.0647094543649 60.2474009915724,46.0647094543649 60.2474009915724,46.0644399597797</coordinates></LinearRing></innerBoundaryIs></Polygon><Polygon><outerBoundaryIs><LinearRing><coordinates>60.2379686810891,46.0754892377744 60.2352737352368,46.072794291922 60.2339262623106,46.0714468189958 60.229883843532,46.0781841836267 60.2312313164582,46.0795316565529 60.2379686810891,46.0754892377744</coordinates></LinearRing></outerBoundaryIs></Polygon><Polygon><outerBoundaryIs><LinearRing><coordinates>60.2204515330488,46.0795316565529 60.2204515330488,46.0768367107006 60.2123666954917,46.0768367107006 60.2110192225655,46.0781841836267 60.2204515330488,46.0795316565529</coordinates></LinearRing></outerBoundaryIs></Polygon><Polygon><outerBoundaryIs><LinearRing><coordinates>60.2312313164582,46.0957013316671 60.2312313164582,46.0930063858147 60.2231464789011,46.0930063858147 60.221799005975,46.0943538587409 60.2312313164582,46.0957013316671</coordinates></LinearRing></outerBoundaryIs></Polygon><Polygon><outerBoundaryIs><LinearRing><coordinates>60.2433585727938,46.0970488045932 60.2393161540153,46.0930063858147 60.2325787893844,46.0970488045932 60.2357228928788,46.0983962775194 60.2339262623106,46.0983962775194 60.2339262623106,46.1010912233718 60.2379686810891,46.102438696298 60.229883843532,46.1051336421503 60.2366212081629,46.1064811150765 60.2379686810891,46.110523533855 60.2339262623106,46.1118710067812 60.2339262623106,46.1145659526336 60.2393161540153,46.1145659526336 60.2366212081629,46.1199558443383 60.2339262623106,46.1172608984859 60.2285363706059,46.1172608984859 60.2258414247535,46.1199558443383 60.2150616413441,46.1199558443383 60.2123666954917,46.1145659526336 60.2102213862645,46.1160983163673 60.2102213862645,46.1237323176832 60.2150616413441,46.125345736043 60.2177565871964,46.1226507901907 60.2420110998676,46.1226507901907 60.24470604572,46.1199558443383 60.2581807749818,46.1199558443383 60.2649181396127,46.1159134255598 60.2554858291294,46.1145659526336 60.2716555042436,46.1145659526336 60.274350450096,46.1172608984859 60.2918675981363,46.1186083714121 60.2689605583912,46.1226507901907 60.2662656125389,46.1280406818954 60.2662656125389,46.1226507901907 60.2608757208342,46.1226507901907 60.259528247908,46.1239982631168 60.2620838000094,46.1255315943777 60.2527908832771,46.1266932089692 60.2527908832771,46.1226507901907 60.2474009915724,46.125345736043 60.24470604572,46.1226507901907 60.2406636269415,46.1266932089692 60.2470839391191,46.1274065769889 60.2420110998676,46.1280406818954 60.2393161540153,46.125345736043 60.2339262623106,46.125345736043 60.2312313164582,46.1280406818954 60.2285363706059,46.125345736043 60.2258414247535,46.1280406818954 60.2204515330488,46.1280406818954 60.2186549024805,46.1316339430319 60.2150616413441,46.1280406818954 60.2137141684179,46.1320831006739 60.2177565871964,46.1334305736001 60.2102213862645,46.1334305736001 60.2102213862645,46.1361255194524 60.2102213862645,46.1436607203843 60.2137141684179,46.140167938231 60.2123666954917,46.1361255194524 60.2150616413441,46.1388204653048 60.2177565871964,46.1388204653048 60.2164091142702,46.1428628840833 60.2177565871964,46.1442103570095 60.2231464789011,46.1415154111572 60.2258414247535,46.1442103570095 60.2312313164582,46.1442103570095 60.2312313164582,46.1361255194524 60.2339262623106,46.1415154111572 60.2500959374247,46.1442103570095 60.2514434103509,46.1428628840833 60.2527908832771,46.1442103570095 60.2689605583912,46.1442103570095 60.2716555042436,46.1469053028619 60.2770453959483,46.1469053028619 60.2797403418007,46.1442103570095 60.2851302335054,46.1442103570095 60.2932150710625,46.1442103570095 60.2959100169148,46.1469053028619 60.2986049627672,46.1442103570095 60.3102213862645,46.1442103570095 60.3102213862645,46.1388204653048 60.3102213862645,46.1199558443383 60.3093847461766,46.1199558443383 60.3093847461766,46.1188778659974 60.3102213862645,46.1190451940149 60.3102213862645,46.1172608984859 60.3093847461766,46.1172608984859 60.3093847461766,46.1145659526336 60.3102213862645,46.1150679366863 60.3102213862645,46.1110343666933 60.3093847461766,46.1118710067812 60.3080372732504,46.102438696298 60.3102213862645,46.1017106586266 60.3102213862645,46.0975596374315 60.3102213862645,46.0968163151257 60.3102213862645,46.096537971755 60.3066898003242,46.0930063858147 60.3039948544719,46.0957013316671 60.2999524356934,46.0970488045932 60.3079336214869,46.0981889739923 60.2986049627672,46.1037861692241 60.2986049627672,46.0983962775194 60.2959100169148,46.1010912233718 60.2918675981363,46.0997437504456 60.297257489841,46.0970488045932 60.2878251793577,46.0957013316671 60.2864777064316,46.0970488045932 60.2851302335054,46.0957013316671 60.2797403418007,46.0983962775194 60.274350450096,46.0983962775194 60.24470604572,46.0983962775194 60.2420110998676,46.1010912233718 60.2433585727938,46.0970488045932</coordinates></LinearRing></outerBoundaryIs><innerBoundaryIs><LinearRing><coordinates>60.2527908832771,46.1172608984859 60.2527908832771,46.1118710067812 60.2554858291294,46.1145659526336 60.2527908832771,46.1172608984859</coordinates></LinearRing></innerBoundaryIs><innerBoundaryIs><LinearRing><coordinates>60.2797403418007,46.1064811150765 60.274350450096,46.1064811150765 60.2703080313174,46.102438696298 60.2716555042436,46.1010912233718 60.274350450096,46.1037861692241 60.2770453959483,46.1010912233718 60.2797403418007,46.1037861692241 60.2810878147268,46.102438696298 60.2851302335054,46.1037861692241 60.282435287653,46.1037861692241 60.2797403418007,46.1064811150765</coordinates></LinearRing></innerBoundaryIs><innerBoundaryIs><LinearRing><coordinates>60.2878251793577,46.1010912233718 60.2905201252101,46.1037861692241 60.2851302335054,46.1037861692241 60.2878251793577,46.1010912233718</coordinates></LinearRing></innerBoundaryIs><innerBoundaryIs><LinearRing><coordinates>60.2770453959483,46.1307356277477 60.2783928688745,46.1320831006739 60.2500959374247,46.1307356277477 60.2770453959483,46.1307356277477</coordinates></LinearRing></innerBoundaryIs><innerBoundaryIs><LinearRing><coordinates>60.3012999086195,46.1361255194524 60.2986049627672,46.1388204653048 60.2959100169148,46.1361255194524 60.3012999086195,46.1361255194524</coordinates></LinearRing></innerBoundaryIs><innerBoundaryIs><LinearRing><coordinates>60.2770453959483,46.1280406818954 60.2770453959483,46.125345736043 60.2797403418007,46.125345736043 60.2810878147268,46.1266932089692 60.2770453959483,46.1280406818954</coordinates></LinearRing></innerBoundaryIs><innerBoundaryIs><LinearRing><coordinates>60.2932150710625,46.125345736043 60.2959100169148,46.125345736043 60.2959100169148,46.1280406818954 60.2918675981363,46.1266932089692 60.2932150710625,46.125345736043</coordinates></LinearRing></innerBoundaryIs><innerBoundaryIs><LinearRing><coordinates>60.3012999086195,46.1280406818954 60.2999524356934,46.1266932089692 60.3053423273981,46.1239982631168 60.3012999086195,46.1280406818954</coordinates></LinearRing></innerBoundaryIs><innerBoundaryIs><LinearRing><coordinates>60.2379686810891,46.1374729923786 60.2366212081629,46.1388204653048 60.2366212081629,46.1361255194524 60.2379686810891,46.1374729923786</coordinates></LinearRing></innerBoundaryIs><innerBoundaryIs><LinearRing><coordinates>60.2878251793577,46.1334305736001 60.2864777064316,46.1320831006739 60.2891726522839,46.1320831006739 60.2878251793577,46.1334305736001</coordinates></LinearRing></innerBoundaryIs><innerBoundaryIs><LinearRing><coordinates>60.3080372732504,46.1266932089692 60.3093847461766,46.125345736043 60.3093847461766,46.1280406818954 60.3080372732504,46.1266932089692</coordinates></LinearRing></innerBoundaryIs><innerBoundaryIs><LinearRing><coordinates>60.2474009915724,46.1091760609289 60.2460535186462,46.1078285880027 60.2487484644985,46.1078285880027 60.2474009915724,46.1091760609289</coordinates></LinearRing></innerBoundaryIs><innerBoundaryIs><LinearRing><coordinates>60.2514434103509,46.1051336421503 60.2527908832771,46.1037861692241 60.2527908832771,46.1064811150765 60.2514434103509,46.1051336421503</coordinates></LinearRing></innerBoundaryIs><innerBoundaryIs><LinearRing><coordinates>60.2527908832771,46.1361255194524 60.2514434103509,46.1347780465263 60.2541383562033,46.1347780465263 60.2527908832771,46.1361255194524</coordinates></LinearRing></innerBoundaryIs></Polygon><Polygon><outerBoundaryIs><LinearRing><coordinates>60.2325787893844,46.0970488045932 60.2102213862645,46.096327598041 60.2102213862645,46.0983639459532 60.2325787893844,46.0970488045932</coordinates></LinearRing></outerBoundaryIs></Polygon><Polygon><outerBoundaryIs><LinearRing><coordinates>60.2137141684179,46.102438696298 60.2102213862645,46.1012744355802 60.2102213862645,46.1041850873746 60.2137141684179,46.102438696298</coordinates></LinearRing></outerBoundaryIs></Polygon><Polygon><outerBoundaryIs><LinearRing><coordinates>60.2177565871964,46.1010912233718 60.2102213862645,46.1061146906597 60.2102213862645,46.1142161838721 60.2244939518273,46.1051336421503 60.2177565871964,46.1010912233718</coordinates></LinearRing></outerBoundaryIs></Polygon><Polygon><outerBoundaryIs><LinearRing><coordinates>60.221799005975,46.1159134255598 60.2177565871964,46.1118710067812 60.2137141684179,46.1132184797074 60.2204515330488,46.1172608984859 60.221799005975,46.1159134255598</coordinates></LinearRing></outerBoundaryIs></Polygon><Polygon><outerBoundaryIs><LinearRing><coordinates>60.2312313164582,46.1576850862713 60.2312313164582,46.1603800321237 60.22686309043,46.1625641451378 60.2453616817803,46.1625641451378 60.2460535186462,46.1563376133451 60.24470604572,46.154990140419 60.2366212081629,46.1603800321237 60.2352737352368,46.1563376133451 60.2420110998676,46.1522951945666 60.259528247908,46.1509477216404 60.2500959374247,46.1442103570095 60.2352737352368,46.1428628840833 60.2379686810891,46.1455578299357 60.2352737352368,46.1482527757881 60.2379686810891,46.1509477216404 60.2366212081629,46.1522951945666 60.221799005975,46.1536426674928 60.2258414247535,46.1576850862713 60.2312313164582,46.1576850862713</coordinates></LinearRing></outerBoundaryIs></Polygon><Polygon><outerBoundaryIs><LinearRing><coordinates>60.2150616413441,46.154990140419 60.2102213862645,46.1587547832586 60.2102213862645,46.1625641451378 60.2118685037756,46.1625641451378 60.2164091142702,46.1590325591975 60.2150616413441,46.154990140419</coordinates></LinearRing></outerBoundaryIs></Polygon><Polygon><outerBoundaryIs><LinearRing><coordinates>60.2231464789011,46.1603800321237 60.2224184412298,46.1625641451378 60.2253305919152,46.1625641451378 60.2231464789011,46.1603800321237</coordinates></LinearRing></outerBoundaryIs></Polygon><Polygon><outerBoundaryIs><LinearRing><coordinates>60.2783928688745,46.0647094543649 60.282435287653,46.0687518731435 60.2878251793577,46.0687518731435 60.2959100169148,46.0741417648482 60.3012999086195,46.0660569272911 60.3066898003242,46.0687518731435 60.3102213862645,46.0660050840788 60.3102213862645,46.0625641451378 60.2987645300274,46.0625641451378 60.2986049627672,46.0633619814388 60.2963855955946,46.0627278765323 60.2972042525674,46.0625641451378 60.2958125357137,46.0625641451378 60.2924172347615,46.0625641451378 60.2788219307199,46.0625641451378 60.2783928688745,46.0647094543649</coordinates></LinearRing></outerBoundaryIs></Polygon><Polygon><outerBoundaryIs><LinearRing><coordinates>60.2676130854651,46.0700993460697 60.2662656125389,46.0633619814388 60.2649181396127,46.0647094543649 60.259528247908,46.0700993460697 60.2608757208342,46.0714468189958 60.2676130854651,46.0700993460697</coordinates></LinearRing></outerBoundaryIs></Polygon><Polygon><outerBoundaryIs><LinearRing><coordinates>60.2689605583912,46.0714468189958 60.2608757208342,46.0714468189958 60.259528247908,46.072794291922 60.2689605583912,46.0741417648482 60.2689605583912,46.0714468189958</coordinates></LinearRing></outerBoundaryIs></Polygon><Polygon><outerBoundaryIs><LinearRing><coordinates>60.2770453959483,46.0741417648482 60.2770453959483,46.0714468189958 60.2716555042436,46.0714468189958 60.2703080313174,46.072794291922 60.2770453959483,46.0741417648482</coordinates></LinearRing></outerBoundaryIs></Polygon><Polygon><outerBoundaryIs><LinearRing><coordinates>60.2770453959483,46.0849215482576 60.2797403418007,46.0822266024053 60.2815369723689,46.0822266024053 60.2783928688745,46.0835740753315 60.2878251793577,46.0849215482576 60.2905201252101,46.08761649411 60.2986049627672,46.08761649411 60.3012999086195,46.0903114399623 60.3026473815457,46.0889639670362 60.3012999086195,46.0849215482576 60.2932150710625,46.0849215482576 60.2878251793577,46.0795316565529 60.2867154957715,46.0800072352327 60.2918675981363,46.072794291922 60.2891726522839,46.0700993460697 60.2797403418007,46.0687518731435 60.2770453959483,46.0741417648482 60.2716555042436,46.0741417648482 60.2703080313174,46.0754892377744 60.2756979230221,46.0808791294791 60.2730029771698,46.0835740753315 60.2770453959483,46.0849215482576</coordinates></LinearRing></outerBoundaryIs><innerBoundaryIs><LinearRing><coordinates>60.282435287653,46.0741417648482 60.2810878147268,46.072794291922 60.2837827605792,46.072794291922 60.282435287653,46.0741417648482</coordinates></LinearRing></innerBoundaryIs></Polygon><Polygon><outerBoundaryIs><LinearRing><coordinates>60.3093847461766,46.0903114399623 60.3102213862645,46.0894747998744 60.3102213862645,46.0849215482576 60.3093847461766,46.0849215482576 60.3053423273981,46.0889639670362 60.3093847461766,46.0903114399623</coordinates></LinearRing></outerBoundaryIs></Polygon><Polygon><outerBoundaryIs><LinearRing><coordinates>60.282435287653,46.0930063858147 60.2864777064316,46.0889639670362 60.2797403418007,46.08761649411 60.2783928688745,46.0889639670362 60.282435287653,46.0930063858147</coordinates></LinearRing></outerBoundaryIs></Polygon><Polygon><outerBoundaryIs><LinearRing><coordinates>60.2460535186462,46.0970488045932 60.274350450096,46.0983962775194 60.2810878147268,46.0916589128885 60.2770453959483,46.08761649411 60.2716555042436,46.0957013316671 60.2460535186462,46.0970488045932</coordinates></LinearRing></outerBoundaryIs></Polygon><Polygon><outerBoundaryIs><LinearRing><coordinates>60.3102213862645,46.1625641451378 60.3102213862645,46.1532243474488 60.3066898003242,46.154990140419 60.3012999086195,46.1496002487142 60.2878251793577,46.1469053028619 60.2851302335054,46.1442103570095 60.2783928688745,46.1455578299357 60.2783928688745,46.1536426674928 60.2810878147268,46.1563376133451 60.2783928688745,46.1590325591975 60.2864777064316,46.1617275050499 60.2856410663436,46.1625641451378 60.3102213862645,46.1625641451378</coordinates></LinearRing></outerBoundaryIs><innerBoundaryIs><LinearRing><coordinates>60.2999524356934,46.1590325591975 60.3026473815457,46.1590325591975 60.3012999086195,46.1603800321237 60.2999524356934,46.1590325591975</coordinates></LinearRing></innerBoundaryIs></Polygon><Polygon><outerBoundaryIs><LinearRing><coordinates>60.2533017161153,46.1625641451378 60.2541383562033,46.1617275050499 60.2527908832771,46.1576850862713 60.2487484644985,46.1617275050499 60.2490273445278,46.1625641451378 60.2533017161153,46.1625641451378</coordinates></LinearRing></outerBoundaryIs></Polygon></MultiGeometry>
  </Placemark>
</Folder>
</Document></kml>
