<?xml version="1.0" encoding="utf-8" ?>
<kml xmlns="http://www.opengis.net/kml/2.2">
<Document id="root_doc">
<Schema name="task_grid_v6_46.21_59.96" id="task_grid_v6_46.21_59.96">
	<SimpleField name="area_ha" type="float"></SimpleField>
	<SimpleField name="low_risk_ha" type="float"></SimpleField>
	<SimpleField name="moderate_risk_ha" type="float"></SimpleField>
	<SimpleField name="grid_cell_deg" type="string"></SimpleField>
</Schema>
<Folder><name>task_grid_v6_46.21_59.96</name>
  <Placemark id="task_grid_v6_46.21_59.96.1">
	<name>task_grid_v6_46.21_59.96</name>
	<name>974.6</name>
	<description>1004.8</description>
	<Style><LineStyle><color>ff0000ff</color></LineStyle><PolyStyle><fill>0</fill></PolyStyle></Style>
	<ExtendedData><SchemaData schemaUrl="#task_grid_v6_46.21_59.96">
		<SimpleData name="area_ha">30.2</SimpleData>
		<SimpleData name="low_risk_ha">0.1</SimpleData>
	</SchemaData></ExtendedData>
      <Polygon><outerBoundaryIs><LinearRing><coordinates>60.0102213862645,46.1738547613855 60.0102213862645,46.1678470381467 60.0075508107125,46.1657699238284 60.0102213862645,46.1657699238284 60.0102213862645,46.1625641451378 59.9545810465475,46.1625641451378 59.9523044207391,46.1671173967546 59.9536518936653,46.1711598155331 59.9563468395176,46.1684648696807 59.9644316770747,46.1711598155331 59.9671266229271,46.1684648696807 59.9711690417056,46.1725072884593 59.9711690417056,46.177897180164 59.981948825115,46.1859820177211 59.9792538792627,46.1886769635734 59.9859912438936,46.1954143282043 59.9994659731554,46.2008042199091 59.9994659731554,46.1954143282043 60.0102213862645,46.2007920347589 60.0102213862645,46.1743888764959 60.0075508107125,46.1738547613855 60.0102213862645,46.1738547613855</coordinates></LinearRing></outerBoundaryIs><innerBoundaryIs><LinearRing><coordinates>59.9779064063365,46.1684648696807 59.9832962980412,46.1657699238284 59.9859912438936,46.1711598155331 59.9981185002292,46.1725072884593 59.9900336626721,46.177897180164 59.9886861897459,46.1819395989425 59.9792538792627,46.177897180164 59.981948825115,46.1752022343116 59.9806013521889,46.1711598155331 59.9752114604841,46.1738547613855 59.9765589334103,46.1698123426069 59.9711690417056,46.1671173967546 59.9725165146318,46.1657699238284 59.9779064063365,46.1684648696807</coordinates></LinearRing></innerBoundaryIs><innerBoundaryIs><LinearRing><coordinates>60.0062033377863,46.1886769635734 60.0075508107125,46.1873294906473 60.0088982836386,46.1886769635734 60.0062033377863,46.1886769635734</coordinates></LinearRing></innerBoundaryIs><innerBoundaryIs><LinearRing><coordinates>59.9994659731554,46.1846345447949 60.0008134460816,46.1859820177211 59.9994659731554,46.1873294906473 59.9994659731554,46.1846345447949</coordinates></LinearRing></innerBoundaryIs><innerBoundaryIs><LinearRing><coordinates>60.0008134460816,46.177897180164 59.9994659731554,46.1792446530902 59.9981185002292,46.177897180164 60.0008134460816,46.177897180164</coordinates></LinearRing></innerBoundaryIs></Polygon>
  </Placemark>
</Folder>
</Document></kml>
