<?xml version="1.0" encoding="utf-8" ?>
<kml xmlns="http://www.opengis.net/kml/2.2">
<Document id="root_doc">
<Schema name="task_grid_v6_45.38_61.48" id="task_grid_v6_45.38_61.48">
	<SimpleField name="area_ha" type="float"></SimpleField>
	<SimpleField name="low_risk_ha" type="float"></SimpleField>
	<SimpleField name="moderate_risk_ha" type="float"></SimpleField>
	<SimpleField name="grid_cell_deg" type="string"></SimpleField>
</Schema>
<Folder><name>task_grid_v6_45.38_61.48</name>
  <Placemark id="task_grid_v6_45.38_61.48.1">
	<name>task_grid_v6_45.38_61.48</name>
	<name>0</name>
	<description>138.6</description>
	<Style><LineStyle><color>ff0000ff</color></LineStyle><PolyStyle><fill>0</fill></PolyStyle></Style>
	<ExtendedData><SchemaData schemaUrl="#task_grid_v6_45.38_61.48">
		<SimpleData name="area_ha">138.6</SimpleData>
		<SimpleData name="low_risk_ha">0.1</SimpleData>
	</SchemaData></ExtendedData>
      <MultiGeometry><Polygon><outerBoundaryIs><LinearRing><coordinates>61.5032457587715,45.3761507890873 61.5018982858453,45.3774982620135 61.5032457587715,45.3896255183491 61.5045932316976,45.3882780454229 61.5032457587715,45.3761507890873</coordinates></LinearRing></outerBoundaryIs></Polygon><Polygon><outerBoundaryIs><LinearRing><coordinates>61.5086356504762,45.3923204642015 61.5045932316976,45.39636288298 61.5086356504762,45.4004053017586 61.5099831234023,45.3990578288324 61.5086356504762,45.3923204642015</coordinates></LinearRing></outerBoundaryIs></Polygon><Polygon><outerBoundaryIs><LinearRing><coordinates>61.4951609212144,45.411185085168 61.4897710295097,45.411185085168 61.4884235565835,45.4125325580942 61.4951609212144,45.4138800310204 61.4951609212144,45.411185085168</coordinates></LinearRing></outerBoundaryIs></Polygon><Polygon><outerBoundaryIs><LinearRing><coordinates>61.4776437731741,45.4152275039465 61.4843811378049,45.4192699227251 61.4857286107311,45.4179224497989 61.4816861919526,45.4138800310204 61.4776437731741,45.4152275039465</coordinates></LinearRing></outerBoundaryIs></Polygon><Polygon><outerBoundaryIs><LinearRing><coordinates>61.5005508129191,45.4300497061345 61.5034208475464,45.4343547580755 61.5064806739975,45.4343547580755 61.50728817755,45.4287022332083 61.5005508129191,45.4273547602821 61.4951609212144,45.4219648685774 61.4884235565835,45.426007287356 61.4884235565835,45.4287022332083 61.4897710295097,45.4300497061345 61.4951609212144,45.4273547602821 61.5005508129191,45.4300497061345</coordinates></LinearRing></outerBoundaryIs></Polygon></MultiGeometry>
  </Placemark>
</Folder>
</Document></kml>
