<?xml version="1.0" encoding="utf-8" ?>
<kml xmlns="http://www.opengis.net/kml/2.2">
<Document id="root_doc">
<Schema name="task_grid_v6_45.58_59.18" id="task_grid_v6_45.58_59.18">
	<SimpleField name="area_ha" type="float"></SimpleField>
	<SimpleField name="low_risk_ha" type="float"></SimpleField>
	<SimpleField name="moderate_risk_ha" type="float"></SimpleField>
	<SimpleField name="grid_cell_deg" type="string"></SimpleField>
</Schema>
<Folder><name>task_grid_v6_45.58_59.18</name>
  <Placemark id="task_grid_v6_45.58_59.18.1">
	<name>task_grid_v6_45.58_59.18</name>
	<name>0</name>
	<description>1339</description>
	<Style><LineStyle><color>ff0000ff</color></LineStyle><PolyStyle><fill>0</fill></PolyStyle></Style>
	<ExtendedData><SchemaData schemaUrl="#task_grid_v6_45.58_59.18">
		<SimpleData name="area_ha">1339</SimpleData>
		<SimpleData name="low_risk_ha">0.1</SimpleData>
	</SchemaData></ExtendedData>
      <MultiGeometry><Polygon><outerBoundaryIs><LinearRing><coordinates>59.1451681379577,45.554017215343 59.1532529755148,45.554017215343 59.154600448441,45.5526697424168 59.1505580296624,45.5486273236383 59.1451681379577,45.5513222694906 59.1370833004006,45.5513222694906 59.1303459357697,45.5418899590074 59.1348670563289,45.5343547580755 59.1263910613787,45.5343547580755 59.1263910613787,45.535240138764 59.1276509899174,45.5365000673027 59.1263910613787,45.5377599958414 59.1263910613787,45.5473236229058 59.1289984628436,45.5486273236383 59.1330408816221,45.5526697424168 59.1343883545483,45.5594071070477 59.1451681379577,45.554017215343</coordinates></LinearRing></outerBoundaryIs></Polygon><Polygon><outerBoundaryIs><LinearRing><coordinates>59.1734650694075,45.5607545799739 59.1721175964813,45.5567121611954 59.1694226506289,45.5594071070477 59.1640327589242,45.5567121611954 59.1599903401457,45.5634495258263 59.1640327589242,45.5674919446048 59.1734650694075,45.5607545799739</coordinates></LinearRing></outerBoundaryIs></Polygon><Polygon><outerBoundaryIs><LinearRing><coordinates>59.1761600152598,45.5634495258263 59.1802024340384,45.5674919446048 59.1842448528169,45.5634495258263 59.1802024340384,45.5594071070477 59.1761600152598,45.5634495258263</coordinates></LinearRing></outerBoundaryIs></Polygon><Polygon><outerBoundaryIs><LinearRing><coordinates>59.1438206650315,45.5742293092357 59.1505580296624,45.5755767821619 59.1505580296624,45.5701868904572 59.1451681379577,45.5701868904572 59.1438206650315,45.5742293092357</coordinates></LinearRing></outerBoundaryIs></Polygon><Polygon><outerBoundaryIs><LinearRing><coordinates>59.162685285998,45.5715343633833 59.1667277047766,45.5755767821619 59.1707701235551,45.5715343633833 59.1640327589242,45.5701868904572 59.162685285998,45.5715343633833</coordinates></LinearRing></outerBoundaryIs></Polygon><Polygon><outerBoundaryIs><LinearRing><coordinates>59.1276509899174,45.5850090926451 59.1263910613787,45.5848945536871 59.1263910613787,45.5857650497683 59.1276509899174,45.5850090926451</coordinates></LinearRing></outerBoundaryIs></Polygon><Polygon><outerBoundaryIs><LinearRing><coordinates>59.2167934102406,45.5343547580755 59.2138892571929,45.539195013155 59.215236730119,45.5405424860812 59.2179316759714,45.5405424860812 59.2227443533092,45.5343547580755 59.2167934102406,45.5343547580755</coordinates></LinearRing></outerBoundaryIs></Polygon><Polygon><outerBoundaryIs><LinearRing><coordinates>59.1721175964813,45.5378475402288 59.1721175964813,45.5405424860812 59.1680751777028,45.5418899590074 59.177507488186,45.554017215343 59.1802024340384,45.5513222694906 59.1855923257431,45.5513222694906 59.1882872715954,45.5567121611954 59.1963721091525,45.5567121611954 59.2017620008572,45.5594071070477 59.2031094737834,45.5607545799739 59.2004145279311,45.5634495258263 59.2044569467096,45.5674919446048 59.2084993654881,45.5607545799739 59.2031094737834,45.5553646882692 59.2044569467096,45.5486273236383 59.215236730119,45.5621020529001 59.2263910613787,45.5621020529001 59.2263910613787,45.5567121611954 59.2206266218238,45.5567121611954 59.2138892571929,45.5526697424168 59.2165842030452,45.5499747965645 59.2138892571929,45.5472798507121 59.2165842030452,45.5445849048597 59.215236730119,45.5432374319336 59.2044569467096,45.5405424860812 59.2044569467096,45.5432374319336 59.2084993654881,45.5445849048597 59.2044569467096,45.5459323777859 59.1963721091525,45.5351525943765 59.1939786002496,45.5343547580755 59.1836952161917,45.5343547580755 59.1802024340384,45.5378475402288 59.1784560429617,45.5343547580755 59.1607054432214,45.5343547580755 59.1599903401457,45.5365000673027 59.1721175964813,45.5378475402288</coordinates></LinearRing></outerBoundaryIs><innerBoundaryIs><LinearRing><coordinates>59.192329690374,45.5445849048597 59.1936771633002,45.5432374319336 59.1950246362263,45.5445849048597 59.192329690374,45.5445849048597</coordinates></LinearRing></innerBoundaryIs><innerBoundaryIs><LinearRing><coordinates>59.1882872715954,45.5351525943765 59.1896347445216,45.5365000673027 59.1882872715954,45.5378475402288 59.1882872715954,45.5351525943765</coordinates></LinearRing></innerBoundaryIs></Polygon><Polygon><outerBoundaryIs><LinearRing><coordinates>59.2084993654881,45.568839417531 59.2084993654881,45.5715343633833 59.2179316759714,45.5782717280142 59.2260165135285,45.5782717280142 59.2263910613787,45.577897180164 59.2263910613787,45.5759513300121 59.2246690406023,45.5742293092357 59.2263910613787,45.5707852676829 59.2263910613787,45.5687004282344 59.2179316759714,45.5674919446048 59.215236730119,45.5647969987524 59.2111943113405,45.5661444716786 59.2138892571929,45.568839417531 59.2125417842667,45.5701868904572 59.2098468384143,45.5674919446048 59.2084993654881,45.568839417531</coordinates></LinearRing></outerBoundaryIs></Polygon><Polygon><outerBoundaryIs><LinearRing><coordinates>59.2044569467096,45.5836616197189 59.2017620008572,45.5782717280142 59.1977195820787,45.5796192009404 59.2017620008572,45.5863565655713 59.207151892562,45.5863565655713 59.2111943113405,45.5823141467928 59.207151892562,45.5809666738666 59.2044569467096,45.5836616197189</coordinates></LinearRing></outerBoundaryIs></Polygon><Polygon><outerBoundaryIs><LinearRing><coordinates>59.2004145279311,45.5877040384975 59.1963721091525,45.5809666738666 59.1882872715954,45.5809666738666 59.1869397986693,45.5823141467928 59.1936771633002,45.5836616197189 59.1936771633002,45.5890515114237 59.1990670550049,45.5890515114237 59.2004145279311,45.5877040384975</coordinates></LinearRing></outerBoundaryIs></Polygon></MultiGeometry>
  </Placemark>
</Folder>
</Document></kml>
