<?xml version="1.0" encoding="utf-8" ?>
<kml xmlns="http://www.opengis.net/kml/2.2">
<Document id="root_doc">
<Schema name="task_grid_v6_45.41_59.16" id="task_grid_v6_45.41_59.16">
	<SimpleField name="area_ha" type="float"></SimpleField>
	<SimpleField name="low_risk_ha" type="float"></SimpleField>
	<SimpleField name="moderate_risk_ha" type="float"></SimpleField>
	<SimpleField name="grid_cell_deg" type="string"></SimpleField>
</Schema>
<Folder><name>task_grid_v6_45.41_59.16</name>
  <Placemark id="task_grid_v6_45.41_59.16.1">
	<name>task_grid_v6_45.41_59.16</name>
	<name>4815.7</name>
	<description>6237.6</description>
	<Style><LineStyle><color>ff0000ff</color></LineStyle><PolyStyle><fill>0</fill></PolyStyle></Style>
	<ExtendedData><SchemaData schemaUrl="#task_grid_v6_45.41_59.16">
		<SimpleData name="area_ha">1422</SimpleData>
		<SimpleData name="low_risk_ha">0.1</SimpleData>
	</SchemaData></ExtendedData>
      <MultiGeometry><Polygon><outerBoundaryIs><LinearRing><coordinates>59.1828973798907,45.3977103559062 59.1855923257431,45.3923204642015 59.1936771633002,45.3923204642015 59.1977195820787,45.3990578288324 59.1963721091525,45.4031002476109 59.1909822174478,45.3950154100538 59.1815499069645,45.4017527746847 59.1909822174478,45.4031002476109 59.1936771633002,45.4084901393156 59.2044569467096,45.411185085168 59.2044569467096,45.4084901393156 59.2004145279311,45.4071426663895 59.2004145279311,45.39636288298 59.1977195820787,45.3936679371277 59.1977195820787,45.3882780454229 59.1963721091525,45.3869305724968 59.1977195820787,45.3855830995706 59.2058044196358,45.3882780454229 59.2084993654881,45.3990578288324 59.2102213862645,45.4007798496088 59.2102213862645,45.3840483527193 59.2102213862645,45.3703863495324 59.2098468384143,45.3707608973826 59.2058044196358,45.3694134244564 59.2084993654881,45.3667184786041 59.2076684987949,45.3625641451378 59.2058603769797,45.3625641451378 59.2044569467096,45.3653710056779 59.1990670550049,45.3653710056779 59.1963721091525,45.3626760598255 59.1855923257431,45.3707608973826 59.1802024340384,45.3707608973826 59.177507488186,45.3653710056779 59.1721175964813,45.3680659515303 59.1721175964813,45.3626760598255 59.1667277047766,45.3626760598255 59.1666157900888,45.3625641451378 59.1102213862645,45.3625641451378 59.1102213862645,45.4625641451378 59.1511763608268,45.4625641451378 59.1505580296624,45.4569991646581 59.1599903401457,45.4610415834366 59.1569452167434,45.4625641451378 59.1853867740928,45.4625641451378 59.192446416224,45.4625641451378 59.1896347445216,45.4583466375843 59.1936771633002,45.4543042188057 59.1990670550049,45.4596941105104 59.2058044196358,45.4583466375843 59.1990670550049,45.4516092729534 59.1828973798907,45.448914327101 59.1828973798907,45.4381345436916 59.177507488186,45.4381345436916 59.1748125423337,45.4354395978392 59.1727913329444,45.4361133343023 59.1761600152598,45.434092124913 59.169871808271,45.4298999869205 59.1734650694075,45.4287022332083 59.1721175964813,45.4246598144298 59.1680751777028,45.426007287356 59.1692301544966,45.4294722177376 59.1680751777028,45.4287022332083 59.1667277047766,45.4246598144298 59.1653802318504,45.4287022332083 59.162685285998,45.4287022332083 59.1653802318504,45.4233123415036 59.1667277047766,45.4219648685774 59.1694226506289,45.4246598144298 59.1707701235551,45.4206173956512 59.1586428672195,45.4138800310204 59.154600448441,45.4233123415036 59.1572953942933,45.426007287356 59.1559479213671,45.4300497061345 59.1438206650315,45.4206173956512 59.1465156108839,45.4152275039465 59.1411257191792,45.4125325580942 59.1438206650315,45.4098376122418 59.1424731921053,45.4084901393156 59.1451681379577,45.4004053017586 59.1505580296624,45.411185085168 59.1532529755148,45.411185085168 59.1559479213671,45.4057951934633 59.1586428672195,45.411185085168 59.162685285998,45.4044477205371 59.1559479213671,45.4031002476109 59.1519055025886,45.3990578288324 59.154600448441,45.39636288298 59.1532529755148,45.3950154100538 59.154600448441,45.3936679371277 59.1721175964813,45.3950154100538 59.177507488186,45.3896255183491 59.1828973798907,45.3977103559062</coordinates></LinearRing></outerBoundaryIs><innerBoundaryIs><LinearRing><coordinates>59.1478630838101,45.3950154100538 59.1451681379577,45.3977103559062 59.1451681379577,45.3929942006646 59.1532529755148,45.3950154100538 59.1478630838101,45.3950154100538</coordinates></LinearRing></innerBoundaryIs><innerBoundaryIs><LinearRing><coordinates>59.1761600152598,45.4529567458795 59.1748125423337,45.4516092729534 59.1736575655398,45.455074203335 59.1707701235551,45.4502618000272 59.1748125423337,45.448914327101 59.1748125423337,45.4481058433453 59.1771528900475,45.4499781215164 59.1761600152598,45.4529567458795</coordinates></LinearRing></innerBoundaryIs><innerBoundaryIs><LinearRing><coordinates>59.1748125423337,45.4569991646581 59.1741388058706,45.4558762705529 59.1761600152598,45.456550007016 59.1748125423337,45.4569991646581</coordinates></LinearRing></innerBoundaryIs><innerBoundaryIs><LinearRing><coordinates>59.1694226506289,45.4462193812487 59.1667277047766,45.4435244353963 59.1640327589242,45.4462193812487 59.1599903401457,45.4448719083225 59.1599903401457,45.4394820166178 59.1694226506289,45.4435244353963 59.1707701235551,45.4394820166178 59.1698189661955,45.4378967543517 59.1709774270822,45.4372016778196 59.1734650694075,45.4421769624701 59.1707701235551,45.4448719083225 59.1724544647128,45.4462193812487 59.1694226506289,45.4462193812487</coordinates></LinearRing></innerBoundaryIs><innerBoundaryIs><LinearRing><coordinates>59.162685285998,45.4367870707654 59.1599903401457,45.434092124913 59.1653802318504,45.4367870707654 59.1599903401457,45.4394820166178 59.162685285998,45.4367870707654</coordinates></LinearRing></innerBoundaryIs><innerBoundaryIs><LinearRing><coordinates>59.1519055025886,45.3721083703088 59.1563970790092,45.3696130500751 59.1667277047766,45.3707608973826 59.1680751777028,45.3694134244564 59.1707701235551,45.3721083703088 59.1519055025886,45.3721083703088</coordinates></LinearRing></innerBoundaryIs><innerBoundaryIs><LinearRing><coordinates>59.1680751777027,45.3694134244564 59.1626334601163,45.3661483939045 59.1640327589242,45.3653710056779 59.1680751777027,45.3694134244564</coordinates></LinearRing></innerBoundaryIs><innerBoundaryIs><LinearRing><coordinates>59.1640327589242,45.3923204642015 59.154600448441,45.3936679371277 59.1559479213671,45.3923204642015 59.1640327589242,45.3923204642015</coordinates></LinearRing></innerBoundaryIs><innerBoundaryIs><LinearRing><coordinates>59.124956044065,45.4017527746847 59.124956044065,45.3990578288324 59.1263035169912,45.3977103559062 59.124956044065,45.4017527746847</coordinates></LinearRing></innerBoundaryIs><innerBoundaryIs><LinearRing><coordinates>59.139778246253,45.4057951934633 59.1384307733268,45.4098376122418 59.1343883545483,45.411185085168 59.139778246253,45.4057951934633</coordinates></LinearRing></innerBoundaryIs><innerBoundaryIs><LinearRing><coordinates>59.1572953942933,45.4529567458796 59.1613378130719,45.448914327101 59.1667277047766,45.448914327101 59.1680751777028,45.4556516917319 59.1734650694075,45.4610415834366 59.1640327589242,45.4623890563628 59.1572953942933,45.4529567458796</coordinates></LinearRing></innerBoundaryIs><innerBoundaryIs><LinearRing><coordinates>59.1263035169912,45.4569991646581 59.1236085711388,45.4543042188057 59.1209136252865,45.4596941105104 59.1168712065079,45.4556516917319 59.1209136252865,45.4543042188057 59.1226285908289,45.4508742877209 59.1263035169912,45.4569991646581</coordinates></LinearRing></innerBoundaryIs><innerBoundaryIs><LinearRing><coordinates>59.1263035169912,45.448914327101 59.1230695819684,45.449992305442 59.1236085711388,45.448914327101 59.1263035169912,45.448914327101</coordinates></LinearRing></innerBoundaryIs><innerBoundaryIs><LinearRing><coordinates>59.1438206650315,45.4394820166178 59.1451681379577,45.4354395978392 59.1492105567363,45.4421769624701 59.1478630838101,45.4435244353963 59.1438206650315,45.4394820166178</coordinates></LinearRing></innerBoundaryIs><innerBoundaryIs><LinearRing><coordinates>59.1465156108839,45.4475668541748 59.1478630838101,45.4462193812487 59.1492105567363,45.4475668541748 59.1465156108839,45.4475668541748</coordinates></LinearRing></innerBoundaryIs><innerBoundaryIs><LinearRing><coordinates>59.1236085711388,45.4435244353963 59.124956044065,45.4448719083225 59.1236085711388,45.4462193812487 59.1236085711388,45.4435244353963</coordinates></LinearRing></innerBoundaryIs><innerBoundaryIs><LinearRing><coordinates>59.1289984628436,45.4138800310204 59.1276509899174,45.4125325580942 59.1289984628436,45.411185085168 59.1289984628436,45.4138800310204</coordinates></LinearRing></innerBoundaryIs><innerBoundaryIs><LinearRing><coordinates>59.1586428672195,45.3869305724968 59.1599903401457,45.3882780454229 59.1586428672195,45.3896255183491 59.1586428672195,45.3869305724968</coordinates></LinearRing></innerBoundaryIs></Polygon><Polygon><outerBoundaryIs><LinearRing><coordinates>59.1855923257431,45.4273547602821 59.1869397986693,45.426007287356 59.1828973798907,45.4219648685774 59.1815499069645,45.426007287356 59.1855923257431,45.4273547602821</coordinates></LinearRing></outerBoundaryIs></Polygon><Polygon><outerBoundaryIs><LinearRing><coordinates>59.1855923257431,45.4354395978392 59.1869397986693,45.434092124913 59.1802024340384,45.4273547602821 59.1788549611122,45.4313971790607 59.1855923257431,45.4354395978392</coordinates></LinearRing></outerBoundaryIs></Polygon><Polygon><outerBoundaryIs><LinearRing><coordinates>59.1936771633002,45.3977103559062 59.1950246362263,45.39636288298 59.1936771633002,45.3923204642015 59.1896347445216,45.3936679371277 59.1936771633002,45.3977103559062</coordinates></LinearRing></outerBoundaryIs></Polygon><Polygon><outerBoundaryIs><LinearRing><coordinates>59.2098468384143,45.411185085168 59.2102213862645,45.4108105373178 59.2102213862645,45.4069188370139 59.2098468384143,45.4057951934633 59.2058044196358,45.4071426663895 59.2098468384143,45.411185085168</coordinates></LinearRing></outerBoundaryIs></Polygon><Polygon><outerBoundaryIs><LinearRing><coordinates>59.2102213862645,45.4146291267208 59.2098468384143,45.4138800310204 59.207151892562,45.4192699227251 59.2031094737834,45.4206173956512 59.207151892562,45.4219648685774 59.2102213862645,45.42503436228 59.2102213862645,45.4146291267208</coordinates></LinearRing></outerBoundaryIs></Polygon><Polygon><outerBoundaryIs><LinearRing><coordinates>59.1936771633002,45.4273547602821 59.1950246362263,45.426007287356 59.1909822174478,45.4219648685774 59.1869397986693,45.4233123415036 59.1936771633002,45.4273547602821</coordinates></LinearRing></outerBoundaryIs></Polygon><Polygon><outerBoundaryIs><LinearRing><coordinates>59.2044569467096,45.4273547602821 59.2058044196358,45.426007287356 59.2017620008572,45.4219648685774 59.1977195820787,45.4233123415036 59.2044569467096,45.4273547602821</coordinates></LinearRing></outerBoundaryIs></Polygon><Polygon><outerBoundaryIs><LinearRing><coordinates>59.2004145279311,45.4448719083225 59.2031094737834,45.4502618000272 59.2098468384143,45.4569991646581 59.2102213862645,45.4563749182411 59.2102213862645,45.4447599936347 59.2084993654881,45.4421769624701 59.2102213862645,45.4404549416937 59.2102213862645,45.4385090915418 59.2084993654881,45.4367870707654 59.2102213862645,45.4359260603772 59.2102213862645,45.4333585507274 59.207151892562,45.4327446519869 59.2044569467096,45.4354395978392 59.2017620008572,45.4327446519869 59.1977195820787,45.434092124913 59.2004145279311,45.4367870707654 59.2004145279311,45.4448719083225</coordinates></LinearRing></outerBoundaryIs></Polygon><Polygon><outerBoundaryIs><LinearRing><coordinates>59.1977195820787,45.4475668541748 59.1963721091525,45.4408294895439 59.192329690374,45.4475668541748 59.1936771633002,45.448914327101 59.1977195820787,45.4475668541748</coordinates></LinearRing></outerBoundaryIs></Polygon></MultiGeometry>
  </Placemark>
</Folder>
</Document></kml>
