<?xml version="1.0" encoding="utf-8" ?>
<kml xmlns="http://www.opengis.net/kml/2.2">
<Document id="root_doc">
<Schema name="task_grid_v6_45.61_59.96" id="task_grid_v6_45.61_59.96">
	<SimpleField name="area_ha" type="float"></SimpleField>
	<SimpleField name="low_risk_ha" type="float"></SimpleField>
	<SimpleField name="moderate_risk_ha" type="float"></SimpleField>
	<SimpleField name="grid_cell_deg" type="string"></SimpleField>
</Schema>
<Folder><name>task_grid_v6_45.61_59.96</name>
  <Placemark id="task_grid_v6_45.61_59.96.1">
	<name>task_grid_v6_45.61_59.96</name>
	<name>1717.7</name>
	<description>3283.4</description>
	<Style><LineStyle><color>ff0000ff</color></LineStyle><PolyStyle><fill>0</fill></PolyStyle></Style>
	<ExtendedData><SchemaData schemaUrl="#task_grid_v6_45.61_59.96">
		<SimpleData name="area_ha">1565.7</SimpleData>
		<SimpleData name="low_risk_ha">0.1</SimpleData>
	</SchemaData></ExtendedData>
      <MultiGeometry><Polygon><outerBoundaryIs><LinearRing><coordinates>59.9132277058799,45.5944414031284 59.9105327600275,45.591746457276 59.9102213862645,45.5922654135477 59.9102213862645,45.5988230078174 59.921312543437,45.5998312948331 59.9102213862645,45.5998312948331 59.9102213862645,45.6025262406854 59.9132277058799,45.6025262406854 59.9186175975846,45.6079161323902 59.921312543437,45.6052211865378 59.9401771644035,45.6133060240949 59.9563468395176,45.6133060240949 59.95904178537,45.6186959157996 59.9671266229271,45.6133060240949 59.9779064063365,45.6106110782425 59.9792538792627,45.6146534970211 59.9765589334103,45.6200433887258 59.981948825115,45.6227383345781 59.9832962980412,45.6267807533567 59.9859912438936,45.6240858075043 59.9913811355983,45.6240858075043 59.996771027303,45.629475699209 59.9994659731554,45.6267807533567 60.0008134460816,45.6281282262829 59.9981185002292,45.6308231721352 60.0021609190077,45.6321706450614 60.0048558648601,45.6375605367661 60.0099088883333,45.6358761956084 60.0088982836386,45.6389080096923 60.0102213862645,45.6402311123182 60.0102213862645,45.6357720296313 60.0102213862645,45.6349387018146 60.0102213862645,45.6146413118709 60.0102213862645,45.6045352649246 60.0102213862645,45.6041285860167 60.0102213862645,45.6002197685692 60.0035083919339,45.6011787677593 60.0068770742494,45.602863108917 60.0021609190077,45.6052211865378 59.9913811355983,45.6052211865378 60.0035083919339,45.6038737136116 60.0006209499492,45.6019487522885 60.0048558648601,45.5998312948331 60.0102213862645,45.5998312948331 60.0102213862645,45.5971119786805 60.0088982836386,45.5957888760546 60.0102213862645,45.5957888760546 60.0102213862645,45.5831517479403 59.9698215687794,45.5755767821619 59.9671266229271,45.5782717280142 59.9617367312224,45.5782717280142 59.9576943124438,45.5823141467928 59.9644316770747,45.5863565655713 59.95904178537,45.5863565655713 59.9563468395176,45.5890515114237 59.9509569478129,45.5863565655713 59.9487111596026,45.5877040384975 59.9496094748867,45.5850090926451 59.9401771644035,45.5809666738666 59.9267024351417,45.5809666738666 59.921312543437,45.5782717280142 59.9186175975846,45.5809666738666 59.9102213862645,45.5767685682065 59.9102213862645,45.5890515114237 59.9186175975846,45.5890515114237 59.9226600163632,45.5930939302022 59.921312543437,45.5944414031284 59.9132277058799,45.5944414031284</coordinates></LinearRing></outerBoundaryIs><innerBoundaryIs><LinearRing><coordinates>59.9886861897459,45.6079161323902 59.9832962980412,45.6052211865378 59.9886861897459,45.6025262406854 59.9913811355983,45.6052211865378 59.9886861897459,45.6079161323902</coordinates></LinearRing></innerBoundaryIs><innerBoundaryIs><LinearRing><coordinates>59.996771027303,45.6160009699472 59.9940760814507,45.621390861652 59.9913811355983,45.6133060240949 59.9940760814507,45.6160009699472 59.9994659731554,45.6133060240949 59.9994659731554,45.621390861652 59.996771027303,45.6160009699472</coordinates></LinearRing></innerBoundaryIs><innerBoundaryIs><LinearRing><coordinates>59.9859912438936,45.6133060240949 59.9846437709674,45.6146534970211 59.9900336626721,45.6173484428734 59.9859912438936,45.6186959157996 59.981948825115,45.6146534970211 59.9826974211851,45.6094133245304 59.9886861897459,45.6106110782425 59.9913811355983,45.6133060240949 59.9859912438936,45.6133060240949</coordinates></LinearRing></innerBoundaryIs><innerBoundaryIs><LinearRing><coordinates>59.9965260322255,45.5858665754163 59.9994659731554,45.5863565655713 59.9997654115834,45.5872548808554 59.9965260322255,45.5858665754163</coordinates></LinearRing></innerBoundaryIs><innerBoundaryIs><LinearRing><coordinates>59.9320923268464,45.6052211865378 59.9249058045735,45.6016279254013 59.9267024351417,45.5998312948331 59.9320923268464,45.6052211865378</coordinates></LinearRing></innerBoundaryIs><innerBoundaryIs><LinearRing><coordinates>59.9455670561082,45.6079161323902 59.9444890777673,45.6089941107311 59.9432571025205,45.6071461478609 59.9444890777673,45.6046821973673 59.9455670561082,45.6079161323902</coordinates></LinearRing></innerBoundaryIs><innerBoundaryIs><LinearRing><coordinates>59.9517861619213,45.6066723112275 59.9536518936653,45.6079161323902 59.9509569478129,45.6106110782425 59.9509569478129,45.6079161323902 59.9455670561082,45.6079161323902 59.9517861619213,45.6066723112275</coordinates></LinearRing></innerBoundaryIs><innerBoundaryIs><LinearRing><coordinates>59.9455670561082,45.6106110782425 59.9447378419998,45.6093672570799 59.9509569478129,45.6106110782425 59.9455670561082,45.6106110782425</coordinates></LinearRing></innerBoundaryIs><innerBoundaryIs><LinearRing><coordinates>59.9644316770747,45.6079161323902 59.9617367312224,45.6079161323902 59.9576943124438,45.6058949230009 59.95904178537,45.6052211865378 59.9644316770747,45.6079161323902</coordinates></LinearRing></innerBoundaryIs><innerBoundaryIs><LinearRing><coordinates>59.9671266229271,45.6025262406854 59.9698215687794,45.6079161323902 59.9644316770747,45.6079161323902 59.9671266229271,45.6025262406854</coordinates></LinearRing></innerBoundaryIs><innerBoundaryIs><LinearRing><coordinates>59.9779064063365,45.6079161323902 59.9752114604841,45.6079161323902 59.9779064063365,45.6052211865378 59.9779064063365,45.6079161323902</coordinates></LinearRing></innerBoundaryIs><innerBoundaryIs><LinearRing><coordinates>59.9496094748867,45.5930939302022 59.9509569478129,45.5971363489807 59.9487111596026,45.5926447725601 59.9496094748867,45.5930939302022</coordinates></LinearRing></innerBoundaryIs><innerBoundaryIs><LinearRing><coordinates>59.9450280669377,45.6036042190264 59.9455670561082,45.6025262406854 59.9464653713923,45.6031251175415 59.9450280669377,45.6036042190264</coordinates></LinearRing></innerBoundaryIs><innerBoundaryIs><LinearRing><coordinates>59.9240074892893,45.5836616197189 59.9361347456249,45.5850090926451 59.9226600163632,45.5850090926451 59.9240074892893,45.5836616197189</coordinates></LinearRing></innerBoundaryIs><innerBoundaryIs><LinearRing><coordinates>59.9361347456249,45.5930939302022 59.9320923268464,45.5971363489807 59.9307448539202,45.5957888760546 59.9347872726988,45.591746457276 59.9361347456249,45.5930939302022</coordinates></LinearRing></innerBoundaryIs><innerBoundaryIs><LinearRing><coordinates>60.0088982836386,45.6254332804305 60.0048558648601,45.629475699209 60.0035083919339,45.6254332804305 60.0088982836386,45.6227383345781 60.0088982836386,45.6254332804305</coordinates></LinearRing></innerBoundaryIs><innerBoundaryIs><LinearRing><coordinates>59.981948825115,45.6011787677593 59.9846437709674,45.6011787677593 59.9832962980412,45.6025262406854 59.981948825115,45.6011787677593</coordinates></LinearRing></innerBoundaryIs></Polygon><Polygon><outerBoundaryIs><LinearRing><coordinates>59.9401771644035,45.6186959157996 59.9334397997726,45.6227383345781 59.9401771644035,45.6267807533567 59.9415246373297,45.6227383345781 59.9469145290344,45.6200433887258 59.9401771644035,45.6186959157996</coordinates></LinearRing></outerBoundaryIs></Polygon><Polygon><outerBoundaryIs><LinearRing><coordinates>59.9563468395176,45.6321706450614 59.95904178537,45.629475699209 59.95904178537,45.6348655909138 59.9671266229271,45.629475699209 59.9684740958533,45.6308231721352 59.9657791500009,45.6335181179876 59.9644316770747,45.6321706450614 59.9644316770747,45.6375605367661 59.9698215687794,45.6402554826185 59.9733586852107,45.6390764438081 59.973863987558,45.6416029555446 59.9806013521889,45.6456453743232 59.981948825115,45.6416029555446 59.9806013521889,45.6402554826185 59.9846437709674,45.6362130638399 59.981948825115,45.6335181179876 59.9806013521889,45.6321706450614 59.981948825115,45.6308231721352 59.9725165146318,45.629475699209 59.9617367312224,45.621390861652 59.95904178537,45.6240858075043 59.9536518936653,45.6240858075043 59.9509569478129,45.621390861652 59.9469145290344,45.6281282262829 59.9509569478129,45.6321706450614 59.9563468395176,45.6321706450614</coordinates></LinearRing></outerBoundaryIs><innerBoundaryIs><LinearRing><coordinates>59.9725165146318,45.6348655909138 59.9671266229271,45.6348655909138 59.9657791500009,45.6335181179876 59.9725165146318,45.6348655909138</coordinates></LinearRing></innerBoundaryIs><innerBoundaryIs><LinearRing><coordinates>59.9792538792627,45.6389080096923 59.9792538792627,45.6335181179876 59.9806013521889,45.6402554826185 59.9792538792627,45.6389080096923</coordinates></LinearRing></innerBoundaryIs></Polygon><Polygon><outerBoundaryIs><LinearRing><coordinates>59.9886861897459,45.6375605367661 59.9900336626721,45.6362130638399 59.9859912438936,45.6321706450614 59.981948825115,45.6335181179876 59.9886861897459,45.6375605367661</coordinates></LinearRing></outerBoundaryIs></Polygon></MultiGeometry>
  </Placemark>
</Folder>
</Document></kml>
