<?xml version="1.0" encoding="utf-8" ?>
<kml xmlns="http://www.opengis.net/kml/2.2">
<Document id="root_doc">
<Schema name="task_grid_v6_45.58_59.68" id="task_grid_v6_45.58_59.68">
	<SimpleField name="area_ha" type="float"></SimpleField>
	<SimpleField name="low_risk_ha" type="float"></SimpleField>
	<SimpleField name="moderate_risk_ha" type="float"></SimpleField>
	<SimpleField name="grid_cell_deg" type="string"></SimpleField>
</Schema>
<Folder><name>task_grid_v6_45.58_59.68</name>
  <Placemark id="task_grid_v6_45.58_59.68.1">
	<name>task_grid_v6_45.58_59.68</name>
	<name>137.5</name>
	<description>278</description>
	<Style><LineStyle><color>ff0000ff</color></LineStyle><PolyStyle><fill>0</fill></PolyStyle></Style>
	<ExtendedData><SchemaData schemaUrl="#task_grid_v6_45.58_59.68">
		<SimpleData name="area_ha">140.6</SimpleData>
		<SimpleData name="low_risk_ha">0.1</SimpleData>
	</SchemaData></ExtendedData>
      <MultiGeometry><Polygon><outerBoundaryIs><LinearRing><coordinates>59.7232340232886,45.6011787677593 59.7218865503624,45.591746457276 59.7205390774363,45.5930939302022 59.7218865503624,45.6025262406854 59.7232340232886,45.6011787677593</coordinates></LinearRing></outerBoundaryIs></Polygon><Polygon><outerBoundaryIs><LinearRing><coordinates>59.7205390774363,45.6038737136116 59.7215496821309,45.6129691558633 59.7205390774363,45.6119585511687 59.7191916045101,45.6025262406854 59.7178441315839,45.6146534970211 59.7151491857315,45.6173484428734 59.7178441315839,45.6200433887258 59.7178441315839,45.6343547580755 59.7254244568638,45.6343547580755 59.725928969141,45.6308231721352 59.725928969141,45.6343547580755 59.7263910613787,45.6343547580755 59.7263910613787,45.5899368921121 59.7232340232886,45.5930939302022 59.7232340232886,45.6011787677593 59.7205390774363,45.6038737136116</coordinates></LinearRing></outerBoundaryIs></Polygon></MultiGeometry>
  </Placemark>
</Folder>
</Document></kml>
