<?xml version="1.0" encoding="utf-8" ?>
<kml xmlns="http://www.opengis.net/kml/2.2">
<Document id="root_doc">
<Schema name="task_grid_v6_44.78_61.18" id="task_grid_v6_44.78_61.18">
	<SimpleField name="area_ha" type="float"></SimpleField>
	<SimpleField name="low_risk_ha" type="float"></SimpleField>
	<SimpleField name="moderate_risk_ha" type="float"></SimpleField>
	<SimpleField name="grid_cell_deg" type="string"></SimpleField>
</Schema>
<Folder><name>task_grid_v6_44.78_61.18</name>
  <Placemark id="task_grid_v6_44.78_61.18.1">
	<name>task_grid_v6_44.78_61.18</name>
	<name>0</name>
	<description>133.4</description>
	<Style><LineStyle><color>ff0000ff</color></LineStyle><PolyStyle><fill>0</fill></PolyStyle></Style>
	<ExtendedData><SchemaData schemaUrl="#task_grid_v6_44.78_61.18">
		<SimpleData name="area_ha">133.4</SimpleData>
		<SimpleData name="low_risk_ha">0.1</SimpleData>
	</SchemaData></ExtendedData>
      <MultiGeometry><Polygon><outerBoundaryIs><LinearRing><coordinates>61.1263910613787,44.8009617998065 61.1273008123674,44.8007798496088 61.1263910613787,44.8007798496088 61.1263910613787,44.8009617998065</coordinates></LinearRing></outerBoundaryIs></Polygon><Polygon><outerBoundaryIs><LinearRing><coordinates>61.1263910613787,44.8079549361771 61.1263910613787,44.8182094532616 61.1326907040722,44.8169495247229 61.1326907040722,44.8142545788706 61.1263910613787,44.8079549361771</coordinates></LinearRing></outerBoundaryIs></Polygon><Polygon><outerBoundaryIs><LinearRing><coordinates>61.2263910613787,44.8236868893538 61.2263910613787,44.8186078768539 61.2229713901262,44.8182969976491 61.2202764442738,44.8156020517968 61.2135390796429,44.8196444705753 61.2175814984214,44.8263818352062 61.2202764442738,44.8236868893538 61.2263910613787,44.8236868893538</coordinates></LinearRing></outerBoundaryIs></Polygon><Polygon><outerBoundaryIs><LinearRing><coordinates>61.1263910613787,44.8270384181123 61.1263910613787,44.8343547580755 61.1312686213541,44.8343547580755 61.1263910613787,44.8270384181123</coordinates></LinearRing></outerBoundaryIs></Polygon><Polygon><outerBoundaryIs><LinearRing><coordinates>61.1340381769983,44.8290767810585 61.1313991884899,44.8343547580755 61.1372049632085,44.8343547580755 61.1340381769983,44.8290767810585</coordinates></LinearRing></outerBoundaryIs></Polygon></MultiGeometry>
  </Placemark>
</Folder>
</Document></kml>
