<?xml version="1.0" encoding="utf-8" ?>
<kml xmlns="http://www.opengis.net/kml/2.2">
<Document id="root_doc">
<Schema name="task_grid_v6_45.28_61.08" id="task_grid_v6_45.28_61.08">
	<SimpleField name="area_ha" type="float"></SimpleField>
	<SimpleField name="low_risk_ha" type="float"></SimpleField>
	<SimpleField name="moderate_risk_ha" type="float"></SimpleField>
	<SimpleField name="grid_cell_deg" type="string"></SimpleField>
</Schema>
<Folder><name>task_grid_v6_45.28_61.08</name>
  <Placemark id="task_grid_v6_45.28_61.08.1">
	<name>task_grid_v6_45.28_61.08</name>
	<name>129.4</name>
	<description>909.3</description>
	<Style><LineStyle><color>ff0000ff</color></LineStyle><PolyStyle><fill>0</fill></PolyStyle></Style>
	<ExtendedData><SchemaData schemaUrl="#task_grid_v6_45.28_61.08">
		<SimpleData name="area_ha">779.8</SimpleData>
		<SimpleData name="low_risk_ha">0.1</SimpleData>
	</SchemaData></ExtendedData>
      <MultiGeometry><Polygon><outerBoundaryIs><LinearRing><coordinates>61.0882240975082,45.2467933881741 61.0949614621391,45.2427509693956 61.093613989213,45.238708550617 61.0868766245821,45.2454459152479 61.0882240975082,45.2467933881741</coordinates></LinearRing></outerBoundaryIs></Polygon><Polygon><outerBoundaryIs><LinearRing><coordinates>61.10169882677,45.2414034964694 61.1003513538438,45.2481408611003 61.0949614621391,45.2508358069527 61.10169882677,45.2521832798788 61.1084361914009,45.2427509693956 61.10169882677,45.2414034964694</coordinates></LinearRing></outerBoundaryIs></Polygon><Polygon><outerBoundaryIs><LinearRing><coordinates>61.0909190433606,45.2629630632883 61.0868766245821,45.2643105362145 61.0895715704344,45.2670054820668 61.0868766245821,45.2723953737715 61.093613989213,45.2737428466977 61.0949614621391,45.2723953737715 61.0909190433606,45.2629630632883</coordinates></LinearRing></outerBoundaryIs></Polygon><Polygon><outerBoundaryIs><LinearRing><coordinates>61.0693594765417,45.2872175759595 61.0680120036156,45.2885650488857 61.0747493682464,45.2926074676642 61.0801392599512,45.2899125218119 61.0801392599512,45.2872175759595 61.0693594765417,45.2872175759595</coordinates></LinearRing></outerBoundaryIs></Polygon><Polygon><outerBoundaryIs><LinearRing><coordinates>61.10169882677,45.2926074676642 61.1043937726224,45.3006923052213 61.1084361914009,45.2939549405904 61.1070887184747,45.2926074676642 61.1057412455486,45.291259994738 61.1057412455486,45.2885650488857 61.1057412455486,45.2858701030333 61.10169882677,45.2818276842548 61.0990038809177,45.2845226301071 61.093613989213,45.2818276842548 61.0895715704344,45.2858701030333 61.0895715704344,45.291259994738 61.093613989213,45.2953024135166 61.10169882677,45.2926074676642</coordinates></LinearRing></outerBoundaryIs></Polygon><Polygon><outerBoundaryIs><LinearRing><coordinates>61.0289352887564,45.2979973593689 61.0329777075349,45.2939549405904 61.0289352887564,45.2899125218119 61.0275878158302,45.291259994738 61.0289352887564,45.2979973593689</coordinates></LinearRing></outerBoundaryIs></Polygon><Polygon><outerBoundaryIs><LinearRing><coordinates>61.0895715704344,45.2993448322951 61.0963089350653,45.3006923052213 61.0963089350653,45.2979973593689 61.0909190433606,45.2979973593689 61.0895715704344,45.2993448322951</coordinates></LinearRing></outerBoundaryIs></Polygon><Polygon><outerBoundaryIs><LinearRing><coordinates>61.0747493682464,45.3141670344831 61.0841816787297,45.3047347239998 61.0801392599512,45.3033872510737 61.0734018953203,45.3101246157045 61.0747493682464,45.3141670344831</coordinates></LinearRing></outerBoundaryIs></Polygon><Polygon><outerBoundaryIs><LinearRing><coordinates>61.1057412455486,45.3155145074093 61.10169882677,45.3114720886307 61.1003513538438,45.3155145074093 61.1043937726224,45.3168619803354 61.1057412455486,45.3155145074093</coordinates></LinearRing></outerBoundaryIs></Polygon><Polygon><outerBoundaryIs><LinearRing><coordinates>61.0841451232793,45.3343547580755 61.0976320376912,45.3343547580755 61.0922665162868,45.3289892366711 61.0922665162868,45.3235993449663 61.0882240975082,45.3168619803354 61.0801392599512,45.3168619803354 61.0774443140988,45.3195569261878 61.0774443140988,45.3222518720402 61.0814867328773,45.3235993449663 61.0760968411726,45.3289892366711 61.0841451232793,45.3343547580755</coordinates></LinearRing></outerBoundaryIs></Polygon><Polygon><outerBoundaryIs><LinearRing><coordinates>61.1263910613787,45.268352954993 61.1259533394413,45.268352954993 61.1192159748104,45.2723953737715 61.1232583935889,45.2764377925501 61.1263910613787,45.2764377925501 61.1263910613787,45.268352954993</coordinates></LinearRing></outerBoundaryIs></Polygon><Polygon><outerBoundaryIs><LinearRing><coordinates>61.1043937726224,45.2818276842548 61.1084361914009,45.2804802113286 61.1070887184747,45.2764377925501 61.1030462996962,45.2804802113286 61.1043937726224,45.2818276842548</coordinates></LinearRing></outerBoundaryIs></Polygon><Polygon><outerBoundaryIs><LinearRing><coordinates>61.1263910613787,45.2800854011231 61.1192159748104,45.2885650488857 61.1263910613787,45.2895900612526 61.1263910613787,45.2800854011231</coordinates></LinearRing></outerBoundaryIs></Polygon><Polygon><outerBoundaryIs><LinearRing><coordinates>61.1070887184747,45.2926074676642 61.1138260831056,45.283175157181 61.1097836643271,45.2818276842548 61.1057412455486,45.2885650488857 61.1070887184747,45.2926074676642</coordinates></LinearRing></outerBoundaryIs></Polygon><Polygon><outerBoundaryIs><LinearRing><coordinates>61.1263910613787,45.2899125218119 61.1151735560318,45.2899125218119 61.1138260831056,45.2939549405904 61.1170600181285,45.2955719081018 61.1138260831056,45.2966498864428 61.1178685018842,45.3006923052213 61.1192159748104,45.2993448322951 61.1192159748104,45.3047347239998 61.1263910613787,45.3119098105682 61.1263910613787,45.2899125218119</coordinates></LinearRing></outerBoundaryIs><innerBoundaryIs><LinearRing><coordinates>61.1181379964694,45.2961108972723 61.1192159748104,45.2966498864428 61.1192159748104,45.2993448322951 61.1181379964694,45.2961108972723</coordinates></LinearRing></innerBoundaryIs></Polygon><Polygon><outerBoundaryIs><LinearRing><coordinates>61.1097836643271,45.3033872510737 61.1057412455486,45.3047347239998 61.1084361914009,45.3074296698522 61.1057412455486,45.3101246157045 61.1070887184747,45.3141670344831 61.1111311372533,45.3101246157045 61.1097836643271,45.3033872510737</coordinates></LinearRing></outerBoundaryIs></Polygon><Polygon><outerBoundaryIs><LinearRing><coordinates>61.1246058665151,45.320904399114 61.1205634477365,45.3168619803354 61.1192159748104,45.320904399114 61.1232583935889,45.3222518720402 61.1246058665151,45.320904399114</coordinates></LinearRing></outerBoundaryIs></Polygon><Polygon><outerBoundaryIs><LinearRing><coordinates>61.1045967131691,45.3343547580755 61.1057412455486,45.3316841825234 61.1003513538438,45.3316841825234 61.100732864637,45.3343547580755 61.1045967131691,45.3343547580755</coordinates></LinearRing></outerBoundaryIs></Polygon></MultiGeometry>
  </Placemark>
</Folder>
</Document></kml>
