<?xml version="1.0" encoding="utf-8" ?>
<kml xmlns="http://www.opengis.net/kml/2.2">
<Document id="root_doc">
<Schema name="task_grid_v6_46.21_60.46" id="task_grid_v6_46.21_60.46">
	<SimpleField name="area_ha" type="float"></SimpleField>
	<SimpleField name="low_risk_ha" type="float"></SimpleField>
	<SimpleField name="moderate_risk_ha" type="float"></SimpleField>
	<SimpleField name="grid_cell_deg" type="string"></SimpleField>
</Schema>
<Folder><name>task_grid_v6_46.21_60.46</name>
  <Placemark id="task_grid_v6_46.21_60.46.1">
	<name>task_grid_v6_46.21_60.46</name>
	<name>172.7</name>
	<description>580.3</description>
	<Style><LineStyle><color>ff0000ff</color></LineStyle><PolyStyle><fill>0</fill></PolyStyle></Style>
	<ExtendedData><SchemaData schemaUrl="#task_grid_v6_46.21_60.46">
		<SimpleData name="area_ha">407.6</SimpleData>
		<SimpleData name="low_risk_ha">0.1</SimpleData>
	</SchemaData></ExtendedData>
      <MultiGeometry><Polygon><outerBoundaryIs><LinearRing><coordinates>60.4570959352181,46.1625641451378 60.4576067680563,46.163074977976 60.4581176008946,46.1625641451378 60.4570959352181,46.1625641451378</coordinates></LinearRing></outerBoundaryIs></Polygon><Polygon><outerBoundaryIs><LinearRing><coordinates>60.4751239160967,46.1698123426069 60.4683865514658,46.1657699238284 60.462996659761,46.1711598155331 60.4576067680563,46.1711598155331 60.4508694034254,46.1752022343116 60.4576067680563,46.1765497072378 60.4603017139087,46.1819395989425 60.462996659761,46.1819395989425 60.4683865514658,46.1792446530902 60.4724289702443,46.1735852668002 60.4724289702443,46.1752022343116 60.4791663348752,46.1765497072378 60.4845562265799,46.1738547613855 60.4899461182846,46.1657699238284 60.4953360099894,46.1684648696807 60.5012367345323,46.1625641451378 60.4877620052705,46.1625641451378 60.4845562265799,46.1657699238284 60.4791663348752,46.1657699238284 60.4751239160967,46.1698123426069</coordinates></LinearRing></outerBoundaryIs><innerBoundaryIs><LinearRing><coordinates>60.4643441326872,46.1752022343116 60.4670390785396,46.1752022343116 60.4656916056134,46.1765497072378 60.4643441326872,46.1752022343116</coordinates></LinearRing></innerBoundaryIs></Polygon><Polygon><outerBoundaryIs><LinearRing><coordinates>60.4346997283113,46.1671173967546 60.4212249990495,46.1698123426069 60.4279623636804,46.1765497072378 60.4333522553851,46.1765497072378 60.4441320387945,46.1819395989425 60.4454795117207,46.1805921260164 60.4427845658684,46.177897180164 60.4522168763516,46.1792446530902 60.4535643492778,46.177897180164 60.4468269846469,46.1738547613855 60.4454795117207,46.1752022343116 60.4427845658684,46.1725072884593 60.4441320387945,46.1711598155331 60.4495219304993,46.1738547613855 60.4508694034254,46.1698123426069 60.4427845658684,46.1644224509022 60.4441320387945,46.163074977976 60.4461753701476,46.1625641451378 60.4224021943629,46.1625641451378 60.4225724719757,46.163074977976 60.4279623636804,46.163074977976 60.4346997283113,46.1671173967546</coordinates></LinearRing></outerBoundaryIs><innerBoundaryIs><LinearRing><coordinates>60.4346997283113,46.1725072884593 60.4333522553851,46.1738547613855 60.4333522553851,46.1711598155331 60.4346997283113,46.1725072884593</coordinates></LinearRing></innerBoundaryIs></Polygon></MultiGeometry>
  </Placemark>
</Folder>
</Document></kml>
