<?xml version="1.0" encoding="utf-8" ?>
<kml xmlns="http://www.opengis.net/kml/2.2">
<Document id="root_doc">
<Schema name="task_grid_v6_44.91_61.26" id="task_grid_v6_44.91_61.26">
	<SimpleField name="area_ha" type="float"></SimpleField>
	<SimpleField name="low_risk_ha" type="float"></SimpleField>
	<SimpleField name="moderate_risk_ha" type="float"></SimpleField>
	<SimpleField name="grid_cell_deg" type="string"></SimpleField>
</Schema>
<Folder><name>task_grid_v6_44.91_61.26</name>
  <Placemark id="task_grid_v6_44.91_61.26.1">
	<name>task_grid_v6_44.91_61.26</name>
	<name>327.9</name>
	<description>3013.4</description>
	<Style><LineStyle><color>ff0000ff</color></LineStyle><PolyStyle><fill>0</fill></PolyStyle></Style>
	<ExtendedData><SchemaData schemaUrl="#task_grid_v6_44.91_61.26">
		<SimpleData name="area_ha">2685.5</SimpleData>
		<SimpleData name="low_risk_ha">0.1</SimpleData>
	</SchemaData></ExtendedData>
      <MultiGeometry><Polygon><outerBoundaryIs><LinearRing><coordinates>61.2930399822875,44.9045352649246 61.2916925093613,44.9058827378508 61.3038197656969,44.9072302107769 61.3038197656969,44.9045352649246 61.2930399822875,44.9045352649246</coordinates></LinearRing></outerBoundaryIs></Polygon><Polygon><outerBoundaryIs><LinearRing><coordinates>61.2539632674283,44.9085776837031 61.2512683215759,44.9112726295555 61.2580056862068,44.915315048334 61.2633955779115,44.9233998858911 61.2687854696163,44.915315048334 61.2755228342472,44.9139675754078 61.2728278883948,44.9112726295555 61.274175361321,44.9099251566293 61.2809127259519,44.9085776837031 61.274175361321,44.9045352649246 61.2687854696163,44.9045352649246 61.2660905237639,44.9072302107769 61.2526157945021,44.9045352649246 61.2512683215759,44.9058827378508 61.2539632674283,44.9085776837031</coordinates></LinearRing></outerBoundaryIs></Polygon><Polygon><outerBoundaryIs><LinearRing><coordinates>61.3102213862645,44.9233998858911 61.3102213862645,44.9156522912883 61.3092096574016,44.915315048334 61.3051672386231,44.9193574671126 61.3092096574016,44.9233998858911 61.3102213862645,44.9233998858911</coordinates></LinearRing></outerBoundaryIs></Polygon><Polygon><outerBoundaryIs><LinearRing><coordinates>61.2175814984214,44.9045352649246 61.2202764442738,44.9072302107769 61.2256663359785,44.9072302107769 61.2404885381665,44.900492846146 61.2404885381665,44.8977979002937 61.236446119388,44.8964504273675 61.2283612818309,44.8856706439581 61.2102213862645,44.8856706439581 61.2102213862645,44.8954653171414 61.2121916067167,44.8964504273675 61.2121916067167,44.8883655898104 61.2162340254953,44.8951029544413 61.2135390796429,44.8977979002937 61.2162340254953,44.900492846146 61.2102213862645,44.9011609171717 61.2102213862645,44.9625641451378 61.2538173601158,44.9625641451378 61.2539632674283,44.9624766007503 61.2512683215759,44.9597816548979 61.2526157945021,44.9584341819718 61.2620481049854,44.9570867090456 61.2566582132806,44.9543917631932 61.2580056862068,44.953044290267 61.2795652530257,44.953044290267 61.282260198878,44.9503493444147 61.2903450364351,44.9503493444147 61.2916925093613,44.9463069256361 61.2889975635089,44.9436119797838 61.2943874552137,44.9409170339314 61.2876500905828,44.9395695610052 61.2795652530257,44.9287897775958 61.2768703071733,44.9341796693005 61.2755228342472,44.930137250522 61.2782177800995,44.9274423046696 61.274175361321,44.9233998858911 61.2660905237639,44.9233998858911 61.2647430508377,44.9247473588173 61.2687854696163,44.9260948317434 61.2687854696163,44.9287897775958 61.2526157945021,44.9314847234482 61.2310562276832,44.9287897775958 61.2310562276832,44.9207049400387 61.2256663359785,44.9207049400387 61.2162340254953,44.9139675754078 61.2175814984214,44.9045352649246</coordinates></LinearRing></outerBoundaryIs><innerBoundaryIs><LinearRing><coordinates>61.2324037006094,44.9490018714885 61.2310562276832,44.9503493444147 61.2283612818309,44.9476543985623 61.2301579123991,44.9467560832782 61.2324037006094,44.9490018714885</coordinates></LinearRing></innerBoundaryIs><innerBoundaryIs><LinearRing><coordinates>61.2283612818309,44.953044290267 61.2324037006094,44.9543917631932 61.2310562276832,44.9557392361194 61.2135390796429,44.9490018714885 61.2256663359785,44.953044290267 61.2272833034899,44.9498103552442 61.2283612818309,44.953044290267</coordinates></LinearRing></innerBoundaryIs><innerBoundaryIs><LinearRing><coordinates>61.2431834840189,44.9463069256361 61.244530956945,44.94495945271 61.2539632674283,44.9409170339314 61.2431834840189,44.9463069256361</coordinates></LinearRing></innerBoundaryIs><innerBoundaryIs><LinearRing><coordinates>61.2229713901262,44.8883655898104 61.2243188630523,44.8897130627366 61.2202764442738,44.8910605356628 61.2202764442738,44.8883655898104 61.2229713901262,44.8883655898104</coordinates></LinearRing></innerBoundaryIs><innerBoundaryIs><LinearRing><coordinates>61.2270138089047,44.930137250522 61.2243188630523,44.930137250522 61.2256663359785,44.9287897775958 61.2270138089047,44.930137250522</coordinates></LinearRing></innerBoundaryIs><innerBoundaryIs><LinearRing><coordinates>61.2243188630523,44.900492846146 61.2270138089047,44.900492846146 61.2256663359785,44.9018403190722 61.2243188630523,44.900492846146</coordinates></LinearRing></innerBoundaryIs></Polygon><Polygon><outerBoundaryIs><LinearRing><coordinates>61.3038197656969,44.9557392361194 61.3092096574016,44.9584341819718 61.3102213862645,44.9574224531089 61.3102213862645,44.9565271356068 61.3065147115493,44.9503493444147 61.297082401066,44.9570867090456 61.3003688627213,44.9625641451378 61.3102213862645,44.9625641451378 61.3102213862645,44.962140856687 61.3065147115493,44.9584341819718 61.3038197656969,44.9611291278241 61.3024722927707,44.9597816548979 61.3038197656969,44.9557392361194</coordinates></LinearRing></outerBoundaryIs></Polygon><Polygon><outerBoundaryIs><LinearRing><coordinates>61.2930399822875,44.9584341819718 61.2943874552137,44.9570867090456 61.2903450364351,44.953044290267 61.2876500905828,44.9557392361194 61.2809127259519,44.9570867090456 61.2849551447304,44.9611291278241 61.2876500905828,44.9584341819718 61.2930399822875,44.9584341819718</coordinates></LinearRing></outerBoundaryIs></Polygon><Polygon><outerBoundaryIs><LinearRing><coordinates>61.259353159133,44.9624766007503 61.2596157922955,44.9625641451378 61.2668080324207,44.9625641451378 61.2660905237639,44.9611291278241 61.259353159133,44.9624766007503</coordinates></LinearRing></outerBoundaryIs></Polygon></MultiGeometry>
  </Placemark>
</Folder>
</Document></kml>
