<?xml version="1.0" encoding="utf-8" ?>
<kml xmlns="http://www.opengis.net/kml/2.2">
<Document id="root_doc">
<Schema name="task_grid_v6_46.11_59.66" id="task_grid_v6_46.11_59.66">
	<SimpleField name="area_ha" type="float"></SimpleField>
	<SimpleField name="low_risk_ha" type="float"></SimpleField>
	<SimpleField name="moderate_risk_ha" type="float"></SimpleField>
	<SimpleField name="grid_cell_deg" type="string"></SimpleField>
</Schema>
<Folder><name>task_grid_v6_46.11_59.66</name>
  <Placemark id="task_grid_v6_46.11_59.66.1">
	<name>task_grid_v6_46.11_59.66</name>
	<name>487.5</name>
	<description>1248.7</description>
	<Style><LineStyle><color>ff0000ff</color></LineStyle><PolyStyle><fill>0</fill></PolyStyle></Style>
	<ExtendedData><SchemaData schemaUrl="#task_grid_v6_46.11_59.66">
		<SimpleData name="area_ha">761.2</SimpleData>
		<SimpleData name="low_risk_ha">0.1</SimpleData>
	</SchemaData></ExtendedData>
      <MultiGeometry><Polygon><outerBoundaryIs><LinearRing><coordinates>59.6647563601561,46.0625641451378 59.6666401603891,46.0700993460697 59.6706825791676,46.0714468189958 59.6720300520938,46.0700993460697 59.6693351062415,46.0674044002173 59.67337752502,46.0633619814388 59.6760724708723,46.0687518731435 59.6801148896509,46.0700993460697 59.6801148896509,46.0754892377744 59.6841573084294,46.0795316565529 59.688199727208,46.0754892377744 59.6855047813556,46.0741417648482 59.6895472001341,46.0741417648482 59.696284564765,46.0700993460697 59.6922421459865,46.0687518731435 59.691703156816,46.0676738948025 59.6949370918389,46.0687518731435 59.6989795106174,46.0647094543649 59.7003269835436,46.0660569272911 59.7014912442614,46.0625641451378 59.6968342013902,46.0625641451378 59.6810959381603,46.0625641451378 59.6787674167247,46.0660569272911 59.6774199437985,46.0647094543649 59.67885014995,46.0625641451378 59.6647563601561,46.0625641451378</coordinates></LinearRing></outerBoundaryIs><innerBoundaryIs><LinearRing><coordinates>59.6855047813556,46.0674044002173 59.6895472001341,46.0633619814388 59.6828098355032,46.072794291922 59.6855047813556,46.0674044002173</coordinates></LinearRing></innerBoundaryIs></Polygon><Polygon><outerBoundaryIs><LinearRing><coordinates>59.6599027957582,46.0714468189958 59.6558603769797,46.072794291922 59.658555322832,46.0754892377744 59.6558603769797,46.0808791294791 59.6572078499058,46.0822266024053 59.6612502686844,46.0808791294791 59.6599027957582,46.0714468189958</coordinates></LinearRing></outerBoundaryIs></Polygon><Polygon><outerBoundaryIs><LinearRing><coordinates>59.6167836621205,46.08761649411 59.6140887162681,46.0903114399623 59.6113937704157,46.08761649411 59.6102213862645,46.0887888782612 59.6102213862645,46.1061566914185 59.6235210267514,46.1051336421503 59.6221735538252,46.1037861692241 59.620826080899,46.102438696298 59.620826080899,46.0970488045932 59.6235210267514,46.0943538587409 59.6221735538252,46.0930063858147 59.6235210267514,46.0916589128885 59.6221735538252,46.08761649411 59.6181311350466,46.0889639670362 59.6167836621205,46.08761649411</coordinates></LinearRing></outerBoundaryIs></Polygon><Polygon><outerBoundaryIs><LinearRing><coordinates>59.6221735538252,46.1037861692241 59.6289109184561,46.0997437504456 59.6248684996775,46.0930063858147 59.620826080899,46.0970488045932 59.6221735538252,46.1037861692241</coordinates></LinearRing></outerBoundaryIs></Polygon><Polygon><outerBoundaryIs><LinearRing><coordinates>59.67337752502,46.1064811150765 59.6747249979462,46.1051336421503 59.6706825791676,46.0983962775194 59.6693351062415,46.1051336421503 59.67337752502,46.1064811150765</coordinates></LinearRing></outerBoundaryIs></Polygon><Polygon><outerBoundaryIs><LinearRing><coordinates>59.6895472001341,46.1226507901907 59.696284564765,46.1132184797074 59.6949370918389,46.1118710067812 59.6895472001341,46.1145659526336 59.6868522542818,46.1145659526336 59.6814623625771,46.1145659526336 59.6774199437985,46.1213033172645 59.6814623625771,46.1226507901907 59.6868522542818,46.1172608984859 59.6895472001341,46.1226507901907</coordinates></LinearRing></outerBoundaryIs></Polygon><Polygon><outerBoundaryIs><LinearRing><coordinates>59.6545129040535,46.1522951945666 59.6572078499058,46.1522951945666 59.6612502686844,46.1482527757881 59.6545129040535,46.1469053028619 59.6423856477179,46.1590325591975 59.6423856477179,46.1617275050499 59.6432222878058,46.1625641451378 59.6442439534823,46.1625641451378 59.6545129040535,46.1522951945666</coordinates></LinearRing></outerBoundaryIs></Polygon><Polygon><outerBoundaryIs><LinearRing><coordinates>59.7057168752483,46.0687518731435 59.7097592940268,46.0665060849332 59.7016744564698,46.072794291922 59.7043694023221,46.0700993460697 59.7003269835436,46.0660569272911 59.696284564765,46.0700993460697 59.6989795106174,46.0754892377744 59.6935896189127,46.0835740753315 59.696284564765,46.0889639670362 59.6908946730603,46.0970488045932 59.6945961649539,46.1032179577493 59.6855047813556,46.1132184797074 59.6868522542818,46.1145659526336 59.6949370918389,46.1118710067812 59.696284564765,46.1078285880027 59.7003269835436,46.1145659526336 59.7043694023221,46.1132184797074 59.7016744564698,46.110523533855 59.7043694023221,46.1051336421503 59.7102213862645,46.1039632453618 59.7102213862645,46.0937224511229 59.7102213862645,46.0933682988475 59.7102213862645,46.0860302143076 59.7031903635117,46.0937643393357 59.6989795106174,46.0916589128885 59.7057168752483,46.0903114399623 59.7097592940268,46.0862690211838 59.7057168752483,46.0862690211838 59.7084118211007,46.0849215482576 59.7084118211007,46.0795316565529 59.7102213862645,46.0813412217168 59.7102213862645,46.0662493670234 59.7102213862645,46.0661466798594 59.7102213862645,46.0625641451378 59.7020042384449,46.0625641451378 59.7057168752483,46.0687518731435</coordinates></LinearRing></outerBoundaryIs><innerBoundaryIs><LinearRing><coordinates>59.7070643481745,46.0943538587409 59.7081872422796,46.0941292799199 59.7070643481745,46.0997437504456 59.7070643481745,46.0943538587409</coordinates></LinearRing></innerBoundaryIs></Polygon></MultiGeometry>
  </Placemark>
</Folder>
</Document></kml>
