<?xml version="1.0" encoding="utf-8" ?>
<kml xmlns="http://www.opengis.net/kml/2.2">
<Document id="root_doc">
<Schema name="task_grid_v6_45.38_58.98" id="task_grid_v6_45.38_58.98">
	<SimpleField name="area_ha" type="float"></SimpleField>
	<SimpleField name="low_risk_ha" type="float"></SimpleField>
	<SimpleField name="moderate_risk_ha" type="float"></SimpleField>
	<SimpleField name="grid_cell_deg" type="string"></SimpleField>
</Schema>
<Folder><name>task_grid_v6_45.38_58.98</name>
  <Placemark id="task_grid_v6_45.38_58.98.1">
	<name>task_grid_v6_45.38_58.98</name>
	<name>3</name>
	<description>2266.5</description>
	<Style><LineStyle><color>ff0000ff</color></LineStyle><PolyStyle><fill>0</fill></PolyStyle></Style>
	<ExtendedData><SchemaData schemaUrl="#task_grid_v6_45.38_58.98">
		<SimpleData name="area_ha">2263.5</SimpleData>
		<SimpleData name="low_risk_ha">0.1</SimpleData>
	</SchemaData></ExtendedData>
      <MultiGeometry><Polygon><outerBoundaryIs><LinearRing><coordinates>58.970833822568,45.3889718041471 58.9696101231085,45.3896147230804 58.9699966575544,45.3923204642015 58.970833822568,45.3889718041471</coordinates></LinearRing></outerBoundaryIs></Polygon><Polygon><outerBoundaryIs><LinearRing><coordinates>58.9619118199973,45.4004053017586 58.959216874145,45.3977103559062 58.9542013040497,45.3977103559062 58.9446394839694,45.4027340364505 58.944394671957,45.4044477205371 58.9390047802523,45.4071426663895 58.9390047802523,45.4125325580942 58.9403522531785,45.4138800310204 58.9484370907355,45.4057951934633 58.9511320365879,45.4057951934633 58.9538269824403,45.4004053017586 58.959216874145,45.4031002476109 58.967301711702,45.4031002476109 58.9713441304806,45.4098376122418 58.9686491846282,45.4125325580942 58.9740390763329,45.4152275039465 58.9713441304806,45.4179224497989 58.9740390763329,45.4233123415036 58.9713441304806,45.426007287356 58.9726916034068,45.4300497061345 58.9780814951115,45.4246598144298 58.9834713868162,45.4246598144298 58.9861663326686,45.4165749768727 58.9888612785209,45.4327446519869 58.9929036972995,45.4313971790607 58.9942511702256,45.4246598144298 58.996946116078,45.4300497061345 59.0077258994874,45.4273547602821 59.0147258972808,45.4343547580755 59.0263910613787,45.4343547580755 59.0263910613787,45.426007287356 59.0252430475278,45.426007287356 59.0238955746016,45.4327446519869 59.0225481016754,45.426007287356 59.0144632641183,45.4179224497989 59.0212006287492,45.4165749768727 59.0263910613787,45.4096544000334 59.0263910613787,45.4029007885357 59.0252430475278,45.4017527746847 59.0263910613787,45.4017527746847 59.0263910613787,45.3843780974124 59.0171582099707,45.3909729912753 59.0131157911921,45.3977103559062 58.9942511702256,45.4057951934633 58.9915562243733,45.4031002476109 58.9915562243733,45.4165749768727 58.9848188597424,45.4098376122418 58.9848188597424,45.4044477205371 58.9929036972995,45.3936679371277 58.9929036972995,45.3882780454229 58.9982935890042,45.3855830995706 58.9942511702256,45.3788457349397 58.9915562243733,45.381540680792 58.9902087514471,45.3801932078659 58.9929036972995,45.3774982620135 58.9928481604622,45.3774057006181 58.9861663326686,45.3809162632521 58.9861663326686,45.381540680792 58.9857569831148,45.3811313312383 58.978427452439,45.3849821902114 58.9794289680377,45.3855830995706 58.9740390763329,45.3882780454229 58.9740390763329,45.3909729912753 58.967301711702,45.3977103559062 58.9646067658497,45.3950154100538 58.9619118199973,45.4004053017586</coordinates></LinearRing></outerBoundaryIs><innerBoundaryIs><LinearRing><coordinates>58.98212391389,45.4044477205371 58.9807764409638,45.4057951934633 58.9780814951115,45.4004053017586 58.9753865492591,45.4031002476109 58.9740390763329,45.3990578288324 58.9780814951115,45.3977103559062 58.98212391389,45.4044477205371</coordinates></LinearRing></innerBoundaryIs><innerBoundaryIs><LinearRing><coordinates>59.011768318266,45.4125325580942 59.0104208453398,45.4138800310204 59.0077258994874,45.4084901393156 59.0104208453398,45.4084901393156 59.011768318266,45.4125325580942</coordinates></LinearRing></innerBoundaryIs><innerBoundaryIs><LinearRing><coordinates>59.0090733724136,45.4044477205371 59.0131157911921,45.4031002476109 59.0131157911921,45.4057951934633 59.0104208453398,45.4057951934633 59.0090733724136,45.4044477205371</coordinates></LinearRing></innerBoundaryIs><innerBoundaryIs><LinearRing><coordinates>59.0077258994874,45.4192699227251 59.0063784265612,45.4179224497989 59.0077258994874,45.4165749768727 59.0077258994874,45.4192699227251</coordinates></LinearRing></innerBoundaryIs><innerBoundaryIs><LinearRing><coordinates>59.0144632641183,45.4125325580942 59.0158107370445,45.411185085168 59.0171582099707,45.4125325580942 59.0144632641183,45.4125325580942</coordinates></LinearRing></innerBoundaryIs><innerBoundaryIs><LinearRing><coordinates>59.0238955746016,45.3950154100538 59.0225481016754,45.3936679371277 59.0238955746016,45.3923204642015 59.0238955746016,45.3950154100538</coordinates></LinearRing></innerBoundaryIs></Polygon><Polygon><outerBoundaryIs><LinearRing><coordinates>58.9511320365879,45.4138800310204 58.9524795095141,45.4125325580942 58.9511320365879,45.4084901393156 58.9470896178094,45.4098376122418 58.9511320365879,45.4138800310204</coordinates></LinearRing></outerBoundaryIs></Polygon><Polygon><outerBoundaryIs><LinearRing><coordinates>58.9282249968428,45.4179224497989 58.9349623614737,45.4192699227251 58.9363098343999,45.4179224497989 58.9322674156214,45.4138800310204 58.9282249968428,45.4179224497989</coordinates></LinearRing></outerBoundaryIs></Polygon><Polygon><outerBoundaryIs><LinearRing><coordinates>58.9578694012188,45.4287022332083 58.9565219282926,45.4300497061345 58.9457421448832,45.4273547602821 58.9390047802523,45.4313971790607 58.9470896178094,45.434092124913 58.9468269846469,45.4343547580755 58.9607394358461,45.4343547580755 58.9605643470711,45.434092124913 58.9632592929235,45.4313971790607 58.9632592929235,45.426007287356 58.959216874145,45.4192699227251 58.9565219282926,45.4192699227251 58.9524795095141,45.426007287356 58.9578694012188,45.4287022332083</coordinates></LinearRing></outerBoundaryIs></Polygon><Polygon><outerBoundaryIs><LinearRing><coordinates>58.9360472012375,45.4343547580755 58.9363098343999,45.434092124913 58.9349623614737,45.4327446519869 58.9282249968428,45.434092124913 58.9284876300053,45.4343547580755 58.9360472012375,45.4343547580755</coordinates></LinearRing></outerBoundaryIs></Polygon><Polygon><outerBoundaryIs><LinearRing><coordinates>59.0159280297902,45.3652797779868 59.0158107370445,45.3653710056779 59.0157762634026,45.365359514464 59.010568688283,45.3680955201189 59.0171582099707,45.3694134244564 59.0144632641183,45.3721083703088 59.019853155823,45.3748033161612 59.0144632641183,45.3801932078659 59.0158107370445,45.3869305724968 59.0225481016754,45.3855830995706 59.0171582099707,45.3828881537182 59.0212006287492,45.381540680792 59.0238955746016,45.3842356266444 59.0263910613787,45.3792446530902 59.0263910613787,45.3641875347304 59.0263910613787,45.3628755189008 59.0263910613787,45.3597826103154 59.0159280297902,45.3652797779868</coordinates></LinearRing></outerBoundaryIs></Polygon><Polygon><outerBoundaryIs><LinearRing><coordinates>59.0036834807089,45.3748033161612 59.0031241753869,45.3720067895513 58.9945906145511,45.3764902334128 58.996946116078,45.3788457349397 59.0036834807089,45.3748033161612</coordinates></LinearRing></outerBoundaryIs></Polygon><Polygon><outerBoundaryIs><LinearRing><coordinates>59.0252430475278,45.3828881537182 59.0263910613787,45.3840361675692 59.0263910613787,45.3794441121654 59.0252430475278,45.3828881537182</coordinates></LinearRing></outerBoundaryIs></Polygon><Polygon><outerBoundaryIs><LinearRing><coordinates>59.0036834807089,45.3936679371277 59.0090733724136,45.3882780454229 59.0023360077827,45.3869305724968 58.9982935890042,45.3909729912753 58.9955986431518,45.39636288298 58.996946116078,45.4004053017586 59.0063784265612,45.39636288298 59.0036834807089,45.3936679371277</coordinates></LinearRing></outerBoundaryIs></Polygon><Polygon><outerBoundaryIs><LinearRing><coordinates>59.0030919649059,45.4343547580755 59.0072475603829,45.4343547580755 59.0077258994874,45.4300497061345 59.0036834807089,45.4313971790607 59.0030919649059,45.4343547580755</coordinates></LinearRing></outerBoundaryIs></Polygon></MultiGeometry>
  </Placemark>
</Folder>
</Document></kml>
