<?xml version="1.0" encoding="utf-8" ?>
<kml xmlns="http://www.opengis.net/kml/2.2">
<Document id="root_doc">
<Schema name="task_grid_v6_46.18_60.58" id="task_grid_v6_46.18_60.58">
	<SimpleField name="area_ha" type="float"></SimpleField>
	<SimpleField name="low_risk_ha" type="float"></SimpleField>
	<SimpleField name="moderate_risk_ha" type="float"></SimpleField>
	<SimpleField name="grid_cell_deg" type="string"></SimpleField>
</Schema>
<Folder><name>task_grid_v6_46.18_60.58</name>
  <Placemark id="task_grid_v6_46.18_60.58.1">
	<name>task_grid_v6_46.18_60.58</name>
	<name>646.1</name>
	<description>693.5</description>
	<Style><LineStyle><color>ff0000ff</color></LineStyle><PolyStyle><fill>0</fill></PolyStyle></Style>
	<ExtendedData><SchemaData schemaUrl="#task_grid_v6_46.18_60.58">
		<SimpleData name="area_ha">47.4</SimpleData>
		<SimpleData name="low_risk_ha">0.1</SimpleData>
	</SchemaData></ExtendedData>
      <MultiGeometry><Polygon><outerBoundaryIs><LinearRing><coordinates>60.5294461215946,46.1343547580755 60.5290228331438,46.1347780465263 60.53037030607,46.1361255194524 60.5344127248486,46.1347780465263 60.5342716286983,46.1343547580755 60.5294461215946,46.1343547580755</coordinates></LinearRing></outerBoundaryIs></Polygon><Polygon><outerBoundaryIs><LinearRing><coordinates>60.5553837164742,46.1343547580755 60.5528540573643,46.1343547580755 60.5546248187412,46.1361255194524 60.5553837164742,46.1343547580755</coordinates></LinearRing></outerBoundaryIs></Polygon><Polygon><outerBoundaryIs><LinearRing><coordinates>60.5510056884135,46.1343547580755 60.5371076707009,46.1343547580755 60.5371076707009,46.1347780465263 60.545192508258,46.1428628840833 60.5424975624056,46.1455578299357 60.5465399811842,46.1496002487142 60.5573197645936,46.1469053028619 60.560014710446,46.1522951945666 60.5613621833721,46.1455578299357 60.5546248187412,46.1442103570095 60.5586672375198,46.1374729923786 60.5492349270365,46.1361255194524 60.5510056884135,46.1343547580755</coordinates></LinearRing></outerBoundaryIs></Polygon><Polygon><outerBoundaryIs><LinearRing><coordinates>60.5654046021507,46.1603800321237 60.5627096562983,46.163074977976 60.5613621833721,46.1617275050499 60.5694470209292,46.1536426674928 60.5654046021507,46.1496002487142 60.5586672375198,46.1590325591975 60.5559722916674,46.1698123426069 60.5505823999627,46.1752022343116 60.5519298728889,46.1765497072378 60.5694470209292,46.1671173967546 60.5654046021507,46.1603800321237</coordinates></LinearRing></outerBoundaryIs></Polygon><Polygon><outerBoundaryIs><LinearRing><coordinates>60.5276753602177,46.2088890574661 60.53037030607,46.2115840033185 60.5411500894794,46.2115840033185 60.5505823999627,46.2021516928352 60.5465399811842,46.1981092740567 60.5411500894794,46.2034991657614 60.5384551436271,46.2008042199091 60.53037030607,46.2061941116138 60.5263910613787,46.2066362499128 60.5263910613787,46.2087055862034 60.5276753602177,46.2088890574661</coordinates></LinearRing></outerBoundaryIs></Polygon><Polygon><outerBoundaryIs><LinearRing><coordinates>60.6263910613787,46.1359098135104 60.6263910613787,46.1343547580755 60.6240584782264,46.1343547580755 60.6263910613787,46.1359098135104</coordinates></LinearRing></outerBoundaryIs></Polygon><Polygon><outerBoundaryIs><LinearRing><coordinates>60.5613621833721,46.1347780465263 60.5654046021507,46.1361255194524 60.5640571292245,46.1374729923786 60.5640571292245,46.140167938231 60.5734894397077,46.1522951945666 60.5775318584863,46.1482527757881 60.5748369126339,46.1428628840833 60.5788793314125,46.1388204653048 60.5815742772648,46.1415154111572 60.5856166960434,46.1374729923786 60.582921750191,46.1347780465263 60.5833450386418,46.1343547580755 60.5671753635276,46.1343547580755 60.5667520750769,46.1347780465263 60.5663287866261,46.1343547580755 60.5615032795224,46.1343547580755 60.5613621833721,46.1347780465263</coordinates></LinearRing></outerBoundaryIs></Polygon><Polygon><outerBoundaryIs><LinearRing><coordinates>60.5887349303465,46.1343547580755 60.5851934075926,46.1343547580755 60.5869641689695,46.1361255194524 60.5887349303465,46.1343547580755</coordinates></LinearRing></outerBoundaryIs></Polygon><Polygon><outerBoundaryIs><LinearRing><coordinates>60.6260408838287,46.140167938231 60.6263910613787,46.140284664081 60.6263910613787,46.139817760681 60.6260408838287,46.140167938231</coordinates></LinearRing></outerBoundaryIs></Polygon><Polygon><outerBoundaryIs><LinearRing><coordinates>60.6263910613787,46.1589625236875 60.6260408838287,46.1590325591975 60.6260408838287,46.1644224509022 60.6219984650502,46.1657699238284 60.620650992124,46.1698123426069 60.6263910613787,46.1742768409161 60.6263910613787,46.1589625236875</coordinates></LinearRing></outerBoundaryIs></Polygon></MultiGeometry>
  </Placemark>
</Folder>
</Document></kml>
