<?xml version="1.0" encoding="utf-8" ?>
<kml xmlns="http://www.opengis.net/kml/2.2">
<Document id="root_doc">
<Schema name="task_grid_v6_45.91_60.96" id="task_grid_v6_45.91_60.96">
	<SimpleField name="area_ha" type="float"></SimpleField>
	<SimpleField name="low_risk_ha" type="float"></SimpleField>
	<SimpleField name="moderate_risk_ha" type="float"></SimpleField>
	<SimpleField name="grid_cell_deg" type="string"></SimpleField>
</Schema>
<Folder><name>task_grid_v6_45.91_60.96</name>
  <Placemark id="task_grid_v6_45.91_60.96.1">
	<name>task_grid_v6_45.91_60.96</name>
	<name>719.5</name>
	<description>916.6</description>
	<Style><LineStyle><color>ff0000ff</color></LineStyle><PolyStyle><fill>0</fill></PolyStyle></Style>
	<ExtendedData><SchemaData schemaUrl="#task_grid_v6_45.91_60.96">
		<SimpleData name="area_ha">197.1</SimpleData>
		<SimpleData name="low_risk_ha">0.1</SimpleData>
	</SchemaData></ExtendedData>
      <MultiGeometry><Polygon><outerBoundaryIs><LinearRing><coordinates>60.9844930524927,45.8625641451378 60.9817737363401,45.8652834612904 60.9831212092663,45.8693258800689 60.9898585738972,45.8652834612904 60.9871392577445,45.8625641451378 60.9844930524927,45.8625641451378</coordinates></LinearRing></outerBoundaryIs></Polygon><Polygon><outerBoundaryIs><LinearRing><coordinates>60.9831212092663,45.915139959559 60.988511100971,45.9205298512638 60.9912060468233,45.9178349054114 60.9992908843804,45.9178349054114 61.0046807760851,45.915139959559 61.0060282490113,45.9137924866329 60.9979434114542,45.9084025949281 60.9912060468233,45.8989702844449 60.9871636280448,45.8976228115187 60.9858161551186,45.8935803927402 60.9790787904877,45.8976228115187 60.9790787904877,45.9057076490758 60.9871636280448,45.9084025949281 60.9804262634139,45.9097500678543 60.9763838446354,45.9137924866329 60.9831212092663,45.915139959559</coordinates></LinearRing></outerBoundaryIs></Polygon><Polygon><outerBoundaryIs><LinearRing><coordinates>60.9480869131856,45.9232247971161 60.9494343861118,45.9218773241899 60.9426970214809,45.915139959559 60.93595965685,45.9191823783376 60.9480869131856,45.9232247971161</coordinates></LinearRing></outerBoundaryIs></Polygon><Polygon><outerBoundaryIs><LinearRing><coordinates>60.9184425088096,45.9259197429685 60.9157475629573,45.9205298512638 60.9130526171049,45.9205298512638 60.9103576712526,45.915139959559 60.9102213862645,45.9160939544753 60.9102213862645,45.9257834579804 60.9130526171049,45.9286146888208 60.921137454662,45.9286146888208 60.9224849275882,45.9272672158947 60.9184425088096,45.9259197429685</coordinates></LinearRing></outerBoundaryIs></Polygon><Polygon><outerBoundaryIs><LinearRing><coordinates>60.9912060468233,45.9501742556397 60.9925535197495,45.9488267827135 60.9912060468233,45.9420894180826 60.9844686821924,45.9434368910088 60.9912060468233,45.9501742556397</coordinates></LinearRing></outerBoundaryIs></Polygon><Polygon><outerBoundaryIs><LinearRing><coordinates>60.9926848363307,45.9625641451378 61.0057656158488,45.9625641451378 61.0060282490113,45.9623015119753 61.0060807756438,45.9625641451378 61.0102213862645,45.9625641451378 61.0102213862645,45.9566101833212 61.0102213862645,45.9564311198208 61.0102213862645,45.9471589111547 61.0046807760851,45.944784363935 61.0033333031589,45.9407419451565 60.996595938528,45.9393944722303 60.9925535197495,45.9434368910088 60.9925535197495,45.9488267827135 60.9937084965434,45.9505592479043 60.9912060468233,45.9555641473444 60.9871636280448,45.9569116202706 60.9871636280448,45.9625641451378 60.9925535197495,45.9625641451378 60.9925535197495,45.9623015119753 60.9926848363307,45.9625641451378</coordinates></LinearRing></outerBoundaryIs><innerBoundaryIs><LinearRing><coordinates>60.9898585738972,45.959606566123 60.9912060468233,45.9582590931968 60.9939009926757,45.9609540390491 60.9925535197495,45.9623015119753 60.9898585738972,45.959606566123</coordinates></LinearRing></innerBoundaryIs><innerBoundaryIs><LinearRing><coordinates>61.0073757219375,45.9528692014921 61.0019858302328,45.9555641473444 61.0006383573066,45.9542166744182 61.0046807760851,45.9501742556397 61.0073757219375,45.9501742556397 61.0073757219375,45.9528692014921</coordinates></LinearRing></innerBoundaryIs></Polygon><Polygon><outerBoundaryIs><LinearRing><coordinates>60.9898585738972,45.8841480822569 60.9939009926757,45.8881905010355 61.0006383573066,45.8868430281093 60.9939009926757,45.8828006093307 60.9898585738972,45.8841480822569</coordinates></LinearRing></outerBoundaryIs></Polygon><Polygon><outerBoundaryIs><LinearRing><coordinates>60.9979434114542,45.9003177573711 61.0046807760851,45.9043601761496 61.0087231948637,45.9003177573711 60.9992908843804,45.8962753385925 60.9979434114542,45.9003177573711</coordinates></LinearRing></outerBoundaryIs></Polygon><Polygon><outerBoundaryIs><LinearRing><coordinates>61.0100706677898,45.9043601761496 61.0102213862645,45.904309936658 61.0102213862645,45.9015145118226 61.0087231948637,45.9030127032234 61.0100706677898,45.9043601761496</coordinates></LinearRing></outerBoundaryIs></Polygon><Polygon><outerBoundaryIs><LinearRing><coordinates>61.0102213862645,45.9393944722303 61.0102213862645,45.9313096346732 61.0019858302328,45.9313096346732 61.0006383573066,45.9353520534517 61.0046807760851,45.9393944722303 61.0102213862645,45.9393944722303</coordinates></LinearRing></outerBoundaryIs></Polygon></MultiGeometry>
  </Placemark>
</Folder>
</Document></kml>
