<?xml version="1.0" encoding="utf-8" ?>
<kml xmlns="http://www.opengis.net/kml/2.2">
<Document id="root_doc">
<Schema name="task_grid_v6_46.38_59.48" id="task_grid_v6_46.38_59.48">
	<SimpleField name="area_ha" type="float"></SimpleField>
	<SimpleField name="low_risk_ha" type="float"></SimpleField>
	<SimpleField name="moderate_risk_ha" type="float"></SimpleField>
	<SimpleField name="grid_cell_deg" type="string"></SimpleField>
</Schema>
<Folder><name>task_grid_v6_46.38_59.48</name>
  <Placemark id="task_grid_v6_46.38_59.48.1">
	<name>task_grid_v6_46.38_59.48</name>
	<name>304.5</name>
	<description>330.1</description>
	<Style><LineStyle><color>ff0000ff</color></LineStyle><PolyStyle><fill>0</fill></PolyStyle></Style>
	<ExtendedData><SchemaData schemaUrl="#task_grid_v6_46.38_59.48">
		<SimpleData name="area_ha">25.7</SimpleData>
		<SimpleData name="low_risk_ha">0.1</SimpleData>
	</SchemaData></ExtendedData>
      <Polygon><outerBoundaryIs><LinearRing><coordinates>59.5214499525933,46.339257063074 59.5184181385094,46.3368989854532 59.5235065932647,46.3343547580755 59.4946157812622,46.3343547580755 59.4982060446167,46.335551512527 59.5022484633952,46.3395939313055 59.4995535175429,46.3422888771579 59.500900990469,46.3436363500841 59.5089858280261,46.3409414042317 59.5103333009523,46.3422888771579 59.5049434092476,46.3449838230102 59.5089858280261,46.3490262417888 59.5143757197308,46.3490262417888 59.5197656114356,46.3544161334935 59.5263910613787,46.3557412234821 59.5263910613787,46.3431001476849 59.5263272187282,46.3430504922901 59.5263910613787,46.3430185709648 59.5263910613787,46.3343547580755 59.5238080302141,46.3343547580755 59.5238080302141,46.3368989854532 59.5214499525933,46.339257063074</coordinates></LinearRing></outerBoundaryIs></Polygon>
  </Placemark>
</Folder>
</Document></kml>
