<?xml version="1.0" encoding="utf-8" ?>
<kml xmlns="http://www.opengis.net/kml/2.2">
<Document id="root_doc">
<Schema name="task_grid_v6_45.68_61.38" id="task_grid_v6_45.68_61.38">
	<SimpleField name="area_ha" type="float"></SimpleField>
	<SimpleField name="low_risk_ha" type="float"></SimpleField>
	<SimpleField name="moderate_risk_ha" type="float"></SimpleField>
	<SimpleField name="grid_cell_deg" type="string"></SimpleField>
</Schema>
<Folder><name>task_grid_v6_45.68_61.38</name>
  <Placemark id="task_grid_v6_45.68_61.38.1">
	<name>task_grid_v6_45.68_61.38</name>
	<name>20.3</name>
	<description>355.3</description>
	<Style><LineStyle><color>ff0000ff</color></LineStyle><PolyStyle><fill>0</fill></PolyStyle></Style>
	<ExtendedData><SchemaData schemaUrl="#task_grid_v6_45.68_61.38">
		<SimpleData name="area_ha">335</SimpleData>
		<SimpleData name="low_risk_ha">0.1</SimpleData>
	</SchemaData></ExtendedData>
      <MultiGeometry><Polygon><outerBoundaryIs><LinearRing><coordinates>61.3568771266642,45.6343547580755 61.3563712098179,45.6389080096923 61.3604136285965,45.6402554826185 61.3617611015226,45.6362130638399 61.3609646847665,45.6343547580755 61.3568771266642,45.6343547580755</coordinates></LinearRing></outerBoundaryIs></Polygon><Polygon><outerBoundaryIs><LinearRing><coordinates>61.3263910613787,45.6386841803168 61.326726805442,45.6389080096923 61.3263910613787,45.6392437537556 61.3263910613787,45.6428058957761 61.334811642999,45.6416029555446 61.3294217512943,45.6389080096923 61.3351133158153,45.6343547580755 61.3310757239235,45.6343547580755 61.3307692242205,45.6348655909138 61.3302583913823,45.6343547580755 61.3263910613787,45.6343547580755 61.3263910613787,45.6386841803168</coordinates></LinearRing></outerBoundaryIs></Polygon><Polygon><outerBoundaryIs><LinearRing><coordinates>61.3469388993347,45.6537302118803 61.3563712098179,45.6416029555446 61.349633845187,45.6402554826185 61.3469388993347,45.6429504284708 61.3442439534823,45.6375605367661 61.3415490076299,45.6375605367661 61.3402015347038,45.6416029555446 61.3455914264085,45.6469928472494 61.3428964805561,45.6523827389541 61.3469388993347,45.6537302118803</coordinates></LinearRing></outerBoundaryIs></Polygon><Polygon><outerBoundaryIs><LinearRing><coordinates>61.3658035203012,45.6510352660279 61.3698459390797,45.6469928472494 61.3631085744488,45.6402554826185 61.3617611015226,45.6469928472494 61.3658035203012,45.6510352660279</coordinates></LinearRing></outerBoundaryIs></Polygon><Polygon><outerBoundaryIs><LinearRing><coordinates>61.3469388993347,45.6672049411421 61.3482863722608,45.6658574682159 61.3442439534823,45.6618150494373 61.3428964805561,45.6658574682159 61.3469388993347,45.6672049411421</coordinates></LinearRing></outerBoundaryIs></Polygon><Polygon><outerBoundaryIs><LinearRing><coordinates>61.3590661556703,45.6685524140682 61.3631085744488,45.6698998869944 61.364456047375,45.6685524140682 61.3604136285965,45.6645099952897 61.3590661556703,45.6685524140682</coordinates></LinearRing></outerBoundaryIs></Polygon><Polygon><outerBoundaryIs><LinearRing><coordinates>61.4223973832007,45.6456453743232 61.4237448561269,45.6389080096923 61.4263910613787,45.6362618044405 61.4263910613787,45.6343547580755 61.420941307858,45.6343547580755 61.417007491496,45.6402554826185 61.4102701268651,45.6416029555446 61.4143125456436,45.6456453743232 61.4197024373483,45.6429504284708 61.4223973832007,45.6456453743232</coordinates></LinearRing></outerBoundaryIs></Polygon><Polygon><outerBoundaryIs><LinearRing><coordinates>61.4250923290531,45.6429504284708 61.4263910613787,45.6425175176956 61.4263910613787,45.638025941275 61.4237448561269,45.6389080096923 61.4250923290531,45.6429504284708</coordinates></LinearRing></outerBoundaryIs></Polygon><Polygon><outerBoundaryIs><LinearRing><coordinates>61.38736308712,45.6429504284708 61.3860156141939,45.644297901397 61.3900580329724,45.6483403201755 61.3941004517509,45.644297901397 61.38736308712,45.6429504284708</coordinates></LinearRing></outerBoundaryIs></Polygon><Polygon><outerBoundaryIs><LinearRing><coordinates>61.3981428705295,45.6564251577326 61.3994903434557,45.6550776848064 61.3981428705295,45.6510352660279 61.3941004517509,45.6523827389541 61.3981428705295,45.6564251577326</coordinates></LinearRing></outerBoundaryIs></Polygon><Polygon><outerBoundaryIs><LinearRing><coordinates>61.3833206683415,45.6577726306588 61.38736308712,45.6618150494373 61.3914055058986,45.6577726306588 61.3846681412677,45.6564251577326 61.3833206683415,45.6577726306588</coordinates></LinearRing></outerBoundaryIs></Polygon></MultiGeometry>
  </Placemark>
</Folder>
</Document></kml>
