<?xml version="1.0" encoding="utf-8" ?>
<kml xmlns="http://www.opengis.net/kml/2.2">
<Document id="root_doc">
<Schema name="task_grid_v6_44.98_61.18" id="task_grid_v6_44.98_61.18">
	<SimpleField name="area_ha" type="float"></SimpleField>
	<SimpleField name="low_risk_ha" type="float"></SimpleField>
	<SimpleField name="moderate_risk_ha" type="float"></SimpleField>
	<SimpleField name="grid_cell_deg" type="string"></SimpleField>
</Schema>
<Folder><name>task_grid_v6_44.98_61.18</name>
  <Placemark id="task_grid_v6_44.98_61.18.1">
	<name>task_grid_v6_44.98_61.18</name>
	<name>132.2</name>
	<description>5023</description>
	<Style><LineStyle><color>ff0000ff</color></LineStyle><PolyStyle><fill>0</fill></PolyStyle></Style>
	<ExtendedData><SchemaData schemaUrl="#task_grid_v6_44.98_61.18">
		<SimpleData name="area_ha">4890.7</SimpleData>
		<SimpleData name="low_risk_ha">0.1</SimpleData>
	</SchemaData></ExtendedData>
      <MultiGeometry><Polygon><outerBoundaryIs><LinearRing><coordinates>61.1948388999967,44.9343547580755 61.1854172369681,44.9343547580755 61.187202108813,44.9361396299204 61.172328176772,44.9343547580755 61.1263910613787,44.9343547580755 61.1263910613787,44.9831264165804 61.1353856499245,44.9921210051262 61.1299957582198,44.9948159509786 61.139428068703,45.0015533156095 61.1475129062601,44.9907735322001 61.1502078521125,44.9934684780524 61.1515553250387,44.9921210051262 61.1529027979648,44.9880785863477 61.1555977438172,44.9907735322001 61.1852421481931,44.9907735322001 61.1933269857502,44.9988583697571 61.1960219316026,44.9961634239048 61.1973694045288,44.997510896831 61.1946744586764,45.0002058426833 61.2000643503811,45.0029007885357 61.1973694045288,45.005595734388 61.2094966608644,45.0150280448713 61.2121916067167,45.0096381531666 61.2202764442738,45.0096381531666 61.2229713901262,45.0042482614619 61.2256663359785,45.0096381531666 61.2263910613787,45.0084302774996 61.2263910613787,44.998256017806 61.2229713901262,44.9934684780524 61.2121916067167,44.9988583697571 61.2081491879382,44.997510896831 61.2108441337906,44.9948159509786 61.2108441337906,44.9867311134215 61.2054542420858,44.9840361675692 61.2108441337906,44.9813412217168 61.206801715012,44.9799937487906 61.2014118233073,44.9719089112335 61.1987168774549,44.9746038570859 61.1946744586764,44.9732563841597 61.2000643503811,44.9705614383074 61.1973694045288,44.967866492455 61.1987168774549,44.9665190195288 61.2041067691597,44.9692139653812 61.2094966608644,44.9611291278241 61.2121916067167,44.9692139653812 61.2229713901262,44.9692139653812 61.2256663359785,44.9719089112335 61.2263910613787,44.9711841858334 61.2263910613787,44.9544257558179 61.2229713901262,44.9521459749829 61.2256663359785,44.953044290267 61.2263910613787,44.9515948394667 61.2263910613787,44.9419021441575 61.2263910613787,44.9343547580755 61.1958468428276,44.9343547580755 61.1948388999967,44.9343547580755</coordinates></LinearRing></outerBoundaryIs><innerBoundaryIs><LinearRing><coordinates>61.1960219316026,44.9422645068576 61.1906320398979,44.9422645068576 61.1906320398979,44.9411865285167 61.1960219316026,44.9422645068576</coordinates></LinearRing></innerBoundaryIs><innerBoundaryIs><LinearRing><coordinates>61.1960219316026,44.9406475393462 61.1973694045288,44.9409170339314 61.1960219316026,44.9422645068576 61.1960219316026,44.9406475393462</coordinates></LinearRing></innerBoundaryIs><innerBoundaryIs><LinearRing><coordinates>61.2175814984214,44.9503493444147 61.2148865525691,44.9503493444147 61.2148865525691,44.9494510291306 61.2175814984214,44.9503493444147</coordinates></LinearRing></innerBoundaryIs><innerBoundaryIs><LinearRing><coordinates>61.2148865525691,44.9467560832782 61.2148865525691,44.94495945271 61.2175814984214,44.9422645068576 61.2148865525691,44.9467560832782</coordinates></LinearRing></innerBoundaryIs><innerBoundaryIs><LinearRing><coordinates>61.1879370940455,44.9476543985623 61.1865896211193,44.9490018714885 61.191979512824,44.9497718560177 61.1879370940455,44.9503493444147 61.183894675267,44.9463069256361 61.1960219316026,44.9476543985623 61.1879370940455,44.9476543985623</coordinates></LinearRing></innerBoundaryIs><innerBoundaryIs><LinearRing><coordinates>61.1987168774549,44.94495945271 61.2000643503811,44.9463069256361 61.1973694045288,44.9490018714885 61.1960219316026,44.9491943676208 61.1960219316026,44.9476543985623 61.1987168774549,44.94495945271</coordinates></LinearRing></innerBoundaryIs><innerBoundaryIs><LinearRing><coordinates>61.1717674189314,44.94495945271 61.1704199460052,44.9436119797838 61.1744623647837,44.9422645068576 61.1758098377099,44.9436119797838 61.1717674189314,44.94495945271</coordinates></LinearRing></innerBoundaryIs><innerBoundaryIs><LinearRing><coordinates>61.2175814984214,45.0069432073142 61.2175814984214,45.0042482614619 61.2189289713476,45.005595734388 61.2175814984214,45.0069432073142</coordinates></LinearRing></innerBoundaryIs><innerBoundaryIs><LinearRing><coordinates>61.1973694045288,44.9867311134215 61.2000643503811,44.9867311134215 61.1987168774549,44.9880785863477 61.1973694045288,44.9867311134215</coordinates></LinearRing></innerBoundaryIs><innerBoundaryIs><LinearRing><coordinates>61.1636825813743,44.9746038570859 61.1636825813743,44.9772988029383 61.1623351084481,44.9759513300121 61.1636825813743,44.9746038570859</coordinates></LinearRing></innerBoundaryIs><innerBoundaryIs><LinearRing><coordinates>61.1704199460052,44.9759513300121 61.1677250001528,44.9759513300121 61.169072473079,44.9746038570859 61.1704199460052,44.9759513300121</coordinates></LinearRing></innerBoundaryIs><innerBoundaryIs><LinearRing><coordinates>61.1717674189314,44.9503493444147 61.1717674189314,44.9476543985623 61.1731148918575,44.9490018714885 61.1717674189314,44.9503493444147</coordinates></LinearRing></innerBoundaryIs><innerBoundaryIs><LinearRing><coordinates>61.1798522564884,44.9368746151529 61.1798522564884,44.9395695610052 61.1785047835622,44.9382220880791 61.1798522564884,44.9368746151529</coordinates></LinearRing></innerBoundaryIs></Polygon><Polygon><outerBoundaryIs><LinearRing><coordinates>61.2243188630523,44.9840361675692 61.2256663359785,44.9880785863477 61.2263910613787,44.9876437511076 61.2263910613787,44.9827928485734 61.2243188630523,44.9840361675692</coordinates></LinearRing></outerBoundaryIs></Polygon><Polygon><outerBoundaryIs><LinearRing><coordinates>61.1273008123674,44.9867311134215 61.1263910613787,44.9858213624328 61.1263910613787,44.9894603663878 61.1273008123674,44.9867311134215</coordinates></LinearRing></outerBoundaryIs></Polygon><Polygon><outerBoundaryIs><LinearRing><coordinates>61.1286482852936,45.0123330990189 61.1299957582198,45.0109856260927 61.1263910613787,45.0073809292516 61.1263910613787,45.0112638876908 61.1286482852936,45.0123330990189</coordinates></LinearRing></outerBoundaryIs></Polygon><Polygon><outerBoundaryIs><LinearRing><coordinates>61.1340381769983,45.0338926658378 61.1353856499245,45.0325451929116 61.131343231146,45.0285027741331 61.1299957582198,45.0325451929116 61.1340381769983,45.0338926658378</coordinates></LinearRing></outerBoundaryIs></Polygon></MultiGeometry>
  </Placemark>
</Folder>
</Document></kml>
