<?xml version="1.0" encoding="utf-8" ?>
<kml xmlns="http://www.opengis.net/kml/2.2">
<Document id="root_doc">
<Schema name="task_grid_v6_45.58_60.98" id="task_grid_v6_45.58_60.98">
	<SimpleField name="area_ha" type="float"></SimpleField>
	<SimpleField name="low_risk_ha" type="float"></SimpleField>
	<SimpleField name="moderate_risk_ha" type="float"></SimpleField>
	<SimpleField name="grid_cell_deg" type="string"></SimpleField>
</Schema>
<Folder><name>task_grid_v6_45.58_60.98</name>
  <Placemark id="task_grid_v6_45.58_60.98.1">
	<name>task_grid_v6_45.58_60.98</name>
	<name>524.7</name>
	<description>4282.2</description>
	<Style><LineStyle><color>ff0000ff</color></LineStyle><PolyStyle><fill>0</fill></PolyStyle></Style>
	<ExtendedData><SchemaData schemaUrl="#task_grid_v6_45.58_60.98">
		<SimpleData name="area_ha">3757.5</SimpleData>
		<SimpleData name="low_risk_ha">0.1</SimpleData>
	</SchemaData></ExtendedData>
      <MultiGeometry><Polygon><outerBoundaryIs><LinearRing><coordinates>60.9756062547813,45.5343547580755 60.9742385354082,45.5343547580755 60.9750363717092,45.5351525943765 60.9756062547813,45.5343547580755</coordinates></LinearRing></outerBoundaryIs></Polygon><Polygon><outerBoundaryIs><LinearRing><coordinates>60.9713928710811,45.5343547580755 60.9638251764156,45.5343547580755 60.9696464800045,45.5378475402288 60.9713928710811,45.5343547580755</coordinates></LinearRing></outerBoundaryIs></Polygon><Polygon><outerBoundaryIs><LinearRing><coordinates>60.9263910613787,45.5594071070477 60.9263910613787,45.5697824289085 60.9292222922191,45.5701868904572 60.9373071297762,45.5621020529001 60.9400020756285,45.5621020529001 60.9440444944071,45.5580596341215 60.93595965685,45.5526697424168 60.9453919673332,45.5513222694906 60.9467394402594,45.5445849048597 60.9507818590379,45.5432374319336 60.9534768048903,45.5459323777859 60.9602141695212,45.539195013155 60.958866696595,45.5378475402288 60.9534768048903,45.5405424860812 60.9627583968989,45.5343547580755 60.9327150743724,45.5343547580755 60.9319172380714,45.5351525943765 60.9263910613787,45.5351525943765 60.9263910613787,45.548854465285 60.9263910613787,45.556666732866 60.9263910613787,45.5594071070477</coordinates></LinearRing></outerBoundaryIs></Polygon><Polygon><outerBoundaryIs><LinearRing><coordinates>60.9265273463667,45.6106110782425 60.9265273463667,45.6079161323902 60.9263910613787,45.6079161323902 60.9263910613787,45.6105838212449 60.9265273463667,45.6106110782425</coordinates></LinearRing></outerBoundaryIs></Polygon><Polygon><outerBoundaryIs><LinearRing><coordinates>60.9305697651453,45.6146534970211 60.9332647109976,45.6173484428734 60.9319172380714,45.6186959157996 60.9263910613787,45.616853856902 60.9263910613787,45.629339414221 60.9265273463667,45.629475699209 60.9292222922191,45.6240858075043 60.9319172380714,45.6267807533567 60.9373071297762,45.6267807533567 60.9386546027023,45.6200433887258 60.9426970214809,45.6160009699472 60.9480869131856,45.6160009699472 60.9521293319641,45.6092636053164 60.9386546027023,45.5984838219069 60.9426970214809,45.5971363489807 60.9426970214809,45.5944414031284 60.9346121839238,45.5944414031284 60.9319172380714,45.5971363489807 60.9292222922191,45.591746457276 60.9263910613787,45.6002401497972 60.9263910613787,45.6050849015498 60.9265273463667,45.6052211865378 60.9319172380714,45.6025262406854 60.93595965685,45.606568659464 60.9278748192929,45.606568659464 60.9332647109976,45.6119585511687 60.9305697651453,45.6146534970211</coordinates></LinearRing></outerBoundaryIs></Polygon><Polygon><outerBoundaryIs><LinearRing><coordinates>60.9287114593808,45.6343547580755 60.9263910613787,45.6320343600734 60.9263910613787,45.6343547580755 60.9287114593808,45.6343547580755</coordinates></LinearRing></outerBoundaryIs></Polygon><Polygon><outerBoundaryIs><LinearRing><coordinates>60.9844686821924,45.5365000673027 60.9831212092663,45.5351525943765 60.9817737363401,45.539195013155 60.9858161551186,45.5405424860812 60.9871636280448,45.539195013155 60.9858161551186,45.5378475402288 60.9912060468233,45.5351525943765 60.9912060468233,45.5343547580755 60.9851837852682,45.5343547580755 60.9844686821924,45.5365000673027</coordinates></LinearRing></outerBoundaryIs></Polygon><Polygon><outerBoundaryIs><LinearRing><coordinates>61.0263910613787,45.5514729879653 61.0248928699778,45.5499747965645 61.0263910613787,45.5474778108963 61.0263910613787,45.5343547580755 61.0108685040908,45.5343547580755 61.0100706677898,45.5351525943765 61.0092728314889,45.5343547580755 61.0038829397841,45.5343547580755 61.0060282490113,45.5365000673027 61.0033333031589,45.539195013155 61.0046807760851,45.5405424860812 61.0154605594946,45.5378475402288 61.0195029782731,45.5418899590074 61.0127656136422,45.5432374319336 61.0100706677898,45.5405424860812 61.0046807760851,45.5432374319336 61.0019858302328,45.5405424860812 60.9992908843804,45.5432374319336 60.996595938528,45.5405424860812 60.9939009926757,45.5432374319336 60.9858161551186,45.5432374319336 60.9817737363401,45.5472798507121 60.9858161551186,45.5486273236383 60.988511100971,45.5459323777859 60.9939009926757,45.5459323777859 60.9979434114542,45.5499747965645 60.9925535197495,45.5526697424168 60.9952484656019,45.5634495258263 61.0019858302328,45.5701868904572 61.0100706677898,45.5728818363095 61.0141130865684,45.5796192009404 61.0127656136422,45.5809666738666 61.0100706677898,45.5782717280142 61.0060282490113,45.5823141467928 61.0087231948637,45.5850090926451 61.0073757219375,45.5863565655713 61.0046807760851,45.5836616197189 60.9992908843804,45.5836616197189 60.9939009926757,45.5863565655713 60.9939009926757,45.5890515114237 60.9979434114542,45.5903989843498 60.9952484656019,45.5930939302022 60.9992908843804,45.5971363489807 61.0019858302328,45.5944414031284 61.0046807760851,45.5971363489807 61.0073757219375,45.591746457276 61.0127656136422,45.591746457276 61.0141130865684,45.5957888760546 61.0046807760851,45.5998312948331 60.996595938528,45.5998312948331 60.9925535197495,45.5957888760546 60.9912060468233,45.5890515114237 60.9912060468233,45.5863565655713 60.9858161551186,45.5863565655713 60.9925535197495,45.5850090926451 60.9925535197495,45.5796192009404 60.9858161551186,45.5755767821619 60.9804262634139,45.5755767821619 60.9763838446354,45.5796192009404 60.9817737363401,45.5850090926451 60.9777313175615,45.5863565655713 60.9723414258568,45.5809666738666 60.9656040612259,45.5796192009404 60.9750363717092,45.5782717280142 60.9750363717092,45.5755767821619 60.958866696595,45.5728818363095 60.9534768048903,45.5674919446048 60.9507818590379,45.5755767821619 60.9467394402594,45.5715343633833 60.9467394402594,45.5661444716786 60.9548242778165,45.5580596341215 60.9534768048903,45.5567121611954 60.9453919673332,45.5594071070477 60.9413495485547,45.568839417531 60.9440444944071,45.5715343633833 60.9453919673332,45.5809666738666 60.9507818590379,45.5836616197189 60.9534768048903,45.5809666738666 60.9602141695212,45.5823141467928 60.9602141695212,45.5903989843498 60.9548242778165,45.5903989843498 60.9534768048903,45.5836616197189 60.9480869131856,45.5863565655713 60.9373071297762,45.5809666738666 60.9332647109976,45.5850090926451 60.9373071297762,45.591746457276 60.9480869131856,45.5944414031284 60.9507818590379,45.591746457276 60.9561717507427,45.5944414031284 60.9561717507427,45.5971363489807 60.9534768048903,45.5971363489807 60.9507818590379,45.5944414031284 60.9467394402594,45.6011787677593 60.9507818590379,45.6052211865378 60.9534768048903,45.6025262406854 60.958866696595,45.6025262406854 60.9602141695212,45.606568659464 60.9696464800045,45.6133060240949 60.9804262634139,45.6079161323902 60.9831212092663,45.6106110782425 60.988511100971,45.6106110782425 60.9939009926757,45.6186959157996 60.9952484656019,45.6119585511687 60.9992908843804,45.6079161323902 61.0006383573066,45.6092636053164 60.9979434114542,45.6119585511687 61.0060282490113,45.6173484428734 61.0060282490113,45.6200433887258 60.9979434114542,45.6200433887258 60.9979434114542,45.6308231721352 60.9952484656019,45.6335181179876 60.9965034257338,45.6343547580755 61.0084677784445,45.6343547580755 61.0073757219375,45.6321706450614 61.0006383573066,45.6308231721352 61.0060282490113,45.6281282262829 61.011418140716,45.6173484428734 61.0087231948637,45.6146534970211 61.0141130865684,45.6146534970211 61.0154605594946,45.6079161323902 61.0181555053469,45.6079161323902 61.0208504511993,45.6133060240949 61.0263910613787,45.6099816579872 61.0263910613787,45.6056733419619 61.026240342904,45.6052211865378 61.0168080324207,45.6038737136116 61.0221979241255,45.6011787677593 61.0168080324207,45.5984838219069 61.0263910613787,45.5931599169303 61.0263910613787,45.5750076492965 61.0235453970516,45.5755767821619 61.0221979241255,45.5742293092357 61.0263910613787,45.573390681785 61.0263910613787,45.5594071070477 61.0263910613787,45.5549657701187 61.0247003738455,45.5544022076076 61.0263910613787,45.5533877950877 61.0263910613787,45.5514729879653</coordinates></LinearRing></outerBoundaryIs><innerBoundaryIs><LinearRing><coordinates>60.9844686821924,45.5903989843498 60.9851424186555,45.5910727208129 60.9831212092663,45.591746457276 60.9817737363401,45.5903989843498 60.9858161551186,45.5863565655713 60.9844686821924,45.5903989843498</coordinates></LinearRing></innerBoundaryIs><innerBoundaryIs><LinearRing><coordinates>61.011418140716,45.5499747965645 61.0154605594946,45.5486273236383 61.0168080324207,45.5499747965645 61.0141130865684,45.5526697424168 61.0208504511993,45.5567121611954 61.022534792357,45.5557015565007 61.02008046667,45.5597920993123 61.0195029782731,45.5580596341215 61.011418140716,45.5526697424168 61.011418140716,45.5499747965645</coordinates></LinearRing></innerBoundaryIs><innerBoundaryIs><LinearRing><coordinates>61.0181555053469,45.5890515114237 61.0168080324207,45.5850090926451 61.0208504511993,45.5809666738666 61.0221979241255,45.5850090926451 61.0181555053469,45.5890515114237</coordinates></LinearRing></innerBoundaryIs><innerBoundaryIs><LinearRing><coordinates>61.0235453970516,45.5378475402288 61.0235453970516,45.5459323777859 61.0221979241255,45.5445849048597 61.0235453970516,45.5378475402288</coordinates></LinearRing></innerBoundaryIs><innerBoundaryIs><LinearRing><coordinates>60.9979434114542,45.6038737136116 61.0019858302328,45.6025262406854 61.0033333031589,45.6038737136116 60.9992908843804,45.6052211865378 60.9979434114542,45.6038737136116</coordinates></LinearRing></innerBoundaryIs><innerBoundaryIs><LinearRing><coordinates>60.9386546027023,45.5877040384975 60.9426970214809,45.5863565655713 60.9426970214809,45.5890515114237 60.9400020756285,45.5890515114237 60.9386546027023,45.5877040384975</coordinates></LinearRing></innerBoundaryIs><innerBoundaryIs><LinearRing><coordinates>60.9682990070783,45.5850090926451 60.9669515341521,45.5863565655713 60.9642565882997,45.5863565655713 60.9642565882997,45.5836616197189 60.9682990070783,45.5850090926451</coordinates></LinearRing></innerBoundaryIs><innerBoundaryIs><LinearRing><coordinates>61.0046807760851,45.6133060240949 61.0033333031589,45.6119585511687 61.0046807760851,45.6106110782425 61.0046807760851,45.6133060240949</coordinates></LinearRing></innerBoundaryIs><innerBoundaryIs><LinearRing><coordinates>61.011418140716,45.6038737136116 61.0127656136422,45.6025262406854 61.0141130865684,45.6038737136116 61.011418140716,45.6038737136116</coordinates></LinearRing></innerBoundaryIs><innerBoundaryIs><LinearRing><coordinates>60.9858161551186,45.5998312948331 60.9871636280448,45.6011787677593 60.9858161551186,45.6025262406854 60.9858161551186,45.5998312948331</coordinates></LinearRing></innerBoundaryIs></Polygon><Polygon><outerBoundaryIs><LinearRing><coordinates>61.026240342904,45.6025262406854 61.0263910613787,45.6023755222107 61.0263910613787,45.5981841836267 61.0248928699778,45.5984838219069 61.026240342904,45.6025262406854</coordinates></LinearRing></outerBoundaryIs></Polygon><Polygon><outerBoundaryIs><LinearRing><coordinates>60.9804262634139,45.6186959157996 60.9844686821924,45.6173484428734 60.9831212092663,45.6133060240949 60.9790787904877,45.6173484428734 60.9804262634139,45.6186959157996</coordinates></LinearRing></outerBoundaryIs></Polygon><Polygon><outerBoundaryIs><LinearRing><coordinates>61.0006383573066,45.6173484428734 60.9992908843804,45.6133060240949 60.9952484656019,45.6146534970211 60.996595938528,45.6186959157996 61.0006383573066,45.6173484428734</coordinates></LinearRing></outerBoundaryIs></Polygon><Polygon><outerBoundaryIs><LinearRing><coordinates>60.9925535197495,45.6227383345781 60.9912060468233,45.6186959157996 60.9871636280448,45.6200433887258 60.988511100971,45.6240858075043 60.9925535197495,45.6227383345781</coordinates></LinearRing></outerBoundaryIs></Polygon></MultiGeometry>
  </Placemark>
</Folder>
</Document></kml>
