<?xml version="1.0" encoding="utf-8" ?>
<kml xmlns="http://www.opengis.net/kml/2.2">
<Document id="root_doc">
<Schema name="task_grid_v6_44.88_60.78" id="task_grid_v6_44.88_60.78">
	<SimpleField name="area_ha" type="float"></SimpleField>
	<SimpleField name="low_risk_ha" type="float"></SimpleField>
	<SimpleField name="moderate_risk_ha" type="float"></SimpleField>
	<SimpleField name="grid_cell_deg" type="string"></SimpleField>
</Schema>
<Folder><name>task_grid_v6_44.88_60.78</name>
  <Placemark id="task_grid_v6_44.88_60.78.1">
	<name>task_grid_v6_44.88_60.78</name>
	<name>0</name>
	<description>239.4</description>
	<Style><LineStyle><color>ff0000ff</color></LineStyle><PolyStyle><fill>0</fill></PolyStyle></Style>
	<ExtendedData><SchemaData schemaUrl="#task_grid_v6_44.88_60.78">
		<SimpleData name="area_ha">239.4</SimpleData>
		<SimpleData name="low_risk_ha">0.1</SimpleData>
	</SchemaData></ExtendedData>
      <MultiGeometry><Polygon><outerBoundaryIs><LinearRing><coordinates>60.8240074892893,44.8343547580755 60.8263910613787,44.8367383301649 60.8263910613787,44.8343547580755 60.8240074892893,44.8343547580755</coordinates></LinearRing></outerBoundaryIs></Polygon><Polygon><outerBoundaryIs><LinearRing><coordinates>60.8025598371582,44.8748908605486 60.8079497288629,44.8668060229916 60.8146870934938,44.8654585500654 60.8106446747153,44.8641110771392 60.8079497288629,44.8587211854345 60.7944749996011,44.8560262395821 60.7863901620441,44.8506363478774 60.7823477432655,44.854678766656 60.7971699454535,44.8641110771392 60.7985174183797,44.8708484417701 60.8025598371582,44.8748908605486</coordinates></LinearRing></outerBoundaryIs></Polygon><Polygon><outerBoundaryIs><LinearRing><coordinates>60.8227719310509,44.862763604213 60.8263910613787,44.8649350824097 60.8263910613787,44.8615572274371 60.8227719310509,44.862763604213</coordinates></LinearRing></outerBoundaryIs></Polygon><Polygon><outerBoundaryIs><LinearRing><coordinates>60.7621356493729,44.9314847234482 60.755398284742,44.9328321963743 60.7563118217626,44.9343547580755 60.7627096562983,44.9343547580755 60.7621356493729,44.9314847234482</coordinates></LinearRing></outerBoundaryIs></Polygon></MultiGeometry>
  </Placemark>
</Folder>
</Document></kml>
