<?xml version="1.0" encoding="utf-8" ?>
<kml xmlns="http://www.opengis.net/kml/2.2">
<Document id="root_doc">
<Schema name="task_grid_v6_45.61_60.06" id="task_grid_v6_45.61_60.06">
	<SimpleField name="area_ha" type="float"></SimpleField>
	<SimpleField name="low_risk_ha" type="float"></SimpleField>
	<SimpleField name="moderate_risk_ha" type="float"></SimpleField>
	<SimpleField name="grid_cell_deg" type="string"></SimpleField>
</Schema>
<Folder><name>task_grid_v6_45.61_60.06</name>
  <Placemark id="task_grid_v6_45.61_60.06.1">
	<name>task_grid_v6_45.61_60.06</name>
	<name>2111.5</name>
	<description>4256.5</description>
	<Style><LineStyle><color>ff0000ff</color></LineStyle><PolyStyle><fill>0</fill></PolyStyle></Style>
	<ExtendedData><SchemaData schemaUrl="#task_grid_v6_45.61_60.06">
		<SimpleData name="area_ha">2145</SimpleData>
		<SimpleData name="low_risk_ha">0.1</SimpleData>
	</SchemaData></ExtendedData>
      <MultiGeometry><Polygon><outerBoundaryIs><LinearRing><coordinates>60.0291103775313,45.5890515114237 60.0183305941219,45.5890515114237 60.0129407024172,45.5836616197189 60.0102213862645,45.5831517479403 60.0102213862645,45.5957888760546 60.011593229491,45.5957888760546 60.0102457565648,45.5971363489807 60.0102213862645,45.5971119786805 60.0102213862645,45.5998312948331 60.0129407024172,45.5998312948331 60.0102213862645,45.6002197685692 60.0102213862645,45.6041285860167 60.0102213862645,45.6045352649246 60.0102213862645,45.6146413118709 60.0102213862645,45.6349387018146 60.0102213862645,45.6357720296313 60.0102213862645,45.6402311123182 60.0129407024172,45.6429504284708 60.0183305941219,45.6429504284708 60.0210255399742,45.6483403201755 60.026415431679,45.6510352660279 60.0291103775313,45.6483403201755 60.0304578504575,45.6496877931017 60.0277629046051,45.6523827389541 60.034500269236,45.6564251577326 60.0385426880146,45.6550776848064 60.0358477421622,45.6523827389541 60.0398901609408,45.6483403201755 60.0479749984978,45.6483403201755 60.0533648902025,45.6510352660279 60.0547123631287,45.6550776848064 60.0479749984978,45.6564251577326 60.0439325797193,45.6604675765112 60.0452800526455,45.6618150494373 60.0587547819073,45.6618150494373 60.0587547819073,45.6564251577326 60.0614497277596,45.659120103585 60.064144673612,45.6564251577326 60.0654921465382,45.6577726306588 60.0607006320592,45.6625641451378 60.0761212114729,45.6625641451378 60.0776194028738,45.6618150494373 60.0783684985742,45.6625641451378 60.0972331195407,45.6625641451378 60.0964840238403,45.6618150494373 60.0830092945785,45.6618150494373 60.0830092945785,45.6564251577326 60.0695345653167,45.6537302118803 60.0654921465382,45.6496877931017 60.0681870923905,45.6469928472494 60.0668396194643,45.6456453743232 60.0614497277596,45.6456453743232 60.0574073089811,45.6416029555446 60.0614497277596,45.6402554826185 60.064144673612,45.6429504284708 60.0668396194643,45.6402554826185 60.0722295111691,45.6402554826185 60.0722295111691,45.6375605367661 60.0749244570214,45.6402554826185 60.0735769840952,45.6416029555446 60.0830092945785,45.6483403201755 60.087051713357,45.644297901397 60.0863261510122,45.6437796425792 60.0937890779879,45.6456453743232 60.0964840238403,45.6483403201755 60.101873915545,45.6483403201755 60.1005264426188,45.6496877931017 60.1099587531021,45.6510352660279 60.1099587531021,45.6483403201755 60.1102213862645,45.6483403201755 60.1102213862645,45.6414716389634 60.1102213862645,45.6186959157996 60.1099587531021,45.6186959157996 60.0937890779879,45.6052211865378 60.0897466592094,45.6092636053164 60.0924416050617,45.6119585511687 60.0910941321356,45.6133060240949 60.0830092945785,45.6160009699472 60.0668396194643,45.6025262406854 60.064144673612,45.6025262406854 60.0614497277596,45.5971363489807 60.0574073089811,45.6038737136116 60.0560598360549,45.6025262406854 60.0452800526455,45.5971363489807 60.0434143209015,45.5983801701434 60.0371952150884,45.5971363489807 60.0385426880146,45.5957888760546 60.034500269236,45.591746457276 60.0250679587528,45.5930939302022 60.0304578504575,45.5903989843498 60.0291103775313,45.5890515114237</coordinates></LinearRing></outerBoundaryIs><innerBoundaryIs><LinearRing><coordinates>60.0362968998043,45.5998312948331 60.0358477421622,45.5984838219069 60.0371952150884,45.5971363489807 60.0362968998043,45.5998312948331</coordinates></LinearRing></innerBoundaryIs><innerBoundaryIs><LinearRing><coordinates>60.0129407024172,45.6348655909138 60.0156356482695,45.6375605367661 60.0113237349058,45.6354045800842 60.0129407024172,45.6348655909138</coordinates></LinearRing></innerBoundaryIs><innerBoundaryIs><LinearRing><coordinates>60.0371952150884,45.6402554826185 60.0385426880146,45.6389080096923 60.0331527963099,45.6335181179876 60.0439325797193,45.6416029555446 60.0425851067931,45.6429504284708 60.034500269236,45.6402554826185 60.0291103775313,45.6348655909138 60.0371952150884,45.6402554826185</coordinates></LinearRing></innerBoundaryIs><innerBoundaryIs><LinearRing><coordinates>60.0371952150884,45.6025262406854 60.0368583468569,45.6015156359908 60.0380935303725,45.6019273638294 60.0371952150884,45.6025262406854</coordinates></LinearRing></innerBoundaryIs><innerBoundaryIs><LinearRing><coordinates>60.0708820382429,45.6577726306588 60.0735769840952,45.6577726306588 60.0722295111691,45.659120103585 60.0708820382429,45.6577726306588</coordinates></LinearRing></innerBoundaryIs></Polygon><Polygon><outerBoundaryIs><LinearRing><coordinates>60.1102213862645,45.6625641451378 60.1102213862645,45.6523381062985 60.1059163343235,45.6550776848064 60.1099587531021,45.6564251577326 60.1099587531021,45.659120103585 60.1030706699965,45.6625641451378 60.1102213862645,45.6625641451378</coordinates></LinearRing></outerBoundaryIs></Polygon></MultiGeometry>
  </Placemark>
</Folder>
</Document></kml>
