<?xml version="1.0" encoding="utf-8" ?>
<kml xmlns="http://www.opengis.net/kml/2.2">
<Document id="root_doc">
<Schema name="task_grid_v6_45.71_59.96" id="task_grid_v6_45.71_59.96">
	<SimpleField name="area_ha" type="float"></SimpleField>
	<SimpleField name="low_risk_ha" type="float"></SimpleField>
	<SimpleField name="moderate_risk_ha" type="float"></SimpleField>
	<SimpleField name="grid_cell_deg" type="string"></SimpleField>
</Schema>
<Folder><name>task_grid_v6_45.71_59.96</name>
  <Placemark id="task_grid_v6_45.71_59.96.1">
	<name>task_grid_v6_45.71_59.96</name>
	<name>594.3</name>
	<description>1031.3</description>
	<Style><LineStyle><color>ff0000ff</color></LineStyle><PolyStyle><fill>0</fill></PolyStyle></Style>
	<ExtendedData><SchemaData schemaUrl="#task_grid_v6_45.71_59.96">
		<SimpleData name="area_ha">437</SimpleData>
		<SimpleData name="low_risk_ha">0.1</SimpleData>
	</SchemaData></ExtendedData>
      <MultiGeometry><Polygon><outerBoundaryIs><LinearRing><coordinates>59.9172701246584,45.6955018725918 59.9172701246584,45.6981968184442 59.9240074892893,45.6995442913704 59.9253549622155,45.6981968184442 59.921312543437,45.6941543996656 59.9172701246584,45.6955018725918</coordinates></LinearRing></outerBoundaryIs></Polygon><Polygon><outerBoundaryIs><LinearRing><coordinates>59.921312543437,45.7130190206322 59.9226600163632,45.7062816560013 59.9236224970247,45.7060891598689 59.9226600163632,45.7089766018536 59.9293973809941,45.7103240747798 59.9293973809941,45.7049341830751 59.9293973809941,45.7022392372227 59.9105327600275,45.7022392372227 59.9102213862645,45.7025506109857 59.9102213862645,45.7046228093121 59.9132277058799,45.7076291289274 59.9159226517323,45.7049341830751 59.921312543437,45.7130190206322</coordinates></LinearRing></outerBoundaryIs></Polygon><Polygon><outerBoundaryIs><LinearRing><coordinates>59.9307448539202,45.7089766018536 59.9347872726988,45.7103240747798 59.9361347456249,45.7089766018536 59.9374822185511,45.7103240747798 59.9428721102558,45.7103240747798 59.9455670561082,45.7130190206322 59.9509569478129,45.7130190206322 59.9536518936653,45.7103240747798 59.9563468395176,45.7157139664845 59.95904178537,45.7130190206322 59.9679192540601,45.7117508108193 59.9698215687794,45.7130190206322 59.9725165146318,45.7103240747798 59.9806013521889,45.7157139664845 59.9859912438936,45.7157139664845 59.9846437709674,45.7170614394107 59.9913811355983,45.7184089123369 59.9913811355983,45.7157139664845 59.9985676578712,45.719307227621 59.9940760814507,45.7184089123369 59.9927286085245,45.719756385263 59.996771027303,45.7237988040416 60.0003642884395,45.7202055429051 60.0021609190077,45.7211038581892 60.0048558648601,45.7184089123369 60.0102213862645,45.7176424092791 60.0102213862645,45.7146213659634 60.0075508107125,45.7130190206322 59.9994659731554,45.7130190206322 59.996771027303,45.7103240747798 59.9886861897459,45.7103240747798 59.9859912438936,45.7076291289274 59.9698215687794,45.7076291289274 59.9644316770747,45.6995442913704 59.9536518936653,45.6995442913704 59.9509569478129,45.696849345518 59.9388296914773,45.6981968184442 59.9428721102558,45.7022392372227 59.9482620019606,45.7022392372227 59.9509569478129,45.7049341830751 59.9563468395176,45.7022392372227 59.9576943124438,45.7035867101489 59.9549993665915,45.7062816560013 59.95904178537,45.7103240747798 59.9563468395176,45.7076291289274 59.9428721102558,45.7076291289274 59.9401771644035,45.7049341830751 59.9388296914773,45.7062816560013 59.9320923268464,45.7049341830751 59.9307448539202,45.7089766018536</coordinates></LinearRing></outerBoundaryIs></Polygon><Polygon><outerBoundaryIs><LinearRing><coordinates>59.9186175975846,45.7157139664845 59.9132277058799,45.7157139664845 59.9132277058799,45.7130190206322 59.9199650705108,45.711671547706 59.9105327600275,45.7076291289274 59.9102213862645,45.70769140368 59.9102213862645,45.7168520435218 59.9105327600275,45.7184089123369 59.921312543437,45.7184089123369 59.9253549622155,45.7143664935583 59.921312543437,45.7130190206322 59.9186175975846,45.7157139664845</coordinates></LinearRing></outerBoundaryIs></Polygon><Polygon><outerBoundaryIs><LinearRing><coordinates>59.9240074892893,45.7211038581892 59.9280499080679,45.719756385263 59.9267024351417,45.7157139664845 59.9226600163632,45.7170614394107 59.9240074892893,45.7211038581892</coordinates></LinearRing></outerBoundaryIs></Polygon><Polygon><outerBoundaryIs><LinearRing><coordinates>59.9105327600275,45.7237988040416 59.9102213862645,45.7247329253306 59.9102213862645,45.728462882318 59.9159226517323,45.7318836415987 59.9172701246584,45.7278412228201 59.9105327600275,45.7237988040416</coordinates></LinearRing></outerBoundaryIs></Polygon><Polygon><outerBoundaryIs><LinearRing><coordinates>59.9172701246584,45.7305361686725 59.9186175975846,45.7318836415987 59.9240074892893,45.7291886957463 59.9240074892893,45.7264937498939 59.9186175975846,45.7264937498939 59.9172701246584,45.7305361686725</coordinates></LinearRing></outerBoundaryIs></Polygon><Polygon><outerBoundaryIs><LinearRing><coordinates>59.9253549622155,45.7305361686725 59.9267024351417,45.7372735333034 59.9293973809941,45.734578587451 59.9388296914773,45.7332311145248 59.9347872726988,45.7318836415987 59.9320923268464,45.7264937498939 59.9253549622155,45.7305361686725</coordinates></LinearRing></outerBoundaryIs></Polygon><Polygon><outerBoundaryIs><LinearRing><coordinates>59.9238002694567,45.7625641451378 59.9365141046374,45.7625641451378 59.9347872726988,45.7615280459746 59.9240074892893,45.7615280459746 59.9238002694567,45.7625641451378</coordinates></LinearRing></outerBoundaryIs></Polygon><Polygon><outerBoundaryIs><LinearRing><coordinates>59.9455670561082,45.7211038581892 59.9347872726988,45.7211038581892 59.9334397997726,45.7251462769678 59.9374822185511,45.7264937498939 59.9401771644035,45.7237988040416 59.9455670561082,45.7264937498939 59.9455670561082,45.7211038581892</coordinates></LinearRing></outerBoundaryIs></Polygon><Polygon><outerBoundaryIs><LinearRing><coordinates>60.0008134460816,45.7224513311154 60.0048558648601,45.7264937498939 60.0102213862645,45.7254206456131 60.0102213862645,45.7243231710319 60.0048558648601,45.7211038581892 60.0008134460816,45.7224513311154</coordinates></LinearRing></outerBoundaryIs></Polygon><Polygon><outerBoundaryIs><LinearRing><coordinates>59.9401771644035,45.7264937498939 59.9388296914773,45.7305361686725 59.9401771644035,45.7318836415987 59.9455670561082,45.7291886957463 59.9455670561082,45.7264937498939 59.9401771644035,45.7264937498939</coordinates></LinearRing></outerBoundaryIs></Polygon><Polygon><outerBoundaryIs><LinearRing><coordinates>59.9644316770747,45.7372735333034 59.9644316770747,45.7318836415987 59.9563468395176,45.7318836415987 59.9549993665915,45.7332311145248 59.9644316770747,45.7372735333034</coordinates></LinearRing></outerBoundaryIs></Polygon><Polygon><outerBoundaryIs><LinearRing><coordinates>59.9806013521889,45.7372735333034 59.9792538792627,45.7386210062296 59.9859912438936,45.7426634250081 59.9886861897459,45.7399684791557 59.9940760814507,45.7399684791557 59.9940760814507,45.7372735333034 59.9806013521889,45.7372735333034</coordinates></LinearRing></outerBoundaryIs></Polygon></MultiGeometry>
  </Placemark>
</Folder>
</Document></kml>
