<?xml version="1.0" encoding="utf-8" ?>
<kml xmlns="http://www.opengis.net/kml/2.2">
<Document id="root_doc">
<Schema name="task_grid_v6_45.78_61.18" id="task_grid_v6_45.78_61.18">
	<SimpleField name="area_ha" type="float"></SimpleField>
	<SimpleField name="low_risk_ha" type="float"></SimpleField>
	<SimpleField name="moderate_risk_ha" type="float"></SimpleField>
	<SimpleField name="grid_cell_deg" type="string"></SimpleField>
</Schema>
<Folder><name>task_grid_v6_45.78_61.18</name>
  <Placemark id="task_grid_v6_45.78_61.18.1">
	<name>task_grid_v6_45.78_61.18</name>
	<name>253.7</name>
	<description>868.8</description>
	<Style><LineStyle><color>ff0000ff</color></LineStyle><PolyStyle><fill>0</fill></PolyStyle></Style>
	<ExtendedData><SchemaData schemaUrl="#task_grid_v6_45.78_61.18">
		<SimpleData name="area_ha">615.1</SimpleData>
		<SimpleData name="low_risk_ha">0.1</SimpleData>
	</SchemaData></ExtendedData>
      <MultiGeometry><Polygon><outerBoundaryIs><LinearRing><coordinates>61.1472890768846,45.7343547580755 61.1555977438172,45.7426634250081 61.1582926896696,45.7426634250081 61.1596401625957,45.7413159520819 61.1566567937358,45.7343547580755 61.1472890768846,45.7343547580755</coordinates></LinearRing></outerBoundaryIs></Polygon><Polygon><outerBoundaryIs><LinearRing><coordinates>61.1717674189314,45.7480533167128 61.1731148918575,45.7467058437866 61.169072473079,45.7426634250081 61.1650300543005,45.7467058437866 61.1717674189314,45.7480533167128</coordinates></LinearRing></outerBoundaryIs></Polygon><Polygon><outerBoundaryIs><LinearRing><coordinates>61.1758098377099,45.7440108979343 61.1825472023408,45.7480533167128 61.1825472023408,45.7426634250081 61.1771573106361,45.7426634250081 61.1758098377099,45.7440108979343</coordinates></LinearRing></outerBoundaryIs></Polygon><Polygon><outerBoundaryIs><LinearRing><coordinates>61.1529027979648,45.7561381542699 61.1609876355219,45.7507482625652 61.1636825813743,45.7534432084175 61.1650300543005,45.7520957354914 61.1636825813743,45.7480533167128 61.1582926896696,45.7480533167128 61.1555977438172,45.7453583708605 61.1434704874816,45.7547906813437 61.1434704874816,45.7601805730484 61.1407755416292,45.7628755189008 61.1421230145554,45.764222991827 61.1461654333339,45.7628755189008 61.1502078521125,45.7534432084175 61.1529027979648,45.7561381542699</coordinates></LinearRing></outerBoundaryIs></Polygon><Polygon><outerBoundaryIs><LinearRing><coordinates>61.1609876355219,45.7669179376793 61.1609876355219,45.764222991827 61.1555977438172,45.764222991827 61.154250270891,45.7655704647531 61.1609876355219,45.7669179376793</coordinates></LinearRing></outerBoundaryIs></Polygon><Polygon><outerBoundaryIs><LinearRing><coordinates>61.139428068703,45.7803926669411 61.1407755416292,45.7763502481626 61.1367331228507,45.772307829384 61.1353856499245,45.7763502481626 61.139428068703,45.7803926669411</coordinates></LinearRing></outerBoundaryIs></Polygon><Polygon><outerBoundaryIs><LinearRing><coordinates>61.1623351084481,45.7736553023102 61.169072473079,45.7803926669411 61.1717674189314,45.7803926669411 61.1731148918575,45.7790451940149 61.169072473079,45.772307829384 61.1623351084481,45.7736553023102</coordinates></LinearRing></outerBoundaryIs></Polygon><Polygon><outerBoundaryIs><LinearRing><coordinates>61.131343231146,45.8181219088741 61.131343231146,45.8154269630218 61.1263910613787,45.8154269630218 61.1263910613787,45.8171314749207 61.131343231146,45.8181219088741</coordinates></LinearRing></outerBoundaryIs></Polygon><Polygon><outerBoundaryIs><LinearRing><coordinates>61.1286482852936,45.8315966381359 61.131343231146,45.8342915839883 61.131343231146,45.8289016922836 61.1263910613787,45.8289016922836 61.1263910613787,45.8338538620509 61.1286482852936,45.8315966381359</coordinates></LinearRing></outerBoundaryIs></Polygon><Polygon><outerBoundaryIs><LinearRing><coordinates>61.1380805957769,45.8302491652098 61.1475129062601,45.8342915839883 61.1488603791863,45.8329441110621 61.1448179604078,45.8289016922836 61.139428068703,45.8289016922836 61.1380805957769,45.8302491652098</coordinates></LinearRing></outerBoundaryIs></Polygon><Polygon><outerBoundaryIs><LinearRing><coordinates>61.1340291521287,45.8343547580755 61.1340652516071,45.8343547580755 61.1340381769983,45.8342915839883 61.1340291521287,45.8343547580755</coordinates></LinearRing></outerBoundaryIs></Polygon><Polygon><outerBoundaryIs><LinearRing><coordinates>61.2135390796429,45.7413159520819 61.206801715012,45.7399684791557 61.2014118233073,45.734578587451 61.191979512824,45.7359260603772 61.1960219316026,45.7372735333034 61.1987168774549,45.7426634250081 61.2041067691597,45.7426634250081 61.206801715012,45.7453583708605 61.2135390796429,45.7413159520819</coordinates></LinearRing></outerBoundaryIs></Polygon><Polygon><outerBoundaryIs><LinearRing><coordinates>61.2054542420858,45.7628755189008 61.206801715012,45.7669179376793 61.2256663359785,45.7669179376793 61.2263910613787,45.7664831024392 61.2263910613787,45.7544220487461 61.2175814984214,45.7534432084175 61.2094966608644,45.7588331001222 61.2041067691597,45.7588331001222 61.2014118233073,45.7534432084175 61.2000643503811,45.7601805730484 61.2054542420858,45.7628755189008</coordinates></LinearRing></outerBoundaryIs><innerBoundaryIs><LinearRing><coordinates>61.2135390796429,45.7601805730484 61.2148865525691,45.7588331001222 61.2175814984214,45.7588331001222 61.2175814984214,45.7615280459746 61.2135390796429,45.7601805730484</coordinates></LinearRing></innerBoundaryIs></Polygon><Polygon><outerBoundaryIs><LinearRing><coordinates>61.1798522564884,45.7884775044982 61.183894675267,45.7844350857197 61.1798522564884,45.7830876127935 61.1758098377099,45.787130031572 61.1798522564884,45.7884775044982</coordinates></LinearRing></outerBoundaryIs></Polygon><Polygon><outerBoundaryIs><LinearRing><coordinates>61.1906320398979,45.7911724503506 61.1906320398979,45.7857825586458 61.1879370940455,45.7884775044982 61.183894675267,45.7898249774244 61.1906320398979,45.7911724503506</coordinates></LinearRing></outerBoundaryIs></Polygon><Polygon><outerBoundaryIs><LinearRing><coordinates>61.2041067691597,45.8154269630218 61.2081491879382,45.8140794900956 61.206801715012,45.8100370713171 61.2027592962335,45.8113845442432 61.2041067691597,45.8154269630218</coordinates></LinearRing></outerBoundaryIs></Polygon><Polygon><outerBoundaryIs><LinearRing><coordinates>61.1946744586764,45.816774435948 61.1933269857502,45.8127320171694 61.1892845669717,45.8140794900956 61.1933269857502,45.8181219088741 61.1946744586764,45.816774435948</coordinates></LinearRing></outerBoundaryIs></Polygon><Polygon><outerBoundaryIs><LinearRing><coordinates>61.2027592962335,45.8221643276527 61.2014118233073,45.8154269630218 61.1973694045288,45.8221643276527 61.1987168774549,45.8235118005789 61.2027592962335,45.8221643276527</coordinates></LinearRing></outerBoundaryIs></Polygon><Polygon><outerBoundaryIs><LinearRing><coordinates>61.1825472023408,45.8315966381359 61.1798522564884,45.8289016922836 61.1785047835622,45.8302491652098 61.1798522564884,45.8342915839883 61.1801681269245,45.8343547580755 61.1966640810221,45.8343547580755 61.1973694045288,45.8329441110621 61.1973694045288,45.824859273505 61.1906320398979,45.8208168547265 61.1887663081539,45.8233044970518 61.1879370940455,45.8208168547265 61.183894675267,45.8221643276527 61.1871671095163,45.825436761902 61.1825472023408,45.8315966381359</coordinates></LinearRing></outerBoundaryIs><innerBoundaryIs><LinearRing><coordinates>61.1933269857502,45.8315966381359 61.191979512824,45.8302491652098 61.1946744586764,45.8302491652098 61.1933269857502,45.8315966381359</coordinates></LinearRing></innerBoundaryIs></Polygon><Polygon><outerBoundaryIs><LinearRing><coordinates>61.2148865525691,45.8342915839883 61.2121916067167,45.8315966381359 61.2054542420858,45.8329441110621 61.2060588050916,45.8343547580755 61.2192363703852,45.8343547580755 61.2175814984214,45.8315966381359 61.2148865525691,45.8342915839883</coordinates></LinearRing></outerBoundaryIs></Polygon></MultiGeometry>
  </Placemark>
</Folder>
</Document></kml>
